<gpx xmlns:ns3="http://www.garmin.com/xmlschemas/TrackPointExtension/v1" xmlns="http://www.topografix.com/GPX/1/1" xmlns:xsi="http://www.w3.org/2001/XMLSchema-instance" xmlns:ns2="http://www.garmin.com/xmlschemas/GpxExtensions/v3" creator="Garmin Connect" version="1.1" xsi:schemaLocation="http://www.topografix.com/GPX/1/1 http://www.topografix.com/GPX/11.xsd">
  <extensions>
<distance>2579.14</distance>
<average_hr>109.0</average_hr>
<average_speed>1.7610000371932983</average_speed>
<start_time>2020-08-21T23:02:26+00:00</start_time>
<end_time>2020-08-21T23:26:50.537000+00:00</end_time>
<moving_time>1027.0</moving_time>
<elapsed_time>1464.537</elapsed_time>
</extensions>
<metadata>
    <link href="connect.garmin.com">
      <text>Garmin Connect</text>
    </link>
    <time>2020-08-21T23:02:26.000Z</time>
  </metadata>
  <trk>
    <name>常州市 自行车</name>
    <type>cycling</type>
    <trkseg>
      <trkpt lat="31.418598107993602752685546875" lon="119.47633738629519939422607421875">
        <ele>9</ele>
        <time>2020-08-21T23:02:26.000Z</time>
        <extensions>
          <ns3:TrackPointExtension>
            <ns3:atemp>32.0</ns3:atemp>
            <ns3:hr>97</ns3:hr>
          </ns3:TrackPointExtension>
        </extensions>
      </trkpt>
      <trkpt lat="31.4186038076877593994140625" lon="119.4763443432748317718505859375">
        <ele>9.3999996185302734375</ele>
        <time>2020-08-21T23:02:27.000Z</time>
        <extensions>
          <ns3:TrackPointExtension>
            <ns3:atemp>32.0</ns3:atemp>
            <ns3:hr>97</ns3:hr>
          </ns3:TrackPointExtension>
        </extensions>
      </trkpt>
      <trkpt lat="31.41863088123500347137451171875" lon="119.4763755239546298980712890625">
        <ele>9.3999996185302734375</ele>
        <time>2020-08-21T23:02:29.000Z</time>
        <extensions>
          <ns3:TrackPointExtension>
            <ns3:atemp>32.0</ns3:atemp>
            <ns3:hr>97</ns3:hr>
          </ns3:TrackPointExtension>
        </extensions>
      </trkpt>
      <trkpt lat="31.41866658814251422882080078125" lon="119.47639949619770050048828125">
        <ele>9.80000019073486328125</ele>
        <time>2020-08-21T23:02:31.000Z</time>
        <extensions>
          <ns3:TrackPointExtension>
            <ns3:atemp>32.0</ns3:atemp>
            <ns3:hr>95</ns3:hr>
          </ns3:TrackPointExtension>
        </extensions>
      </trkpt>
      <trkpt lat="31.4187930710613727569580078125" lon="119.476440064609050750732421875">
        <ele>9.80000019073486328125</ele>
        <time>2020-08-21T23:02:37.000Z</time>
        <extensions>
          <ns3:TrackPointExtension>
            <ns3:atemp>32.0</ns3:atemp>
            <ns3:hr>94</ns3:hr>
          </ns3:TrackPointExtension>
        </extensions>
      </trkpt>
      <trkpt lat="31.418980322778224945068359375" lon="119.476511813700199127197265625">
        <ele>10.19999980926513671875</ele>
        <time>2020-08-21T23:02:44.000Z</time>
        <extensions>
          <ns3:TrackPointExtension>
            <ns3:atemp>32.0</ns3:atemp>
            <ns3:hr>96</ns3:hr>
          </ns3:TrackPointExtension>
        </extensions>
      </trkpt>
      <trkpt lat="31.4190731942653656005859375" lon="119.47653830051422119140625">
        <ele>10.19999980926513671875</ele>
        <time>2020-08-21T23:02:48.000Z</time>
        <extensions>
          <ns3:TrackPointExtension>
            <ns3:atemp>32.0</ns3:atemp>
            <ns3:hr>99</ns3:hr>
          </ns3:TrackPointExtension>
        </extensions>
      </trkpt>
      <trkpt lat="31.41914553008973598480224609375" lon="119.47655682452023029327392578125">
        <ele>9.80000019073486328125</ele>
        <time>2020-08-21T23:02:51.000Z</time>
        <extensions>
          <ns3:TrackPointExtension>
            <ns3:atemp>32.0</ns3:atemp>
            <ns3:hr>100</ns3:hr>
          </ns3:TrackPointExtension>
        </extensions>
      </trkpt>
      <trkpt lat="31.419162042438983917236328125" lon="119.4765800423920154571533203125">
        <ele>9.80000019073486328125</ele>
        <time>2020-08-21T23:02:52.000Z</time>
        <extensions>
          <ns3:TrackPointExtension>
            <ns3:atemp>32.0</ns3:atemp>
            <ns3:hr>99</ns3:hr>
          </ns3:TrackPointExtension>
        </extensions>
      </trkpt>
      <trkpt lat="31.41917176544666290283203125" lon="119.47663511149585247039794921875">
        <ele>9.80000019073486328125</ele>
        <time>2020-08-21T23:02:54.000Z</time>
        <extensions>
          <ns3:TrackPointExtension>
            <ns3:atemp>32.0</ns3:atemp>
            <ns3:hr>98</ns3:hr>
          </ns3:TrackPointExtension>
        </extensions>
      </trkpt>
      <trkpt lat="31.41915994696319103240966796875" lon="119.47671742178499698638916015625">
        <ele>10.19999980926513671875</ele>
        <time>2020-08-21T23:03:00.000Z</time>
        <extensions>
          <ns3:TrackPointExtension>
            <ns3:atemp>32.0</ns3:atemp>
            <ns3:hr>99</ns3:hr>
          </ns3:TrackPointExtension>
        </extensions>
      </trkpt>
      <trkpt lat="31.41915307380259037017822265625" lon="119.4767356105148792266845703125">
        <ele>10.19999980926513671875</ele>
        <time>2020-08-21T23:03:03.000Z</time>
        <extensions>
          <ns3:TrackPointExtension>
            <ns3:atemp>32.0</ns3:atemp>
            <ns3:hr>98</ns3:hr>
          </ns3:TrackPointExtension>
        </extensions>
      </trkpt>
      <trkpt lat="31.41914787702262401580810546875" lon="119.47675581090152263641357421875">
        <ele>10.3999996185302734375</ele>
        <time>2020-08-21T23:03:05.000Z</time>
        <extensions>
          <ns3:TrackPointExtension>
            <ns3:atemp>32.0</ns3:atemp>
            <ns3:hr>98</ns3:hr>
          </ns3:TrackPointExtension>
        </extensions>
      </trkpt>
      <trkpt lat="31.419153325259685516357421875" lon="119.47677240706980228424072265625">
        <ele>10.3999996185302734375</ele>
        <time>2020-08-21T23:03:06.000Z</time>
        <extensions>
          <ns3:TrackPointExtension>
            <ns3:atemp>32.0</ns3:atemp>
            <ns3:hr>98</ns3:hr>
          </ns3:TrackPointExtension>
        </extensions>
      </trkpt>
      <trkpt lat="31.4191860146820545196533203125" lon="119.476825632154941558837890625">
        <ele>10</ele>
        <time>2020-08-21T23:03:09.000Z</time>
        <extensions>
          <ns3:TrackPointExtension>
            <ns3:atemp>32.0</ns3:atemp>
            <ns3:hr>99</ns3:hr>
          </ns3:TrackPointExtension>
        </extensions>
      </trkpt>
      <trkpt lat="31.41920663416385650634765625" lon="119.47683678008615970611572265625">
        <ele>10</ele>
        <time>2020-08-21T23:03:10.000Z</time>
        <extensions>
          <ns3:TrackPointExtension>
            <ns3:atemp>32.0</ns3:atemp>
            <ns3:hr>101</ns3:hr>
          </ns3:TrackPointExtension>
        </extensions>
      </trkpt>
      <trkpt lat="31.41940771602094173431396484375" lon="119.47691322304308414459228515625">
        <ele>9.80000019073486328125</ele>
        <time>2020-08-21T23:03:18.000Z</time>
        <extensions>
          <ns3:TrackPointExtension>
            <ns3:atemp>32.0</ns3:atemp>
            <ns3:hr>102</ns3:hr>
          </ns3:TrackPointExtension>
        </extensions>
      </trkpt>
      <trkpt lat="31.41951533965766429901123046875" lon="119.4769374467432498931884765625">
        <ele>10</ele>
        <time>2020-08-21T23:03:22.000Z</time>
        <extensions>
          <ns3:TrackPointExtension>
            <ns3:atemp>32.0</ns3:atemp>
            <ns3:hr>105</ns3:hr>
          </ns3:TrackPointExtension>
        </extensions>
      </trkpt>
      <trkpt lat="31.41961994580924510955810546875" lon="119.47696410119533538818359375">
        <ele>10.19999980926513671875</ele>
        <time>2020-08-21T23:03:26.000Z</time>
        <extensions>
          <ns3:TrackPointExtension>
            <ns3:atemp>32.0</ns3:atemp>
            <ns3:hr>107</ns3:hr>
          </ns3:TrackPointExtension>
        </extensions>
      </trkpt>
      <trkpt lat="31.41977266408503055572509765625" lon="119.47701011784374713897705078125">
        <ele>10.3999996185302734375</ele>
        <time>2020-08-21T23:03:32.000Z</time>
        <extensions>
          <ns3:TrackPointExtension>
            <ns3:atemp>32.0</ns3:atemp>
            <ns3:hr>110</ns3:hr>
          </ns3:TrackPointExtension>
        </extensions>
      </trkpt>
      <trkpt lat="31.41989084891974925994873046875" lon="119.4770484231412410736083984375">
        <ele>10.3999996185302734375</ele>
        <time>2020-08-21T23:03:37.000Z</time>
        <extensions>
          <ns3:TrackPointExtension>
            <ns3:atemp>32.0</ns3:atemp>
            <ns3:hr>111</ns3:hr>
          </ns3:TrackPointExtension>
        </extensions>
      </trkpt>
      <trkpt lat="31.4199182577431201934814453125" lon="119.47705722413957118988037109375">
        <ele>10.80000019073486328125</ele>
        <time>2020-08-21T23:03:41.000Z</time>
        <extensions>
          <ns3:TrackPointExtension>
            <ns3:atemp>32.0</ns3:atemp>
            <ns3:hr>111</ns3:hr>
          </ns3:TrackPointExtension>
        </extensions>
      </trkpt>
      <trkpt lat="31.41991130076348781585693359375" lon="119.477060325443744659423828125">
        <ele>10.3999996185302734375</ele>
        <time>2020-08-21T23:03:51.000Z</time>
        <extensions>
          <ns3:TrackPointExtension>
            <ns3:atemp>32.0</ns3:atemp>
            <ns3:hr>113</ns3:hr>
          </ns3:TrackPointExtension>
        </extensions>
      </trkpt>
      <trkpt lat="31.4199115522205829620361328125" lon="119.477051608264446258544921875">
        <ele>10.6000003814697265625</ele>
        <time>2020-08-21T23:03:59.000Z</time>
        <extensions>
          <ns3:TrackPointExtension>
            <ns3:atemp>32.0</ns3:atemp>
            <ns3:hr>110</ns3:hr>
          </ns3:TrackPointExtension>
        </extensions>
      </trkpt>
      <trkpt lat="31.419915743172168731689453125" lon="119.47704590857028961181640625">
        <ele>10.6000003814697265625</ele>
        <time>2020-08-21T23:04:02.000Z</time>
        <extensions>
          <ns3:TrackPointExtension>
            <ns3:atemp>32.0</ns3:atemp>
            <ns3:hr>107</ns3:hr>
          </ns3:TrackPointExtension>
        </extensions>
      </trkpt>
      <trkpt lat="31.41992186196148395538330078125" lon="119.477048255503177642822265625">
        <ele>10.6000003814697265625</ele>
        <time>2020-08-21T23:04:03.000Z</time>
        <extensions>
          <ns3:TrackPointExtension>
            <ns3:atemp>32.0</ns3:atemp>
            <ns3:hr>106</ns3:hr>
          </ns3:TrackPointExtension>
        </extensions>
      </trkpt>
      <trkpt lat="31.419982127845287322998046875" lon="119.4770799390971660614013671875">
        <ele>10</ele>
        <time>2020-08-21T23:04:07.000Z</time>
        <extensions>
          <ns3:TrackPointExtension>
            <ns3:atemp>32.0</ns3:atemp>
            <ns3:hr>104</ns3:hr>
          </ns3:TrackPointExtension>
        </extensions>
      </trkpt>
      <trkpt lat="31.42014415003359317779541015625" lon="119.4771369360387325286865234375">
        <ele>10.19999980926513671875</ele>
        <time>2020-08-21T23:04:14.000Z</time>
        <extensions>
          <ns3:TrackPointExtension>
            <ns3:atemp>32.0</ns3:atemp>
            <ns3:hr>106</ns3:hr>
          </ns3:TrackPointExtension>
        </extensions>
      </trkpt>
      <trkpt lat="31.42044447362422943115234375" lon="119.4772284664213657379150390625">
        <ele>10.19999980926513671875</ele>
        <time>2020-08-21T23:04:24.000Z</time>
        <extensions>
          <ns3:TrackPointExtension>
            <ns3:atemp>32.0</ns3:atemp>
            <ns3:hr>104</ns3:hr>
          </ns3:TrackPointExtension>
        </extensions>
      </trkpt>
      <trkpt lat="31.42069257795810699462890625" lon="119.47728320024907588958740234375">
        <ele>10.3999996185302734375</ele>
        <time>2020-08-21T23:04:33.000Z</time>
        <extensions>
          <ns3:TrackPointExtension>
            <ns3:atemp>32.0</ns3:atemp>
            <ns3:hr>102</ns3:hr>
          </ns3:TrackPointExtension>
        </extensions>
      </trkpt>
      <trkpt lat="31.42085443250834941864013671875" lon="119.47729627601802349090576171875">
        <ele>10.19999980926513671875</ele>
        <time>2020-08-21T23:04:39.000Z</time>
        <extensions>
          <ns3:TrackPointExtension>
            <ns3:atemp>32.0</ns3:atemp>
            <ns3:hr>103</ns3:hr>
          </ns3:TrackPointExtension>
        </extensions>
      </trkpt>
      <trkpt lat="31.42103196121752262115478515625" lon="119.4773783348500728607177734375">
        <ele>10.3999996185302734375</ele>
        <time>2020-08-21T23:04:45.000Z</time>
        <extensions>
          <ns3:TrackPointExtension>
            <ns3:atemp>32.0</ns3:atemp>
            <ns3:hr>105</ns3:hr>
          </ns3:TrackPointExtension>
        </extensions>
      </trkpt>
      <trkpt lat="31.4212726056575775146484375" lon="119.47742368094623088836669921875">
        <ele>9.80000019073486328125</ele>
        <time>2020-08-21T23:04:53.000Z</time>
        <extensions>
          <ns3:TrackPointExtension>
            <ns3:atemp>32.0</ns3:atemp>
            <ns3:hr>108</ns3:hr>
          </ns3:TrackPointExtension>
        </extensions>
      </trkpt>
      <trkpt lat="31.4214320294559001922607421875" lon="119.477492161095142364501953125">
        <ele>10</ele>
        <time>2020-08-21T23:04:58.000Z</time>
        <extensions>
          <ns3:TrackPointExtension>
            <ns3:atemp>32.0</ns3:atemp>
            <ns3:hr>111</ns3:hr>
          </ns3:TrackPointExtension>
        </extensions>
      </trkpt>
      <trkpt lat="31.421524398028850555419921875" lon="119.47752828709781169891357421875">
        <ele>10</ele>
        <time>2020-08-21T23:05:01.000Z</time>
        <extensions>
          <ns3:TrackPointExtension>
            <ns3:atemp>32.0</ns3:atemp>
            <ns3:hr>113</ns3:hr>
          </ns3:TrackPointExtension>
        </extensions>
      </trkpt>
      <trkpt lat="31.4216472767293453216552734375" lon="119.47757371701300144195556640625">
        <ele>10</ele>
        <time>2020-08-21T23:05:05.000Z</time>
        <extensions>
          <ns3:TrackPointExtension>
            <ns3:atemp>32.0</ns3:atemp>
            <ns3:hr>110</ns3:hr>
          </ns3:TrackPointExtension>
        </extensions>
      </trkpt>
      <trkpt lat="31.42173788510262966156005859375" lon="119.4776098430156707763671875">
        <ele>10.19999980926513671875</ele>
        <time>2020-08-21T23:05:08.000Z</time>
        <extensions>
          <ns3:TrackPointExtension>
            <ns3:atemp>32.0</ns3:atemp>
            <ns3:hr>110</ns3:hr>
          </ns3:TrackPointExtension>
        </extensions>
      </trkpt>
      <trkpt lat="31.42203259281814098358154296875" lon="119.4776831008493900299072265625">
        <ele>10</ele>
        <time>2020-08-21T23:05:17.000Z</time>
        <extensions>
          <ns3:TrackPointExtension>
            <ns3:atemp>32.0</ns3:atemp>
            <ns3:hr>111</ns3:hr>
          </ns3:TrackPointExtension>
        </extensions>
      </trkpt>
      <trkpt lat="31.4223372749984264373779296875" lon="119.4777719490230083465576171875">
        <ele>9.3999996185302734375</ele>
        <time>2020-08-21T23:05:26.000Z</time>
        <extensions>
          <ns3:TrackPointExtension>
            <ns3:atemp>32.0</ns3:atemp>
            <ns3:hr>110</ns3:hr>
          </ns3:TrackPointExtension>
        </extensions>
      </trkpt>
      <trkpt lat="31.42260809428989887237548828125" lon="119.47786037810146808624267578125">
        <ele>9.80000019073486328125</ele>
        <time>2020-08-21T23:05:35.000Z</time>
        <extensions>
          <ns3:TrackPointExtension>
            <ns3:atemp>31.0</ns3:atemp>
            <ns3:hr>111</ns3:hr>
          </ns3:TrackPointExtension>
        </extensions>
      </trkpt>
      <trkpt lat="31.42268839292228221893310546875" lon="119.47801477275788784027099609375">
        <ele>9.3999996185302734375</ele>
        <time>2020-08-21T23:05:40.000Z</time>
        <extensions>
          <ns3:TrackPointExtension>
            <ns3:atemp>31.0</ns3:atemp>
            <ns3:hr>111</ns3:hr>
          </ns3:TrackPointExtension>
        </extensions>
      </trkpt>
      <trkpt lat="31.4226754009723663330078125" lon="119.478206969797611236572265625">
        <ele>9.3999996185302734375</ele>
        <time>2020-08-21T23:05:45.000Z</time>
        <extensions>
          <ns3:TrackPointExtension>
            <ns3:atemp>31.0</ns3:atemp>
            <ns3:hr>112</ns3:hr>
          </ns3:TrackPointExtension>
        </extensions>
      </trkpt>
      <trkpt lat="31.4226279594004154205322265625" lon="119.47851316072046756744384765625">
        <ele>9.6000003814697265625</ele>
        <time>2020-08-21T23:05:53.000Z</time>
        <extensions>
          <ns3:TrackPointExtension>
            <ns3:atemp>31.0</ns3:atemp>
            <ns3:hr>114</ns3:hr>
          </ns3:TrackPointExtension>
        </extensions>
      </trkpt>
      <trkpt lat="31.42258889973163604736328125" lon="119.47881574742496013641357421875">
        <ele>10</ele>
        <time>2020-08-21T23:06:01.000Z</time>
        <extensions>
          <ns3:TrackPointExtension>
            <ns3:atemp>31.0</ns3:atemp>
            <ns3:hr>116</ns3:hr>
          </ns3:TrackPointExtension>
        </extensions>
      </trkpt>
      <trkpt lat="31.422543637454509735107421875" lon="119.47914096526801586151123046875">
        <ele>9.6000003814697265625</ele>
        <time>2020-08-21T23:06:10.000Z</time>
        <extensions>
          <ns3:TrackPointExtension>
            <ns3:atemp>31.0</ns3:atemp>
            <ns3:hr>116</ns3:hr>
          </ns3:TrackPointExtension>
        </extensions>
      </trkpt>
      <trkpt lat="31.42257641069591045379638671875" lon="119.47935453616082668304443359375">
        <ele>9.3999996185302734375</ele>
        <time>2020-08-21T23:06:17.000Z</time>
        <extensions>
          <ns3:TrackPointExtension>
            <ns3:atemp>31.0</ns3:atemp>
            <ns3:hr>115</ns3:hr>
          </ns3:TrackPointExtension>
        </extensions>
      </trkpt>
      <trkpt lat="31.42267531715333461761474609375" lon="119.47944405488669872283935546875">
        <ele>9.3999996185302734375</ele>
        <time>2020-08-21T23:06:22.000Z</time>
        <extensions>
          <ns3:TrackPointExtension>
            <ns3:atemp>31.0</ns3:atemp>
            <ns3:hr>114</ns3:hr>
          </ns3:TrackPointExtension>
        </extensions>
      </trkpt>
      <trkpt lat="31.42289643175899982452392578125" lon="119.47952619753777980804443359375">
        <ele>9.80000019073486328125</ele>
        <time>2020-08-21T23:06:30.000Z</time>
        <extensions>
          <ns3:TrackPointExtension>
            <ns3:atemp>31.0</ns3:atemp>
            <ns3:hr>113</ns3:hr>
          </ns3:TrackPointExtension>
        </extensions>
      </trkpt>
      <trkpt lat="31.423145122826099395751953125" lon="119.4796163029968738555908203125">
        <ele>9.3999996185302734375</ele>
        <time>2020-08-21T23:06:39.000Z</time>
        <extensions>
          <ns3:TrackPointExtension>
            <ns3:atemp>31.0</ns3:atemp>
            <ns3:hr>113</ns3:hr>
          </ns3:TrackPointExtension>
        </extensions>
      </trkpt>
      <trkpt lat="31.4233176223933696746826171875" lon="119.4796964339911937713623046875">
        <ele>9.19999980926513671875</ele>
        <time>2020-08-21T23:06:46.000Z</time>
        <extensions>
          <ns3:TrackPointExtension>
            <ns3:atemp>31.0</ns3:atemp>
            <ns3:hr>111</ns3:hr>
          </ns3:TrackPointExtension>
        </extensions>
      </trkpt>
      <trkpt lat="31.42351157963275909423828125" lon="119.47978980839252471923828125">
        <ele>9.19999980926513671875</ele>
        <time>2020-08-21T23:06:54.000Z</time>
        <extensions>
          <ns3:TrackPointExtension>
            <ns3:atemp>31.0</ns3:atemp>
            <ns3:hr>109</ns3:hr>
          </ns3:TrackPointExtension>
        </extensions>
      </trkpt>
      <trkpt lat="31.42353178001940250396728515625" lon="119.47980263270437717437744140625">
        <ele>9.19999980926513671875</ele>
        <time>2020-08-21T23:06:55.000Z</time>
        <extensions>
          <ns3:TrackPointExtension>
            <ns3:atemp>31.0</ns3:atemp>
            <ns3:hr>109</ns3:hr>
          </ns3:TrackPointExtension>
        </extensions>
      </trkpt>
      <trkpt lat="31.42360051162540912628173828125" lon="119.4798949174582958221435546875">
        <ele>9.3999996185302734375</ele>
        <time>2020-08-21T23:07:00.000Z</time>
        <extensions>
          <ns3:TrackPointExtension>
            <ns3:atemp>31.0</ns3:atemp>
            <ns3:hr>106</ns3:hr>
          </ns3:TrackPointExtension>
        </extensions>
      </trkpt>
      <trkpt lat="31.4236254058778285980224609375" lon="119.47993808425962924957275390625">
        <ele>9.6000003814697265625</ele>
        <time>2020-08-21T23:07:05.000Z</time>
        <extensions>
          <ns3:TrackPointExtension>
            <ns3:atemp>31.0</ns3:atemp>
            <ns3:hr>105</ns3:hr>
          </ns3:TrackPointExtension>
        </extensions>
      </trkpt>
      <trkpt lat="31.4236133359372615814208984375" lon="119.4799686782062053680419921875">
        <ele>9.19999980926513671875</ele>
        <time>2020-08-21T23:07:13.000Z</time>
        <extensions>
          <ns3:TrackPointExtension>
            <ns3:atemp>31.0</ns3:atemp>
            <ns3:hr>108</ns3:hr>
          </ns3:TrackPointExtension>
        </extensions>
      </trkpt>
      <trkpt lat="31.4236079715192317962646484375" lon="119.47996373288333415985107421875">
        <ele>9.19999980926513671875</ele>
        <time>2020-08-21T23:07:22.000Z</time>
        <extensions>
          <ns3:TrackPointExtension>
            <ns3:atemp>31.0</ns3:atemp>
            <ns3:hr>107</ns3:hr>
          </ns3:TrackPointExtension>
        </extensions>
      </trkpt>
      <trkpt lat="31.4236183650791645050048828125" lon="119.479937665164470672607421875">
        <ele>9.19999980926513671875</ele>
        <time>2020-08-21T23:07:27.000Z</time>
        <extensions>
          <ns3:TrackPointExtension>
            <ns3:atemp>32.0</ns3:atemp>
            <ns3:hr>104</ns3:hr>
          </ns3:TrackPointExtension>
        </extensions>
      </trkpt>
      <trkpt lat="31.42361526377499103546142578125" lon="119.4799245893955230712890625">
        <ele>9.19999980926513671875</ele>
        <time>2020-08-21T23:07:30.000Z</time>
        <extensions>
          <ns3:TrackPointExtension>
            <ns3:atemp>32.0</ns3:atemp>
            <ns3:hr>104</ns3:hr>
          </ns3:TrackPointExtension>
        </extensions>
      </trkpt>
      <trkpt lat="31.4236490428447723388671875" lon="119.479845799505710601806640625">
        <ele>9.19999980926513671875</ele>
        <time>2020-08-21T23:07:38.000Z</time>
        <extensions>
          <ns3:TrackPointExtension>
            <ns3:atemp>32.0</ns3:atemp>
            <ns3:hr>103</ns3:hr>
          </ns3:TrackPointExtension>
        </extensions>
      </trkpt>
      <trkpt lat="31.4236517250537872314453125" lon="119.479826353490352630615234375">
        <ele>9.19999980926513671875</ele>
        <time>2020-08-21T23:07:45.000Z</time>
        <extensions>
          <ns3:TrackPointExtension>
            <ns3:atemp>32.0</ns3:atemp>
            <ns3:hr>101</ns3:hr>
          </ns3:TrackPointExtension>
        </extensions>
      </trkpt>
      <trkpt lat="31.4236659742891788482666015625" lon="119.47984403930604457855224609375">
        <ele>9.19999980926513671875</ele>
        <time>2020-08-21T23:07:50.000Z</time>
        <extensions>
          <ns3:TrackPointExtension>
            <ns3:atemp>32.0</ns3:atemp>
            <ns3:hr>99</ns3:hr>
          </ns3:TrackPointExtension>
        </extensions>
      </trkpt>
      <trkpt lat="31.42367125488817691802978515625" lon="119.47982124052941799163818359375">
        <ele>9.19999980926513671875</ele>
        <time>2020-08-21T23:07:51.000Z</time>
        <extensions>
          <ns3:TrackPointExtension>
            <ns3:atemp>32.0</ns3:atemp>
            <ns3:hr>99</ns3:hr>
          </ns3:TrackPointExtension>
        </extensions>
      </trkpt>
      <trkpt lat="31.42369329929351806640625" lon="119.47982065379619598388671875">
        <ele>9.19999980926513671875</ele>
        <time>2020-08-21T23:07:53.000Z</time>
        <extensions>
          <ns3:TrackPointExtension>
            <ns3:atemp>32.0</ns3:atemp>
            <ns3:hr>99</ns3:hr>
          </ns3:TrackPointExtension>
        </extensions>
      </trkpt>
      <trkpt lat="31.42370729707181453704833984375" lon="119.47983498685061931610107421875">
        <ele>9.19999980926513671875</ele>
        <time>2020-08-21T23:07:54.000Z</time>
        <extensions>
          <ns3:TrackPointExtension>
            <ns3:atemp>32.0</ns3:atemp>
            <ns3:hr>99</ns3:hr>
          </ns3:TrackPointExtension>
        </extensions>
      </trkpt>
      <trkpt lat="31.42384895123541355133056640625" lon="119.47992349974811077117919921875">
        <ele>9</ele>
        <time>2020-08-21T23:08:01.000Z</time>
        <extensions>
          <ns3:TrackPointExtension>
            <ns3:atemp>32.0</ns3:atemp>
            <ns3:hr>98</ns3:hr>
          </ns3:TrackPointExtension>
        </extensions>
      </trkpt>
      <trkpt lat="31.423940397799015045166015625" lon="119.47996683418750762939453125">
        <ele>9.3999996185302734375</ele>
        <time>2020-08-21T23:08:05.000Z</time>
        <extensions>
          <ns3:TrackPointExtension>
            <ns3:atemp>31.0</ns3:atemp>
            <ns3:hr>101</ns3:hr>
          </ns3:TrackPointExtension>
        </extensions>
      </trkpt>
      <trkpt lat="31.424012817442417144775390625" lon="119.4800042174756526947021484375">
        <ele>9.3999996185302734375</ele>
        <time>2020-08-21T23:08:08.000Z</time>
        <extensions>
          <ns3:TrackPointExtension>
            <ns3:atemp>31.0</ns3:atemp>
            <ns3:hr>99</ns3:hr>
          </ns3:TrackPointExtension>
        </extensions>
      </trkpt>
      <trkpt lat="31.4241494424641132354736328125" lon="119.48007336817681789398193359375">
        <ele>9.3999996185302734375</ele>
        <time>2020-08-21T23:08:14.000Z</time>
        <extensions>
          <ns3:TrackPointExtension>
            <ns3:atemp>31.0</ns3:atemp>
            <ns3:hr>99</ns3:hr>
          </ns3:TrackPointExtension>
        </extensions>
      </trkpt>
      <trkpt lat="31.4242359437048435211181640625" lon="119.4801024533808231353759765625">
        <ele>9.3999996185302734375</ele>
        <time>2020-08-21T23:08:18.000Z</time>
        <extensions>
          <ns3:TrackPointExtension>
            <ns3:atemp>31.0</ns3:atemp>
            <ns3:hr>102</ns3:hr>
          </ns3:TrackPointExtension>
        </extensions>
      </trkpt>
      <trkpt lat="31.42434717155992984771728515625" lon="119.4801284372806549072265625">
        <ele>9.3999996185302734375</ele>
        <time>2020-08-21T23:08:23.000Z</time>
        <extensions>
          <ns3:TrackPointExtension>
            <ns3:atemp>31.0</ns3:atemp>
            <ns3:hr>103</ns3:hr>
          </ns3:TrackPointExtension>
        </extensions>
      </trkpt>
      <trkpt lat="31.42447843216359615325927734375" lon="119.4801785610616207122802734375">
        <ele>9</ele>
        <time>2020-08-21T23:08:29.000Z</time>
        <extensions>
          <ns3:TrackPointExtension>
            <ns3:atemp>31.0</ns3:atemp>
            <ns3:hr>104</ns3:hr>
          </ns3:TrackPointExtension>
        </extensions>
      </trkpt>
      <trkpt lat="31.424623690545558929443359375" lon="119.48025894351303577423095703125">
        <ele>9.19999980926513671875</ele>
        <time>2020-08-21T23:08:36.000Z</time>
        <extensions>
          <ns3:TrackPointExtension>
            <ns3:atemp>31.0</ns3:atemp>
            <ns3:hr>101</ns3:hr>
          </ns3:TrackPointExtension>
        </extensions>
      </trkpt>
      <trkpt lat="31.4246456511318683624267578125" lon="119.48027260601520538330078125">
        <ele>9.19999980926513671875</ele>
        <time>2020-08-21T23:08:37.000Z</time>
        <extensions>
          <ns3:TrackPointExtension>
            <ns3:atemp>31.0</ns3:atemp>
            <ns3:hr>101</ns3:hr>
          </ns3:TrackPointExtension>
        </extensions>
      </trkpt>
      <trkpt lat="31.42473625950515270233154296875" lon="119.4803133420646190643310546875">
        <ele>9.19999980926513671875</ele>
        <time>2020-08-21T23:08:41.000Z</time>
        <extensions>
          <ns3:TrackPointExtension>
            <ns3:atemp>31.0</ns3:atemp>
            <ns3:hr>104</ns3:hr>
          </ns3:TrackPointExtension>
        </extensions>
      </trkpt>
      <trkpt lat="31.4247743971645832061767578125" lon="119.48032516054809093475341796875">
        <ele>9.19999980926513671875</ele>
        <time>2020-08-21T23:08:43.000Z</time>
        <extensions>
          <ns3:TrackPointExtension>
            <ns3:atemp>31.0</ns3:atemp>
            <ns3:hr>107</ns3:hr>
          </ns3:TrackPointExtension>
        </extensions>
      </trkpt>
      <trkpt lat="31.4247834496200084686279296875" lon="119.48032868094742298126220703125">
        <ele>9.19999980926513671875</ele>
        <time>2020-08-21T23:08:44.000Z</time>
        <extensions>
          <ns3:TrackPointExtension>
            <ns3:atemp>31.0</ns3:atemp>
            <ns3:hr>108</ns3:hr>
          </ns3:TrackPointExtension>
        </extensions>
      </trkpt>
      <trkpt lat="31.4247663505375385284423828125" lon="119.48035114444792270660400390625">
        <ele>9.3999996185302734375</ele>
        <time>2020-08-21T23:08:50.000Z</time>
        <extensions>
          <ns3:TrackPointExtension>
            <ns3:atemp>31.0</ns3:atemp>
            <ns3:hr>107</ns3:hr>
          </ns3:TrackPointExtension>
        </extensions>
      </trkpt>
      <trkpt lat="31.4247737266123294830322265625" lon="119.4803378172218799591064453125">
        <ele>9.19999980926513671875</ele>
        <time>2020-08-21T23:08:59.000Z</time>
        <extensions>
          <ns3:TrackPointExtension>
            <ns3:atemp>32.0</ns3:atemp>
            <ns3:hr>104</ns3:hr>
          </ns3:TrackPointExtension>
        </extensions>
      </trkpt>
      <trkpt lat="31.42478428781032562255859375" lon="119.480343349277973175048828125">
        <ele>9.19999980926513671875</ele>
        <time>2020-08-21T23:09:10.000Z</time>
        <extensions>
          <ns3:TrackPointExtension>
            <ns3:atemp>32.0</ns3:atemp>
            <ns3:hr>101</ns3:hr>
          </ns3:TrackPointExtension>
        </extensions>
      </trkpt>
      <trkpt lat="31.42478973604738712310791015625" lon="119.480345360934734344482421875">
        <ele>9.19999980926513671875</ele>
        <time>2020-08-21T23:09:20.000Z</time>
        <extensions>
          <ns3:TrackPointExtension>
            <ns3:atemp>32.0</ns3:atemp>
            <ns3:hr>103</ns3:hr>
          </ns3:TrackPointExtension>
        </extensions>
      </trkpt>
      <trkpt lat="31.424781270325183868408203125" lon="119.4803485460579395294189453125">
        <ele>9</ele>
        <time>2020-08-21T23:09:27.000Z</time>
        <extensions>
          <ns3:TrackPointExtension>
            <ns3:atemp>32.0</ns3:atemp>
            <ns3:hr>102</ns3:hr>
          </ns3:TrackPointExtension>
        </extensions>
      </trkpt>
      <trkpt lat="31.4247901551425457000732421875" lon="119.48034812696278095245361328125">
        <ele>8.80000019073486328125</ele>
        <time>2020-08-21T23:09:34.000Z</time>
        <extensions>
          <ns3:TrackPointExtension>
            <ns3:atemp>32.0</ns3:atemp>
            <ns3:hr>101</ns3:hr>
          </ns3:TrackPointExtension>
        </extensions>
      </trkpt>
      <trkpt lat="31.42479023896157741546630859375" lon="119.48034779168665409088134765625">
        <ele>8.6000003814697265625</ele>
        <time>2020-08-21T23:09:44.000Z</time>
        <extensions>
          <ns3:TrackPointExtension>
            <ns3:atemp>32.0</ns3:atemp>
            <ns3:hr>98</ns3:hr>
          </ns3:TrackPointExtension>
        </extensions>
      </trkpt>
      <trkpt lat="31.42481018789112567901611328125" lon="119.4803269207477569580078125">
        <ele>9</ele>
        <time>2020-08-21T23:09:51.000Z</time>
        <extensions>
          <ns3:TrackPointExtension>
            <ns3:atemp>32.0</ns3:atemp>
            <ns3:hr>98</ns3:hr>
          </ns3:TrackPointExtension>
        </extensions>
      </trkpt>
      <trkpt lat="31.42483047209680080413818359375" lon="119.480308480560779571533203125">
        <ele>9</ele>
        <time>2020-08-21T23:09:54.000Z</time>
        <extensions>
          <ns3:TrackPointExtension>
            <ns3:atemp>32.0</ns3:atemp>
            <ns3:hr>103</ns3:hr>
          </ns3:TrackPointExtension>
        </extensions>
      </trkpt>
      <trkpt lat="31.42483131028711795806884765625" lon="119.48030554689466953277587890625">
        <ele>9</ele>
        <time>2020-08-21T23:09:59.000Z</time>
        <extensions>
          <ns3:TrackPointExtension>
            <ns3:atemp>32.0</ns3:atemp>
            <ns3:hr>100</ns3:hr>
          </ns3:TrackPointExtension>
        </extensions>
      </trkpt>
      <trkpt lat="31.424823515117168426513671875" lon="119.4803016074001789093017578125">
        <ele>9</ele>
        <time>2020-08-21T23:10:09.000Z</time>
        <extensions>
          <ns3:TrackPointExtension>
            <ns3:atemp>32.0</ns3:atemp>
            <ns3:hr>99</ns3:hr>
          </ns3:TrackPointExtension>
        </extensions>
      </trkpt>
      <trkpt lat="31.424827538430690765380859375" lon="119.48029029183089733123779296875">
        <ele>9</ele>
        <time>2020-08-21T23:10:12.000Z</time>
        <extensions>
          <ns3:TrackPointExtension>
            <ns3:atemp>32.0</ns3:atemp>
            <ns3:hr>95</ns3:hr>
          </ns3:TrackPointExtension>
        </extensions>
      </trkpt>
      <trkpt lat="31.4248277060687541961669921875" lon="119.48028199374675750732421875">
        <ele>9</ele>
        <time>2020-08-21T23:10:13.000Z</time>
        <extensions>
          <ns3:TrackPointExtension>
            <ns3:atemp>32.0</ns3:atemp>
            <ns3:hr>98</ns3:hr>
          </ns3:TrackPointExtension>
        </extensions>
      </trkpt>
      <trkpt lat="31.4248267002403736114501953125" lon="119.48027168400585651397705078125">
        <ele>9</ele>
        <time>2020-08-21T23:10:16.000Z</time>
        <extensions>
          <ns3:TrackPointExtension>
            <ns3:atemp>32.0</ns3:atemp>
            <ns3:hr>99</ns3:hr>
          </ns3:TrackPointExtension>
        </extensions>
      </trkpt>
      <trkpt lat="31.42483097501099109649658203125" lon="119.4802747853100299835205078125">
        <ele>9</ele>
        <time>2020-08-21T23:10:21.000Z</time>
        <extensions>
          <ns3:TrackPointExtension>
            <ns3:atemp>32.0</ns3:atemp>
            <ns3:hr>95</ns3:hr>
          </ns3:TrackPointExtension>
        </extensions>
      </trkpt>
      <trkpt lat="31.4248307235538959503173828125" lon="119.480284340679645538330078125">
        <ele>9</ele>
        <time>2020-08-21T23:10:23.000Z</time>
        <extensions>
          <ns3:TrackPointExtension>
            <ns3:atemp>32.0</ns3:atemp>
            <ns3:hr>94</ns3:hr>
          </ns3:TrackPointExtension>
        </extensions>
      </trkpt>
      <trkpt lat="31.42483768053352832794189453125" lon="119.48029272258281707763671875">
        <ele>9</ele>
        <time>2020-08-21T23:10:31.000Z</time>
        <extensions>
          <ns3:TrackPointExtension>
            <ns3:atemp>32.0</ns3:atemp>
            <ns3:hr>94</ns3:hr>
          </ns3:TrackPointExtension>
        </extensions>
      </trkpt>
      <trkpt lat="31.42483667470514774322509765625" lon="119.4802979193627834320068359375">
        <ele>9</ele>
        <time>2020-08-21T23:10:38.000Z</time>
        <extensions>
          <ns3:TrackPointExtension>
            <ns3:atemp>32.0</ns3:atemp>
            <ns3:hr>91</ns3:hr>
          </ns3:TrackPointExtension>
        </extensions>
      </trkpt>
      <trkpt lat="31.4248144626617431640625" lon="119.48030336759984493255615234375">
        <ele>9</ele>
        <time>2020-08-21T23:10:44.000Z</time>
        <extensions>
          <ns3:TrackPointExtension>
            <ns3:atemp>32.0</ns3:atemp>
            <ns3:hr>94</ns3:hr>
          </ns3:TrackPointExtension>
        </extensions>
      </trkpt>
      <trkpt lat="31.42481605522334575653076171875" lon="119.480304457247257232666015625">
        <ele>9</ele>
        <time>2020-08-21T23:10:46.000Z</time>
        <extensions>
          <ns3:TrackPointExtension>
            <ns3:atemp>32.0</ns3:atemp>
            <ns3:hr>91</ns3:hr>
          </ns3:TrackPointExtension>
        </extensions>
      </trkpt>
      <trkpt lat="31.4248159714043140411376953125" lon="119.4803049601614475250244140625">
        <ele>9</ele>
        <time>2020-08-21T23:10:47.000Z</time>
        <extensions>
          <ns3:TrackPointExtension>
            <ns3:atemp>32.0</ns3:atemp>
            <ns3:hr>90</ns3:hr>
          </ns3:TrackPointExtension>
        </extensions>
      </trkpt>
      <trkpt lat="31.42481287010014057159423828125" lon="119.48030504398047924041748046875">
        <ele>9</ele>
        <time>2020-08-21T23:10:50.000Z</time>
        <extensions>
          <ns3:TrackPointExtension>
            <ns3:atemp>32.0</ns3:atemp>
            <ns3:hr>93</ns3:hr>
          </ns3:TrackPointExtension>
        </extensions>
      </trkpt>
      <trkpt lat="31.4248126186430454254150390625" lon="119.48030856437981128692626953125">
        <ele>9</ele>
        <time>2020-08-21T23:10:54.000Z</time>
        <extensions>
          <ns3:TrackPointExtension>
            <ns3:atemp>32.0</ns3:atemp>
            <ns3:hr>90</ns3:hr>
          </ns3:TrackPointExtension>
        </extensions>
      </trkpt>
      <trkpt lat="31.42482007853686809539794921875" lon="119.48031225241720676422119140625">
        <ele>9</ele>
        <time>2020-08-21T23:10:57.000Z</time>
        <extensions>
          <ns3:TrackPointExtension>
            <ns3:atemp>32.0</ns3:atemp>
            <ns3:hr>90</ns3:hr>
          </ns3:TrackPointExtension>
        </extensions>
      </trkpt>
      <trkpt lat="31.424856372177600860595703125" lon="119.48034058324992656707763671875">
        <ele>9</ele>
        <time>2020-08-21T23:11:00.000Z</time>
        <extensions>
          <ns3:TrackPointExtension>
            <ns3:atemp>32.0</ns3:atemp>
            <ns3:hr>88</ns3:hr>
          </ns3:TrackPointExtension>
        </extensions>
      </trkpt>
      <trkpt lat="31.42487171106040477752685546875" lon="119.48035147972404956817626953125">
        <ele>9</ele>
        <time>2020-08-21T23:11:01.000Z</time>
        <extensions>
          <ns3:TrackPointExtension>
            <ns3:atemp>32.0</ns3:atemp>
            <ns3:hr>92</ns3:hr>
          </ns3:TrackPointExtension>
        </extensions>
      </trkpt>
      <trkpt lat="31.4249158836901187896728515625" lon="119.480352066457271575927734375">
        <ele>9</ele>
        <time>2020-08-21T23:11:03.000Z</time>
        <extensions>
          <ns3:TrackPointExtension>
            <ns3:atemp>32.0</ns3:atemp>
            <ns3:hr>96</ns3:hr>
          </ns3:TrackPointExtension>
        </extensions>
      </trkpt>
      <trkpt lat="31.42493708990514278411865234375" lon="119.4803592748939990997314453125">
        <ele>9.19999980926513671875</ele>
        <time>2020-08-21T23:11:04.000Z</time>
        <extensions>
          <ns3:TrackPointExtension>
            <ns3:atemp>32.0</ns3:atemp>
            <ns3:hr>99</ns3:hr>
          </ns3:TrackPointExtension>
        </extensions>
      </trkpt>
      <trkpt lat="31.4249581284821033477783203125" lon="119.480362795293331146240234375">
        <ele>9.19999980926513671875</ele>
        <time>2020-08-21T23:11:05.000Z</time>
        <extensions>
          <ns3:TrackPointExtension>
            <ns3:atemp>32.0</ns3:atemp>
            <ns3:hr>102</ns3:hr>
          </ns3:TrackPointExtension>
        </extensions>
      </trkpt>
      <trkpt lat="31.4250530116260051727294921875" lon="119.48038618080317974090576171875">
        <ele>9.6000003814697265625</ele>
        <time>2020-08-21T23:11:09.000Z</time>
        <extensions>
          <ns3:TrackPointExtension>
            <ns3:atemp>32.0</ns3:atemp>
            <ns3:hr>105</ns3:hr>
          </ns3:TrackPointExtension>
        </extensions>
      </trkpt>
      <trkpt lat="31.425119899213314056396484375" lon="119.48040361516177654266357421875">
        <ele>10</ele>
        <time>2020-08-21T23:11:12.000Z</time>
        <extensions>
          <ns3:TrackPointExtension>
            <ns3:atemp>32.0</ns3:atemp>
            <ns3:hr>105</ns3:hr>
          </ns3:TrackPointExtension>
        </extensions>
      </trkpt>
      <trkpt lat="31.42525241710245609283447265625" lon="119.48048559017479419708251953125">
        <ele>9.80000019073486328125</ele>
        <time>2020-08-21T23:11:18.000Z</time>
        <extensions>
          <ns3:TrackPointExtension>
            <ns3:atemp>32.0</ns3:atemp>
            <ns3:hr>102</ns3:hr>
          </ns3:TrackPointExtension>
        </extensions>
      </trkpt>
      <trkpt lat="31.42527370713651180267333984375" lon="119.48050595819950103759765625">
        <ele>9.80000019073486328125</ele>
        <time>2020-08-21T23:11:19.000Z</time>
        <extensions>
          <ns3:TrackPointExtension>
            <ns3:atemp>32.0</ns3:atemp>
            <ns3:hr>101</ns3:hr>
          </ns3:TrackPointExtension>
        </extensions>
      </trkpt>
      <trkpt lat="31.42531192861497402191162109375" lon="119.48065507225692272186279296875">
        <ele>10</ele>
        <time>2020-08-21T23:11:25.000Z</time>
        <extensions>
          <ns3:TrackPointExtension>
            <ns3:atemp>32.0</ns3:atemp>
            <ns3:hr>101</ns3:hr>
          </ns3:TrackPointExtension>
        </extensions>
      </trkpt>
      <trkpt lat="31.4253208972513675689697265625" lon="119.48071642778813838958740234375">
        <ele>10</ele>
        <time>2020-08-21T23:11:27.000Z</time>
        <extensions>
          <ns3:TrackPointExtension>
            <ns3:atemp>32.0</ns3:atemp>
            <ns3:hr>98</ns3:hr>
          </ns3:TrackPointExtension>
        </extensions>
      </trkpt>
      <trkpt lat="31.425332129001617431640625" lon="119.4808124005794525146484375">
        <ele>10</ele>
        <time>2020-08-21T23:11:30.000Z</time>
        <extensions>
          <ns3:TrackPointExtension>
            <ns3:atemp>32.0</ns3:atemp>
            <ns3:hr>101</ns3:hr>
          </ns3:TrackPointExtension>
        </extensions>
      </trkpt>
      <trkpt lat="31.42534092999994754791259765625" lon="119.480848945677280426025390625">
        <ele>10.19999980926513671875</ele>
        <time>2020-08-21T23:11:31.000Z</time>
        <extensions>
          <ns3:TrackPointExtension>
            <ns3:atemp>32.0</ns3:atemp>
            <ns3:hr>102</ns3:hr>
          </ns3:TrackPointExtension>
        </extensions>
      </trkpt>
      <trkpt lat="31.42536775209009647369384765625" lon="119.4809168390929698944091796875">
        <ele>10.3999996185302734375</ele>
        <time>2020-08-21T23:11:33.000Z</time>
        <extensions>
          <ns3:TrackPointExtension>
            <ns3:atemp>32.0</ns3:atemp>
            <ns3:hr>105</ns3:hr>
          </ns3:TrackPointExtension>
        </extensions>
      </trkpt>
      <trkpt lat="31.42545090056955814361572265625" lon="119.48101767338812351226806640625">
        <ele>10</ele>
        <time>2020-08-21T23:11:37.000Z</time>
        <extensions>
          <ns3:TrackPointExtension>
            <ns3:atemp>32.0</ns3:atemp>
            <ns3:hr>107</ns3:hr>
          </ns3:TrackPointExtension>
        </extensions>
      </trkpt>
      <trkpt lat="31.42559926025569438934326171875" lon="119.48112848214805126190185546875">
        <ele>10.3999996185302734375</ele>
        <time>2020-08-21T23:11:44.000Z</time>
        <extensions>
          <ns3:TrackPointExtension>
            <ns3:atemp>32.0</ns3:atemp>
            <ns3:hr>106</ns3:hr>
          </ns3:TrackPointExtension>
        </extensions>
      </trkpt>
      <trkpt lat="31.425691209733486175537109375" lon="119.48121649213135242462158203125">
        <ele>10.3999996185302734375</ele>
        <time>2020-08-21T23:11:49.000Z</time>
        <extensions>
          <ns3:TrackPointExtension>
            <ns3:atemp>32.0</ns3:atemp>
            <ns3:hr>107</ns3:hr>
          </ns3:TrackPointExtension>
        </extensions>
      </trkpt>
      <trkpt lat="31.42586647532880306243896484375" lon="119.48130835779011249542236328125">
        <ele>9.80000019073486328125</ele>
        <time>2020-08-21T23:11:56.000Z</time>
        <extensions>
          <ns3:TrackPointExtension>
            <ns3:atemp>32.0</ns3:atemp>
            <ns3:hr>108</ns3:hr>
          </ns3:TrackPointExtension>
        </extensions>
      </trkpt>
      <trkpt lat="31.42599371261894702911376953125" lon="119.48137943632900714874267578125">
        <ele>10.19999980926513671875</ele>
        <time>2020-08-21T23:12:01.000Z</time>
        <extensions>
          <ns3:TrackPointExtension>
            <ns3:atemp>31.0</ns3:atemp>
            <ns3:hr>111</ns3:hr>
          </ns3:TrackPointExtension>
        </extensions>
      </trkpt>
      <trkpt lat="31.42608775757253170013427734375" lon="119.4815173186361789703369140625">
        <ele>10</ele>
        <time>2020-08-21T23:12:07.000Z</time>
        <extensions>
          <ns3:TrackPointExtension>
            <ns3:atemp>31.0</ns3:atemp>
            <ns3:hr>112</ns3:hr>
          </ns3:TrackPointExtension>
        </extensions>
      </trkpt>
      <trkpt lat="31.426215581595897674560546875" lon="119.48166257701814174652099609375">
        <ele>9.80000019073486328125</ele>
        <time>2020-08-21T23:12:15.000Z</time>
        <extensions>
          <ns3:TrackPointExtension>
            <ns3:atemp>31.0</ns3:atemp>
            <ns3:hr>112</ns3:hr>
          </ns3:TrackPointExtension>
        </extensions>
      </trkpt>
      <trkpt lat="31.4263392984867095947265625" lon="119.4817811809480190277099609375">
        <ele>10.19999980926513671875</ele>
        <time>2020-08-21T23:12:21.000Z</time>
        <extensions>
          <ns3:TrackPointExtension>
            <ns3:atemp>31.0</ns3:atemp>
            <ns3:hr>114</ns3:hr>
          </ns3:TrackPointExtension>
        </extensions>
      </trkpt>
      <trkpt lat="31.42649427987635135650634765625" lon="119.481864161789417266845703125">
        <ele>10</ele>
        <time>2020-08-21T23:12:28.000Z</time>
        <extensions>
          <ns3:TrackPointExtension>
            <ns3:atemp>31.0</ns3:atemp>
            <ns3:hr>113</ns3:hr>
          </ns3:TrackPointExtension>
        </extensions>
      </trkpt>
      <trkpt lat="31.42660425044596195220947265625" lon="119.48191068135201930999755859375">
        <ele>9.80000019073486328125</ele>
        <time>2020-08-21T23:12:34.000Z</time>
        <extensions>
          <ns3:TrackPointExtension>
            <ns3:atemp>31.0</ns3:atemp>
            <ns3:hr>113</ns3:hr>
          </ns3:TrackPointExtension>
        </extensions>
      </trkpt>
      <trkpt lat="31.4267149753868579864501953125" lon="119.48202970437705516815185546875">
        <ele>9.6000003814697265625</ele>
        <time>2020-08-21T23:12:40.000Z</time>
        <extensions>
          <ns3:TrackPointExtension>
            <ns3:atemp>31.0</ns3:atemp>
            <ns3:hr>112</ns3:hr>
          </ns3:TrackPointExtension>
        </extensions>
      </trkpt>
      <trkpt lat="31.42685855738818645477294921875" lon="119.4821996055543422698974609375">
        <ele>9.6000003814697265625</ele>
        <time>2020-08-21T23:12:46.000Z</time>
        <extensions>
          <ns3:TrackPointExtension>
            <ns3:atemp>31.0</ns3:atemp>
            <ns3:hr>112</ns3:hr>
          </ns3:TrackPointExtension>
        </extensions>
      </trkpt>
      <trkpt lat="31.4269496686756610870361328125" lon="119.4823873601853847503662109375">
        <ele>9.6000003814697265625</ele>
        <time>2020-08-21T23:12:52.000Z</time>
        <extensions>
          <ns3:TrackPointExtension>
            <ns3:atemp>31.0</ns3:atemp>
            <ns3:hr>112</ns3:hr>
          </ns3:TrackPointExtension>
        </extensions>
      </trkpt>
      <trkpt lat="31.42711303196847438812255859375" lon="119.48262515477836132049560546875">
        <ele>9.6000003814697265625</ele>
        <time>2020-08-21T23:13:01.000Z</time>
        <extensions>
          <ns3:TrackPointExtension>
            <ns3:atemp>31.0</ns3:atemp>
            <ns3:hr>114</ns3:hr>
          </ns3:TrackPointExtension>
        </extensions>
      </trkpt>
      <trkpt lat="31.42721914686262607574462890625" lon="119.4827033579349517822265625">
        <ele>9.3999996185302734375</ele>
        <time>2020-08-21T23:13:07.000Z</time>
        <extensions>
          <ns3:TrackPointExtension>
            <ns3:atemp>31.0</ns3:atemp>
            <ns3:hr>112</ns3:hr>
          </ns3:TrackPointExtension>
        </extensions>
      </trkpt>
      <trkpt lat="31.42733649350702762603759765625" lon="119.48276077397167682647705078125">
        <ele>9.19999980926513671875</ele>
        <time>2020-08-21T23:13:13.000Z</time>
        <extensions>
          <ns3:TrackPointExtension>
            <ns3:atemp>31.0</ns3:atemp>
            <ns3:hr>110</ns3:hr>
          </ns3:TrackPointExtension>
        </extensions>
      </trkpt>
      <trkpt lat="31.427484266459941864013671875" lon="119.48281131684780120849609375">
        <ele>9.19999980926513671875</ele>
        <time>2020-08-21T23:13:19.000Z</time>
        <extensions>
          <ns3:TrackPointExtension>
            <ns3:atemp>31.0</ns3:atemp>
            <ns3:hr>108</ns3:hr>
          </ns3:TrackPointExtension>
        </extensions>
      </trkpt>
      <trkpt lat="31.42758007161319255828857421875" lon="119.4828245602548122406005859375">
        <ele>9.19999980926513671875</ele>
        <time>2020-08-21T23:13:23.000Z</time>
        <extensions>
          <ns3:TrackPointExtension>
            <ns3:atemp>31.0</ns3:atemp>
            <ns3:hr>108</ns3:hr>
          </ns3:TrackPointExtension>
        </extensions>
      </trkpt>
      <trkpt lat="31.427651233971118927001953125" lon="119.4828476943075656890869140625">
        <ele>9.19999980926513671875</ele>
        <time>2020-08-21T23:13:26.000Z</time>
        <extensions>
          <ns3:TrackPointExtension>
            <ns3:atemp>31.0</ns3:atemp>
            <ns3:hr>108</ns3:hr>
          </ns3:TrackPointExtension>
        </extensions>
      </trkpt>
      <trkpt lat="31.42777821980416774749755859375" lon="119.48290251195430755615234375">
        <ele>9.6000003814697265625</ele>
        <time>2020-08-21T23:13:32.000Z</time>
        <extensions>
          <ns3:TrackPointExtension>
            <ns3:atemp>31.0</ns3:atemp>
            <ns3:hr>107</ns3:hr>
          </ns3:TrackPointExtension>
        </extensions>
      </trkpt>
      <trkpt lat="31.42798961140215396881103515625" lon="119.4829204492270946502685546875">
        <ele>9.80000019073486328125</ele>
        <time>2020-08-21T23:13:40.000Z</time>
        <extensions>
          <ns3:TrackPointExtension>
            <ns3:atemp>31.0</ns3:atemp>
            <ns3:hr>107</ns3:hr>
          </ns3:TrackPointExtension>
        </extensions>
      </trkpt>
      <trkpt lat="31.4281328581273555755615234375" lon="119.482972584664821624755859375">
        <ele>9.6000003814697265625</ele>
        <time>2020-08-21T23:13:46.000Z</time>
        <extensions>
          <ns3:TrackPointExtension>
            <ns3:atemp>31.0</ns3:atemp>
            <ns3:hr>109</ns3:hr>
          </ns3:TrackPointExtension>
        </extensions>
      </trkpt>
      <trkpt lat="31.428274177014827728271484375" lon="119.48297183029353618621826171875">
        <ele>9.6000003814697265625</ele>
        <time>2020-08-21T23:13:51.000Z</time>
        <extensions>
          <ns3:TrackPointExtension>
            <ns3:atemp>31.0</ns3:atemp>
            <ns3:hr>112</ns3:hr>
          </ns3:TrackPointExtension>
        </extensions>
      </trkpt>
      <trkpt lat="31.42832539044320583343505859375" lon="119.482956491410732269287109375">
        <ele>9.6000003814697265625</ele>
        <time>2020-08-21T23:13:53.000Z</time>
        <extensions>
          <ns3:TrackPointExtension>
            <ns3:atemp>31.0</ns3:atemp>
            <ns3:hr>113</ns3:hr>
          </ns3:TrackPointExtension>
        </extensions>
      </trkpt>
      <trkpt lat="31.42843737266957759857177734375" lon="119.48297719471156597137451171875">
        <ele>10</ele>
        <time>2020-08-21T23:13:58.000Z</time>
        <extensions>
          <ns3:TrackPointExtension>
            <ns3:atemp>31.0</ns3:atemp>
            <ns3:hr>116</ns3:hr>
          </ns3:TrackPointExtension>
        </extensions>
      </trkpt>
      <trkpt lat="31.42848908901214599609375" lon="119.4830260612070560455322265625">
        <ele>10.19999980926513671875</ele>
        <time>2020-08-21T23:14:00.000Z</time>
        <extensions>
          <ns3:TrackPointExtension>
            <ns3:atemp>31.0</ns3:atemp>
            <ns3:hr>115</ns3:hr>
          </ns3:TrackPointExtension>
        </extensions>
      </trkpt>
      <trkpt lat="31.42853963188827037811279296875" lon="119.48307895101606845855712890625">
        <ele>10.3999996185302734375</ele>
        <time>2020-08-21T23:14:02.000Z</time>
        <extensions>
          <ns3:TrackPointExtension>
            <ns3:atemp>31.0</ns3:atemp>
            <ns3:hr>118</ns3:hr>
          </ns3:TrackPointExtension>
        </extensions>
      </trkpt>
      <trkpt lat="31.4286810345947742462158203125" lon="119.4832299090921878814697265625">
        <ele>10.80000019073486328125</ele>
        <time>2020-08-21T23:14:08.000Z</time>
        <extensions>
          <ns3:TrackPointExtension>
            <ns3:atemp>31.0</ns3:atemp>
            <ns3:hr>120</ns3:hr>
          </ns3:TrackPointExtension>
        </extensions>
      </trkpt>
      <trkpt lat="31.42877885140478610992431640625" lon="119.48332219384610652923583984375">
        <ele>11</ele>
        <time>2020-08-21T23:14:12.000Z</time>
        <extensions>
          <ns3:TrackPointExtension>
            <ns3:atemp>31.0</ns3:atemp>
            <ns3:hr>123</ns3:hr>
          </ns3:TrackPointExtension>
        </extensions>
      </trkpt>
      <trkpt lat="31.42879863269627094268798828125" lon="119.48334482498466968536376953125">
        <ele>11</ele>
        <time>2020-08-21T23:14:13.000Z</time>
        <extensions>
          <ns3:TrackPointExtension>
            <ns3:atemp>31.0</ns3:atemp>
            <ns3:hr>126</ns3:hr>
          </ns3:TrackPointExtension>
        </extensions>
      </trkpt>
      <trkpt lat="31.428820006549358367919921875" lon="119.48336594738066196441650390625">
        <ele>11</ele>
        <time>2020-08-21T23:14:14.000Z</time>
        <extensions>
          <ns3:TrackPointExtension>
            <ns3:atemp>31.0</ns3:atemp>
            <ns3:hr>122</ns3:hr>
          </ns3:TrackPointExtension>
        </extensions>
      </trkpt>
      <trkpt lat="31.42884104512631893157958984375" lon="119.4833873212337493896484375">
        <ele>11.19999980926513671875</ele>
        <time>2020-08-21T23:14:15.000Z</time>
        <extensions>
          <ns3:TrackPointExtension>
            <ns3:atemp>31.0</ns3:atemp>
            <ns3:hr>121</ns3:hr>
          </ns3:TrackPointExtension>
        </extensions>
      </trkpt>
      <trkpt lat="31.428980268537998199462890625" lon="119.48348228819668292999267578125">
        <ele>11.6000003814697265625</ele>
        <time>2020-08-21T23:14:22.000Z</time>
        <extensions>
          <ns3:TrackPointExtension>
            <ns3:atemp>31.0</ns3:atemp>
            <ns3:hr>120</ns3:hr>
          </ns3:TrackPointExtension>
        </extensions>
      </trkpt>
      <trkpt lat="31.42908043228089809417724609375" lon="119.4834176637232303619384765625">
        <ele>12</ele>
        <time>2020-08-21T23:14:27.000Z</time>
        <extensions>
          <ns3:TrackPointExtension>
            <ns3:atemp>31.0</ns3:atemp>
            <ns3:hr>120</ns3:hr>
          </ns3:TrackPointExtension>
        </extensions>
      </trkpt>
      <trkpt lat="31.4291926659643650054931640625" lon="119.48328472673892974853515625">
        <ele>12.19999980926513671875</ele>
        <time>2020-08-21T23:14:34.000Z</time>
        <extensions>
          <ns3:TrackPointExtension>
            <ns3:atemp>31.0</ns3:atemp>
            <ns3:hr>119</ns3:hr>
          </ns3:TrackPointExtension>
        </extensions>
      </trkpt>
      <trkpt lat="31.4293364994227886199951171875" lon="119.48314432986080646514892578125">
        <ele>12</ele>
        <time>2020-08-21T23:14:42.000Z</time>
        <extensions>
          <ns3:TrackPointExtension>
            <ns3:atemp>31.0</ns3:atemp>
            <ns3:hr>121</ns3:hr>
          </ns3:TrackPointExtension>
        </extensions>
      </trkpt>
      <trkpt lat="31.4294622279703617095947265625" lon="119.48300669901072978973388671875">
        <ele>12.3999996185302734375</ele>
        <time>2020-08-21T23:14:49.000Z</time>
        <extensions>
          <ns3:TrackPointExtension>
            <ns3:atemp>31.0</ns3:atemp>
            <ns3:hr>121</ns3:hr>
          </ns3:TrackPointExtension>
        </extensions>
      </trkpt>
      <trkpt lat="31.4296945743262767791748046875" lon="119.48285750113427639007568359375">
        <ele>12.3999996185302734375</ele>
        <time>2020-08-21T23:14:58.000Z</time>
        <extensions>
          <ns3:TrackPointExtension>
            <ns3:atemp>31.0</ns3:atemp>
            <ns3:hr>121</ns3:hr>
          </ns3:TrackPointExtension>
        </extensions>
      </trkpt>
      <trkpt lat="31.4297901280224323272705078125" lon="119.482802934944629669189453125">
        <ele>12</ele>
        <time>2020-08-21T23:15:02.000Z</time>
        <extensions>
          <ns3:TrackPointExtension>
            <ns3:atemp>31.0</ns3:atemp>
            <ns3:hr>124</ns3:hr>
          </ns3:TrackPointExtension>
        </extensions>
      </trkpt>
      <trkpt lat="31.42980362288653850555419921875" lon="119.48278742842376232147216796875">
        <ele>12</ele>
        <time>2020-08-21T23:15:03.000Z</time>
        <extensions>
          <ns3:TrackPointExtension>
            <ns3:atemp>31.0</ns3:atemp>
            <ns3:hr>124</ns3:hr>
          </ns3:TrackPointExtension>
        </extensions>
      </trkpt>
      <trkpt lat="31.4298504777252674102783203125" lon="119.48277552612125873565673828125">
        <ele>12.3999996185302734375</ele>
        <time>2020-08-21T23:15:06.000Z</time>
        <extensions>
          <ns3:TrackPointExtension>
            <ns3:atemp>31.0</ns3:atemp>
            <ns3:hr>128</ns3:hr>
          </ns3:TrackPointExtension>
        </extensions>
      </trkpt>
      <trkpt lat="31.42990596592426300048828125" lon="119.48276798240840435028076171875">
        <ele>12.19999980926513671875</ele>
        <time>2020-08-21T23:15:09.000Z</time>
        <extensions>
          <ns3:TrackPointExtension>
            <ns3:atemp>31.0</ns3:atemp>
            <ns3:hr>127</ns3:hr>
          </ns3:TrackPointExtension>
        </extensions>
      </trkpt>
      <trkpt lat="31.42997981049120426177978515625" lon="119.4827462732791900634765625">
        <ele>12.19999980926513671875</ele>
        <time>2020-08-21T23:15:12.000Z</time>
        <extensions>
          <ns3:TrackPointExtension>
            <ns3:atemp>31.0</ns3:atemp>
            <ns3:hr>124</ns3:hr>
          </ns3:TrackPointExtension>
        </extensions>
      </trkpt>
      <trkpt lat="31.4300875179469585418701171875" lon="119.48275029659271240234375">
        <ele>11.6000003814697265625</ele>
        <time>2020-08-21T23:15:16.000Z</time>
        <extensions>
          <ns3:TrackPointExtension>
            <ns3:atemp>31.0</ns3:atemp>
            <ns3:hr>121</ns3:hr>
          </ns3:TrackPointExtension>
        </extensions>
      </trkpt>
      <trkpt lat="31.430232860147953033447265625" lon="119.48288616724312305450439453125">
        <ele>11.3999996185302734375</ele>
        <time>2020-08-21T23:15:22.000Z</time>
        <extensions>
          <ns3:TrackPointExtension>
            <ns3:atemp>31.0</ns3:atemp>
            <ns3:hr>124</ns3:hr>
          </ns3:TrackPointExtension>
        </extensions>
      </trkpt>
      <trkpt lat="31.43025842495262622833251953125" lon="119.48290896601974964141845703125">
        <ele>11.3999996185302734375</ele>
        <time>2020-08-21T23:15:23.000Z</time>
        <extensions>
          <ns3:TrackPointExtension>
            <ns3:atemp>31.0</ns3:atemp>
            <ns3:hr>124</ns3:hr>
          </ns3:TrackPointExtension>
        </extensions>
      </trkpt>
      <trkpt lat="31.43035531975328922271728515625" lon="119.48300309479236602783203125">
        <ele>11.19999980926513671875</ele>
        <time>2020-08-21T23:15:27.000Z</time>
        <extensions>
          <ns3:TrackPointExtension>
            <ns3:atemp>31.0</ns3:atemp>
            <ns3:hr>123</ns3:hr>
          </ns3:TrackPointExtension>
        </extensions>
      </trkpt>
      <trkpt lat="31.4304149150848388671875" lon="119.48307325132191181182861328125">
        <ele>10.6000003814697265625</ele>
        <time>2020-08-21T23:15:30.000Z</time>
        <extensions>
          <ns3:TrackPointExtension>
            <ns3:atemp>31.0</ns3:atemp>
            <ns3:hr>126</ns3:hr>
          </ns3:TrackPointExtension>
        </extensions>
      </trkpt>
      <trkpt lat="31.43043125979602336883544921875" lon="119.48309655301272869110107421875">
        <ele>10.80000019073486328125</ele>
        <time>2020-08-21T23:15:31.000Z</time>
        <extensions>
          <ns3:TrackPointExtension>
            <ns3:atemp>31.0</ns3:atemp>
            <ns3:hr>126</ns3:hr>
          </ns3:TrackPointExtension>
        </extensions>
      </trkpt>
      <trkpt lat="31.430558077991008758544921875" lon="119.48316042311489582061767578125">
        <ele>11</ele>
        <time>2020-08-21T23:15:36.000Z</time>
        <extensions>
          <ns3:TrackPointExtension>
            <ns3:atemp>31.0</ns3:atemp>
            <ns3:hr>126</ns3:hr>
          </ns3:TrackPointExtension>
        </extensions>
      </trkpt>
      <trkpt lat="31.43074608407914638519287109375" lon="119.4832644425332546234130859375">
        <ele>11</ele>
        <time>2020-08-21T23:15:43.000Z</time>
        <extensions>
          <ns3:TrackPointExtension>
            <ns3:atemp>31.0</ns3:atemp>
            <ns3:hr>124</ns3:hr>
          </ns3:TrackPointExtension>
        </extensions>
      </trkpt>
      <trkpt lat="31.43080676905810832977294921875" lon="119.48329453356564044952392578125">
        <ele>10.80000019073486328125</ele>
        <time>2020-08-21T23:15:45.000Z</time>
        <extensions>
          <ns3:TrackPointExtension>
            <ns3:atemp>31.0</ns3:atemp>
            <ns3:hr>121</ns3:hr>
          </ns3:TrackPointExtension>
        </extensions>
      </trkpt>
      <trkpt lat="31.43085479736328125" lon="119.48334599845111370086669921875">
        <ele>11</ele>
        <time>2020-08-21T23:15:47.000Z</time>
        <extensions>
          <ns3:TrackPointExtension>
            <ns3:atemp>31.0</ns3:atemp>
            <ns3:hr>118</ns3:hr>
          </ns3:TrackPointExtension>
        </extensions>
      </trkpt>
      <trkpt lat="31.43090316094458103179931640625" lon="119.48337919078767299652099609375">
        <ele>11.19999980926513671875</ele>
        <time>2020-08-21T23:15:49.000Z</time>
        <extensions>
          <ns3:TrackPointExtension>
            <ns3:atemp>31.0</ns3:atemp>
            <ns3:hr>116</ns3:hr>
          </ns3:TrackPointExtension>
        </extensions>
      </trkpt>
      <trkpt lat="31.431063003838062286376953125" lon="119.4835293106734752655029296875">
        <ele>11.3999996185302734375</ele>
        <time>2020-08-21T23:15:57.000Z</time>
        <extensions>
          <ns3:TrackPointExtension>
            <ns3:atemp>31.0</ns3:atemp>
            <ns3:hr>119</ns3:hr>
          </ns3:TrackPointExtension>
        </extensions>
      </trkpt>
      <trkpt lat="31.4311895705759525299072265625" lon="119.48360835202038288116455078125">
        <ele>11.19999980926513671875</ele>
        <time>2020-08-21T23:16:03.000Z</time>
        <extensions>
          <ns3:TrackPointExtension>
            <ns3:atemp>31.0</ns3:atemp>
            <ns3:hr>117</ns3:hr>
          </ns3:TrackPointExtension>
        </extensions>
      </trkpt>
      <trkpt lat="31.43135444261133670806884765625" lon="119.48374715633690357208251953125">
        <ele>10.80000019073486328125</ele>
        <time>2020-08-21T23:16:11.000Z</time>
        <extensions>
          <ns3:TrackPointExtension>
            <ns3:atemp>31.0</ns3:atemp>
            <ns3:hr>115</ns3:hr>
          </ns3:TrackPointExtension>
        </extensions>
      </trkpt>
      <trkpt lat="31.431475393474102020263671875" lon="119.48385377414524555206298828125">
        <ele>11</ele>
        <time>2020-08-21T23:16:16.000Z</time>
        <extensions>
          <ns3:TrackPointExtension>
            <ns3:atemp>31.0</ns3:atemp>
            <ns3:hr>112</ns3:hr>
          </ns3:TrackPointExtension>
        </extensions>
      </trkpt>
      <trkpt lat="31.43155284225940704345703125" lon="119.483912028372287750244140625">
        <ele>11</ele>
        <time>2020-08-21T23:16:19.000Z</time>
        <extensions>
          <ns3:TrackPointExtension>
            <ns3:atemp>31.0</ns3:atemp>
            <ns3:hr>113</ns3:hr>
          </ns3:TrackPointExtension>
        </extensions>
      </trkpt>
      <trkpt lat="31.4317229948937892913818359375" lon="119.484028033912181854248046875">
        <ele>11.19999980926513671875</ele>
        <time>2020-08-21T23:16:25.000Z</time>
        <extensions>
          <ns3:TrackPointExtension>
            <ns3:atemp>31.0</ns3:atemp>
            <ns3:hr>116</ns3:hr>
          </ns3:TrackPointExtension>
        </extensions>
      </trkpt>
      <trkpt lat="31.431771777570247650146484375" lon="119.484061896800994873046875">
        <ele>11.3999996185302734375</ele>
        <time>2020-08-21T23:16:27.000Z</time>
        <extensions>
          <ns3:TrackPointExtension>
            <ns3:atemp>31.0</ns3:atemp>
            <ns3:hr>116</ns3:hr>
          </ns3:TrackPointExtension>
        </extensions>
      </trkpt>
      <trkpt lat="31.4319137670099735260009765625" lon="119.48419743217527866363525390625">
        <ele>11.6000003814697265625</ele>
        <time>2020-08-21T23:16:33.000Z</time>
        <extensions>
          <ns3:TrackPointExtension>
            <ns3:atemp>31.0</ns3:atemp>
            <ns3:hr>118</ns3:hr>
          </ns3:TrackPointExtension>
        </extensions>
      </trkpt>
      <trkpt lat="31.4320324547588825225830078125" lon="119.48429726064205169677734375">
        <ele>12.19999980926513671875</ele>
        <time>2020-08-21T23:16:39.000Z</time>
        <extensions>
          <ns3:TrackPointExtension>
            <ns3:atemp>31.0</ns3:atemp>
            <ns3:hr>120</ns3:hr>
          </ns3:TrackPointExtension>
        </extensions>
      </trkpt>
      <trkpt lat="31.43205047585070133209228515625" lon="119.48431243188679218292236328125">
        <ele>12.19999980926513671875</ele>
        <time>2020-08-21T23:16:40.000Z</time>
        <extensions>
          <ns3:TrackPointExtension>
            <ns3:atemp>31.0</ns3:atemp>
            <ns3:hr>120</ns3:hr>
          </ns3:TrackPointExtension>
        </extensions>
      </trkpt>
      <trkpt lat="31.43216698430478572845458984375" lon="119.48441770859062671661376953125">
        <ele>12.80000019073486328125</ele>
        <time>2020-08-21T23:16:47.000Z</time>
        <extensions>
          <ns3:TrackPointExtension>
            <ns3:atemp>31.0</ns3:atemp>
            <ns3:hr>119</ns3:hr>
          </ns3:TrackPointExtension>
        </extensions>
      </trkpt>
      <trkpt lat="31.4322817325592041015625" lon="119.48452265001833438873291015625">
        <ele>12.80000019073486328125</ele>
        <time>2020-08-21T23:16:54.000Z</time>
        <extensions>
          <ns3:TrackPointExtension>
            <ns3:atemp>31.0</ns3:atemp>
            <ns3:hr>120</ns3:hr>
          </ns3:TrackPointExtension>
        </extensions>
      </trkpt>
      <trkpt lat="31.4323995821177959442138671875" lon="119.48464184068143367767333984375">
        <ele>13</ele>
        <time>2020-08-21T23:17:02.000Z</time>
        <extensions>
          <ns3:TrackPointExtension>
            <ns3:atemp>31.0</ns3:atemp>
            <ns3:hr>122</ns3:hr>
          </ns3:TrackPointExtension>
        </extensions>
      </trkpt>
      <trkpt lat="31.43251634202897548675537109375" lon="119.48477041907608509063720703125">
        <ele>12.6000003814697265625</ele>
        <time>2020-08-21T23:17:09.000Z</time>
        <extensions>
          <ns3:TrackPointExtension>
            <ns3:atemp>31.0</ns3:atemp>
            <ns3:hr>125</ns3:hr>
          </ns3:TrackPointExtension>
        </extensions>
      </trkpt>
      <trkpt lat="31.4325293339788913726806640625" lon="119.48478408157825469970703125">
        <ele>12.6000003814697265625</ele>
        <time>2020-08-21T23:17:10.000Z</time>
        <extensions>
          <ns3:TrackPointExtension>
            <ns3:atemp>31.0</ns3:atemp>
            <ns3:hr>125</ns3:hr>
          </ns3:TrackPointExtension>
        </extensions>
      </trkpt>
      <trkpt lat="31.432630755007266998291015625" lon="119.4848335348069667816162109375">
        <ele>12.3999996185302734375</ele>
        <time>2020-08-21T23:17:17.000Z</time>
        <extensions>
          <ns3:TrackPointExtension>
            <ns3:atemp>31.0</ns3:atemp>
            <ns3:hr>126</ns3:hr>
          </ns3:TrackPointExtension>
        </extensions>
      </trkpt>
      <trkpt lat="31.43270242027938365936279296875" lon="119.48474041186273097991943359375">
        <ele>12.19999980926513671875</ele>
        <time>2020-08-21T23:17:22.000Z</time>
        <extensions>
          <ns3:TrackPointExtension>
            <ns3:atemp>31.0</ns3:atemp>
            <ns3:hr>124</ns3:hr>
          </ns3:TrackPointExtension>
        </extensions>
      </trkpt>
      <trkpt lat="31.43281406722962856292724609375" lon="119.4845364801585674285888671875">
        <ele>12</ele>
        <time>2020-08-21T23:17:29.000Z</time>
        <extensions>
          <ns3:TrackPointExtension>
            <ns3:atemp>31.0</ns3:atemp>
            <ns3:hr>121</ns3:hr>
          </ns3:TrackPointExtension>
        </extensions>
      </trkpt>
      <trkpt lat="31.4329685457050800323486328125" lon="119.48434512130916118621826171875">
        <ele>11.6000003814697265625</ele>
        <time>2020-08-21T23:17:36.000Z</time>
        <extensions>
          <ns3:TrackPointExtension>
            <ns3:atemp>31.0</ns3:atemp>
            <ns3:hr>119</ns3:hr>
          </ns3:TrackPointExtension>
        </extensions>
      </trkpt>
      <trkpt lat="31.433013975620269775390625" lon="119.48427940718829631805419921875">
        <ele>11.19999980926513671875</ele>
        <time>2020-08-21T23:17:38.000Z</time>
        <extensions>
          <ns3:TrackPointExtension>
            <ns3:atemp>31.0</ns3:atemp>
            <ns3:hr>118</ns3:hr>
          </ns3:TrackPointExtension>
        </extensions>
      </trkpt>
      <trkpt lat="31.43314179964363574981689453125" lon="119.48414948768913745880126953125">
        <ele>10.6000003814697265625</ele>
        <time>2020-08-21T23:17:43.000Z</time>
        <extensions>
          <ns3:TrackPointExtension>
            <ns3:atemp>31.0</ns3:atemp>
            <ns3:hr>116</ns3:hr>
          </ns3:TrackPointExtension>
        </extensions>
      </trkpt>
      <trkpt lat="31.43326769582927227020263671875" lon="119.4841086678206920623779296875">
        <ele>10.19999980926513671875</ele>
        <time>2020-08-21T23:17:47.000Z</time>
        <extensions>
          <ns3:TrackPointExtension>
            <ns3:atemp>31.0</ns3:atemp>
            <ns3:hr>115</ns3:hr>
          </ns3:TrackPointExtension>
        </extensions>
      </trkpt>
      <trkpt lat="31.43330432474613189697265625" lon="119.48411445133388042449951171875">
        <ele>10</ele>
        <time>2020-08-21T23:17:48.000Z</time>
        <extensions>
          <ns3:TrackPointExtension>
            <ns3:atemp>31.0</ns3:atemp>
            <ns3:hr>114</ns3:hr>
          </ns3:TrackPointExtension>
        </extensions>
      </trkpt>
      <trkpt lat="31.4334551990032196044921875" lon="119.484142698347568511962890625">
        <ele>9.80000019073486328125</ele>
        <time>2020-08-21T23:17:52.000Z</time>
        <extensions>
          <ns3:TrackPointExtension>
            <ns3:atemp>31.0</ns3:atemp>
            <ns3:hr>111</ns3:hr>
          </ns3:TrackPointExtension>
        </extensions>
      </trkpt>
      <trkpt lat="31.433577239513397216796875" lon="119.4841307960450649261474609375">
        <ele>9.80000019073486328125</ele>
        <time>2020-08-21T23:17:56.000Z</time>
        <extensions>
          <ns3:TrackPointExtension>
            <ns3:atemp>31.0</ns3:atemp>
            <ns3:hr>109</ns3:hr>
          </ns3:TrackPointExtension>
        </extensions>
      </trkpt>
      <trkpt lat="31.43372015096247196197509765625" lon="119.4841187261044979095458984375">
        <ele>10</ele>
        <time>2020-08-21T23:18:02.000Z</time>
        <extensions>
          <ns3:TrackPointExtension>
            <ns3:atemp>31.0</ns3:atemp>
            <ns3:hr>107</ns3:hr>
          </ns3:TrackPointExtension>
        </extensions>
      </trkpt>
      <trkpt lat="31.4339113421738147735595703125" lon="119.4842390902340412139892578125">
        <ele>9.80000019073486328125</ele>
        <time>2020-08-21T23:18:09.000Z</time>
        <extensions>
          <ns3:TrackPointExtension>
            <ns3:atemp>31.0</ns3:atemp>
            <ns3:hr>110</ns3:hr>
          </ns3:TrackPointExtension>
        </extensions>
      </trkpt>
      <trkpt lat="31.43408057279884815216064453125" lon="119.4843433611094951629638671875">
        <ele>9.80000019073486328125</ele>
        <time>2020-08-21T23:18:17.000Z</time>
        <extensions>
          <ns3:TrackPointExtension>
            <ns3:atemp>31.0</ns3:atemp>
            <ns3:hr>110</ns3:hr>
          </ns3:TrackPointExtension>
        </extensions>
      </trkpt>
      <trkpt lat="31.43419858999550342559814453125" lon="119.4843993522226810455322265625">
        <ele>9.80000019073486328125</ele>
        <time>2020-08-21T23:18:22.000Z</time>
        <extensions>
          <ns3:TrackPointExtension>
            <ns3:atemp>31.0</ns3:atemp>
            <ns3:hr>107</ns3:hr>
          </ns3:TrackPointExtension>
        </extensions>
      </trkpt>
      <trkpt lat="31.43424921669065952301025390625" lon="119.48441737331449985504150390625">
        <ele>9.80000019073486328125</ele>
        <time>2020-08-21T23:18:24.000Z</time>
        <extensions>
          <ns3:TrackPointExtension>
            <ns3:atemp>31.0</ns3:atemp>
            <ns3:hr>107</ns3:hr>
          </ns3:TrackPointExtension>
        </extensions>
      </trkpt>
      <trkpt lat="31.43446572124958038330078125" lon="119.48448359034955501556396484375">
        <ele>10</ele>
        <time>2020-08-21T23:18:32.000Z</time>
        <extensions>
          <ns3:TrackPointExtension>
            <ns3:atemp>31.0</ns3:atemp>
            <ns3:hr>105</ns3:hr>
          </ns3:TrackPointExtension>
        </extensions>
      </trkpt>
      <trkpt lat="31.4346405677497386932373046875" lon="119.484502114355564117431640625">
        <ele>10</ele>
        <time>2020-08-21T23:18:40.000Z</time>
        <extensions>
          <ns3:TrackPointExtension>
            <ns3:atemp>31.0</ns3:atemp>
            <ns3:hr>106</ns3:hr>
          </ns3:TrackPointExtension>
        </extensions>
      </trkpt>
      <trkpt lat="31.43480728380382061004638671875" lon="119.48457227088510990142822265625">
        <ele>9.3999996185302734375</ele>
        <time>2020-08-21T23:18:48.000Z</time>
        <extensions>
          <ns3:TrackPointExtension>
            <ns3:atemp>31.0</ns3:atemp>
            <ns3:hr>103</ns3:hr>
          </ns3:TrackPointExtension>
        </extensions>
      </trkpt>
      <trkpt lat="31.4348688907921314239501953125" lon="119.48458819650113582611083984375">
        <ele>9.3999996185302734375</ele>
        <time>2020-08-21T23:18:54.000Z</time>
        <extensions>
          <ns3:TrackPointExtension>
            <ns3:atemp>31.0</ns3:atemp>
            <ns3:hr>104</ns3:hr>
          </ns3:TrackPointExtension>
        </extensions>
      </trkpt>
      <trkpt lat="31.43494575284421443939208984375" lon="119.48458291590213775634765625">
        <ele>9.6000003814697265625</ele>
        <time>2020-08-21T23:19:01.000Z</time>
        <extensions>
          <ns3:TrackPointExtension>
            <ns3:atemp>31.0</ns3:atemp>
            <ns3:hr>103</ns3:hr>
          </ns3:TrackPointExtension>
        </extensions>
      </trkpt>
      <trkpt lat="31.43495296128094196319580078125" lon="119.48456925339996814727783203125">
        <ele>9.19999980926513671875</ele>
        <time>2020-08-21T23:19:08.000Z</time>
        <extensions>
          <ns3:TrackPointExtension>
            <ns3:atemp>31.0</ns3:atemp>
            <ns3:hr>103</ns3:hr>
          </ns3:TrackPointExtension>
        </extensions>
      </trkpt>
      <trkpt lat="31.43495782278478145599365234375" lon="119.48455609381198883056640625">
        <ele>9.3999996185302734375</ele>
        <time>2020-08-21T23:19:12.000Z</time>
        <extensions>
          <ns3:TrackPointExtension>
            <ns3:atemp>31.0</ns3:atemp>
            <ns3:hr>106</ns3:hr>
          </ns3:TrackPointExtension>
        </extensions>
      </trkpt>
      <trkpt lat="31.43495916388928890228271484375" lon="119.4845455326139926910400390625">
        <ele>9.3999996185302734375</ele>
        <time>2020-08-21T23:19:16.000Z</time>
        <extensions>
          <ns3:TrackPointExtension>
            <ns3:atemp>31.0</ns3:atemp>
            <ns3:hr>107</ns3:hr>
          </ns3:TrackPointExtension>
        </extensions>
      </trkpt>
      <trkpt lat="31.4349527098238468170166015625" lon="119.484536647796630859375">
        <ele>9</ele>
        <time>2020-08-21T23:19:20.000Z</time>
        <extensions>
          <ns3:TrackPointExtension>
            <ns3:atemp>31.0</ns3:atemp>
            <ns3:hr>106</ns3:hr>
          </ns3:TrackPointExtension>
        </extensions>
      </trkpt>
      <trkpt lat="31.43494608812034130096435546875" lon="119.48452952317893505096435546875">
        <ele>8.6000003814697265625</ele>
        <time>2020-08-21T23:19:26.000Z</time>
        <extensions>
          <ns3:TrackPointExtension>
            <ns3:atemp>31.0</ns3:atemp>
            <ns3:hr>108</ns3:hr>
          </ns3:TrackPointExtension>
        </extensions>
      </trkpt>
      <trkpt lat="31.43496922217309474945068359375" lon="119.48454410769045352935791015625">
        <ele>8.19999980926513671875</ele>
        <time>2020-08-21T23:19:33.000Z</time>
        <extensions>
          <ns3:TrackPointExtension>
            <ns3:atemp>31.0</ns3:atemp>
            <ns3:hr>109</ns3:hr>
          </ns3:TrackPointExtension>
        </extensions>
      </trkpt>
      <trkpt lat="31.434961594641208648681640625" lon="119.484545700252056121826171875">
        <ele>8</ele>
        <time>2020-08-21T23:19:36.000Z</time>
        <extensions>
          <ns3:TrackPointExtension>
            <ns3:atemp>31.0</ns3:atemp>
            <ns3:hr>108</ns3:hr>
          </ns3:TrackPointExtension>
        </extensions>
      </trkpt>
      <trkpt lat="31.43496050499379634857177734375" lon="119.48454477824270725250244140625">
        <ele>7.80000019073486328125</ele>
        <time>2020-08-21T23:19:38.000Z</time>
        <extensions>
          <ns3:TrackPointExtension>
            <ns3:atemp>31.0</ns3:atemp>
            <ns3:hr>105</ns3:hr>
          </ns3:TrackPointExtension>
        </extensions>
      </trkpt>
      <trkpt lat="31.43495832569897174835205078125" lon="119.48454226367175579071044921875">
        <ele>7.80000019073486328125</ele>
        <time>2020-08-21T23:19:42.000Z</time>
        <extensions>
          <ns3:TrackPointExtension>
            <ns3:atemp>31.0</ns3:atemp>
            <ns3:hr>107</ns3:hr>
          </ns3:TrackPointExtension>
        </extensions>
      </trkpt>
      <trkpt lat="31.43495815806090831756591796875" lon="119.48454226367175579071044921875">
        <ele>7.80000019073486328125</ele>
        <time>2020-08-21T23:19:51.000Z</time>
        <extensions>
          <ns3:TrackPointExtension>
            <ns3:atemp>31.0</ns3:atemp>
            <ns3:hr>109</ns3:hr>
          </ns3:TrackPointExtension>
        </extensions>
      </trkpt>
      <trkpt lat="31.4349664561450481414794921875" lon="119.484544694423675537109375">
        <ele>7.80000019073486328125</ele>
        <time>2020-08-21T23:20:00.000Z</time>
        <extensions>
          <ns3:TrackPointExtension>
            <ns3:atemp>32.0</ns3:atemp>
            <ns3:hr>109</ns3:hr>
          </ns3:TrackPointExtension>
        </extensions>
      </trkpt>
      <trkpt lat="31.43497399985790252685546875" lon="119.4845643080770969390869140625">
        <ele>8</ele>
        <time>2020-08-21T23:20:08.000Z</time>
        <extensions>
          <ns3:TrackPointExtension>
            <ns3:atemp>32.0</ns3:atemp>
            <ns3:hr>110</ns3:hr>
          </ns3:TrackPointExtension>
        </extensions>
      </trkpt>
      <trkpt lat="31.43498782999813556671142578125" lon="119.48456346988677978515625">
        <ele>8</ele>
        <time>2020-08-21T23:20:10.000Z</time>
        <extensions>
          <ns3:TrackPointExtension>
            <ns3:atemp>32.0</ns3:atemp>
            <ns3:hr>109</ns3:hr>
          </ns3:TrackPointExtension>
        </extensions>
      </trkpt>
      <trkpt lat="31.43501247279345989227294921875" lon="119.484555423259735107421875">
        <ele>8.80000019073486328125</ele>
        <time>2020-08-21T23:20:13.000Z</time>
        <extensions>
          <ns3:TrackPointExtension>
            <ns3:atemp>32.0</ns3:atemp>
            <ns3:hr>108</ns3:hr>
          </ns3:TrackPointExtension>
        </extensions>
      </trkpt>
      <trkpt lat="31.4350311644375324249267578125" lon="119.4845487177371978759765625">
        <ele>9</ele>
        <time>2020-08-21T23:20:15.000Z</time>
        <extensions>
          <ns3:TrackPointExtension>
            <ns3:atemp>32.0</ns3:atemp>
            <ns3:hr>110</ns3:hr>
          </ns3:TrackPointExtension>
        </extensions>
      </trkpt>
      <trkpt lat="31.43504650332033634185791015625" lon="119.48452030308544635772705078125">
        <ele>9.19999980926513671875</ele>
        <time>2020-08-21T23:20:18.000Z</time>
        <extensions>
          <ns3:TrackPointExtension>
            <ns3:atemp>32.0</ns3:atemp>
            <ns3:hr>107</ns3:hr>
          </ns3:TrackPointExtension>
        </extensions>
      </trkpt>
      <trkpt lat="31.43509511835873126983642578125" lon="119.4845180399715900421142578125">
        <ele>9.19999980926513671875</ele>
        <time>2020-08-21T23:20:24.000Z</time>
        <extensions>
          <ns3:TrackPointExtension>
            <ns3:atemp>32.0</ns3:atemp>
            <ns3:hr>106</ns3:hr>
          </ns3:TrackPointExtension>
        </extensions>
      </trkpt>
      <trkpt lat="31.43512562848627567291259765625" lon="119.48450856842100620269775390625">
        <ele>9.3999996185302734375</ele>
        <time>2020-08-21T23:20:27.000Z</time>
        <extensions>
          <ns3:TrackPointExtension>
            <ns3:atemp>32.0</ns3:atemp>
            <ns3:hr>102</ns3:hr>
          </ns3:TrackPointExtension>
        </extensions>
      </trkpt>
      <trkpt lat="31.43516242504119873046875" lon="119.48450379073619842529296875">
        <ele>9.80000019073486328125</ele>
        <time>2020-08-21T23:20:31.000Z</time>
        <extensions>
          <ns3:TrackPointExtension>
            <ns3:atemp>31.0</ns3:atemp>
            <ns3:hr>99</ns3:hr>
          </ns3:TrackPointExtension>
        </extensions>
      </trkpt>
      <trkpt lat="31.4351900853216648101806640625" lon="119.48450705967843532562255859375">
        <ele>9.80000019073486328125</ele>
        <time>2020-08-21T23:20:33.000Z</time>
        <extensions>
          <ns3:TrackPointExtension>
            <ns3:atemp>31.0</ns3:atemp>
            <ns3:hr>99</ns3:hr>
          </ns3:TrackPointExtension>
        </extensions>
      </trkpt>
      <trkpt lat="31.43528421409428119659423828125" lon="119.484495408833026885986328125">
        <ele>9.80000019073486328125</ele>
        <time>2020-08-21T23:20:42.000Z</time>
        <extensions>
          <ns3:TrackPointExtension>
            <ns3:atemp>32.0</ns3:atemp>
            <ns3:hr>98</ns3:hr>
          </ns3:TrackPointExtension>
        </extensions>
      </trkpt>
      <trkpt lat="31.4353184960782527923583984375" lon="119.484469257295131683349609375">
        <ele>9.80000019073486328125</ele>
        <time>2020-08-21T23:20:46.000Z</time>
        <extensions>
          <ns3:TrackPointExtension>
            <ns3:atemp>32.0</ns3:atemp>
            <ns3:hr>99</ns3:hr>
          </ns3:TrackPointExtension>
        </extensions>
      </trkpt>
      <trkpt lat="31.435341127216815948486328125" lon="119.4844208098948001861572265625">
        <ele>9.3999996185302734375</ele>
        <time>2020-08-21T23:20:50.000Z</time>
        <extensions>
          <ns3:TrackPointExtension>
            <ns3:atemp>32.0</ns3:atemp>
            <ns3:hr>101</ns3:hr>
          </ns3:TrackPointExtension>
        </extensions>
      </trkpt>
      <trkpt lat="31.43534741364419460296630859375" lon="119.484391473233699798583984375">
        <ele>9.19999980926513671875</ele>
        <time>2020-08-21T23:20:54.000Z</time>
        <extensions>
          <ns3:TrackPointExtension>
            <ns3:atemp>32.0</ns3:atemp>
            <ns3:hr>102</ns3:hr>
          </ns3:TrackPointExtension>
        </extensions>
      </trkpt>
      <trkpt lat="31.43535554409027099609375" lon="119.48437060229480266571044921875">
        <ele>9.19999980926513671875</ele>
        <time>2020-08-21T23:20:56.000Z</time>
        <extensions>
          <ns3:TrackPointExtension>
            <ns3:atemp>32.0</ns3:atemp>
            <ns3:hr>102</ns3:hr>
          </ns3:TrackPointExtension>
        </extensions>
      </trkpt>
      <trkpt lat="31.43539720214903354644775390625" lon="119.48429985903203487396240234375">
        <ele>9.6000003814697265625</ele>
        <time>2020-08-21T23:21:04.000Z</time>
        <extensions>
          <ns3:TrackPointExtension>
            <ns3:atemp>32.0</ns3:atemp>
            <ns3:hr>103</ns3:hr>
          </ns3:TrackPointExtension>
        </extensions>
      </trkpt>
      <trkpt lat="31.43540038727223873138427734375" lon="119.4842456281185150146484375">
        <ele>9.80000019073486328125</ele>
        <time>2020-08-21T23:21:11.000Z</time>
        <extensions>
          <ns3:TrackPointExtension>
            <ns3:atemp>32.0</ns3:atemp>
            <ns3:hr>104</ns3:hr>
          </ns3:TrackPointExtension>
        </extensions>
      </trkpt>
      <trkpt lat="31.43541983328759670257568359375" lon="119.4842266850173473358154296875">
        <ele>9.6000003814697265625</ele>
        <time>2020-08-21T23:21:15.000Z</time>
        <extensions>
          <ns3:TrackPointExtension>
            <ns3:atemp>32.0</ns3:atemp>
            <ns3:hr>103</ns3:hr>
          </ns3:TrackPointExtension>
        </extensions>
      </trkpt>
      <trkpt lat="31.43542997539043426513671875" lon="119.48420950211584568023681640625">
        <ele>9.3999996185302734375</ele>
        <time>2020-08-21T23:21:18.000Z</time>
        <extensions>
          <ns3:TrackPointExtension>
            <ns3:atemp>32.0</ns3:atemp>
            <ns3:hr>105</ns3:hr>
          </ns3:TrackPointExtension>
        </extensions>
      </trkpt>
      <trkpt lat="31.4354365132749080657958984375" lon="119.48419936001300811767578125">
        <ele>9.19999980926513671875</ele>
        <time>2020-08-21T23:21:19.000Z</time>
        <extensions>
          <ns3:TrackPointExtension>
            <ns3:atemp>32.0</ns3:atemp>
            <ns3:hr>105</ns3:hr>
          </ns3:TrackPointExtension>
        </extensions>
      </trkpt>
      <trkpt lat="31.4354710467159748077392578125" lon="119.484194330871105194091796875">
        <ele>9.19999980926513671875</ele>
        <time>2020-08-21T23:21:24.000Z</time>
        <extensions>
          <ns3:TrackPointExtension>
            <ns3:atemp>32.0</ns3:atemp>
            <ns3:hr>104</ns3:hr>
          </ns3:TrackPointExtension>
        </extensions>
      </trkpt>
      <trkpt lat="31.43548437394201755523681640625" lon="119.484185613691806793212890625">
        <ele>9.19999980926513671875</ele>
        <time>2020-08-21T23:21:25.000Z</time>
        <extensions>
          <ns3:TrackPointExtension>
            <ns3:atemp>32.0</ns3:atemp>
            <ns3:hr>104</ns3:hr>
          </ns3:TrackPointExtension>
        </extensions>
      </trkpt>
      <trkpt lat="31.43553114496171474456787109375" lon="119.48406164534389972686767578125">
        <ele>9</ele>
        <time>2020-08-21T23:21:33.000Z</time>
        <extensions>
          <ns3:TrackPointExtension>
            <ns3:atemp>32.0</ns3:atemp>
            <ns3:hr>103</ns3:hr>
          </ns3:TrackPointExtension>
        </extensions>
      </trkpt>
      <trkpt lat="31.43558763898909091949462890625" lon="119.48399157263338565826416015625">
        <ele>8.80000019073486328125</ele>
        <time>2020-08-21T23:21:41.000Z</time>
        <extensions>
          <ns3:TrackPointExtension>
            <ns3:atemp>32.0</ns3:atemp>
            <ns3:hr>100</ns3:hr>
          </ns3:TrackPointExtension>
        </extensions>
      </trkpt>
      <trkpt lat="31.43559417687356472015380859375" lon="119.4839101843535900115966796875">
        <ele>8.6000003814697265625</ele>
        <time>2020-08-21T23:21:49.000Z</time>
        <extensions>
          <ns3:TrackPointExtension>
            <ns3:atemp>32.0</ns3:atemp>
            <ns3:hr>99</ns3:hr>
          </ns3:TrackPointExtension>
        </extensions>
      </trkpt>
      <trkpt lat="31.43561546690762042999267578125" lon="119.4838387705385684967041015625">
        <ele>8.19999980926513671875</ele>
        <time>2020-08-21T23:21:56.000Z</time>
        <extensions>
          <ns3:TrackPointExtension>
            <ns3:atemp>32.0</ns3:atemp>
            <ns3:hr>100</ns3:hr>
          </ns3:TrackPointExtension>
        </extensions>
      </trkpt>
      <trkpt lat="31.43561781384050846099853515625" lon="119.483762495219707489013671875">
        <ele>8.80000019073486328125</ele>
        <time>2020-08-21T23:22:04.000Z</time>
        <extensions>
          <ns3:TrackPointExtension>
            <ns3:atemp>32.0</ns3:atemp>
            <ns3:hr>100</ns3:hr>
          </ns3:TrackPointExtension>
        </extensions>
      </trkpt>
      <trkpt lat="31.43559535034000873565673828125" lon="119.48364724405109882354736328125">
        <ele>9</ele>
        <time>2020-08-21T23:22:13.000Z</time>
        <extensions>
          <ns3:TrackPointExtension>
            <ns3:atemp>32.0</ns3:atemp>
            <ns3:hr>99</ns3:hr>
          </ns3:TrackPointExtension>
        </extensions>
      </trkpt>
      <trkpt lat="31.4355754852294921875" lon="119.483540542423725128173828125">
        <ele>8.6000003814697265625</ele>
        <time>2020-08-21T23:22:23.000Z</time>
        <extensions>
          <ns3:TrackPointExtension>
            <ns3:atemp>32.0</ns3:atemp>
            <ns3:hr>99</ns3:hr>
          </ns3:TrackPointExtension>
        </extensions>
      </trkpt>
      <trkpt lat="31.435571797192096710205078125" lon="119.4835122115910053253173828125">
        <ele>8.80000019073486328125</ele>
        <time>2020-08-21T23:22:25.000Z</time>
        <extensions>
          <ns3:TrackPointExtension>
            <ns3:atemp>32.0</ns3:atemp>
            <ns3:hr>99</ns3:hr>
          </ns3:TrackPointExtension>
        </extensions>
      </trkpt>
      <trkpt lat="31.4356090128421783447265625" lon="119.48343300260603427886962890625">
        <ele>8.3999996185302734375</ele>
        <time>2020-08-21T23:22:32.000Z</time>
        <extensions>
          <ns3:TrackPointExtension>
            <ns3:atemp>32.0</ns3:atemp>
            <ns3:hr>98</ns3:hr>
          </ns3:TrackPointExtension>
        </extensions>
      </trkpt>
      <trkpt lat="31.43562602810561656951904296875" lon="119.48332118801772594451904296875">
        <ele>8.3999996185302734375</ele>
        <time>2020-08-21T23:22:41.000Z</time>
        <extensions>
          <ns3:TrackPointExtension>
            <ns3:atemp>32.0</ns3:atemp>
            <ns3:hr>100</ns3:hr>
          </ns3:TrackPointExtension>
        </extensions>
      </trkpt>
      <trkpt lat="31.435637176036834716796875" lon="119.483228065073490142822265625">
        <ele>8.3999996185302734375</ele>
        <time>2020-08-21T23:22:50.000Z</time>
        <extensions>
          <ns3:TrackPointExtension>
            <ns3:atemp>32.0</ns3:atemp>
            <ns3:hr>101</ns3:hr>
          </ns3:TrackPointExtension>
        </extensions>
      </trkpt>
      <trkpt lat="31.43566005863249301910400390625" lon="119.48315707035362720489501953125">
        <ele>8.80000019073486328125</ele>
        <time>2020-08-21T23:22:57.000Z</time>
        <extensions>
          <ns3:TrackPointExtension>
            <ns3:atemp>32.0</ns3:atemp>
            <ns3:hr>101</ns3:hr>
          </ns3:TrackPointExtension>
        </extensions>
      </trkpt>
      <trkpt lat="31.43566709943115711212158203125" lon="119.483065120875835418701171875">
        <ele>8.80000019073486328125</ele>
        <time>2020-08-21T23:23:05.000Z</time>
        <extensions>
          <ns3:TrackPointExtension>
            <ns3:atemp>32.0</ns3:atemp>
            <ns3:hr>99</ns3:hr>
          </ns3:TrackPointExtension>
        </extensions>
      </trkpt>
      <trkpt lat="31.43566475249826908111572265625" lon="119.482978284358978271484375">
        <ele>8.6000003814697265625</ele>
        <time>2020-08-21T23:23:14.000Z</time>
        <extensions>
          <ns3:TrackPointExtension>
            <ns3:atemp>32.0</ns3:atemp>
            <ns3:hr>100</ns3:hr>
          </ns3:TrackPointExtension>
        </extensions>
      </trkpt>
      <trkpt lat="31.43563072197139263153076171875" lon="119.4828453473746776580810546875">
        <ele>8.3999996185302734375</ele>
        <time>2020-08-21T23:23:24.000Z</time>
        <extensions>
          <ns3:TrackPointExtension>
            <ns3:atemp>32.0</ns3:atemp>
            <ns3:hr>100</ns3:hr>
          </ns3:TrackPointExtension>
        </extensions>
      </trkpt>
      <trkpt lat="31.43564321100711822509765625" lon="119.4827301800251007080078125">
        <ele>8.3999996185302734375</ele>
        <time>2020-08-21T23:23:34.000Z</time>
        <extensions>
          <ns3:TrackPointExtension>
            <ns3:atemp>32.0</ns3:atemp>
            <ns3:hr>98</ns3:hr>
          </ns3:TrackPointExtension>
        </extensions>
      </trkpt>
      <trkpt lat="31.4356504194438457489013671875" lon="119.4826726801693439483642578125">
        <ele>8.19999980926513671875</ele>
        <time>2020-08-21T23:23:39.000Z</time>
        <extensions>
          <ns3:TrackPointExtension>
            <ns3:atemp>32.0</ns3:atemp>
            <ns3:hr>95</ns3:hr>
          </ns3:TrackPointExtension>
        </extensions>
      </trkpt>
      <trkpt lat="31.43562887795269489288330078125" lon="119.48263135738670825958251953125">
        <ele>8.19999980926513671875</ele>
        <time>2020-08-21T23:23:43.000Z</time>
        <extensions>
          <ns3:TrackPointExtension>
            <ns3:atemp>32.0</ns3:atemp>
            <ns3:hr>95</ns3:hr>
          </ns3:TrackPointExtension>
        </extensions>
      </trkpt>
      <trkpt lat="31.43560943193733692169189453125" lon="119.4826146773993968963623046875">
        <ele>8.19999980926513671875</ele>
        <time>2020-08-21T23:23:47.000Z</time>
        <extensions>
          <ns3:TrackPointExtension>
            <ns3:atemp>32.0</ns3:atemp>
            <ns3:hr>98</ns3:hr>
          </ns3:TrackPointExtension>
        </extensions>
      </trkpt>
      <trkpt lat="31.4356105215847492218017578125" lon="119.48261090554296970367431640625">
        <ele>8.6000003814697265625</ele>
        <time>2020-08-21T23:23:51.000Z</time>
        <extensions>
          <ns3:TrackPointExtension>
            <ns3:atemp>32.0</ns3:atemp>
            <ns3:hr>98</ns3:hr>
          </ns3:TrackPointExtension>
        </extensions>
      </trkpt>
    </trkseg>
  </trk>
</gpx>
