<gpx xmlns:ns3="http://www.garmin.com/xmlschemas/TrackPointExtension/v1" xmlns="http://www.topografix.com/GPX/1/1" xmlns:xsi="http://www.w3.org/2001/XMLSchema-instance" xmlns:ns2="http://www.garmin.com/xmlschemas/GpxExtensions/v3" creator="Garmin Connect" version="1.1" xsi:schemaLocation="http://www.topografix.com/GPX/1/1 http://www.topografix.com/GPX/11.xsd">
  <extensions>
<distance>2100.23</distance>
<average_hr>122.0</average_hr>
<average_speed>8.076000213623047</average_speed>
<start_time>2021-01-08T22:37:50+00:00</start_time>
<end_time>2021-01-08T22:42:10.064000+00:00</end_time>
<moving_time>254.0</moving_time>
<elapsed_time>272.232</elapsed_time>
</extensions>
<metadata>
    <link href="connect.garmin.com">
      <text>Garmin Connect</text>
    </link>
    <time>2021-01-08T22:37:50.000Z</time>
  </metadata>
  <trk>
    <name>无锡市 跑步</name>
    <type>running</type>
    <trkseg>
      <trkpt lat="31.19025536812841892242431640625" lon="119.5648889243602752685546875">
        <ele>106</ele>
        <time>2021-01-08T22:37:50.000Z</time>
        <extensions>
          <ns3:TrackPointExtension>
            <ns3:hr>99</ns3:hr>
            <ns3:cad>0</ns3:cad>
          </ns3:TrackPointExtension>
        </extensions>
      </trkpt>
      <trkpt lat="31.19025327265262603759765625" lon="119.5649372041225433349609375">
        <ele>105.40000152587890625</ele>
        <time>2021-01-08T22:37:52.000Z</time>
        <extensions>
          <ns3:TrackPointExtension>
            <ns3:hr>100</ns3:hr>
            <ns3:cad>0</ns3:cad>
          </ns3:TrackPointExtension>
        </extensions>
      </trkpt>
      <trkpt lat="31.19025251828134059906005859375" lon="119.564967043697834014892578125">
        <ele>105.1999969482421875</ele>
        <time>2021-01-08T22:37:54.000Z</time>
        <extensions>
          <ns3:TrackPointExtension>
            <ns3:hr>99</ns3:hr>
            <ns3:cad>0</ns3:cad>
          </ns3:TrackPointExtension>
        </extensions>
      </trkpt>
      <trkpt lat="31.19021563790738582611083984375" lon="119.56508346833288669586181640625">
        <ele>103.40000152587890625</ele>
        <time>2021-01-08T22:37:59.000Z</time>
        <extensions>
          <ns3:TrackPointExtension>
            <ns3:hr>99</ns3:hr>
            <ns3:cad>92</ns3:cad>
          </ns3:TrackPointExtension>
        </extensions>
      </trkpt>
      <trkpt lat="31.190169788897037506103515625" lon="119.5652555488049983978271484375">
        <ele>102.1999969482421875</ele>
        <time>2021-01-08T22:38:04.000Z</time>
        <extensions>
          <ns3:TrackPointExtension>
            <ns3:hr>101</ns3:hr>
            <ns3:cad>91</ns3:cad>
          </ns3:TrackPointExtension>
        </extensions>
      </trkpt>
      <trkpt lat="31.1901303939521312713623046875" lon="119.5653261244297027587890625">
        <ele>101.1999969482421875</ele>
        <time>2021-01-08T22:38:06.000Z</time>
        <extensions>
          <ns3:TrackPointExtension>
            <ns3:hr>105</ns3:hr>
            <ns3:cad>91</ns3:cad>
          </ns3:TrackPointExtension>
        </extensions>
      </trkpt>
      <trkpt lat="31.1901022307574748992919921875" lon="119.56537633202970027923583984375">
        <ele>100.8000030517578125</ele>
        <time>2021-01-08T22:38:09.000Z</time>
        <extensions>
          <ns3:TrackPointExtension>
            <ns3:hr>102</ns3:hr>
            <ns3:cad>91</ns3:cad>
          </ns3:TrackPointExtension>
        </extensions>
      </trkpt>
      <trkpt lat="31.19012611918151378631591796875" lon="119.565342552959918975830078125">
        <ele>101.1999969482421875</ele>
        <time>2021-01-08T22:38:13.000Z</time>
        <extensions>
          <ns3:TrackPointExtension>
            <ns3:hr>106</ns3:hr>
            <ns3:cad>91</ns3:cad>
          </ns3:TrackPointExtension>
        </extensions>
      </trkpt>
      <trkpt lat="31.19014061987400054931640625" lon="119.56531782634556293487548828125">
        <ele>101.40000152587890625</ele>
        <time>2021-01-08T22:38:14.000Z</time>
        <extensions>
          <ns3:TrackPointExtension>
            <ns3:hr>106</ns3:hr>
            <ns3:cad>92</ns3:cad>
          </ns3:TrackPointExtension>
        </extensions>
      </trkpt>
      <trkpt lat="31.19015377946197986602783203125" lon="119.56529402174055576324462890625">
        <ele>101.8000030517578125</ele>
        <time>2021-01-08T22:38:15.000Z</time>
        <extensions>
          <ns3:TrackPointExtension>
            <ns3:hr>110</ns3:hr>
            <ns3:cad>92</ns3:cad>
          </ns3:TrackPointExtension>
        </extensions>
      </trkpt>
      <trkpt lat="31.19016534648835659027099609375" lon="119.5652853883802890777587890625">
        <ele>102</ele>
        <time>2021-01-08T22:38:17.000Z</time>
        <extensions>
          <ns3:TrackPointExtension>
            <ns3:hr>113</ns3:hr>
            <ns3:cad>92</ns3:cad>
          </ns3:TrackPointExtension>
        </extensions>
      </trkpt>
      <trkpt lat="31.19016475975513458251953125" lon="119.565306007862091064453125">
        <ele>102</ele>
        <time>2021-01-08T22:38:18.000Z</time>
        <extensions>
          <ns3:TrackPointExtension>
            <ns3:hr>113</ns3:hr>
            <ns3:cad>91</ns3:cad>
          </ns3:TrackPointExtension>
        </extensions>
      </trkpt>
      <trkpt lat="31.19017858989536762237548828125" lon="119.56532369367778301239013671875">
        <ele>102.1999969482421875</ele>
        <time>2021-01-08T22:38:19.000Z</time>
        <extensions>
          <ns3:TrackPointExtension>
            <ns3:hr>114</ns3:hr>
            <ns3:cad>91</ns3:cad>
          </ns3:TrackPointExtension>
        </extensions>
      </trkpt>
      <trkpt lat="31.1902004666626453399658203125" lon="119.56537616439163684844970703125">
        <ele>102.40000152587890625</ele>
        <time>2021-01-08T22:38:22.000Z</time>
        <extensions>
          <ns3:TrackPointExtension>
            <ns3:hr>117</ns3:hr>
            <ns3:cad>92</ns3:cad>
          </ns3:TrackPointExtension>
        </extensions>
      </trkpt>
      <trkpt lat="31.1901863850653171539306640625" lon="119.56540818326175212860107421875">
        <ele>102.1999969482421875</ele>
        <time>2021-01-08T22:38:23.000Z</time>
        <extensions>
          <ns3:TrackPointExtension>
            <ns3:hr>117</ns3:hr>
            <ns3:cad>92</ns3:cad>
          </ns3:TrackPointExtension>
        </extensions>
      </trkpt>
      <trkpt lat="31.1901595629751682281494140625" lon="119.565440118312835693359375">
        <ele>101.8000030517578125</ele>
        <time>2021-01-08T22:38:24.000Z</time>
        <extensions>
          <ns3:TrackPointExtension>
            <ns3:hr>121</ns3:hr>
            <ns3:cad>92</ns3:cad>
          </ns3:TrackPointExtension>
        </extensions>
      </trkpt>
      <trkpt lat="31.19013282470405101776123046875" lon="119.56549149937927722930908203125">
        <ele>101.59999847412109375</ele>
        <time>2021-01-08T22:38:26.000Z</time>
        <extensions>
          <ns3:TrackPointExtension>
            <ns3:hr>121</ns3:hr>
            <ns3:cad>92</ns3:cad>
          </ns3:TrackPointExtension>
        </extensions>
      </trkpt>
      <trkpt lat="31.1901411227881908416748046875" lon="119.5655422098934650421142578125">
        <ele>102</ele>
        <time>2021-01-08T22:38:29.000Z</time>
        <extensions>
          <ns3:TrackPointExtension>
            <ns3:hr>121</ns3:hr>
            <ns3:cad>92</ns3:cad>
          </ns3:TrackPointExtension>
        </extensions>
      </trkpt>
      <trkpt lat="31.190155707299709320068359375" lon="119.5655452273786067962646484375">
        <ele>102.1999969482421875</ele>
        <time>2021-01-08T22:38:30.000Z</time>
        <extensions>
          <ns3:TrackPointExtension>
            <ns3:hr>121</ns3:hr>
            <ns3:cad>92</ns3:cad>
          </ns3:TrackPointExtension>
        </extensions>
      </trkpt>
      <trkpt lat="31.19015998207032680511474609375" lon="119.56555386073887348175048828125">
        <ele>102.1999969482421875</ele>
        <time>2021-01-08T22:38:31.000Z</time>
        <extensions>
          <ns3:TrackPointExtension>
            <ns3:hr>121</ns3:hr>
            <ns3:cad>92</ns3:cad>
          </ns3:TrackPointExtension>
        </extensions>
      </trkpt>
      <trkpt lat="31.19014154188334941864013671875" lon="119.5655945129692554473876953125">
        <ele>102.1999969482421875</ele>
        <time>2021-01-08T22:38:33.000Z</time>
        <extensions>
          <ns3:TrackPointExtension>
            <ns3:hr>119</ns3:hr>
            <ns3:cad>92</ns3:cad>
          </ns3:TrackPointExtension>
        </extensions>
      </trkpt>
      <trkpt lat="31.1900527775287628173828125" lon="119.5657440461218357086181640625">
        <ele>99.8000030517578125</ele>
        <time>2021-01-08T22:38:38.000Z</time>
        <extensions>
          <ns3:TrackPointExtension>
            <ns3:hr>120</ns3:hr>
            <ns3:cad>92</ns3:cad>
          </ns3:TrackPointExtension>
        </extensions>
      </trkpt>
      <trkpt lat="31.189978681504726409912109375" lon="119.56578989513218402862548828125">
        <ele>97.8000030517578125</ele>
        <time>2021-01-08T22:38:41.000Z</time>
        <extensions>
          <ns3:TrackPointExtension>
            <ns3:hr>120</ns3:hr>
            <ns3:cad>92</ns3:cad>
          </ns3:TrackPointExtension>
        </extensions>
      </trkpt>
      <trkpt lat="31.18993786163628101348876953125" lon="119.5658067427575588226318359375">
        <ele>97</ele>
        <time>2021-01-08T22:38:42.000Z</time>
        <extensions>
          <ns3:TrackPointExtension>
            <ns3:hr>122</ns3:hr>
            <ns3:cad>91</ns3:cad>
          </ns3:TrackPointExtension>
        </extensions>
      </trkpt>
      <trkpt lat="31.18964038789272308349609375" lon="119.56586147658526897430419921875">
        <ele>89</ele>
        <time>2021-01-08T22:38:46.000Z</time>
        <extensions>
          <ns3:TrackPointExtension>
            <ns3:hr>125</ns3:hr>
            <ns3:cad>92</ns3:cad>
          </ns3:TrackPointExtension>
        </extensions>
      </trkpt>
      <trkpt lat="31.1890742741525173187255859375" lon="119.5657507516443729400634765625">
        <ele>80.59999847412109375</ele>
        <time>2021-01-08T22:38:51.000Z</time>
        <extensions>
          <ns3:TrackPointExtension>
            <ns3:hr>127</ns3:hr>
            <ns3:cad>90</ns3:cad>
          </ns3:TrackPointExtension>
        </extensions>
      </trkpt>
      <trkpt lat="31.18895701132714748382568359375" lon="119.56570875830948352813720703125">
        <ele>80</ele>
        <time>2021-01-08T22:38:52.000Z</time>
        <extensions>
          <ns3:TrackPointExtension>
            <ns3:hr>127</ns3:hr>
            <ns3:cad>90</ns3:cad>
          </ns3:TrackPointExtension>
        </extensions>
      </trkpt>
      <trkpt lat="31.188797838985919952392578125" lon="119.56563265062868595123291015625">
        <ele>80.40000152587890625</ele>
        <time>2021-01-08T22:38:54.000Z</time>
        <extensions>
          <ns3:TrackPointExtension>
            <ns3:hr>128</ns3:hr>
            <ns3:cad>90</ns3:cad>
          </ns3:TrackPointExtension>
        </extensions>
      </trkpt>
      <trkpt lat="31.18843230418860912322998046875" lon="119.56536426208913326263427734375">
        <ele>82.8000030517578125</ele>
        <time>2021-01-08T22:38:57.000Z</time>
        <extensions>
          <ns3:TrackPointExtension>
            <ns3:hr>129</ns3:hr>
            <ns3:cad>90</ns3:cad>
          </ns3:TrackPointExtension>
        </extensions>
      </trkpt>
      <trkpt lat="31.1880510114133358001708984375" lon="119.565117917954921722412109375">
        <ele>82.1999969482421875</ele>
        <time>2021-01-08T22:39:01.000Z</time>
        <extensions>
          <ns3:TrackPointExtension>
            <ns3:hr>127</ns3:hr>
            <ns3:cad>90</ns3:cad>
          </ns3:TrackPointExtension>
        </extensions>
      </trkpt>
      <trkpt lat="31.1876111291348934173583984375" lon="119.56492136232554912567138671875">
        <ele>87.1999969482421875</ele>
        <time>2021-01-08T22:39:07.000Z</time>
        <extensions>
          <ns3:TrackPointExtension>
            <ns3:hr>126</ns3:hr>
            <ns3:cad>90</ns3:cad>
          </ns3:TrackPointExtension>
        </extensions>
      </trkpt>
      <trkpt lat="31.1871870048344135284423828125" lon="119.564768560230731964111328125">
        <ele>84.1999969482421875</ele>
        <time>2021-01-08T22:39:11.000Z</time>
        <extensions>
          <ns3:TrackPointExtension>
            <ns3:hr>127</ns3:hr>
            <ns3:cad>91</ns3:cad>
          </ns3:TrackPointExtension>
        </extensions>
      </trkpt>
      <trkpt lat="31.18694434873759746551513671875" lon="119.56462983973324298858642578125">
        <ele>81.8000030517578125</ele>
        <time>2021-01-08T22:39:14.000Z</time>
        <extensions>
          <ns3:TrackPointExtension>
            <ns3:hr>130</ns3:hr>
            <ns3:cad>90</ns3:cad>
          </ns3:TrackPointExtension>
        </extensions>
      </trkpt>
      <trkpt lat="31.18682482279837131500244140625" lon="119.56455574370920658111572265625">
        <ele>80.40000152587890625</ele>
        <time>2021-01-08T22:39:15.000Z</time>
        <extensions>
          <ns3:TrackPointExtension>
            <ns3:hr>131</ns3:hr>
            <ns3:cad>90</ns3:cad>
          </ns3:TrackPointExtension>
        </extensions>
      </trkpt>
      <trkpt lat="31.18657688610255718231201171875" lon="119.56444057635962963104248046875">
        <ele>77.59999847412109375</ele>
        <time>2021-01-08T22:39:17.000Z</time>
        <extensions>
          <ns3:TrackPointExtension>
            <ns3:hr>134</ns3:hr>
            <ns3:cad>91</ns3:cad>
          </ns3:TrackPointExtension>
        </extensions>
      </trkpt>
      <trkpt lat="31.18645635433495044708251953125" lon="119.5643908716738224029541015625">
        <ele>76.1999969482421875</ele>
        <time>2021-01-08T22:39:18.000Z</time>
        <extensions>
          <ns3:TrackPointExtension>
            <ns3:hr>137</ns3:hr>
            <ns3:cad>91</ns3:cad>
          </ns3:TrackPointExtension>
        </extensions>
      </trkpt>
      <trkpt lat="31.186163909733295440673828125" lon="119.5643077231943607330322265625">
        <ele>73.8000030517578125</ele>
        <time>2021-01-08T22:39:20.000Z</time>
        <extensions>
          <ns3:TrackPointExtension>
            <ns3:hr>137</ns3:hr>
            <ns3:cad>90</ns3:cad>
          </ns3:TrackPointExtension>
        </extensions>
      </trkpt>
      <trkpt lat="31.1857151426374912261962890625" lon="119.5642094872891902923583984375">
        <ele>70</ele>
        <time>2021-01-08T22:39:23.000Z</time>
        <extensions>
          <ns3:TrackPointExtension>
            <ns3:hr>138</ns3:hr>
            <ns3:cad>90</ns3:cad>
          </ns3:TrackPointExtension>
        </extensions>
      </trkpt>
      <trkpt lat="31.1848360486328601837158203125" lon="119.564115442335605621337890625">
        <ele>70.40000152587890625</ele>
        <time>2021-01-08T22:39:28.000Z</time>
        <extensions>
          <ns3:TrackPointExtension>
            <ns3:hr>136</ns3:hr>
            <ns3:cad>90</ns3:cad>
          </ns3:TrackPointExtension>
        </extensions>
      </trkpt>
      <trkpt lat="31.1845973320305347442626953125" lon="119.56411309540271759033203125">
        <ele>70</ele>
        <time>2021-01-08T22:39:29.000Z</time>
        <extensions>
          <ns3:TrackPointExtension>
            <ns3:hr>136</ns3:hr>
            <ns3:cad>91</ns3:cad>
          </ns3:TrackPointExtension>
        </extensions>
      </trkpt>
      <trkpt lat="31.1844125948846340179443359375" lon="119.56411217339336872100830078125">
        <ele>68.8000030517578125</ele>
        <time>2021-01-08T22:39:30.000Z</time>
        <extensions>
          <ns3:TrackPointExtension>
            <ns3:hr>136</ns3:hr>
            <ns3:cad>91</ns3:cad>
          </ns3:TrackPointExtension>
        </extensions>
      </trkpt>
      <trkpt lat="31.1842704378068447113037109375" lon="119.5640948228538036346435546875">
        <ele>68</ele>
        <time>2021-01-08T22:39:31.000Z</time>
        <extensions>
          <ns3:TrackPointExtension>
            <ns3:hr>134</ns3:hr>
            <ns3:cad>91</ns3:cad>
          </ns3:TrackPointExtension>
        </extensions>
      </trkpt>
      <trkpt lat="31.18402593769133090972900390625" lon="119.5640681684017181396484375">
        <ele>68.8000030517578125</ele>
        <time>2021-01-08T22:39:33.000Z</time>
        <extensions>
          <ns3:TrackPointExtension>
            <ns3:hr>136</ns3:hr>
            <ns3:cad>90</ns3:cad>
          </ns3:TrackPointExtension>
        </extensions>
      </trkpt>
      <trkpt lat="31.18388059549033641815185546875" lon="119.56405970267951488494873046875">
        <ele>69.40000152587890625</ele>
        <time>2021-01-08T22:39:34.000Z</time>
        <extensions>
          <ns3:TrackPointExtension>
            <ns3:hr>135</ns3:hr>
            <ns3:cad>90</ns3:cad>
          </ns3:TrackPointExtension>
        </extensions>
      </trkpt>
      <trkpt lat="31.18358664214611053466796875" lon="119.56404059194028377532958984375">
        <ele>71</ele>
        <time>2021-01-08T22:39:36.000Z</time>
        <extensions>
          <ns3:TrackPointExtension>
            <ns3:hr>137</ns3:hr>
            <ns3:cad>90</ns3:cad>
          </ns3:TrackPointExtension>
        </extensions>
      </trkpt>
      <trkpt lat="31.18330392055213451385498046875" lon="119.5640267618000507354736328125">
        <ele>71.1999969482421875</ele>
        <time>2021-01-08T22:39:38.000Z</time>
        <extensions>
          <ns3:TrackPointExtension>
            <ns3:hr>137</ns3:hr>
            <ns3:cad>90</ns3:cad>
          </ns3:TrackPointExtension>
        </extensions>
      </trkpt>
      <trkpt lat="31.18318204768002033233642578125" lon="119.56401695497334003448486328125">
        <ele>71.1999969482421875</ele>
        <time>2021-01-08T22:39:39.000Z</time>
        <extensions>
          <ns3:TrackPointExtension>
            <ns3:hr>137</ns3:hr>
            <ns3:cad>90</ns3:cad>
          </ns3:TrackPointExtension>
        </extensions>
      </trkpt>
      <trkpt lat="31.182865798473358154296875" lon="119.56399298273026943206787109375">
        <ele>69</ele>
        <time>2021-01-08T22:39:41.000Z</time>
        <extensions>
          <ns3:TrackPointExtension>
            <ns3:hr>137</ns3:hr>
            <ns3:cad>90</ns3:cad>
          </ns3:TrackPointExtension>
        </extensions>
      </trkpt>
      <trkpt lat="31.18265935219824314117431640625" lon="119.5639697648584842681884765625">
        <ele>67.1999969482421875</ele>
        <time>2021-01-08T22:39:42.000Z</time>
        <extensions>
          <ns3:TrackPointExtension>
            <ns3:hr>135</ns3:hr>
            <ns3:cad>90</ns3:cad>
          </ns3:TrackPointExtension>
        </extensions>
      </trkpt>
      <trkpt lat="31.1824398301541805267333984375" lon="119.5639459602534770965576171875">
        <ele>67</ele>
        <time>2021-01-08T22:39:43.000Z</time>
        <extensions>
          <ns3:TrackPointExtension>
            <ns3:hr>135</ns3:hr>
            <ns3:cad>90</ns3:cad>
          </ns3:TrackPointExtension>
        </extensions>
      </trkpt>
      <trkpt lat="31.1822098307311534881591796875" lon="119.5639218203723430633544921875">
        <ele>67.8000030517578125</ele>
        <time>2021-01-08T22:39:44.000Z</time>
        <extensions>
          <ns3:TrackPointExtension>
            <ns3:hr>135</ns3:hr>
            <ns3:cad>90</ns3:cad>
          </ns3:TrackPointExtension>
        </extensions>
      </trkpt>
      <trkpt lat="31.1819043941795825958251953125" lon="119.56388066522777080535888671875">
        <ele>70.1999969482421875</ele>
        <time>2021-01-08T22:39:46.000Z</time>
        <extensions>
          <ns3:TrackPointExtension>
            <ns3:hr>132</ns3:hr>
            <ns3:cad>92</ns3:cad>
          </ns3:TrackPointExtension>
        </extensions>
      </trkpt>
      <trkpt lat="31.181775145232677459716796875" lon="119.5638685114681720733642578125">
        <ele>71.1999969482421875</ele>
        <time>2021-01-08T22:39:47.000Z</time>
        <extensions>
          <ns3:TrackPointExtension>
            <ns3:hr>131</ns3:hr>
            <ns3:cad>92</ns3:cad>
          </ns3:TrackPointExtension>
        </extensions>
      </trkpt>
      <trkpt lat="31.1815077625215053558349609375" lon="119.56384529359638690948486328125">
        <ele>71.1999969482421875</ele>
        <time>2021-01-08T22:39:49.000Z</time>
        <extensions>
          <ns3:TrackPointExtension>
            <ns3:hr>130</ns3:hr>
            <ns3:cad>91</ns3:cad>
          </ns3:TrackPointExtension>
        </extensions>
      </trkpt>
      <trkpt lat="31.1812874861061573028564453125" lon="119.563815705478191375732421875">
        <ele>73.59999847412109375</ele>
        <time>2021-01-08T22:39:51.000Z</time>
        <extensions>
          <ns3:TrackPointExtension>
            <ns3:hr>132</ns3:hr>
            <ns3:cad>91</ns3:cad>
          </ns3:TrackPointExtension>
        </extensions>
      </trkpt>
      <trkpt lat="31.18107668124139308929443359375" lon="119.5637883804738521575927734375">
        <ele>78.59999847412109375</ele>
        <time>2021-01-08T22:39:53.000Z</time>
        <extensions>
          <ns3:TrackPointExtension>
            <ns3:hr>133</ns3:hr>
            <ns3:cad>91</ns3:cad>
          </ns3:TrackPointExtension>
        </extensions>
      </trkpt>
      <trkpt lat="31.18082220666110515594482421875" lon="119.56374454312026500701904296875">
        <ele>83</ele>
        <time>2021-01-08T22:39:55.000Z</time>
        <extensions>
          <ns3:TrackPointExtension>
            <ns3:hr>132</ns3:hr>
            <ns3:cad>91</ns3:cad>
          </ns3:TrackPointExtension>
        </extensions>
      </trkpt>
      <trkpt lat="31.18052213452756404876708984375" lon="119.56369777210056781768798828125">
        <ele>83.8000030517578125</ele>
        <time>2021-01-08T22:39:57.000Z</time>
        <extensions>
          <ns3:TrackPointExtension>
            <ns3:hr>132</ns3:hr>
            <ns3:cad>90</ns3:cad>
          </ns3:TrackPointExtension>
        </extensions>
      </trkpt>
      <trkpt lat="31.1800992675125598907470703125" lon="119.563592411577701568603515625">
        <ele>79.8000030517578125</ele>
        <time>2021-01-08T22:40:01.000Z</time>
        <extensions>
          <ns3:TrackPointExtension>
            <ns3:hr>128</ns3:hr>
            <ns3:cad>91</ns3:cad>
          </ns3:TrackPointExtension>
        </extensions>
      </trkpt>
      <trkpt lat="31.17989097721874713897705078125" lon="119.56355796195566654205322265625">
        <ele>77.8000030517578125</ele>
        <time>2021-01-08T22:40:02.000Z</time>
        <extensions>
          <ns3:TrackPointExtension>
            <ns3:hr>127</ns3:hr>
            <ns3:cad>90</ns3:cad>
          </ns3:TrackPointExtension>
        </extensions>
      </trkpt>
      <trkpt lat="31.17968947626650333404541015625" lon="119.5635263621807098388671875">
        <ele>78</ele>
        <time>2021-01-08T22:40:03.000Z</time>
        <extensions>
          <ns3:TrackPointExtension>
            <ns3:hr>127</ns3:hr>
            <ns3:cad>90</ns3:cad>
          </ns3:TrackPointExtension>
        </extensions>
      </trkpt>
      <trkpt lat="31.17948261089622974395751953125" lon="119.56349878571927547454833984375">
        <ele>78.59999847412109375</ele>
        <time>2021-01-08T22:40:04.000Z</time>
        <extensions>
          <ns3:TrackPointExtension>
            <ns3:hr>127</ns3:hr>
            <ns3:cad>90</ns3:cad>
          </ns3:TrackPointExtension>
        </extensions>
      </trkpt>
      <trkpt lat="31.17922528646886348724365234375" lon="119.56345084123313426971435546875">
        <ele>80</ele>
        <time>2021-01-08T22:40:06.000Z</time>
        <extensions>
          <ns3:TrackPointExtension>
            <ns3:hr>126</ns3:hr>
            <ns3:cad>91</ns3:cad>
          </ns3:TrackPointExtension>
        </extensions>
      </trkpt>
      <trkpt lat="31.1790181696414947509765625" lon="119.5634135417640209197998046875">
        <ele>80</ele>
        <time>2021-01-08T22:40:07.000Z</time>
        <extensions>
          <ns3:TrackPointExtension>
            <ns3:hr>125</ns3:hr>
            <ns3:cad>91</ns3:cad>
          </ns3:TrackPointExtension>
        </extensions>
      </trkpt>
      <trkpt lat="31.178834438323974609375" lon="119.5633803494274616241455078125">
        <ele>79.59999847412109375</ele>
        <time>2021-01-08T22:40:08.000Z</time>
        <extensions>
          <ns3:TrackPointExtension>
            <ns3:hr>125</ns3:hr>
            <ns3:cad>91</ns3:cad>
          </ns3:TrackPointExtension>
        </extensions>
      </trkpt>
      <trkpt lat="31.17860033176839351654052734375" lon="119.56332276575267314910888671875">
        <ele>80.1999969482421875</ele>
        <time>2021-01-08T22:40:10.000Z</time>
        <extensions>
          <ns3:TrackPointExtension>
            <ns3:hr>125</ns3:hr>
            <ns3:cad>90</ns3:cad>
          </ns3:TrackPointExtension>
        </extensions>
      </trkpt>
      <trkpt lat="31.17806187830865383148193359375" lon="119.56319100223481655120849609375">
        <ele>82.8000030517578125</ele>
        <time>2021-01-08T22:40:14.000Z</time>
        <extensions>
          <ns3:TrackPointExtension>
            <ns3:hr>125</ns3:hr>
            <ns3:cad>89</ns3:cad>
          </ns3:TrackPointExtension>
        </extensions>
      </trkpt>
      <trkpt lat="31.17785501293838024139404296875" lon="119.5631483383476734161376953125">
        <ele>83</ele>
        <time>2021-01-08T22:40:15.000Z</time>
        <extensions>
          <ns3:TrackPointExtension>
            <ns3:hr>125</ns3:hr>
            <ns3:cad>89</ns3:cad>
          </ns3:TrackPointExtension>
        </extensions>
      </trkpt>
      <trkpt lat="31.17760070599615573883056640625" lon="119.5630973763763904571533203125">
        <ele>83.40000152587890625</ele>
        <time>2021-01-08T22:40:16.000Z</time>
        <extensions>
          <ns3:TrackPointExtension>
            <ns3:hr>125</ns3:hr>
            <ns3:cad>89</ns3:cad>
          </ns3:TrackPointExtension>
        </extensions>
      </trkpt>
      <trkpt lat="31.17740658111870288848876953125" lon="119.56305638886988162994384765625">
        <ele>84.40000152587890625</ele>
        <time>2021-01-08T22:40:17.000Z</time>
        <extensions>
          <ns3:TrackPointExtension>
            <ns3:hr>125</ns3:hr>
            <ns3:cad>89</ns3:cad>
          </ns3:TrackPointExtension>
        </extensions>
      </trkpt>
      <trkpt lat="31.1772210896015167236328125" lon="119.56302009522914886474609375">
        <ele>85.40000152587890625</ele>
        <time>2021-01-08T22:40:18.000Z</time>
        <extensions>
          <ns3:TrackPointExtension>
            <ns3:hr>125</ns3:hr>
            <ns3:cad>89</ns3:cad>
          </ns3:TrackPointExtension>
        </extensions>
      </trkpt>
      <trkpt lat="31.176907606422901153564453125" lon="119.562963433563709259033203125">
        <ele>88.1999969482421875</ele>
        <time>2021-01-08T22:40:20.000Z</time>
        <extensions>
          <ns3:TrackPointExtension>
            <ns3:hr>125</ns3:hr>
            <ns3:cad>89</ns3:cad>
          </ns3:TrackPointExtension>
        </extensions>
      </trkpt>
      <trkpt lat="31.17655196227133274078369140625" lon="119.5628730766475200653076171875">
        <ele>91.40000152587890625</ele>
        <time>2021-01-08T22:40:23.000Z</time>
        <extensions>
          <ns3:TrackPointExtension>
            <ns3:hr>125</ns3:hr>
            <ns3:cad>89</ns3:cad>
          </ns3:TrackPointExtension>
        </extensions>
      </trkpt>
      <trkpt lat="31.1763726733624935150146484375" lon="119.5628325082361698150634765625">
        <ele>92.1999969482421875</ele>
        <time>2021-01-08T22:40:24.000Z</time>
        <extensions>
          <ns3:TrackPointExtension>
            <ns3:hr>125</ns3:hr>
            <ns3:cad>89</ns3:cad>
          </ns3:TrackPointExtension>
        </extensions>
      </trkpt>
      <trkpt lat="31.17608576081693172454833984375" lon="119.56277291290462017059326171875">
        <ele>91.8000030517578125</ele>
        <time>2021-01-08T22:40:26.000Z</time>
        <extensions>
          <ns3:TrackPointExtension>
            <ns3:hr>125</ns3:hr>
            <ns3:cad>89</ns3:cad>
          </ns3:TrackPointExtension>
        </extensions>
      </trkpt>
      <trkpt lat="31.1758134327828884124755859375" lon="119.5626967214047908782958984375">
        <ele>91</ele>
        <time>2021-01-08T22:40:28.000Z</time>
        <extensions>
          <ns3:TrackPointExtension>
            <ns3:hr>125</ns3:hr>
            <ns3:cad>89</ns3:cad>
          </ns3:TrackPointExtension>
        </extensions>
      </trkpt>
      <trkpt lat="31.17552903480827808380126953125" lon="119.5626239664852619171142578125">
        <ele>92</ele>
        <time>2021-01-08T22:40:30.000Z</time>
        <extensions>
          <ns3:TrackPointExtension>
            <ns3:hr>125</ns3:hr>
            <ns3:cad>88</ns3:cad>
          </ns3:TrackPointExtension>
        </extensions>
      </trkpt>
      <trkpt lat="31.17526181973516941070556640625" lon="119.56255716271698474884033203125">
        <ele>94.40000152587890625</ele>
        <time>2021-01-08T22:40:32.000Z</time>
        <extensions>
          <ns3:TrackPointExtension>
            <ns3:hr>125</ns3:hr>
            <ns3:cad>89</ns3:cad>
          </ns3:TrackPointExtension>
        </extensions>
      </trkpt>
      <trkpt lat="31.17495319806039333343505859375" lon="119.5624761097133159637451171875">
        <ele>97.1999969482421875</ele>
        <time>2021-01-08T22:40:34.000Z</time>
        <extensions>
          <ns3:TrackPointExtension>
            <ns3:hr>125</ns3:hr>
            <ns3:cad>89</ns3:cad>
          </ns3:TrackPointExtension>
        </extensions>
      </trkpt>
      <trkpt lat="31.17480198852717876434326171875" lon="119.5624385587871074676513671875">
        <ele>98.1999969482421875</ele>
        <time>2021-01-08T22:40:35.000Z</time>
        <extensions>
          <ns3:TrackPointExtension>
            <ns3:hr>125</ns3:hr>
            <ns3:cad>89</ns3:cad>
          </ns3:TrackPointExtension>
        </extensions>
      </trkpt>
      <trkpt lat="31.17453913204371929168701171875" lon="119.562355577945709228515625">
        <ele>99.8000030517578125</ele>
        <time>2021-01-08T22:40:37.000Z</time>
        <extensions>
          <ns3:TrackPointExtension>
            <ns3:hr>124</ns3:hr>
            <ns3:cad>89</ns3:cad>
          </ns3:TrackPointExtension>
        </extensions>
      </trkpt>
      <trkpt lat="31.1743013374507427215576171875" lon="119.5622860081493854522705078125">
        <ele>101</ele>
        <time>2021-01-08T22:40:39.000Z</time>
        <extensions>
          <ns3:TrackPointExtension>
            <ns3:hr>122</ns3:hr>
            <ns3:cad>89</ns3:cad>
          </ns3:TrackPointExtension>
        </extensions>
      </trkpt>
      <trkpt lat="31.17406739853322505950927734375" lon="119.562213420867919921875">
        <ele>103.59999847412109375</ele>
        <time>2021-01-08T22:40:41.000Z</time>
        <extensions>
          <ns3:TrackPointExtension>
            <ns3:hr>123</ns3:hr>
            <ns3:cad>90</ns3:cad>
          </ns3:TrackPointExtension>
        </extensions>
      </trkpt>
      <trkpt lat="31.173851229250431060791015625" lon="119.56214368343353271484375">
        <ele>104.59999847412109375</ele>
        <time>2021-01-08T22:40:43.000Z</time>
        <extensions>
          <ns3:TrackPointExtension>
            <ns3:hr>122</ns3:hr>
            <ns3:cad>90</ns3:cad>
          </ns3:TrackPointExtension>
        </extensions>
      </trkpt>
      <trkpt lat="31.17362265475094318389892578125" lon="119.56207604147493839263916015625">
        <ele>104.59999847412109375</ele>
        <time>2021-01-08T22:40:45.000Z</time>
        <extensions>
          <ns3:TrackPointExtension>
            <ns3:hr>123</ns3:hr>
            <ns3:cad>90</ns3:cad>
          </ns3:TrackPointExtension>
        </extensions>
      </trkpt>
      <trkpt lat="31.173231303691864013671875" lon="119.561969004571437835693359375">
        <ele>103.40000152587890625</ele>
        <time>2021-01-08T22:40:49.000Z</time>
        <extensions>
          <ns3:TrackPointExtension>
            <ns3:hr>123</ns3:hr>
            <ns3:cad>90</ns3:cad>
          </ns3:TrackPointExtension>
        </extensions>
      </trkpt>
      <trkpt lat="31.17303994484245777130126953125" lon="119.56190429627895355224609375">
        <ele>104.40000152587890625</ele>
        <time>2021-01-08T22:40:51.000Z</time>
        <extensions>
          <ns3:TrackPointExtension>
            <ns3:hr>124</ns3:hr>
            <ns3:cad>90</ns3:cad>
          </ns3:TrackPointExtension>
        </extensions>
      </trkpt>
      <trkpt lat="31.17280541919171810150146484375" lon="119.56182039342820644378662109375">
        <ele>107</ele>
        <time>2021-01-08T22:40:53.000Z</time>
        <extensions>
          <ns3:TrackPointExtension>
            <ns3:hr>126</ns3:hr>
            <ns3:cad>88</ns3:cad>
          </ns3:TrackPointExtension>
        </extensions>
      </trkpt>
      <trkpt lat="31.17244935594499111175537109375" lon="119.56173238344490528106689453125">
        <ele>110.8000030517578125</ele>
        <time>2021-01-08T22:40:55.000Z</time>
        <extensions>
          <ns3:TrackPointExtension>
            <ns3:hr>127</ns3:hr>
            <ns3:cad>88</ns3:cad>
          </ns3:TrackPointExtension>
        </extensions>
      </trkpt>
      <trkpt lat="31.17224114947021007537841796875" lon="119.56168762408196926116943359375">
        <ele>112</ele>
        <time>2021-01-08T22:40:56.000Z</time>
        <extensions>
          <ns3:TrackPointExtension>
            <ns3:hr>127</ns3:hr>
            <ns3:cad>88</ns3:cad>
          </ns3:TrackPointExtension>
        </extensions>
      </trkpt>
      <trkpt lat="31.17205984890460968017578125" lon="119.56164789386093616485595703125">
        <ele>112.40000152587890625</ele>
        <time>2021-01-08T22:40:57.000Z</time>
        <extensions>
          <ns3:TrackPointExtension>
            <ns3:hr>127</ns3:hr>
            <ns3:cad>88</ns3:cad>
          </ns3:TrackPointExtension>
        </extensions>
      </trkpt>
      <trkpt lat="31.17185323499143123626708984375" lon="119.561596177518367767333984375">
        <ele>111.40000152587890625</ele>
        <time>2021-01-08T22:40:59.000Z</time>
        <extensions>
          <ns3:TrackPointExtension>
            <ns3:hr>127</ns3:hr>
            <ns3:cad>88</ns3:cad>
          </ns3:TrackPointExtension>
        </extensions>
      </trkpt>
      <trkpt lat="31.1718062125146389007568359375" lon="119.56156843341886997222900390625">
        <ele>111.1999969482421875</ele>
        <time>2021-01-08T22:41:00.000Z</time>
        <extensions>
          <ns3:TrackPointExtension>
            <ns3:hr>127</ns3:hr>
            <ns3:cad>88</ns3:cad>
          </ns3:TrackPointExtension>
        </extensions>
      </trkpt>
      <trkpt lat="31.1716771312057971954345703125" lon="119.56158586777746677398681640625">
        <ele>111.8000030517578125</ele>
        <time>2021-01-08T22:41:02.000Z</time>
        <extensions>
          <ns3:TrackPointExtension>
            <ns3:hr>126</ns3:hr>
            <ns3:cad>88</ns3:cad>
          </ns3:TrackPointExtension>
        </extensions>
      </trkpt>
      <trkpt lat="31.17142156697809696197509765625" lon="119.56150774843990802764892578125">
        <ele>113.8000030517578125</ele>
        <time>2021-01-08T22:41:04.000Z</time>
        <extensions>
          <ns3:TrackPointExtension>
            <ns3:hr>126</ns3:hr>
            <ns3:cad>54</ns3:cad>
          </ns3:TrackPointExtension>
        </extensions>
      </trkpt>
      <trkpt lat="31.170437447726726531982421875" lon="119.561116732656955718994140625">
        <ele>120</ele>
        <time>2021-01-08T22:41:14.000Z</time>
        <extensions>
          <ns3:TrackPointExtension>
            <ns3:hr>119</ns3:hr>
            <ns3:cad>0</ns3:cad>
          </ns3:TrackPointExtension>
        </extensions>
      </trkpt>
      <trkpt lat="31.170247681438922882080078125" lon="119.56105126999318599700927734375">
        <ele>123.1999969482421875</ele>
        <time>2021-01-08T22:41:16.000Z</time>
        <extensions>
          <ns3:TrackPointExtension>
            <ns3:hr>119</ns3:hr>
            <ns3:cad>0</ns3:cad>
          </ns3:TrackPointExtension>
        </extensions>
      </trkpt>
      <trkpt lat="31.16997334174811840057373046875" lon="119.5609797723591327667236328125">
        <ele>129.1999969482421875</ele>
        <time>2021-01-08T22:41:18.000Z</time>
        <extensions>
          <ns3:TrackPointExtension>
            <ns3:hr>120</ns3:hr>
            <ns3:cad>0</ns3:cad>
          </ns3:TrackPointExtension>
        </extensions>
      </trkpt>
      <trkpt lat="31.169671677052974700927734375" lon="119.5609150640666484832763671875">
        <ele>136.8000030517578125</ele>
        <time>2021-01-08T22:41:20.000Z</time>
        <extensions>
          <ns3:TrackPointExtension>
            <ns3:hr>119</ns3:hr>
            <ns3:cad>89</ns3:cad>
          </ns3:TrackPointExtension>
        </extensions>
      </trkpt>
      <trkpt lat="31.1694408394396305084228515625" lon="119.56086234189569950103759765625">
        <ele>140.600006103515625</ele>
        <time>2021-01-08T22:41:22.000Z</time>
        <extensions>
          <ns3:TrackPointExtension>
            <ns3:hr>118</ns3:hr>
            <ns3:cad>89</ns3:cad>
          </ns3:TrackPointExtension>
        </extensions>
      </trkpt>
      <trkpt lat="31.16919667460024356842041015625" lon="119.56080383621156215667724609375">
        <ele>143</ele>
        <time>2021-01-08T22:41:24.000Z</time>
        <extensions>
          <ns3:TrackPointExtension>
            <ns3:hr>117</ns3:hr>
            <ns3:cad>90</ns3:cad>
          </ns3:TrackPointExtension>
        </extensions>
      </trkpt>
      <trkpt lat="31.16893147118389606475830078125" lon="119.5607430674135684967041015625">
        <ele>145.600006103515625</ele>
        <time>2021-01-08T22:41:26.000Z</time>
        <extensions>
          <ns3:TrackPointExtension>
            <ns3:hr>119</ns3:hr>
            <ns3:cad>89</ns3:cad>
          </ns3:TrackPointExtension>
        </extensions>
      </trkpt>
      <trkpt lat="31.16878914646804332733154296875" lon="119.56072253175079822540283203125">
        <ele>148.399993896484375</ele>
        <time>2021-01-08T22:41:27.000Z</time>
        <extensions>
          <ns3:TrackPointExtension>
            <ns3:hr>118</ns3:hr>
            <ns3:cad>89</ns3:cad>
          </ns3:TrackPointExtension>
        </extensions>
      </trkpt>
      <trkpt lat="31.16864363662898540496826171875" lon="119.5606998167932033538818359375">
        <ele>151.1999969482421875</ele>
        <time>2021-01-08T22:41:28.000Z</time>
        <extensions>
          <ns3:TrackPointExtension>
            <ns3:hr>119</ns3:hr>
            <ns3:cad>89</ns3:cad>
          </ns3:TrackPointExtension>
        </extensions>
      </trkpt>
      <trkpt lat="31.16840257309377193450927734375" lon="119.56065975129604339599609375">
        <ele>154.8000030517578125</ele>
        <time>2021-01-08T22:41:30.000Z</time>
        <extensions>
          <ns3:TrackPointExtension>
            <ns3:hr>120</ns3:hr>
            <ns3:cad>88</ns3:cad>
          </ns3:TrackPointExtension>
        </extensions>
      </trkpt>
      <trkpt lat="31.1681262217462062835693359375" lon="119.56062756478786468505859375">
        <ele>160.399993896484375</ele>
        <time>2021-01-08T22:41:32.000Z</time>
        <extensions>
          <ns3:TrackPointExtension>
            <ns3:hr>121</ns3:hr>
            <ns3:cad>87</ns3:cad>
          </ns3:TrackPointExtension>
        </extensions>
      </trkpt>
      <trkpt lat="31.167788095772266387939453125" lon="119.56053636968135833740234375">
        <ele>170</ele>
        <time>2021-01-08T22:41:36.000Z</time>
        <extensions>
          <ns3:TrackPointExtension>
            <ns3:hr>122</ns3:hr>
            <ns3:cad>89</ns3:cad>
          </ns3:TrackPointExtension>
        </extensions>
      </trkpt>
      <trkpt lat="31.1674684099853038787841796875" lon="119.56043754704296588897705078125">
        <ele>176.8000030517578125</ele>
        <time>2021-01-08T22:41:38.000Z</time>
        <extensions>
          <ns3:TrackPointExtension>
            <ns3:hr>122</ns3:hr>
            <ns3:cad>89</ns3:cad>
          </ns3:TrackPointExtension>
        </extensions>
      </trkpt>
      <trkpt lat="31.167285852134227752685546875" lon="119.5603900216519832611083984375">
        <ele>180.8000030517578125</ele>
        <time>2021-01-08T22:41:39.000Z</time>
        <extensions>
          <ns3:TrackPointExtension>
            <ns3:hr>122</ns3:hr>
            <ns3:cad>89</ns3:cad>
          </ns3:TrackPointExtension>
        </extensions>
      </trkpt>
      <trkpt lat="31.16696658544242382049560546875" lon="119.56031584180891513824462890625">
        <ele>188.8000030517578125</ele>
        <time>2021-01-08T22:41:41.000Z</time>
        <extensions>
          <ns3:TrackPointExtension>
            <ns3:hr>121</ns3:hr>
            <ns3:cad>89</ns3:cad>
          </ns3:TrackPointExtension>
        </extensions>
      </trkpt>
      <trkpt lat="31.1666577123105525970458984375" lon="119.5602579228579998016357421875">
        <ele>194.1999969482421875</ele>
        <time>2021-01-08T22:41:43.000Z</time>
        <extensions>
          <ns3:TrackPointExtension>
            <ns3:hr>121</ns3:hr>
            <ns3:cad>89</ns3:cad>
          </ns3:TrackPointExtension>
        </extensions>
      </trkpt>
      <trkpt lat="31.16639041341841220855712890625" lon="119.56019841134548187255859375">
        <ele>196.399993896484375</ele>
        <time>2021-01-08T22:41:45.000Z</time>
        <extensions>
          <ns3:TrackPointExtension>
            <ns3:hr>120</ns3:hr>
            <ns3:cad>89</ns3:cad>
          </ns3:TrackPointExtension>
        </extensions>
      </trkpt>
      <trkpt lat="31.16621942259371280670166015625" lon="119.560178630053997039794921875">
        <ele>196.8000030517578125</ele>
        <time>2021-01-08T22:41:47.000Z</time>
        <extensions>
          <ns3:TrackPointExtension>
            <ns3:hr>120</ns3:hr>
            <ns3:cad>89</ns3:cad>
          </ns3:TrackPointExtension>
        </extensions>
      </trkpt>
      <trkpt lat="31.165936030447483062744140625" lon="119.5601502992212772369384765625">
        <ele>197.8000030517578125</ele>
        <time>2021-01-08T22:41:49.000Z</time>
        <extensions>
          <ns3:TrackPointExtension>
            <ns3:hr>119</ns3:hr>
            <ns3:cad>89</ns3:cad>
          </ns3:TrackPointExtension>
        </extensions>
      </trkpt>
      <trkpt lat="31.1653769575059413909912109375" lon="119.560107886791229248046875">
        <ele>206.8000030517578125</ele>
        <time>2021-01-08T22:41:53.000Z</time>
        <extensions>
          <ns3:TrackPointExtension>
            <ns3:hr>119</ns3:hr>
            <ns3:cad>91</ns3:cad>
          </ns3:TrackPointExtension>
        </extensions>
      </trkpt>
      <trkpt lat="31.16517855785787105560302734375" lon="119.560088776051998138427734375">
        <ele>209.1999969482421875</ele>
        <time>2021-01-08T22:41:54.000Z</time>
        <extensions>
          <ns3:TrackPointExtension>
            <ns3:hr>119</ns3:hr>
            <ns3:cad>90</ns3:cad>
          </ns3:TrackPointExtension>
        </extensions>
      </trkpt>
      <trkpt lat="31.16465535946190357208251953125" lon="119.560044519603252410888671875">
        <ele>225.600006103515625</ele>
        <time>2021-01-08T22:41:58.000Z</time>
        <extensions>
          <ns3:TrackPointExtension>
            <ns3:hr>118</ns3:hr>
            <ns3:cad>90</ns3:cad>
          </ns3:TrackPointExtension>
        </extensions>
      </trkpt>
      <trkpt lat="31.16419401951134204864501953125" lon="119.56000353209674358367919921875">
        <ele>236.8000030517578125</ele>
        <time>2021-01-08T22:42:02.000Z</time>
        <extensions>
          <ns3:TrackPointExtension>
            <ns3:hr>117</ns3:hr>
            <ns3:cad>89</ns3:cad>
          </ns3:TrackPointExtension>
        </extensions>
      </trkpt>
      <trkpt lat="31.16399419493973255157470703125" lon="119.55997738055884838104248046875">
        <ele>238.399993896484375</ele>
        <time>2021-01-08T22:42:03.000Z</time>
        <extensions>
          <ns3:TrackPointExtension>
            <ns3:hr>116</ns3:hr>
            <ns3:cad>89</ns3:cad>
          </ns3:TrackPointExtension>
        </extensions>
      </trkpt>
      <trkpt lat="31.1635191924870014190673828125" lon="119.55992239527404308319091796875">
        <ele>212.600006103515625</ele>
        <time>2021-01-08T22:42:06.000Z</time>
        <extensions>
          <ns3:TrackPointExtension>
            <ns3:hr>114</ns3:hr>
            <ns3:cad>89</ns3:cad>
          </ns3:TrackPointExtension>
        </extensions>
      </trkpt>
      <trkpt lat="31.16334744729101657867431640625" lon="119.55990378744900226593017578125">
        <ele>201.600006103515625</ele>
        <time>2021-01-08T22:42:07.000Z</time>
        <extensions>
          <ns3:TrackPointExtension>
            <ns3:hr>114</ns3:hr>
            <ns3:cad>90</ns3:cad>
          </ns3:TrackPointExtension>
        </extensions>
      </trkpt>
      <trkpt lat="31.16247153840959072113037109375" lon="119.5598311163485050201416015625">
        <ele>189.600006103515625</ele>
        <time>2021-01-08T22:42:13.000Z</time>
        <extensions>
          <ns3:TrackPointExtension>
            <ns3:hr>114</ns3:hr>
            <ns3:cad>89</ns3:cad>
          </ns3:TrackPointExtension>
        </extensions>
      </trkpt>
      <trkpt lat="31.16219258867204189300537109375" lon="119.55981711857020854949951171875">
        <ele>189.1999969482421875</ele>
        <time>2021-01-08T22:42:16.000Z</time>
        <extensions>
          <ns3:TrackPointExtension>
            <ns3:hr>114</ns3:hr>
            <ns3:cad>89</ns3:cad>
          </ns3:TrackPointExtension>
        </extensions>
      </trkpt>
      <trkpt lat="31.16199226118624210357666015625" lon="119.55979113467037677764892578125">
        <ele>191.399993896484375</ele>
        <time>2021-01-08T22:42:17.000Z</time>
        <extensions>
          <ns3:TrackPointExtension>
            <ns3:hr>114</ns3:hr>
            <ns3:cad>89</ns3:cad>
          </ns3:TrackPointExtension>
        </extensions>
      </trkpt>
      <trkpt lat="31.16164189763367176055908203125" lon="119.55974377691745758056640625">
        <ele>199.1999969482421875</ele>
        <time>2021-01-08T22:42:19.000Z</time>
        <extensions>
          <ns3:TrackPointExtension>
            <ns3:hr>114</ns3:hr>
            <ns3:cad>88</ns3:cad>
          </ns3:TrackPointExtension>
        </extensions>
      </trkpt>
      <trkpt lat="31.161389686167240142822265625" lon="119.5597084052860736846923828125">
        <ele>205.1999969482421875</ele>
        <time>2021-01-08T22:42:22.000Z</time>
        <extensions>
          <ns3:TrackPointExtension>
            <ns3:hr>116</ns3:hr>
            <ns3:cad>0</ns3:cad>
          </ns3:TrackPointExtension>
        </extensions>
      </trkpt>
    </trkseg>
  </trk>
</gpx>
