<gpx xmlns:ns3="http://www.garmin.com/xmlschemas/TrackPointExtension/v1" xmlns="http://www.topografix.com/GPX/1/1" xmlns:xsi="http://www.w3.org/2001/XMLSchema-instance" xmlns:ns2="http://www.garmin.com/xmlschemas/GpxExtensions/v3" creator="Garmin Connect" version="1.1" xsi:schemaLocation="http://www.topografix.com/GPX/1/1 http://www.topografix.com/GPX/11.xsd">
  <extensions>
<distance>0.0</distance>
<average_hr>68.0</average_hr>
<average_speed>0.0</average_speed>
<start_time>2017-05-28T23:57:30+00:00</start_time>
<end_time>2017-05-29T00:00:54.165000+00:00</end_time>
<moving_time>0.0</moving_time>
<elapsed_time>204.165</elapsed_time>
</extensions>
<metadata>
    <link href="connect.garmin.com">
      <text>Garmin Connect</text>
    </link>
    <time>2017-05-28T23:57:30.000Z</time>
  </metadata>
  <trk>
    <name>其他</name>
    <type>other</type>
    <trkseg/>
  </trk>
</gpx>
