<gpx xmlns:ns3="http://www.garmin.com/xmlschemas/TrackPointExtension/v1" xmlns="http://www.topografix.com/GPX/1/1" xmlns:xsi="http://www.w3.org/2001/XMLSchema-instance" xmlns:ns2="http://www.garmin.com/xmlschemas/GpxExtensions/v3" creator="Garmin Connect" version="1.1" xsi:schemaLocation="http://www.topografix.com/GPX/1/1 http://www.topografix.com/GPX/11.xsd">
  <extensions>
<distance>423.5</distance>
<average_hr>172.0</average_hr>
<average_speed>2.180000066757202</average_speed>
<start_time>2017-06-04T21:10:30+00:00</start_time>
<end_time>2017-06-04T21:13:44.278000+00:00</end_time>
<moving_time>183.0</moving_time>
<elapsed_time>206.277</elapsed_time>
</extensions>
<metadata>
    <link href="connect.garmin.com">
      <text>Garmin Connect</text>
    </link>
    <time>2017-06-04T21:10:30.000Z</time>
  </metadata>
  <trk>
    <name>跑步</name>
    <type>running</type>
    <trkseg>
      <trkpt lat="31.4119735546410083770751953125" lon="119.4833908416330814361572265625">
        <ele>7.599999904632568359375</ele>
        <time>2017-06-04T21:12:31.000Z</time>
        <extensions>
          <ns3:TrackPointExtension>
            <ns3:hr>179</ns3:hr>
            <ns3:cad>90</ns3:cad>
          </ns3:TrackPointExtension>
        </extensions>
      </trkpt>
      <trkpt lat="31.4120670966804027557373046875" lon="119.48337147943675518035888671875">
        <ele>7.80000019073486328125</ele>
        <time>2017-06-04T21:12:37.000Z</time>
        <extensions>
          <ns3:TrackPointExtension>
            <ns3:hr>176</ns3:hr>
            <ns3:cad>91</ns3:cad>
          </ns3:TrackPointExtension>
        </extensions>
      </trkpt>
      <trkpt lat="31.41218352131545543670654296875" lon="119.48339595459401607513427734375">
        <ele>8.19999980926513671875</ele>
        <time>2017-06-04T21:12:43.000Z</time>
        <extensions>
          <ns3:TrackPointExtension>
            <ns3:hr>179</ns3:hr>
            <ns3:cad>92</ns3:cad>
          </ns3:TrackPointExtension>
        </extensions>
      </trkpt>
      <trkpt lat="31.41220397315919399261474609375" lon="119.4834096170961856842041015625">
        <ele>8.19999980926513671875</ele>
        <time>2017-06-04T21:12:44.000Z</time>
        <extensions>
          <ns3:TrackPointExtension>
            <ns3:hr>182</ns3:hr>
            <ns3:cad>92</ns3:cad>
          </ns3:TrackPointExtension>
        </extensions>
      </trkpt>
      <trkpt lat="31.4122219942510128021240234375" lon="119.48337868787348270416259765625">
        <ele>8</ele>
        <time>2017-06-04T21:12:45.000Z</time>
        <extensions>
          <ns3:TrackPointExtension>
            <ns3:hr>182</ns3:hr>
            <ns3:cad>93</ns3:cad>
          </ns3:TrackPointExtension>
        </extensions>
      </trkpt>
      <trkpt lat="31.41227605752646923065185546875" lon="119.4833787716925144195556640625">
        <ele>8</ele>
        <time>2017-06-04T21:12:48.000Z</time>
        <extensions>
          <ns3:TrackPointExtension>
            <ns3:hr>185</ns3:hr>
            <ns3:cad>93</ns3:cad>
          </ns3:TrackPointExtension>
        </extensions>
      </trkpt>
      <trkpt lat="31.4123354852199554443359375" lon="119.4833814539015293121337890625">
        <ele>8</ele>
        <time>2017-06-04T21:12:51.000Z</time>
        <extensions>
          <ns3:TrackPointExtension>
            <ns3:hr>189</ns3:hr>
            <ns3:cad>93</ns3:cad>
          </ns3:TrackPointExtension>
        </extensions>
      </trkpt>
      <trkpt lat="31.412498094141483306884765625" lon="119.48341405950486660003662109375">
        <ele>7.400000095367431640625</ele>
        <time>2017-06-04T21:12:59.000Z</time>
        <extensions>
          <ns3:TrackPointExtension>
            <ns3:hr>186</ns3:hr>
            <ns3:cad>93</ns3:cad>
          </ns3:TrackPointExtension>
        </extensions>
      </trkpt>
      <trkpt lat="31.41257462091743946075439453125" lon="119.48342244140803813934326171875">
        <ele>7.19999980926513671875</ele>
        <time>2017-06-04T21:13:03.000Z</time>
        <extensions>
          <ns3:TrackPointExtension>
            <ns3:hr>183</ns3:hr>
            <ns3:cad>90</ns3:cad>
          </ns3:TrackPointExtension>
        </extensions>
      </trkpt>
      <trkpt lat="31.4127768762409687042236328125" lon="119.4834585674107074737548828125">
        <ele>6.400000095367431640625</ele>
        <time>2017-06-04T21:13:12.000Z</time>
        <extensions>
          <ns3:TrackPointExtension>
            <ns3:hr>182</ns3:hr>
            <ns3:cad>91</ns3:cad>
          </ns3:TrackPointExtension>
        </extensions>
      </trkpt>
      <trkpt lat="31.4129683189094066619873046875" lon="119.4834947772324085235595703125">
        <ele>6.19999980926513671875</ele>
        <time>2017-06-04T21:13:20.000Z</time>
        <extensions>
          <ns3:TrackPointExtension>
            <ns3:hr>182</ns3:hr>
            <ns3:cad>91</ns3:cad>
          </ns3:TrackPointExtension>
        </extensions>
      </trkpt>
      <trkpt lat="31.4131621085107326507568359375" lon="119.4835034944117069244384765625">
        <ele>6.80000019073486328125</ele>
        <time>2017-06-04T21:13:29.000Z</time>
        <extensions>
          <ns3:TrackPointExtension>
            <ns3:hr>181</ns3:hr>
            <ns3:cad>92</ns3:cad>
          </ns3:TrackPointExtension>
        </extensions>
      </trkpt>
      <trkpt lat="31.413263194262981414794921875" lon="119.4834964536130428314208984375">
        <ele>7.19999980926513671875</ele>
        <time>2017-06-04T21:13:34.000Z</time>
        <extensions>
          <ns3:TrackPointExtension>
            <ns3:hr>185</ns3:hr>
            <ns3:cad>91</ns3:cad>
          </ns3:TrackPointExtension>
        </extensions>
      </trkpt>
      <trkpt lat="31.4134092070162296295166015625" lon="119.483508355915546417236328125">
        <ele>7.400000095367431640625</ele>
        <time>2017-06-04T21:13:41.000Z</time>
        <extensions>
          <ns3:TrackPointExtension>
            <ns3:hr>182</ns3:hr>
            <ns3:cad>90</ns3:cad>
          </ns3:TrackPointExtension>
        </extensions>
      </trkpt>
      <trkpt lat="31.41359201632440090179443359375" lon="119.48351916857063770294189453125">
        <ele>7.400000095367431640625</ele>
        <time>2017-06-04T21:13:50.000Z</time>
        <extensions>
          <ns3:TrackPointExtension>
            <ns3:hr>180</ns3:hr>
            <ns3:cad>62</ns3:cad>
          </ns3:TrackPointExtension>
        </extensions>
      </trkpt>
      <trkpt lat="31.41371455974876880645751953125" lon="119.4835162349045276641845703125">
        <ele>7.400000095367431640625</ele>
        <time>2017-06-04T21:13:56.000Z</time>
        <extensions>
          <ns3:TrackPointExtension>
            <ns3:hr>181</ns3:hr>
            <ns3:cad>60</ns3:cad>
          </ns3:TrackPointExtension>
        </extensions>
      </trkpt>
    </trkseg>
  </trk>
</gpx>
