<gpx xmlns:ns3="http://www.garmin.com/xmlschemas/TrackPointExtension/v1" xmlns="http://www.topografix.com/GPX/1/1" xmlns:xsi="http://www.w3.org/2001/XMLSchema-instance" xmlns:ns2="http://www.garmin.com/xmlschemas/GpxExtensions/v3" creator="Garmin Connect" version="1.1" xsi:schemaLocation="http://www.topografix.com/GPX/1/1 http://www.topografix.com/GPX/11.xsd">
  <extensions>
<distance>3830.09</distance>
<average_hr>152.0</average_hr>
<average_speed>3.0650000572204594</average_speed>
<start_time>2016-10-04T00:26:58+00:00</start_time>
<end_time>2016-10-04T00:47:47.445000+00:00</end_time>
<moving_time>1244.0</moving_time>
<elapsed_time>1256.307</elapsed_time>
</extensions>
<metadata>
    <link href="connect.garmin.com">
      <text>Garmin Connect</text>
    </link>
    <time>2016-10-04T00:26:58.000Z</time>
  </metadata>
  <trk>
    <name>跑步</name>
    <type>running</type>
    <trkseg>
      <trkpt lat="31.40372760593891143798828125" lon="119.47011466138064861297607421875">
        <ele>15.19999980926513671875</ele>
        <time>2016-10-04T00:29:34.000Z</time>
        <extensions>
          <ns3:TrackPointExtension>
            <ns3:hr>130</ns3:hr>
            <ns3:cad>93</ns3:cad>
          </ns3:TrackPointExtension>
        </extensions>
      </trkpt>
      <trkpt lat="31.4035056531429290771484375" lon="119.470114745199680328369140625">
        <ele>17.799999237060546875</ele>
        <time>2016-10-04T00:29:44.000Z</time>
        <extensions>
          <ns3:TrackPointExtension>
            <ns3:hr>131</ns3:hr>
            <ns3:cad>95</ns3:cad>
          </ns3:TrackPointExtension>
        </extensions>
      </trkpt>
      <trkpt lat="31.4033096842467784881591796875" lon="119.47009471245110034942626953125">
        <ele>17.6000003814697265625</ele>
        <time>2016-10-04T00:29:52.000Z</time>
        <extensions>
          <ns3:TrackPointExtension>
            <ns3:hr>130</ns3:hr>
            <ns3:cad>93</ns3:cad>
          </ns3:TrackPointExtension>
        </extensions>
      </trkpt>
      <trkpt lat="31.403117738664150238037109375" lon="119.4700830616056919097900390625">
        <ele>16.6000003814697265625</ele>
        <time>2016-10-04T00:30:00.000Z</time>
        <extensions>
          <ns3:TrackPointExtension>
            <ns3:hr>130</ns3:hr>
            <ns3:cad>94</ns3:cad>
          </ns3:TrackPointExtension>
        </extensions>
      </trkpt>
      <trkpt lat="31.40291933901607990264892578125" lon="119.47008046321570873260498046875">
        <ele>14.80000019073486328125</ele>
        <time>2016-10-04T00:30:08.000Z</time>
        <extensions>
          <ns3:TrackPointExtension>
            <ns3:hr>130</ns3:hr>
            <ns3:cad>94</ns3:cad>
          </ns3:TrackPointExtension>
        </extensions>
      </trkpt>
      <trkpt lat="31.40271968208253383636474609375" lon="119.47007409296929836273193359375">
        <ele>16.6000003814697265625</ele>
        <time>2016-10-04T00:30:16.000Z</time>
        <extensions>
          <ns3:TrackPointExtension>
            <ns3:hr>129</ns3:hr>
            <ns3:cad>94</ns3:cad>
          </ns3:TrackPointExtension>
        </extensions>
      </trkpt>
      <trkpt lat="31.40253846533596515655517578125" lon="119.47007618844509124755859375">
        <ele>19</ele>
        <time>2016-10-04T00:30:23.000Z</time>
        <extensions>
          <ns3:TrackPointExtension>
            <ns3:hr>130</ns3:hr>
            <ns3:cad>93</ns3:cad>
          </ns3:TrackPointExtension>
        </extensions>
      </trkpt>
      <trkpt lat="31.40239479951560497283935546875" lon="119.4701051898300647735595703125">
        <ele>20.3999996185302734375</ele>
        <time>2016-10-04T00:30:29.000Z</time>
        <extensions>
          <ns3:TrackPointExtension>
            <ns3:hr>133</ns3:hr>
            <ns3:cad>94</ns3:cad>
          </ns3:TrackPointExtension>
        </extensions>
      </trkpt>
      <trkpt lat="31.40221081674098968505859375" lon="119.470153637230396270751953125">
        <ele>22</ele>
        <time>2016-10-04T00:30:37.000Z</time>
        <extensions>
          <ns3:TrackPointExtension>
            <ns3:hr>135</ns3:hr>
            <ns3:cad>92</ns3:cad>
          </ns3:TrackPointExtension>
        </extensions>
      </trkpt>
      <trkpt lat="31.402029432356357574462890625" lon="119.47019848041236400604248046875">
        <ele>23.3999996185302734375</ele>
        <time>2016-10-04T00:30:45.000Z</time>
        <extensions>
          <ns3:TrackPointExtension>
            <ns3:hr>135</ns3:hr>
            <ns3:cad>94</ns3:cad>
          </ns3:TrackPointExtension>
        </extensions>
      </trkpt>
      <trkpt lat="31.4018462039530277252197265625" lon="119.47026637382805347442626953125">
        <ele>22.799999237060546875</ele>
        <time>2016-10-04T00:30:53.000Z</time>
        <extensions>
          <ns3:TrackPointExtension>
            <ns3:hr>133</ns3:hr>
            <ns3:cad>93</ns3:cad>
          </ns3:TrackPointExtension>
        </extensions>
      </trkpt>
      <trkpt lat="31.4016745425760746002197265625" lon="119.47037735022604465484619140625">
        <ele>21.3999996185302734375</ele>
        <time>2016-10-04T00:31:01.000Z</time>
        <extensions>
          <ns3:TrackPointExtension>
            <ns3:hr>134</ns3:hr>
            <ns3:cad>94</ns3:cad>
          </ns3:TrackPointExtension>
        </extensions>
      </trkpt>
      <trkpt lat="31.40152819454669952392578125" lon="119.470519088208675384521484375">
        <ele>20.200000762939453125</ele>
        <time>2016-10-04T00:31:09.000Z</time>
        <extensions>
          <ns3:TrackPointExtension>
            <ns3:hr>133</ns3:hr>
            <ns3:cad>94</ns3:cad>
          </ns3:TrackPointExtension>
        </extensions>
      </trkpt>
      <trkpt lat="31.40135343186557292938232421875" lon="119.47059041820466518402099609375">
        <ele>21.6000003814697265625</ele>
        <time>2016-10-04T00:31:17.000Z</time>
        <extensions>
          <ns3:TrackPointExtension>
            <ns3:hr>133</ns3:hr>
            <ns3:cad>95</ns3:cad>
          </ns3:TrackPointExtension>
        </extensions>
      </trkpt>
      <trkpt lat="31.4012500829994678497314453125" lon="119.47061053477227687835693359375">
        <ele>22.3999996185302734375</ele>
        <time>2016-10-04T00:31:21.000Z</time>
        <extensions>
          <ns3:TrackPointExtension>
            <ns3:hr>130</ns3:hr>
            <ns3:cad>93</ns3:cad>
          </ns3:TrackPointExtension>
        </extensions>
      </trkpt>
      <trkpt lat="31.40109778381884098052978515625" lon="119.4705789349973201751708984375">
        <ele>23.3999996185302734375</ele>
        <time>2016-10-04T00:31:27.000Z</time>
        <extensions>
          <ns3:TrackPointExtension>
            <ns3:hr>127</ns3:hr>
            <ns3:cad>94</ns3:cad>
          </ns3:TrackPointExtension>
        </extensions>
      </trkpt>
      <trkpt lat="31.40102662146091461181640625" lon="119.470540545880794525146484375">
        <ele>23.6000003814697265625</ele>
        <time>2016-10-04T00:31:30.000Z</time>
        <extensions>
          <ns3:TrackPointExtension>
            <ns3:hr>124</ns3:hr>
            <ns3:cad>94</ns3:cad>
          </ns3:TrackPointExtension>
        </extensions>
      </trkpt>
      <trkpt lat="31.401004828512668609619140625" lon="119.4705246202647686004638671875">
        <ele>23.799999237060546875</ele>
        <time>2016-10-04T00:31:31.000Z</time>
        <extensions>
          <ns3:TrackPointExtension>
            <ns3:hr>121</ns3:hr>
            <ns3:cad>94</ns3:cad>
          </ns3:TrackPointExtension>
        </extensions>
      </trkpt>
      <trkpt lat="31.400983370840549468994140625" lon="119.47050810791552066802978515625">
        <ele>24</ele>
        <time>2016-10-04T00:31:32.000Z</time>
        <extensions>
          <ns3:TrackPointExtension>
            <ns3:hr>121</ns3:hr>
            <ns3:cad>94</ns3:cad>
          </ns3:TrackPointExtension>
        </extensions>
      </trkpt>
      <trkpt lat="31.4008165709674358367919921875" lon="119.4703992269933223724365234375">
        <ele>24</ele>
        <time>2016-10-04T00:31:41.000Z</time>
        <extensions>
          <ns3:TrackPointExtension>
            <ns3:hr>120</ns3:hr>
            <ns3:cad>89</ns3:cad>
          </ns3:TrackPointExtension>
        </extensions>
      </trkpt>
      <trkpt lat="31.40065153129398822784423828125" lon="119.4702900946140289306640625">
        <ele>23.6000003814697265625</ele>
        <time>2016-10-04T00:31:49.000Z</time>
        <extensions>
          <ns3:TrackPointExtension>
            <ns3:hr>122</ns3:hr>
            <ns3:cad>90</ns3:cad>
          </ns3:TrackPointExtension>
        </extensions>
      </trkpt>
      <trkpt lat="31.4005659520626068115234375" lon="119.47023385204374790191650390625">
        <ele>23.799999237060546875</ele>
        <time>2016-10-04T00:31:53.000Z</time>
        <extensions>
          <ns3:TrackPointExtension>
            <ns3:hr>125</ns3:hr>
            <ns3:cad>92</ns3:cad>
          </ns3:TrackPointExtension>
        </extensions>
      </trkpt>
      <trkpt lat="31.40042605809867382049560546875" lon="119.47007778100669384002685546875">
        <ele>26</ele>
        <time>2016-10-04T00:32:01.000Z</time>
        <extensions>
          <ns3:TrackPointExtension>
            <ns3:hr>127</ns3:hr>
            <ns3:cad>91</ns3:cad>
          </ns3:TrackPointExtension>
        </extensions>
      </trkpt>
      <trkpt lat="31.4003263972699642181396484375" lon="119.46995892561972141265869140625">
        <ele>27.6000003814697265625</ele>
        <time>2016-10-04T00:32:08.000Z</time>
        <extensions>
          <ns3:TrackPointExtension>
            <ns3:hr>130</ns3:hr>
            <ns3:cad>91</ns3:cad>
          </ns3:TrackPointExtension>
        </extensions>
      </trkpt>
      <trkpt lat="31.40017275698482990264892578125" lon="119.46982230059802532196044921875">
        <ele>28.3999996185302734375</ele>
        <time>2016-10-04T00:32:18.000Z</time>
        <extensions>
          <ns3:TrackPointExtension>
            <ns3:hr>131</ns3:hr>
            <ns3:cad>92</ns3:cad>
          </ns3:TrackPointExtension>
        </extensions>
      </trkpt>
      <trkpt lat="31.40000796876847743988037109375" lon="119.4697283394634723663330078125">
        <ele>29.6000003814697265625</ele>
        <time>2016-10-04T00:32:27.000Z</time>
        <extensions>
          <ns3:TrackPointExtension>
            <ns3:hr>133</ns3:hr>
            <ns3:cad>90</ns3:cad>
          </ns3:TrackPointExtension>
        </extensions>
      </trkpt>
      <trkpt lat="31.39984418638050556182861328125" lon="119.469626583158969879150390625">
        <ele>31.799999237060546875</ele>
        <time>2016-10-04T00:32:36.000Z</time>
        <extensions>
          <ns3:TrackPointExtension>
            <ns3:hr>134</ns3:hr>
            <ns3:cad>92</ns3:cad>
          </ns3:TrackPointExtension>
        </extensions>
      </trkpt>
      <trkpt lat="31.399652659893035888671875" lon="119.4695855118334293365478515625">
        <ele>34.59999847412109375</ele>
        <time>2016-10-04T00:32:45.000Z</time>
        <extensions>
          <ns3:TrackPointExtension>
            <ns3:hr>133</ns3:hr>
            <ns3:cad>93</ns3:cad>
          </ns3:TrackPointExtension>
        </extensions>
      </trkpt>
      <trkpt lat="31.3994553498923778533935546875" lon="119.46961216628551483154296875">
        <ele>35.59999847412109375</ele>
        <time>2016-10-04T00:32:54.000Z</time>
        <extensions>
          <ns3:TrackPointExtension>
            <ns3:hr>136</ns3:hr>
            <ns3:cad>88</ns3:cad>
          </ns3:TrackPointExtension>
        </extensions>
      </trkpt>
      <trkpt lat="31.39926030300557613372802734375" lon="119.46966824121773242950439453125">
        <ele>36.799999237060546875</ele>
        <time>2016-10-04T00:33:02.000Z</time>
        <extensions>
          <ns3:TrackPointExtension>
            <ns3:hr>139</ns3:hr>
            <ns3:cad>92</ns3:cad>
          </ns3:TrackPointExtension>
        </extensions>
      </trkpt>
      <trkpt lat="31.39911881648004055023193359375" lon="119.46970730088651180267333984375">
        <ele>36.59999847412109375</ele>
        <time>2016-10-04T00:33:08.000Z</time>
        <extensions>
          <ns3:TrackPointExtension>
            <ns3:hr>136</ns3:hr>
            <ns3:cad>91</ns3:cad>
          </ns3:TrackPointExtension>
        </extensions>
      </trkpt>
      <trkpt lat="31.398930139839649200439453125" lon="119.4696973264217376708984375">
        <ele>37.799999237060546875</ele>
        <time>2016-10-04T00:33:15.000Z</time>
        <extensions>
          <ns3:TrackPointExtension>
            <ns3:hr>137</ns3:hr>
            <ns3:cad>90</ns3:cad>
          </ns3:TrackPointExtension>
        </extensions>
      </trkpt>
      <trkpt lat="31.3987784273922443389892578125" lon="119.46963354013860225677490234375">
        <ele>39.799999237060546875</ele>
        <time>2016-10-04T00:33:21.000Z</time>
        <extensions>
          <ns3:TrackPointExtension>
            <ns3:hr>134</ns3:hr>
            <ns3:cad>90</ns3:cad>
          </ns3:TrackPointExtension>
        </extensions>
      </trkpt>
      <trkpt lat="31.39870139770209789276123046875" lon="119.4695945642888545989990234375">
        <ele>40.40000152587890625</ele>
        <time>2016-10-04T00:33:26.000Z</time>
        <extensions>
          <ns3:TrackPointExtension>
            <ns3:hr>133</ns3:hr>
            <ns3:cad>88</ns3:cad>
          </ns3:TrackPointExtension>
        </extensions>
      </trkpt>
      <trkpt lat="31.39853392727673053741455078125" lon="119.4694855995476245880126953125">
        <ele>41.40000152587890625</ele>
        <time>2016-10-04T00:33:35.000Z</time>
        <extensions>
          <ns3:TrackPointExtension>
            <ns3:hr>131</ns3:hr>
            <ns3:cad>90</ns3:cad>
          </ns3:TrackPointExtension>
        </extensions>
      </trkpt>
      <trkpt lat="31.3983412273228168487548828125" lon="119.46948752738535404205322265625">
        <ele>39.59999847412109375</ele>
        <time>2016-10-04T00:33:41.000Z</time>
        <extensions>
          <ns3:TrackPointExtension>
            <ns3:hr>130</ns3:hr>
            <ns3:cad>93</ns3:cad>
          </ns3:TrackPointExtension>
        </extensions>
      </trkpt>
      <trkpt lat="31.398155987262725830078125" lon="119.469561874866485595703125">
        <ele>36</ele>
        <time>2016-10-04T00:33:47.000Z</time>
        <extensions>
          <ns3:TrackPointExtension>
            <ns3:hr>130</ns3:hr>
            <ns3:cad>93</ns3:cad>
          </ns3:TrackPointExtension>
        </extensions>
      </trkpt>
      <trkpt lat="31.39805079437792301177978515625" lon="119.46973194368183612823486328125">
        <ele>34</ele>
        <time>2016-10-04T00:33:53.000Z</time>
        <extensions>
          <ns3:TrackPointExtension>
            <ns3:hr>131</ns3:hr>
            <ns3:cad>95</ns3:cad>
          </ns3:TrackPointExtension>
        </extensions>
      </trkpt>
      <trkpt lat="31.39801877550780773162841796875" lon="119.46994450874626636505126953125">
        <ele>32.799999237060546875</ele>
        <time>2016-10-04T00:33:59.000Z</time>
        <extensions>
          <ns3:TrackPointExtension>
            <ns3:hr>132</ns3:hr>
            <ns3:cad>94</ns3:cad>
          </ns3:TrackPointExtension>
        </extensions>
      </trkpt>
      <trkpt lat="31.39798692427575588226318359375" lon="119.470162689685821533203125">
        <ele>32.799999237060546875</ele>
        <time>2016-10-04T00:34:05.000Z</time>
        <extensions>
          <ns3:TrackPointExtension>
            <ns3:hr>134</ns3:hr>
            <ns3:cad>94</ns3:cad>
          </ns3:TrackPointExtension>
        </extensions>
      </trkpt>
      <trkpt lat="31.3979570008814334869384765625" lon="119.47037399746477603912353515625">
        <ele>32.200000762939453125</ele>
        <time>2016-10-04T00:34:11.000Z</time>
        <extensions>
          <ns3:TrackPointExtension>
            <ns3:hr>134</ns3:hr>
            <ns3:cad>94</ns3:cad>
          </ns3:TrackPointExtension>
        </extensions>
      </trkpt>
      <trkpt lat="31.3979288376867771148681640625" lon="119.47059745900332927703857421875">
        <ele>32.40000152587890625</ele>
        <time>2016-10-04T00:34:17.000Z</time>
        <extensions>
          <ns3:TrackPointExtension>
            <ns3:hr>132</ns3:hr>
            <ns3:cad>94</ns3:cad>
          </ns3:TrackPointExtension>
        </extensions>
      </trkpt>
      <trkpt lat="31.397905535995960235595703125" lon="119.47082997299730777740478515625">
        <ele>36</ele>
        <time>2016-10-04T00:34:23.000Z</time>
        <extensions>
          <ns3:TrackPointExtension>
            <ns3:hr>131</ns3:hr>
            <ns3:cad>94</ns3:cad>
          </ns3:TrackPointExtension>
        </extensions>
      </trkpt>
      <trkpt lat="31.39785625040531158447265625" lon="119.4710704497992992401123046875">
        <ele>36.59999847412109375</ele>
        <time>2016-10-04T00:34:29.000Z</time>
        <extensions>
          <ns3:TrackPointExtension>
            <ns3:hr>133</ns3:hr>
            <ns3:cad>96</ns3:cad>
          </ns3:TrackPointExtension>
        </extensions>
      </trkpt>
      <trkpt lat="31.3977387361228466033935546875" lon="119.4712521694600582122802734375">
        <ele>34.59999847412109375</ele>
        <time>2016-10-04T00:34:35.000Z</time>
        <extensions>
          <ns3:TrackPointExtension>
            <ns3:hr>132</ns3:hr>
            <ns3:cad>93</ns3:cad>
          </ns3:TrackPointExtension>
        </extensions>
      </trkpt>
      <trkpt lat="31.3975600339472293853759765625" lon="119.471351914107799530029296875">
        <ele>35.40000152587890625</ele>
        <time>2016-10-04T00:34:41.000Z</time>
        <extensions>
          <ns3:TrackPointExtension>
            <ns3:hr>130</ns3:hr>
            <ns3:cad>94</ns3:cad>
          </ns3:TrackPointExtension>
        </extensions>
      </trkpt>
      <trkpt lat="31.3973706029355525970458984375" lon="119.47131142951548099517822265625">
        <ele>38.200000762939453125</ele>
        <time>2016-10-04T00:34:47.000Z</time>
        <extensions>
          <ns3:TrackPointExtension>
            <ns3:hr>123</ns3:hr>
            <ns3:cad>99</ns3:cad>
          </ns3:TrackPointExtension>
        </extensions>
      </trkpt>
      <trkpt lat="31.39719642698764801025390625" lon="119.47122551500797271728515625">
        <ele>43</ele>
        <time>2016-10-04T00:34:54.000Z</time>
        <extensions>
          <ns3:TrackPointExtension>
            <ns3:hr>122</ns3:hr>
            <ns3:cad>98</ns3:cad>
          </ns3:TrackPointExtension>
        </extensions>
      </trkpt>
      <trkpt lat="31.3970199041068553924560546875" lon="119.4711006246507167816162109375">
        <ele>47.799999237060546875</ele>
        <time>2016-10-04T00:35:01.000Z</time>
        <extensions>
          <ns3:TrackPointExtension>
            <ns3:hr>120</ns3:hr>
            <ns3:cad>95</ns3:cad>
          </ns3:TrackPointExtension>
        </extensions>
      </trkpt>
      <trkpt lat="31.3968489132821559906005859375" lon="119.47099241428077220916748046875">
        <ele>49.799999237060546875</ele>
        <time>2016-10-04T00:35:07.000Z</time>
        <extensions>
          <ns3:TrackPointExtension>
            <ns3:hr>120</ns3:hr>
            <ns3:cad>94</ns3:cad>
          </ns3:TrackPointExtension>
        </extensions>
      </trkpt>
      <trkpt lat="31.3967587240040302276611328125" lon="119.47094388306140899658203125">
        <ele>49.200000762939453125</ele>
        <time>2016-10-04T00:35:11.000Z</time>
        <extensions>
          <ns3:TrackPointExtension>
            <ns3:hr>123</ns3:hr>
            <ns3:cad>94</ns3:cad>
          </ns3:TrackPointExtension>
        </extensions>
      </trkpt>
      <trkpt lat="31.3966303132474422454833984375" lon="119.4708810187876224517822265625">
        <ele>45.59999847412109375</ele>
        <time>2016-10-04T00:35:16.000Z</time>
        <extensions>
          <ns3:TrackPointExtension>
            <ns3:hr>126</ns3:hr>
            <ns3:cad>97</ns3:cad>
          </ns3:TrackPointExtension>
        </extensions>
      </trkpt>
      <trkpt lat="31.396546326577663421630859375" lon="119.470861069858074188232421875">
        <ele>42.59999847412109375</ele>
        <time>2016-10-04T00:35:19.000Z</time>
        <extensions>
          <ns3:TrackPointExtension>
            <ns3:hr>129</ns3:hr>
            <ns3:cad>96</ns3:cad>
          </ns3:TrackPointExtension>
        </extensions>
      </trkpt>
      <trkpt lat="31.39635798521339893341064453125" lon="119.4708344154059886932373046875">
        <ele>39</ele>
        <time>2016-10-04T00:35:25.000Z</time>
        <extensions>
          <ns3:TrackPointExtension>
            <ns3:hr>130</ns3:hr>
            <ns3:cad>89</ns3:cad>
          </ns3:TrackPointExtension>
        </extensions>
      </trkpt>
      <trkpt lat="31.39615732245147228240966796875" lon="119.47078571654856204986572265625">
        <ele>36.200000762939453125</ele>
        <time>2016-10-04T00:35:31.000Z</time>
        <extensions>
          <ns3:TrackPointExtension>
            <ns3:hr>129</ns3:hr>
            <ns3:cad>90</ns3:cad>
          </ns3:TrackPointExtension>
        </extensions>
      </trkpt>
      <trkpt lat="31.3959621079266071319580078125" lon="119.47074179537594318389892578125">
        <ele>34</ele>
        <time>2016-10-04T00:35:37.000Z</time>
        <extensions>
          <ns3:TrackPointExtension>
            <ns3:hr>131</ns3:hr>
            <ns3:cad>92</ns3:cad>
          </ns3:TrackPointExtension>
        </extensions>
      </trkpt>
      <trkpt lat="31.3957716710865497589111328125" lon="119.4706523604691028594970703125">
        <ele>32.799999237060546875</ele>
        <time>2016-10-04T00:35:43.000Z</time>
        <extensions>
          <ns3:TrackPointExtension>
            <ns3:hr>132</ns3:hr>
            <ns3:cad>92</ns3:cad>
          </ns3:TrackPointExtension>
        </extensions>
      </trkpt>
      <trkpt lat="31.3956147618591785430908203125" lon="119.47051967494189739227294921875">
        <ele>33.40000152587890625</ele>
        <time>2016-10-04T00:35:51.000Z</time>
        <extensions>
          <ns3:TrackPointExtension>
            <ns3:hr>132</ns3:hr>
            <ns3:cad>90</ns3:cad>
          </ns3:TrackPointExtension>
        </extensions>
      </trkpt>
      <trkpt lat="31.3955497182905673980712890625" lon="119.47031448595225811004638671875">
        <ele>35.799999237060546875</ele>
        <time>2016-10-04T00:35:58.000Z</time>
        <extensions>
          <ns3:TrackPointExtension>
            <ns3:hr>130</ns3:hr>
            <ns3:cad>97</ns3:cad>
          </ns3:TrackPointExtension>
        </extensions>
      </trkpt>
      <trkpt lat="31.3955513946712017059326171875" lon="119.47008130140602588653564453125">
        <ele>39.40000152587890625</ele>
        <time>2016-10-04T00:36:04.000Z</time>
        <extensions>
          <ns3:TrackPointExtension>
            <ns3:hr>129</ns3:hr>
            <ns3:cad>96</ns3:cad>
          </ns3:TrackPointExtension>
        </extensions>
      </trkpt>
      <trkpt lat="31.3956063799560070037841796875" lon="119.4698488712310791015625">
        <ele>42.799999237060546875</ele>
        <time>2016-10-04T00:36:10.000Z</time>
        <extensions>
          <ns3:TrackPointExtension>
            <ns3:hr>129</ns3:hr>
            <ns3:cad>95</ns3:cad>
          </ns3:TrackPointExtension>
        </extensions>
      </trkpt>
      <trkpt lat="31.39568039216101169586181640625" lon="119.46963806636631488800048828125">
        <ele>45.40000152587890625</ele>
        <time>2016-10-04T00:36:16.000Z</time>
        <extensions>
          <ns3:TrackPointExtension>
            <ns3:hr>129</ns3:hr>
            <ns3:cad>94</ns3:cad>
          </ns3:TrackPointExtension>
        </extensions>
      </trkpt>
      <trkpt lat="31.3957341201603412628173828125" lon="119.46940697729587554931640625">
        <ele>49.200000762939453125</ele>
        <time>2016-10-04T00:36:23.000Z</time>
        <extensions>
          <ns3:TrackPointExtension>
            <ns3:hr>127</ns3:hr>
            <ns3:cad>96</ns3:cad>
          </ns3:TrackPointExtension>
        </extensions>
      </trkpt>
      <trkpt lat="31.395663209259510040283203125" lon="119.46919684298336505889892578125">
        <ele>47.40000152587890625</ele>
        <time>2016-10-04T00:36:30.000Z</time>
        <extensions>
          <ns3:TrackPointExtension>
            <ns3:hr>127</ns3:hr>
            <ns3:cad>93</ns3:cad>
          </ns3:TrackPointExtension>
        </extensions>
      </trkpt>
      <trkpt lat="31.39551191590726375579833984375" lon="119.46908351965248584747314453125">
        <ele>44.59999847412109375</ele>
        <time>2016-10-04T00:36:37.000Z</time>
        <extensions>
          <ns3:TrackPointExtension>
            <ns3:hr>127</ns3:hr>
            <ns3:cad>94</ns3:cad>
          </ns3:TrackPointExtension>
        </extensions>
      </trkpt>
      <trkpt lat="31.39534494839608669281005859375" lon="119.468958042562007904052734375">
        <ele>43</ele>
        <time>2016-10-04T00:36:44.000Z</time>
        <extensions>
          <ns3:TrackPointExtension>
            <ns3:hr>129</ns3:hr>
            <ns3:cad>95</ns3:cad>
          </ns3:TrackPointExtension>
        </extensions>
      </trkpt>
      <trkpt lat="31.3952457904815673828125" lon="119.46876433677971363067626953125">
        <ele>44.40000152587890625</ele>
        <time>2016-10-04T00:36:51.000Z</time>
        <extensions>
          <ns3:TrackPointExtension>
            <ns3:hr>128</ns3:hr>
            <ns3:cad>95</ns3:cad>
          </ns3:TrackPointExtension>
        </extensions>
      </trkpt>
      <trkpt lat="31.395264901220798492431640625" lon="119.46852176450192928314208984375">
        <ele>46.200000762939453125</ele>
        <time>2016-10-04T00:36:58.000Z</time>
        <extensions>
          <ns3:TrackPointExtension>
            <ns3:hr>127</ns3:hr>
            <ns3:cad>94</ns3:cad>
          </ns3:TrackPointExtension>
        </extensions>
      </trkpt>
      <trkpt lat="31.39531963504850864410400390625" lon="119.46829427964985370635986328125">
        <ele>47.59999847412109375</ele>
        <time>2016-10-04T00:37:05.000Z</time>
        <extensions>
          <ns3:TrackPointExtension>
            <ns3:hr>128</ns3:hr>
            <ns3:cad>94</ns3:cad>
          </ns3:TrackPointExtension>
        </extensions>
      </trkpt>
      <trkpt lat="31.395347379148006439208984375" lon="119.4681693054735660552978515625">
        <ele>49</ele>
        <time>2016-10-04T00:37:09.000Z</time>
        <extensions>
          <ns3:TrackPointExtension>
            <ns3:hr>132</ns3:hr>
            <ns3:cad>93</ns3:cad>
          </ns3:TrackPointExtension>
        </extensions>
      </trkpt>
      <trkpt lat="31.3953582756221294403076171875" lon="119.46808322332799434661865234375">
        <ele>50.200000762939453125</ele>
        <time>2016-10-04T00:37:12.000Z</time>
        <extensions>
          <ns3:TrackPointExtension>
            <ns3:hr>135</ns3:hr>
            <ns3:cad>95</ns3:cad>
          </ns3:TrackPointExtension>
        </extensions>
      </trkpt>
      <trkpt lat="31.39538970775902271270751953125" lon="119.467873759567737579345703125">
        <ele>53.40000152587890625</ele>
        <time>2016-10-04T00:37:19.000Z</time>
        <extensions>
          <ns3:TrackPointExtension>
            <ns3:hr>134</ns3:hr>
            <ns3:cad>97</ns3:cad>
          </ns3:TrackPointExtension>
        </extensions>
      </trkpt>
      <trkpt lat="31.39542390592396259307861328125" lon="119.46766060777008533477783203125">
        <ele>54.59999847412109375</ele>
        <time>2016-10-04T00:37:26.000Z</time>
        <extensions>
          <ns3:TrackPointExtension>
            <ns3:hr>133</ns3:hr>
            <ns3:cad>94</ns3:cad>
          </ns3:TrackPointExtension>
        </extensions>
      </trkpt>
      <trkpt lat="31.39549900777637958526611328125" lon="119.46743899025022983551025390625">
        <ele>52.200000762939453125</ele>
        <time>2016-10-04T00:37:33.000Z</time>
        <extensions>
          <ns3:TrackPointExtension>
            <ns3:hr>132</ns3:hr>
            <ns3:cad>93</ns3:cad>
          </ns3:TrackPointExtension>
        </extensions>
      </trkpt>
      <trkpt lat="31.395615600049495697021484375" lon="119.46725173853337764739990234375">
        <ele>48.799999237060546875</ele>
        <time>2016-10-04T00:37:39.000Z</time>
        <extensions>
          <ns3:TrackPointExtension>
            <ns3:hr>131</ns3:hr>
            <ns3:cad>92</ns3:cad>
          </ns3:TrackPointExtension>
        </extensions>
      </trkpt>
      <trkpt lat="31.39578516595065593719482421875" lon="119.4671172089874744415283203125">
        <ele>48.59999847412109375</ele>
        <time>2016-10-04T00:37:45.000Z</time>
        <extensions>
          <ns3:TrackPointExtension>
            <ns3:hr>133</ns3:hr>
            <ns3:cad>92</ns3:cad>
          </ns3:TrackPointExtension>
        </extensions>
      </trkpt>
      <trkpt lat="31.3959849067032337188720703125" lon="119.46709751151502132415771484375">
        <ele>51.40000152587890625</ele>
        <time>2016-10-04T00:37:52.000Z</time>
        <extensions>
          <ns3:TrackPointExtension>
            <ns3:hr>131</ns3:hr>
            <ns3:cad>93</ns3:cad>
          </ns3:TrackPointExtension>
        </extensions>
      </trkpt>
      <trkpt lat="31.3961706496775150299072265625" lon="119.4671259261667728424072265625">
        <ele>53.40000152587890625</ele>
        <time>2016-10-04T00:37:59.000Z</time>
        <extensions>
          <ns3:TrackPointExtension>
            <ns3:hr>129</ns3:hr>
            <ns3:cad>96</ns3:cad>
          </ns3:TrackPointExtension>
        </extensions>
      </trkpt>
      <trkpt lat="31.39636200852692127227783203125" lon="119.4671282730996608734130859375">
        <ele>56.59999847412109375</ele>
        <time>2016-10-04T00:38:07.000Z</time>
        <extensions>
          <ns3:TrackPointExtension>
            <ns3:hr>130</ns3:hr>
            <ns3:cad>98</ns3:cad>
          </ns3:TrackPointExtension>
        </extensions>
      </trkpt>
      <trkpt lat="31.39650785364210605621337890625" lon="119.466997683048248291015625">
        <ele>60.59999847412109375</ele>
        <time>2016-10-04T00:38:15.000Z</time>
        <extensions>
          <ns3:TrackPointExtension>
            <ns3:hr>130</ns3:hr>
            <ns3:cad>94</ns3:cad>
          </ns3:TrackPointExtension>
        </extensions>
      </trkpt>
      <trkpt lat="31.396564431488513946533203125" lon="119.46677296422421932220458984375">
        <ele>62.59999847412109375</ele>
        <time>2016-10-04T00:38:23.000Z</time>
        <extensions>
          <ns3:TrackPointExtension>
            <ns3:hr>131</ns3:hr>
            <ns3:cad>93</ns3:cad>
          </ns3:TrackPointExtension>
        </extensions>
      </trkpt>
      <trkpt lat="31.39656770043075084686279296875" lon="119.46669015102088451385498046875">
        <ele>62.59999847412109375</ele>
        <time>2016-10-04T00:38:26.000Z</time>
        <extensions>
          <ns3:TrackPointExtension>
            <ns3:hr>134</ns3:hr>
            <ns3:cad>95</ns3:cad>
          </ns3:TrackPointExtension>
        </extensions>
      </trkpt>
      <trkpt lat="31.39656904153525829315185546875" lon="119.46665905416011810302734375">
        <ele>62.59999847412109375</ele>
        <time>2016-10-04T00:38:27.000Z</time>
        <extensions>
          <ns3:TrackPointExtension>
            <ns3:hr>137</ns3:hr>
            <ns3:cad>95</ns3:cad>
          </ns3:TrackPointExtension>
        </extensions>
      </trkpt>
      <trkpt lat="31.39656820334494113922119140625" lon="119.46663198061287403106689453125">
        <ele>62.59999847412109375</ele>
        <time>2016-10-04T00:38:28.000Z</time>
        <extensions>
          <ns3:TrackPointExtension>
            <ns3:hr>144</ns3:hr>
            <ns3:cad>95</ns3:cad>
          </ns3:TrackPointExtension>
        </extensions>
      </trkpt>
      <trkpt lat="31.3965639285743236541748046875" lon="119.46657481603324413299560546875">
        <ele>62</ele>
        <time>2016-10-04T00:38:30.000Z</time>
        <extensions>
          <ns3:TrackPointExtension>
            <ns3:hr>147</ns3:hr>
            <ns3:cad>90</ns3:cad>
          </ns3:TrackPointExtension>
        </extensions>
      </trkpt>
      <trkpt lat="31.3965426385402679443359375" lon="119.46648429147899150848388671875">
        <ele>60.40000152587890625</ele>
        <time>2016-10-04T00:38:33.000Z</time>
        <extensions>
          <ns3:TrackPointExtension>
            <ns3:hr>150</ns3:hr>
            <ns3:cad>90</ns3:cad>
          </ns3:TrackPointExtension>
        </extensions>
      </trkpt>
      <trkpt lat="31.39653501100838184356689453125" lon="119.46644984185695648193359375">
        <ele>59.799999237060546875</ele>
        <time>2016-10-04T00:38:34.000Z</time>
        <extensions>
          <ns3:TrackPointExtension>
            <ns3:hr>152</ns3:hr>
            <ns3:cad>90</ns3:cad>
          </ns3:TrackPointExtension>
        </extensions>
      </trkpt>
      <trkpt lat="31.39650709927082061767578125" lon="119.46636342443525791168212890625">
        <ele>58</ele>
        <time>2016-10-04T00:38:37.000Z</time>
        <extensions>
          <ns3:TrackPointExtension>
            <ns3:hr>155</ns3:hr>
            <ns3:cad>90</ns3:cad>
          </ns3:TrackPointExtension>
        </extensions>
      </trkpt>
      <trkpt lat="31.3963922671973705291748046875" lon="119.46619100868701934814453125">
        <ele>54.200000762939453125</ele>
        <time>2016-10-04T00:38:44.000Z</time>
        <extensions>
          <ns3:TrackPointExtension>
            <ns3:hr>154</ns3:hr>
            <ns3:cad>89</ns3:cad>
          </ns3:TrackPointExtension>
        </extensions>
      </trkpt>
      <trkpt lat="31.396225802600383758544921875" lon="119.46606989018619060516357421875">
        <ele>49.200000762939453125</ele>
        <time>2016-10-04T00:38:50.000Z</time>
        <extensions>
          <ns3:TrackPointExtension>
            <ns3:hr>151</ns3:hr>
            <ns3:cad>92</ns3:cad>
          </ns3:TrackPointExtension>
        </extensions>
      </trkpt>
      <trkpt lat="31.39605757780373096466064453125" lon="119.46598204784095287322998046875">
        <ele>48</ele>
        <time>2016-10-04T00:38:56.000Z</time>
        <extensions>
          <ns3:TrackPointExtension>
            <ns3:hr>152</ns3:hr>
            <ns3:cad>91</ns3:cad>
          </ns3:TrackPointExtension>
        </extensions>
      </trkpt>
      <trkpt lat="31.3958702422678470611572265625" lon="119.46592438034713268280029296875">
        <ele>45.59999847412109375</ele>
        <time>2016-10-04T00:39:02.000Z</time>
        <extensions>
          <ns3:TrackPointExtension>
            <ns3:hr>154</ns3:hr>
            <ns3:cad>91</ns3:cad>
          </ns3:TrackPointExtension>
        </extensions>
      </trkpt>
      <trkpt lat="31.3956767879426479339599609375" lon="119.46593527682125568389892578125">
        <ele>42.59999847412109375</ele>
        <time>2016-10-04T00:39:08.000Z</time>
        <extensions>
          <ns3:TrackPointExtension>
            <ns3:hr>158</ns3:hr>
            <ns3:cad>92</ns3:cad>
          </ns3:TrackPointExtension>
        </extensions>
      </trkpt>
      <trkpt lat="31.395478807389736175537109375" lon="119.465914070606231689453125">
        <ele>42.59999847412109375</ele>
        <time>2016-10-04T00:39:14.000Z</time>
        <extensions>
          <ns3:TrackPointExtension>
            <ns3:hr>159</ns3:hr>
            <ns3:cad>92</ns3:cad>
          </ns3:TrackPointExtension>
        </extensions>
      </trkpt>
      <trkpt lat="31.39536556787788867950439453125" lon="119.4658671319484710693359375">
        <ele>42.59999847412109375</ele>
        <time>2016-10-04T00:39:18.000Z</time>
        <extensions>
          <ns3:TrackPointExtension>
            <ns3:hr>156</ns3:hr>
            <ns3:cad>95</ns3:cad>
          </ns3:TrackPointExtension>
        </extensions>
      </trkpt>
      <trkpt lat="31.395289711654186248779296875" lon="119.4658076204359531402587890625">
        <ele>43.200000762939453125</ele>
        <time>2016-10-04T00:39:21.000Z</time>
        <extensions>
          <ns3:TrackPointExtension>
            <ns3:hr>153</ns3:hr>
            <ns3:cad>98</ns3:cad>
          </ns3:TrackPointExtension>
        </extensions>
      </trkpt>
      <trkpt lat="31.3951854407787322998046875" lon="119.46559689939022064208984375">
        <ele>41</ele>
        <time>2016-10-04T00:39:28.000Z</time>
        <extensions>
          <ns3:TrackPointExtension>
            <ns3:hr>156</ns3:hr>
            <ns3:cad>92</ns3:cad>
          </ns3:TrackPointExtension>
        </extensions>
      </trkpt>
      <trkpt lat="31.39519709162414073944091796875" lon="119.465433619916439056396484375">
        <ele>39.799999237060546875</ele>
        <time>2016-10-04T00:39:32.000Z</time>
        <extensions>
          <ns3:TrackPointExtension>
            <ns3:hr>159</ns3:hr>
            <ns3:cad>89</ns3:cad>
          </ns3:TrackPointExtension>
        </extensions>
      </trkpt>
      <trkpt lat="31.395241431891918182373046875" lon="119.465259276330471038818359375">
        <ele>38.799999237060546875</ele>
        <time>2016-10-04T00:39:37.000Z</time>
        <extensions>
          <ns3:TrackPointExtension>
            <ns3:hr>156</ns3:hr>
            <ns3:cad>89</ns3:cad>
          </ns3:TrackPointExtension>
        </extensions>
      </trkpt>
      <trkpt lat="31.395301781594753265380859375" lon="119.465158022940158843994140625">
        <ele>40</ele>
        <time>2016-10-04T00:39:40.000Z</time>
        <extensions>
          <ns3:TrackPointExtension>
            <ns3:hr>153</ns3:hr>
            <ns3:cad>90</ns3:cad>
          </ns3:TrackPointExtension>
        </extensions>
      </trkpt>
      <trkpt lat="31.39544838108122348785400390625" lon="119.46502282284200191497802734375">
        <ele>42.40000152587890625</ele>
        <time>2016-10-04T00:39:46.000Z</time>
        <extensions>
          <ns3:TrackPointExtension>
            <ns3:hr>155</ns3:hr>
            <ns3:cad>92</ns3:cad>
          </ns3:TrackPointExtension>
        </extensions>
      </trkpt>
      <trkpt lat="31.39552013017237186431884765625" lon="119.46496658027172088623046875">
        <ele>43.200000762939453125</ele>
        <time>2016-10-04T00:39:49.000Z</time>
        <extensions>
          <ns3:TrackPointExtension>
            <ns3:hr>158</ns3:hr>
            <ns3:cad>94</ns3:cad>
          </ns3:TrackPointExtension>
        </extensions>
      </trkpt>
      <trkpt lat="31.39566413126885890960693359375" lon="119.4648628123104572296142578125">
        <ele>44</ele>
        <time>2016-10-04T00:39:55.000Z</time>
        <extensions>
          <ns3:TrackPointExtension>
            <ns3:hr>152</ns3:hr>
            <ns3:cad>94</ns3:cad>
          </ns3:TrackPointExtension>
        </extensions>
      </trkpt>
      <trkpt lat="31.39568927697837352752685546875" lon="119.4648504070937633514404296875">
        <ele>44</ele>
        <time>2016-10-04T00:39:56.000Z</time>
        <extensions>
          <ns3:TrackPointExtension>
            <ns3:hr>152</ns3:hr>
            <ns3:cad>96</ns3:cad>
          </ns3:TrackPointExtension>
        </extensions>
      </trkpt>
      <trkpt lat="31.39573235996067523956298828125" lon="119.46482232771813869476318359375">
        <ele>43.59999847412109375</ele>
        <time>2016-10-04T00:39:58.000Z</time>
        <extensions>
          <ns3:TrackPointExtension>
            <ns3:hr>155</ns3:hr>
            <ns3:cad>97</ns3:cad>
          </ns3:TrackPointExtension>
        </extensions>
      </trkpt>
      <trkpt lat="31.3957542367279529571533203125" lon="119.4648091681301593780517578125">
        <ele>43.59999847412109375</ele>
        <time>2016-10-04T00:39:59.000Z</time>
        <extensions>
          <ns3:TrackPointExtension>
            <ns3:hr>158</ns3:hr>
            <ns3:cad>97</ns3:cad>
          </ns3:TrackPointExtension>
        </extensions>
      </trkpt>
      <trkpt lat="31.395791955292224884033203125" lon="119.464787207543849945068359375">
        <ele>43.200000762939453125</ele>
        <time>2016-10-04T00:40:01.000Z</time>
        <extensions>
          <ns3:TrackPointExtension>
            <ns3:hr>162</ns3:hr>
            <ns3:cad>97</ns3:cad>
          </ns3:TrackPointExtension>
        </extensions>
      </trkpt>
      <trkpt lat="31.3959659636020660400390625" lon="119.4647223316133022308349609375">
        <ele>42.59999847412109375</ele>
        <time>2016-10-04T00:40:09.000Z</time>
        <extensions>
          <ns3:TrackPointExtension>
            <ns3:hr>163</ns3:hr>
            <ns3:cad>95</ns3:cad>
          </ns3:TrackPointExtension>
        </extensions>
      </trkpt>
      <trkpt lat="31.39609915204346179962158203125" lon="119.46477212011814117431640625">
        <ele>44</ele>
        <time>2016-10-04T00:40:13.000Z</time>
        <extensions>
          <ns3:TrackPointExtension>
            <ns3:hr>166</ns3:hr>
            <ns3:cad>94</ns3:cad>
          </ns3:TrackPointExtension>
        </extensions>
      </trkpt>
      <trkpt lat="31.3961320929229259490966796875" lon="119.464783184230327606201171875">
        <ele>44.40000152587890625</ele>
        <time>2016-10-04T00:40:14.000Z</time>
        <extensions>
          <ns3:TrackPointExtension>
            <ns3:hr>173</ns3:hr>
            <ns3:cad>94</ns3:cad>
          </ns3:TrackPointExtension>
        </extensions>
      </trkpt>
      <trkpt lat="31.39616335742175579071044921875" lon="119.4647915661334991455078125">
        <ele>44.59999847412109375</ele>
        <time>2016-10-04T00:40:15.000Z</time>
        <extensions>
          <ns3:TrackPointExtension>
            <ns3:hr>176</ns3:hr>
            <ns3:cad>93</ns3:cad>
          </ns3:TrackPointExtension>
        </extensions>
      </trkpt>
      <trkpt lat="31.39619118534028530120849609375" lon="119.464793242514133453369140625">
        <ele>45</ele>
        <time>2016-10-04T00:40:16.000Z</time>
        <extensions>
          <ns3:TrackPointExtension>
            <ns3:hr>182</ns3:hr>
            <ns3:cad>92</ns3:cad>
          </ns3:TrackPointExtension>
        </extensions>
      </trkpt>
      <trkpt lat="31.39621599577367305755615234375" lon="119.46479114703834056854248046875">
        <ele>45</ele>
        <time>2016-10-04T00:40:17.000Z</time>
        <extensions>
          <ns3:TrackPointExtension>
            <ns3:hr>185</ns3:hr>
            <ns3:cad>92</ns3:cad>
          </ns3:TrackPointExtension>
        </extensions>
      </trkpt>
      <trkpt lat="31.39636695384979248046875" lon="119.464679919183254241943359375">
        <ele>46</ele>
        <time>2016-10-04T00:40:23.000Z</time>
        <extensions>
          <ns3:TrackPointExtension>
            <ns3:hr>183</ns3:hr>
            <ns3:cad>93</ns3:cad>
          </ns3:TrackPointExtension>
        </extensions>
      </trkpt>
      <trkpt lat="31.39647399075329303741455078125" lon="119.4645054079592227935791015625">
        <ele>47.200000762939453125</ele>
        <time>2016-10-04T00:40:29.000Z</time>
        <extensions>
          <ns3:TrackPointExtension>
            <ns3:hr>178</ns3:hr>
            <ns3:cad>92</ns3:cad>
          </ns3:TrackPointExtension>
        </extensions>
      </trkpt>
      <trkpt lat="31.39648287557065486907958984375" lon="119.4644745625555515289306640625">
        <ele>47.40000152587890625</ele>
        <time>2016-10-04T00:40:30.000Z</time>
        <extensions>
          <ns3:TrackPointExtension>
            <ns3:hr>172</ns3:hr>
            <ns3:cad>92</ns3:cad>
          </ns3:TrackPointExtension>
        </extensions>
      </trkpt>
      <trkpt lat="31.39649041928350925445556640625" lon="119.46444413624703884124755859375">
        <ele>47.59999847412109375</ele>
        <time>2016-10-04T00:40:31.000Z</time>
        <extensions>
          <ns3:TrackPointExtension>
            <ns3:hr>172</ns3:hr>
            <ns3:cad>92</ns3:cad>
          </ns3:TrackPointExtension>
        </extensions>
      </trkpt>
      <trkpt lat="31.39649611897766590118408203125" lon="119.46441228501498699188232421875">
        <ele>47.799999237060546875</ele>
        <time>2016-10-04T00:40:32.000Z</time>
        <extensions>
          <ns3:TrackPointExtension>
            <ns3:hr>178</ns3:hr>
            <ns3:cad>92</ns3:cad>
          </ns3:TrackPointExtension>
        </extensions>
      </trkpt>
      <trkpt lat="31.3965042494237422943115234375" lon="119.46438211016356945037841796875">
        <ele>48</ele>
        <time>2016-10-04T00:40:33.000Z</time>
        <extensions>
          <ns3:TrackPointExtension>
            <ns3:hr>182</ns3:hr>
            <ns3:cad>91</ns3:cad>
          </ns3:TrackPointExtension>
        </extensions>
      </trkpt>
      <trkpt lat="31.39651154167950153350830078125" lon="119.46435076184570789337158203125">
        <ele>48</ele>
        <time>2016-10-04T00:40:34.000Z</time>
        <extensions>
          <ns3:TrackPointExtension>
            <ns3:hr>185</ns3:hr>
            <ns3:cad>91</ns3:cad>
          </ns3:TrackPointExtension>
        </extensions>
      </trkpt>
      <trkpt lat="31.3965240307152271270751953125" lon="119.4642899930477142333984375">
        <ele>48.200000762939453125</ele>
        <time>2016-10-04T00:40:36.000Z</time>
        <extensions>
          <ns3:TrackPointExtension>
            <ns3:hr>182</ns3:hr>
            <ns3:cad>90</ns3:cad>
          </ns3:TrackPointExtension>
        </extensions>
      </trkpt>
      <trkpt lat="31.39654138125479221343994140625" lon="119.464078433811664581298828125">
        <ele>47.200000762939453125</ele>
        <time>2016-10-04T00:40:42.000Z</time>
        <extensions>
          <ns3:TrackPointExtension>
            <ns3:hr>183</ns3:hr>
            <ns3:cad>93</ns3:cad>
          </ns3:TrackPointExtension>
        </extensions>
      </trkpt>
      <trkpt lat="31.39654071070253849029541015625" lon="119.4639072753489017486572265625">
        <ele>44.59999847412109375</ele>
        <time>2016-10-04T00:40:47.000Z</time>
        <extensions>
          <ns3:TrackPointExtension>
            <ns3:hr>186</ns3:hr>
            <ns3:cad>94</ns3:cad>
          </ns3:TrackPointExtension>
        </extensions>
      </trkpt>
      <trkpt lat="31.3965488411486148834228515625" lon="119.46369462646543979644775390625">
        <ele>43</ele>
        <time>2016-10-04T00:40:53.000Z</time>
        <extensions>
          <ns3:TrackPointExtension>
            <ns3:hr>185</ns3:hr>
            <ns3:cad>93</ns3:cad>
          </ns3:TrackPointExtension>
        </extensions>
      </trkpt>
      <trkpt lat="31.39657859690487384796142578125" lon="119.4634948857128620147705078125">
        <ele>40.200000762939453125</ele>
        <time>2016-10-04T00:40:59.000Z</time>
        <extensions>
          <ns3:TrackPointExtension>
            <ns3:hr>182</ns3:hr>
            <ns3:cad>92</ns3:cad>
          </ns3:TrackPointExtension>
        </extensions>
      </trkpt>
      <trkpt lat="31.3966061733663082122802734375" lon="119.46331475861370563507080078125">
        <ele>37.40000152587890625</ele>
        <time>2016-10-04T00:41:04.000Z</time>
        <extensions>
          <ns3:TrackPointExtension>
            <ns3:hr>179</ns3:hr>
            <ns3:cad>90</ns3:cad>
          </ns3:TrackPointExtension>
        </extensions>
      </trkpt>
      <trkpt lat="31.39670449309051036834716796875" lon="119.46311912499368190765380859375">
        <ele>34</ele>
        <time>2016-10-04T00:41:10.000Z</time>
        <extensions>
          <ns3:TrackPointExtension>
            <ns3:hr>182</ns3:hr>
            <ns3:cad>93</ns3:cad>
          </ns3:TrackPointExtension>
        </extensions>
      </trkpt>
      <trkpt lat="31.39677858911454677581787109375" lon="119.46304536424577236175537109375">
        <ele>32.59999847412109375</ele>
        <time>2016-10-04T00:41:13.000Z</time>
        <extensions>
          <ns3:TrackPointExtension>
            <ns3:hr>185</ns3:hr>
            <ns3:cad>94</ns3:cad>
          </ns3:TrackPointExtension>
        </extensions>
      </trkpt>
      <trkpt lat="31.396955363452434539794921875" lon="119.4629757106304168701171875">
        <ele>31</ele>
        <time>2016-10-04T00:41:19.000Z</time>
        <extensions>
          <ns3:TrackPointExtension>
            <ns3:hr>182</ns3:hr>
            <ns3:cad>90</ns3:cad>
          </ns3:TrackPointExtension>
        </extensions>
      </trkpt>
      <trkpt lat="31.3971338979899883270263671875" lon="119.46292282082140445709228515625">
        <ele>30.3999996185302734375</ele>
        <time>2016-10-04T00:41:25.000Z</time>
        <extensions>
          <ns3:TrackPointExtension>
            <ns3:hr>181</ns3:hr>
            <ns3:cad>90</ns3:cad>
          </ns3:TrackPointExtension>
        </extensions>
      </trkpt>
      <trkpt lat="31.39729960821568965911865234375" lon="119.46281972341239452362060546875">
        <ele>29.799999237060546875</ele>
        <time>2016-10-04T00:41:31.000Z</time>
        <extensions>
          <ns3:TrackPointExtension>
            <ns3:hr>180</ns3:hr>
            <ns3:cad>90</ns3:cad>
          </ns3:TrackPointExtension>
        </extensions>
      </trkpt>
      <trkpt lat="31.3974715210497379302978515625" lon="119.46271545253694057464599609375">
        <ele>29</ele>
        <time>2016-10-04T00:41:37.000Z</time>
        <extensions>
          <ns3:TrackPointExtension>
            <ns3:hr>182</ns3:hr>
            <ns3:cad>91</ns3:cad>
          </ns3:TrackPointExtension>
        </extensions>
      </trkpt>
      <trkpt lat="31.3976770453155040740966796875" lon="119.4626791588962078094482421875">
        <ele>27.6000003814697265625</ele>
        <time>2016-10-04T00:41:44.000Z</time>
        <extensions>
          <ns3:TrackPointExtension>
            <ns3:hr>185</ns3:hr>
            <ns3:cad>92</ns3:cad>
          </ns3:TrackPointExtension>
        </extensions>
      </trkpt>
      <trkpt lat="31.39776706695556640625" lon="119.46268158964812755584716796875">
        <ele>26.799999237060546875</ele>
        <time>2016-10-04T00:41:47.000Z</time>
        <extensions>
          <ns3:TrackPointExtension>
            <ns3:hr>188</ns3:hr>
            <ns3:cad>93</ns3:cad>
          </ns3:TrackPointExtension>
        </extensions>
      </trkpt>
      <trkpt lat="31.39788466505706310272216796875" lon="119.46269198320806026458740234375">
        <ele>26.200000762939453125</ele>
        <time>2016-10-04T00:41:51.000Z</time>
        <extensions>
          <ns3:TrackPointExtension>
            <ns3:hr>191</ns3:hr>
            <ns3:cad>94</ns3:cad>
          </ns3:TrackPointExtension>
        </extensions>
      </trkpt>
      <trkpt lat="31.3979694060981273651123046875" lon="119.462711177766323089599609375">
        <ele>26.3999996185302734375</ele>
        <time>2016-10-04T00:41:54.000Z</time>
        <extensions>
          <ns3:TrackPointExtension>
            <ns3:hr>194</ns3:hr>
            <ns3:cad>97</ns3:cad>
          </ns3:TrackPointExtension>
        </extensions>
      </trkpt>
      <trkpt lat="31.39810703694820404052734375" lon="119.46275954134762287139892578125">
        <ele>27</ele>
        <time>2016-10-04T00:41:59.000Z</time>
        <extensions>
          <ns3:TrackPointExtension>
            <ns3:hr>191</ns3:hr>
            <ns3:cad>97</ns3:cad>
          </ns3:TrackPointExtension>
        </extensions>
      </trkpt>
      <trkpt lat="31.398313902318477630615234375" lon="119.46277563460171222686767578125">
        <ele>29</ele>
        <time>2016-10-04T00:42:06.000Z</time>
        <extensions>
          <ns3:TrackPointExtension>
            <ns3:hr>192</ns3:hr>
            <ns3:cad>93</ns3:cad>
          </ns3:TrackPointExtension>
        </extensions>
      </trkpt>
      <trkpt lat="31.3984988071024417877197265625" lon="119.46278032846748828887939453125">
        <ele>30.799999237060546875</ele>
        <time>2016-10-04T00:42:12.000Z</time>
        <extensions>
          <ns3:TrackPointExtension>
            <ns3:hr>190</ns3:hr>
            <ns3:cad>91</ns3:cad>
          </ns3:TrackPointExtension>
        </extensions>
      </trkpt>
      <trkpt lat="31.398687399923801422119140625" lon="119.46270002983510494232177734375">
        <ele>34.200000762939453125</ele>
        <time>2016-10-04T00:42:19.000Z</time>
        <extensions>
          <ns3:TrackPointExtension>
            <ns3:hr>188</ns3:hr>
            <ns3:cad>93</ns3:cad>
          </ns3:TrackPointExtension>
        </extensions>
      </trkpt>
      <trkpt lat="31.39877021312713623046875" lon="119.462491571903228759765625">
        <ele>30.799999237060546875</ele>
        <time>2016-10-04T00:42:26.000Z</time>
        <extensions>
          <ns3:TrackPointExtension>
            <ns3:hr>188</ns3:hr>
            <ns3:cad>93</ns3:cad>
          </ns3:TrackPointExtension>
        </extensions>
      </trkpt>
      <trkpt lat="31.39884891919791698455810546875" lon="119.4622852094471454620361328125">
        <ele>30.6000003814697265625</ele>
        <time>2016-10-04T00:42:33.000Z</time>
        <extensions>
          <ns3:TrackPointExtension>
            <ns3:hr>187</ns3:hr>
            <ns3:cad>95</ns3:cad>
          </ns3:TrackPointExtension>
        </extensions>
      </trkpt>
      <trkpt lat="31.39900281094014644622802734375" lon="119.4621262885630130767822265625">
        <ele>30.799999237060546875</ele>
        <time>2016-10-04T00:42:40.000Z</time>
        <extensions>
          <ns3:TrackPointExtension>
            <ns3:hr>190</ns3:hr>
            <ns3:cad>96</ns3:cad>
          </ns3:TrackPointExtension>
        </extensions>
      </trkpt>
      <trkpt lat="31.3991542719304561614990234375" lon="119.461961500346660614013671875">
        <ele>31.200000762939453125</ele>
        <time>2016-10-04T00:42:47.000Z</time>
        <extensions>
          <ns3:TrackPointExtension>
            <ns3:hr>188</ns3:hr>
            <ns3:cad>94</ns3:cad>
          </ns3:TrackPointExtension>
        </extensions>
      </trkpt>
      <trkpt lat="31.3992704451084136962890625" lon="119.4617668725550174713134765625">
        <ele>29.6000003814697265625</ele>
        <time>2016-10-04T00:42:54.000Z</time>
        <extensions>
          <ns3:TrackPointExtension>
            <ns3:hr>186</ns3:hr>
            <ns3:cad>92</ns3:cad>
          </ns3:TrackPointExtension>
        </extensions>
      </trkpt>
      <trkpt lat="31.399325765669345855712890625" lon="119.4615670479834079742431640625">
        <ele>28</ele>
        <time>2016-10-04T00:43:00.000Z</time>
        <extensions>
          <ns3:TrackPointExtension>
            <ns3:hr>183</ns3:hr>
            <ns3:cad>90</ns3:cad>
          </ns3:TrackPointExtension>
        </extensions>
      </trkpt>
      <trkpt lat="31.3993836008012294769287109375" lon="119.461363367736339569091796875">
        <ele>26.3999996185302734375</ele>
        <time>2016-10-04T00:43:06.000Z</time>
        <extensions>
          <ns3:TrackPointExtension>
            <ns3:hr>181</ns3:hr>
            <ns3:cad>91</ns3:cad>
          </ns3:TrackPointExtension>
        </extensions>
      </trkpt>
      <trkpt lat="31.3994593732059001922607421875" lon="119.46114200167357921600341796875">
        <ele>24.6000003814697265625</ele>
        <time>2016-10-04T00:43:13.000Z</time>
        <extensions>
          <ns3:TrackPointExtension>
            <ns3:hr>184</ns3:hr>
            <ns3:cad>90</ns3:cad>
          </ns3:TrackPointExtension>
        </extensions>
      </trkpt>
      <trkpt lat="31.39961779117584228515625" lon="119.461063630878925323486328125">
        <ele>24</ele>
        <time>2016-10-04T00:43:19.000Z</time>
        <extensions>
          <ns3:TrackPointExtension>
            <ns3:hr>185</ns3:hr>
            <ns3:cad>92</ns3:cad>
          </ns3:TrackPointExtension>
        </extensions>
      </trkpt>
      <trkpt lat="31.399814598262310028076171875" lon="119.46108383126556873321533203125">
        <ele>24.200000762939453125</ele>
        <time>2016-10-04T00:43:26.000Z</time>
        <extensions>
          <ns3:TrackPointExtension>
            <ns3:hr>186</ns3:hr>
            <ns3:cad>94</ns3:cad>
          </ns3:TrackPointExtension>
        </extensions>
      </trkpt>
      <trkpt lat="31.39995507895946502685546875" lon="119.46108751930296421051025390625">
        <ele>24.799999237060546875</ele>
        <time>2016-10-04T00:43:31.000Z</time>
        <extensions>
          <ns3:TrackPointExtension>
            <ns3:hr>189</ns3:hr>
            <ns3:cad>93</ns3:cad>
          </ns3:TrackPointExtension>
        </extensions>
      </trkpt>
      <trkpt lat="31.40010151080787181854248046875" lon="119.46109657175838947296142578125">
        <ele>25.3999996185302734375</ele>
        <time>2016-10-04T00:43:36.000Z</time>
        <extensions>
          <ns3:TrackPointExtension>
            <ns3:hr>191</ns3:hr>
            <ns3:cad>96</ns3:cad>
          </ns3:TrackPointExtension>
        </extensions>
      </trkpt>
      <trkpt lat="31.400291025638580322265625" lon="119.461085759103298187255859375">
        <ele>25.799999237060546875</ele>
        <time>2016-10-04T00:43:43.000Z</time>
        <extensions>
          <ns3:TrackPointExtension>
            <ns3:hr>187</ns3:hr>
            <ns3:cad>95</ns3:cad>
          </ns3:TrackPointExtension>
        </extensions>
      </trkpt>
      <trkpt lat="31.4004896767437458038330078125" lon="119.46108265779912471771240234375">
        <ele>26.6000003814697265625</ele>
        <time>2016-10-04T00:43:50.000Z</time>
        <extensions>
          <ns3:TrackPointExtension>
            <ns3:hr>185</ns3:hr>
            <ns3:cad>96</ns3:cad>
          </ns3:TrackPointExtension>
        </extensions>
      </trkpt>
      <trkpt lat="31.4006925188004970550537109375" lon="119.4611134193837642669677734375">
        <ele>27.799999237060546875</ele>
        <time>2016-10-04T00:43:57.000Z</time>
        <extensions>
          <ns3:TrackPointExtension>
            <ns3:hr>185</ns3:hr>
            <ns3:cad>95</ns3:cad>
          </ns3:TrackPointExtension>
        </extensions>
      </trkpt>
      <trkpt lat="31.40088773332536220550537109375" lon="119.4612022675573825836181640625">
        <ele>27.200000762939453125</ele>
        <time>2016-10-04T00:44:04.000Z</time>
        <extensions>
          <ns3:TrackPointExtension>
            <ns3:hr>185</ns3:hr>
            <ns3:cad>93</ns3:cad>
          </ns3:TrackPointExtension>
        </extensions>
      </trkpt>
      <trkpt lat="31.401066519320011138916015625" lon="119.461294300854206085205078125">
        <ele>25.200000762939453125</ele>
        <time>2016-10-04T00:44:10.000Z</time>
        <extensions>
          <ns3:TrackPointExtension>
            <ns3:hr>184</ns3:hr>
            <ns3:cad>92</ns3:cad>
          </ns3:TrackPointExtension>
        </extensions>
      </trkpt>
      <trkpt lat="31.4012450538575649261474609375" lon="119.4614119827747344970703125">
        <ele>23</ele>
        <time>2016-10-04T00:44:16.000Z</time>
        <extensions>
          <ns3:TrackPointExtension>
            <ns3:hr>182</ns3:hr>
            <ns3:cad>90</ns3:cad>
          </ns3:TrackPointExtension>
        </extensions>
      </trkpt>
      <trkpt lat="31.4014173857867717742919921875" lon="119.46155053563416004180908203125">
        <ele>21</ele>
        <time>2016-10-04T00:44:22.000Z</time>
        <extensions>
          <ns3:TrackPointExtension>
            <ns3:hr>180</ns3:hr>
            <ns3:cad>92</ns3:cad>
          </ns3:TrackPointExtension>
        </extensions>
      </trkpt>
      <trkpt lat="31.401580832898616790771484375" lon="119.46169269271194934844970703125">
        <ele>20.200000762939453125</ele>
        <time>2016-10-04T00:44:28.000Z</time>
        <extensions>
          <ns3:TrackPointExtension>
            <ns3:hr>183</ns3:hr>
            <ns3:cad>94</ns3:cad>
          </ns3:TrackPointExtension>
        </extensions>
      </trkpt>
      <trkpt lat="31.40172609128057956695556640625" lon="119.46184457279741764068603515625">
        <ele>20.799999237060546875</ele>
        <time>2016-10-04T00:44:34.000Z</time>
        <extensions>
          <ns3:TrackPointExtension>
            <ns3:hr>182</ns3:hr>
            <ns3:cad>93</ns3:cad>
          </ns3:TrackPointExtension>
        </extensions>
      </trkpt>
      <trkpt lat="31.40184176154434680938720703125" lon="119.46202595718204975128173828125">
        <ele>20.3999996185302734375</ele>
        <time>2016-10-04T00:44:40.000Z</time>
        <extensions>
          <ns3:TrackPointExtension>
            <ns3:hr>182</ns3:hr>
            <ns3:cad>92</ns3:cad>
          </ns3:TrackPointExtension>
        </extensions>
      </trkpt>
      <trkpt lat="31.4019446074962615966796875" lon="119.46223206818103790283203125">
        <ele>19.6000003814697265625</ele>
        <time>2016-10-04T00:44:47.000Z</time>
        <extensions>
          <ns3:TrackPointExtension>
            <ns3:hr>185</ns3:hr>
            <ns3:cad>95</ns3:cad>
          </ns3:TrackPointExtension>
        </extensions>
      </trkpt>
      <trkpt lat="31.401980817317962646484375" lon="119.4623261131346225738525390625">
        <ele>19.200000762939453125</ele>
        <time>2016-10-04T00:44:50.000Z</time>
        <extensions>
          <ns3:TrackPointExtension>
            <ns3:hr>188</ns3:hr>
            <ns3:cad>95</ns3:cad>
          </ns3:TrackPointExtension>
        </extensions>
      </trkpt>
      <trkpt lat="31.40205524861812591552734375" lon="119.4625195674598217010498046875">
        <ele>18.6000003814697265625</ele>
        <time>2016-10-04T00:44:56.000Z</time>
        <extensions>
          <ns3:TrackPointExtension>
            <ns3:hr>188</ns3:hr>
            <ns3:cad>96</ns3:cad>
          </ns3:TrackPointExtension>
        </extensions>
      </trkpt>
      <trkpt lat="31.4021741040050983428955078125" lon="119.4626955874264240264892578125">
        <ele>19.200000762939453125</ele>
        <time>2016-10-04T00:45:03.000Z</time>
        <extensions>
          <ns3:TrackPointExtension>
            <ns3:hr>189</ns3:hr>
            <ns3:cad>95</ns3:cad>
          </ns3:TrackPointExtension>
        </extensions>
      </trkpt>
      <trkpt lat="31.4022904448211193084716796875" lon="119.46275451220571994781494140625">
        <ele>18.6000003814697265625</ele>
        <time>2016-10-04T00:45:08.000Z</time>
        <extensions>
          <ns3:TrackPointExtension>
            <ns3:hr>186</ns3:hr>
            <ns3:cad>92</ns3:cad>
          </ns3:TrackPointExtension>
        </extensions>
      </trkpt>
      <trkpt lat="31.4024688117206096649169921875" lon="119.4628105871379375457763671875">
        <ele>17.6000003814697265625</ele>
        <time>2016-10-04T00:45:15.000Z</time>
        <extensions>
          <ns3:TrackPointExtension>
            <ns3:hr>184</ns3:hr>
            <ns3:cad>90</ns3:cad>
          </ns3:TrackPointExtension>
        </extensions>
      </trkpt>
      <trkpt lat="31.40262144617736339569091796875" lon="119.46287470869719982147216796875">
        <ele>17</ele>
        <time>2016-10-04T00:45:21.000Z</time>
        <extensions>
          <ns3:TrackPointExtension>
            <ns3:hr>180</ns3:hr>
            <ns3:cad>90</ns3:cad>
          </ns3:TrackPointExtension>
        </extensions>
      </trkpt>
      <trkpt lat="31.402796544134616851806640625" lon="119.46296120993793010711669921875">
        <ele>17.6000003814697265625</ele>
        <time>2016-10-04T00:45:28.000Z</time>
        <extensions>
          <ns3:TrackPointExtension>
            <ns3:hr>181</ns3:hr>
            <ns3:cad>91</ns3:cad>
          </ns3:TrackPointExtension>
        </extensions>
      </trkpt>
      <trkpt lat="31.4029868133366107940673828125" lon="119.463004879653453826904296875">
        <ele>18</ele>
        <time>2016-10-04T00:45:35.000Z</time>
        <extensions>
          <ns3:TrackPointExtension>
            <ns3:hr>182</ns3:hr>
            <ns3:cad>89</ns3:cad>
          </ns3:TrackPointExtension>
        </extensions>
      </trkpt>
      <trkpt lat="31.40317046083509922027587890625" lon="119.463030360639095306396484375">
        <ele>18</ele>
        <time>2016-10-04T00:45:41.000Z</time>
        <extensions>
          <ns3:TrackPointExtension>
            <ns3:hr>181</ns3:hr>
            <ns3:cad>91</ns3:cad>
          </ns3:TrackPointExtension>
        </extensions>
      </trkpt>
      <trkpt lat="31.4033351652324199676513671875" lon="119.46316522546112537384033203125">
        <ele>18.6000003814697265625</ele>
        <time>2016-10-04T00:45:47.000Z</time>
        <extensions>
          <ns3:TrackPointExtension>
            <ns3:hr>184</ns3:hr>
            <ns3:cad>92</ns3:cad>
          </ns3:TrackPointExtension>
        </extensions>
      </trkpt>
      <trkpt lat="31.40345242805778980255126953125" lon="119.46334007196128368377685546875">
        <ele>18.799999237060546875</ele>
        <time>2016-10-04T00:45:53.000Z</time>
        <extensions>
          <ns3:TrackPointExtension>
            <ns3:hr>185</ns3:hr>
            <ns3:cad>93</ns3:cad>
          </ns3:TrackPointExtension>
        </extensions>
      </trkpt>
      <trkpt lat="31.403557620942592620849609375" lon="119.46352296508848667144775390625">
        <ele>17.3999996185302734375</ele>
        <time>2016-10-04T00:45:59.000Z</time>
        <extensions>
          <ns3:TrackPointExtension>
            <ns3:hr>187</ns3:hr>
            <ns3:cad>96</ns3:cad>
          </ns3:TrackPointExtension>
        </extensions>
      </trkpt>
      <trkpt lat="31.4036241732537746429443359375" lon="119.4636408984661102294921875">
        <ele>16.799999237060546875</ele>
        <time>2016-10-04T00:46:03.000Z</time>
        <extensions>
          <ns3:TrackPointExtension>
            <ns3:hr>190</ns3:hr>
            <ns3:cad>96</ns3:cad>
          </ns3:TrackPointExtension>
        </extensions>
      </trkpt>
      <trkpt lat="31.403697766363620758056640625" lon="119.4638549722731113433837890625">
        <ele>16.200000762939453125</ele>
        <time>2016-10-04T00:46:10.000Z</time>
        <extensions>
          <ns3:TrackPointExtension>
            <ns3:hr>190</ns3:hr>
            <ns3:cad>94</ns3:cad>
          </ns3:TrackPointExtension>
        </extensions>
      </trkpt>
      <trkpt lat="31.40374277718365192413330078125" lon="119.464090168476104736328125">
        <ele>15</ele>
        <time>2016-10-04T00:46:17.000Z</time>
        <extensions>
          <ns3:TrackPointExtension>
            <ns3:hr>187</ns3:hr>
            <ns3:cad>90</ns3:cad>
          </ns3:TrackPointExtension>
        </extensions>
      </trkpt>
      <trkpt lat="31.4037680067121982574462890625" lon="119.46422888897359371185302734375">
        <ele>14</ele>
        <time>2016-10-04T00:46:21.000Z</time>
        <extensions>
          <ns3:TrackPointExtension>
            <ns3:hr>184</ns3:hr>
            <ns3:cad>89</ns3:cad>
          </ns3:TrackPointExtension>
        </extensions>
      </trkpt>
      <trkpt lat="31.4038038812577724456787109375" lon="119.46436501108109951019287109375">
        <ele>12.3999996185302734375</ele>
        <time>2016-10-04T00:46:25.000Z</time>
        <extensions>
          <ns3:TrackPointExtension>
            <ns3:hr>181</ns3:hr>
            <ns3:cad>89</ns3:cad>
          </ns3:TrackPointExtension>
        </extensions>
      </trkpt>
      <trkpt lat="31.40384336002171039581298828125" lon="119.4645784981548786163330078125">
        <ele>11.80000019073486328125</ele>
        <time>2016-10-04T00:46:31.000Z</time>
        <extensions>
          <ns3:TrackPointExtension>
            <ns3:hr>181</ns3:hr>
            <ns3:cad>89</ns3:cad>
          </ns3:TrackPointExtension>
        </extensions>
      </trkpt>
      <trkpt lat="31.4038390852510929107666015625" lon="119.46471805684268474578857421875">
        <ele>11.3999996185302734375</ele>
        <time>2016-10-04T00:46:35.000Z</time>
        <extensions>
          <ns3:TrackPointExtension>
            <ns3:hr>184</ns3:hr>
            <ns3:cad>89</ns3:cad>
          </ns3:TrackPointExtension>
        </extensions>
      </trkpt>
      <trkpt lat="31.40377513132989406585693359375" lon="119.4649151153862476348876953125">
        <ele>11.80000019073486328125</ele>
        <time>2016-10-04T00:46:41.000Z</time>
        <extensions>
          <ns3:TrackPointExtension>
            <ns3:hr>184</ns3:hr>
            <ns3:cad>92</ns3:cad>
          </ns3:TrackPointExtension>
        </extensions>
      </trkpt>
      <trkpt lat="31.40369935892522335052490234375" lon="119.465106390416622161865234375">
        <ele>12</ele>
        <time>2016-10-04T00:46:47.000Z</time>
        <extensions>
          <ns3:TrackPointExtension>
            <ns3:hr>183</ns3:hr>
            <ns3:cad>92</ns3:cad>
          </ns3:TrackPointExtension>
        </extensions>
      </trkpt>
      <trkpt lat="31.40361067838966846466064453125" lon="119.465291798114776611328125">
        <ele>12.19999980926513671875</ele>
        <time>2016-10-04T00:46:53.000Z</time>
        <extensions>
          <ns3:TrackPointExtension>
            <ns3:hr>183</ns3:hr>
            <ns3:cad>94</ns3:cad>
          </ns3:TrackPointExtension>
        </extensions>
      </trkpt>
      <trkpt lat="31.4035162143409252166748046875" lon="119.4653789699077606201171875">
        <ele>12.19999980926513671875</ele>
        <time>2016-10-04T00:46:57.000Z</time>
        <extensions>
          <ns3:TrackPointExtension>
            <ns3:hr>186</ns3:hr>
            <ns3:cad>92</ns3:cad>
          </ns3:TrackPointExtension>
        </extensions>
      </trkpt>
      <trkpt lat="31.40334673225879669189453125" lon="119.46542255580425262451171875">
        <ele>12.80000019073486328125</ele>
        <time>2016-10-04T00:47:03.000Z</time>
        <extensions>
          <ns3:TrackPointExtension>
            <ns3:hr>183</ns3:hr>
            <ns3:cad>93</ns3:cad>
          </ns3:TrackPointExtension>
        </extensions>
      </trkpt>
      <trkpt lat="31.40317314304411411285400390625" lon="119.46543236263096332550048828125">
        <ele>14</ele>
        <time>2016-10-04T00:47:09.000Z</time>
        <extensions>
          <ns3:TrackPointExtension>
            <ns3:hr>186</ns3:hr>
            <ns3:cad>94</ns3:cad>
          </ns3:TrackPointExtension>
        </extensions>
      </trkpt>
      <trkpt lat="31.40298773534595966339111328125" lon="119.465357176959514617919921875">
        <ele>14.80000019073486328125</ele>
        <time>2016-10-04T00:47:15.000Z</time>
        <extensions>
          <ns3:TrackPointExtension>
            <ns3:hr>187</ns3:hr>
            <ns3:cad>93</ns3:cad>
          </ns3:TrackPointExtension>
        </extensions>
      </trkpt>
      <trkpt lat="31.402800567448139190673828125" lon="119.465264976024627685546875">
        <ele>15.3999996185302734375</ele>
        <time>2016-10-04T00:47:22.000Z</time>
        <extensions>
          <ns3:TrackPointExtension>
            <ns3:hr>186</ns3:hr>
            <ns3:cad>92</ns3:cad>
          </ns3:TrackPointExtension>
        </extensions>
      </trkpt>
      <trkpt lat="31.4026109687983989715576171875" lon="119.46519113145768642425537109375">
        <ele>16</ele>
        <time>2016-10-04T00:47:30.000Z</time>
        <extensions>
          <ns3:TrackPointExtension>
            <ns3:hr>184</ns3:hr>
            <ns3:cad>92</ns3:cad>
          </ns3:TrackPointExtension>
        </extensions>
      </trkpt>
      <trkpt lat="31.4024547301232814788818359375" lon="119.46520890109241008758544921875">
        <ele>15.6000003814697265625</ele>
        <time>2016-10-04T00:47:38.000Z</time>
        <extensions>
          <ns3:TrackPointExtension>
            <ns3:hr>181</ns3:hr>
            <ns3:cad>88</ns3:cad>
          </ns3:TrackPointExtension>
        </extensions>
      </trkpt>
      <trkpt lat="31.402263455092906951904296875" lon="119.46525894105434417724609375">
        <ele>16</ele>
        <time>2016-10-04T00:47:47.000Z</time>
        <extensions>
          <ns3:TrackPointExtension>
            <ns3:hr>181</ns3:hr>
            <ns3:cad>87</ns3:cad>
          </ns3:TrackPointExtension>
        </extensions>
      </trkpt>
      <trkpt lat="31.4021720923483371734619140625" lon="119.46529037319123744964599609375">
        <ele>17.200000762939453125</ele>
        <time>2016-10-04T00:47:52.000Z</time>
        <extensions>
          <ns3:TrackPointExtension>
            <ns3:hr>181</ns3:hr>
            <ns3:cad>89</ns3:cad>
          </ns3:TrackPointExtension>
        </extensions>
      </trkpt>
      <trkpt lat="31.40215809457004070281982421875" lon="119.46529246866703033447265625">
        <ele>17.3999996185302734375</ele>
        <time>2016-10-04T00:47:53.000Z</time>
        <extensions>
          <ns3:TrackPointExtension>
            <ns3:hr>181</ns3:hr>
            <ns3:cad>89</ns3:cad>
          </ns3:TrackPointExtension>
        </extensions>
      </trkpt>
      <trkpt lat="31.40214443206787109375" lon="119.46529489941895008087158203125">
        <ele>17.3999996185302734375</ele>
        <time>2016-10-04T00:47:54.000Z</time>
        <extensions>
          <ns3:TrackPointExtension>
            <ns3:hr>182</ns3:hr>
            <ns3:cad>89</ns3:cad>
          </ns3:TrackPointExtension>
        </extensions>
      </trkpt>
    </trkseg>
  </trk>
</gpx>
