<gpx xmlns:ns3="http://www.garmin.com/xmlschemas/TrackPointExtension/v1" xmlns="http://www.topografix.com/GPX/1/1" xmlns:xsi="http://www.w3.org/2001/XMLSchema-instance" xmlns:ns2="http://www.garmin.com/xmlschemas/GpxExtensions/v3" creator="Garmin Connect" version="1.1" xsi:schemaLocation="http://www.topografix.com/GPX/1/1 http://www.topografix.com/GPX/11.xsd">
  <extensions>
<distance>1161.75</distance>
<average_hr>87.0</average_hr>
<average_speed>1.176820397638558</average_speed>
<start_time>2023-08-30T01:33:22+00:00</start_time>
<end_time>2023-08-30T01:49:49.194000+00:00</end_time>
<moving_time>731.728</moving_time>
<elapsed_time>987.194</elapsed_time>
</extensions>
<metadata>
    <link href="connect.garmin.com">
      <text>Garmin Connect</text>
    </link>
    <time>2023-08-30T01:33:22.000Z</time>
  </metadata>
  <trk>
    <name>常州市 步行</name>
    <type>walking</type>
    <trkseg>
      <trkpt lat="31.40894240699708461761474609375" lon="119.487714730203151702880859375">
        <ele>9.19999980926513671875</ele>
        <time>2023-08-30T01:48:04.000Z</time>
        <extensions>
          <ns3:TrackPointExtension/>
        </extensions>
      </trkpt>
      <trkpt lat="31.4089466817677021026611328125" lon="119.48770324699580669403076171875">
        <ele>9.19999980926513671875</ele>
        <time>2023-08-30T01:48:05.000Z</time>
        <extensions>
          <ns3:TrackPointExtension>
            <ns3:hr>86</ns3:hr>
          </ns3:TrackPointExtension>
        </extensions>
      </trkpt>
      <trkpt lat="31.4089520461857318878173828125" lon="119.48769167996942996978759765625">
        <ele>9.19999980926513671875</ele>
        <time>2023-08-30T01:48:06.000Z</time>
        <extensions>
          <ns3:TrackPointExtension>
            <ns3:hr>86</ns3:hr>
          </ns3:TrackPointExtension>
        </extensions>
      </trkpt>
      <trkpt lat="31.4089585840702056884765625" lon="119.48767994530498981475830078125">
        <ele>9.3999996185302734375</ele>
        <time>2023-08-30T01:48:07.000Z</time>
        <extensions>
          <ns3:TrackPointExtension/>
        </extensions>
      </trkpt>
      <trkpt lat="31.4089661277830600738525390625" lon="119.48766745626926422119140625">
        <ele>9.3999996185302734375</ele>
        <time>2023-08-30T01:48:08.000Z</time>
        <extensions>
          <ns3:TrackPointExtension/>
        </extensions>
      </trkpt>
      <trkpt lat="31.40897425822913646697998046875" lon="119.48765429668128490447998046875">
        <ele>9.3999996185302734375</ele>
        <time>2023-08-30T01:48:09.000Z</time>
        <extensions>
          <ns3:TrackPointExtension/>
        </extensions>
      </trkpt>
      <trkpt lat="31.4089822210371494293212890625" lon="119.48764105327427387237548828125">
        <ele>9.3999996185302734375</ele>
        <time>2023-08-30T01:48:10.000Z</time>
        <extensions>
          <ns3:TrackPointExtension/>
        </extensions>
      </trkpt>
      <trkpt lat="31.40898951329290866851806640625" lon="119.4876273907721042633056640625">
        <ele>9.6000003814697265625</ele>
        <time>2023-08-30T01:48:11.000Z</time>
        <extensions>
          <ns3:TrackPointExtension/>
        </extensions>
      </trkpt>
      <trkpt lat="31.4089963026344776153564453125" lon="119.48761255480349063873291015625">
        <ele>9.3999996185302734375</ele>
        <time>2023-08-30T01:48:12.000Z</time>
        <extensions>
          <ns3:TrackPointExtension/>
        </extensions>
      </trkpt>
      <trkpt lat="31.40900225378572940826416015625" lon="119.48759662918746471405029296875">
        <ele>9.3999996185302734375</ele>
        <time>2023-08-30T01:48:13.000Z</time>
        <extensions>
          <ns3:TrackPointExtension/>
        </extensions>
      </trkpt>
      <trkpt lat="31.40900711528956890106201171875" lon="119.4875807873904705047607421875">
        <ele>9.19999980926513671875</ele>
        <time>2023-08-30T01:48:14.000Z</time>
        <extensions>
          <ns3:TrackPointExtension>
            <ns3:hr>88</ns3:hr>
          </ns3:TrackPointExtension>
        </extensions>
      </trkpt>
      <trkpt lat="31.40901147387921810150146484375" lon="119.4875663705170154571533203125">
        <ele>9.19999980926513671875</ele>
        <time>2023-08-30T01:48:15.000Z</time>
        <extensions>
          <ns3:TrackPointExtension/>
        </extensions>
      </trkpt>
      <trkpt lat="31.40901650302112102508544921875" lon="119.4875539653003215789794921875">
        <ele>9.19999980926513671875</ele>
        <time>2023-08-30T01:48:16.000Z</time>
        <extensions>
          <ns3:TrackPointExtension/>
        </extensions>
      </trkpt>
      <trkpt lat="31.40902253799140453338623046875" lon="119.48754332028329372406005859375">
        <ele>9</ele>
        <time>2023-08-30T01:48:17.000Z</time>
        <extensions>
          <ns3:TrackPointExtension/>
        </extensions>
      </trkpt>
      <trkpt lat="31.4090291596949100494384765625" lon="119.4875338487327098846435546875">
        <ele>9</ele>
        <time>2023-08-30T01:48:18.000Z</time>
        <extensions>
          <ns3:TrackPointExtension/>
        </extensions>
      </trkpt>
      <trkpt lat="31.40903628431260585784912109375" lon="119.48752504773437976837158203125">
        <ele>8.80000019073486328125</ele>
        <time>2023-08-30T01:48:19.000Z</time>
        <extensions>
          <ns3:TrackPointExtension/>
        </extensions>
      </trkpt>
      <trkpt lat="31.40904349274933338165283203125" lon="119.4875167496502399444580078125">
        <ele>8.80000019073486328125</ele>
        <time>2023-08-30T01:48:20.000Z</time>
        <extensions>
          <ns3:TrackPointExtension>
            <ns3:hr>88</ns3:hr>
          </ns3:TrackPointExtension>
        </extensions>
      </trkpt>
      <trkpt lat="31.4090506173670291900634765625" lon="119.48750920593738555908203125">
        <ele>8.6000003814697265625</ele>
        <time>2023-08-30T01:48:21.000Z</time>
        <extensions>
          <ns3:TrackPointExtension/>
        </extensions>
      </trkpt>
      <trkpt lat="31.4090583287179470062255859375" lon="119.487503506243228912353515625">
        <ele>8.6000003814697265625</ele>
        <time>2023-08-30T01:48:22.000Z</time>
        <extensions>
          <ns3:TrackPointExtension/>
        </extensions>
      </trkpt>
      <trkpt lat="31.4090667106211185455322265625" lon="119.48749973438680171966552734375">
        <ele>8.6000003814697265625</ele>
        <time>2023-08-30T01:48:23.000Z</time>
        <extensions>
          <ns3:TrackPointExtension/>
        </extensions>
      </trkpt>
      <trkpt lat="31.40907584689557552337646484375" lon="119.4874964654445648193359375">
        <ele>8.3999996185302734375</ele>
        <time>2023-08-30T01:48:24.000Z</time>
        <extensions>
          <ns3:TrackPointExtension>
            <ns3:hr>88</ns3:hr>
          </ns3:TrackPointExtension>
        </extensions>
      </trkpt>
      <trkpt lat="31.40908540226519107818603515625" lon="119.48749319650232791900634765625">
        <ele>8.3999996185302734375</ele>
        <time>2023-08-30T01:48:25.000Z</time>
        <extensions>
          <ns3:TrackPointExtension/>
        </extensions>
      </trkpt>
      <trkpt lat="31.409095041453838348388671875" lon="119.487489759922027587890625">
        <ele>8.19999980926513671875</ele>
        <time>2023-08-30T01:48:26.000Z</time>
        <extensions>
          <ns3:TrackPointExtension/>
        </extensions>
      </trkpt>
      <trkpt lat="31.409104764461517333984375" lon="119.487486071884632110595703125">
        <ele>8.19999980926513671875</ele>
        <time>2023-08-30T01:48:27.000Z</time>
        <extensions>
          <ns3:TrackPointExtension>
            <ns3:hr>88</ns3:hr>
          </ns3:TrackPointExtension>
        </extensions>
      </trkpt>
      <trkpt lat="31.40911457128822803497314453125" lon="119.48748171329498291015625">
        <ele>8</ele>
        <time>2023-08-30T01:48:28.000Z</time>
        <extensions>
          <ns3:TrackPointExtension/>
        </extensions>
      </trkpt>
      <trkpt lat="31.40912395901978015899658203125" lon="119.48747693561017513275146484375">
        <ele>8</ele>
        <time>2023-08-30T01:48:29.000Z</time>
        <extensions>
          <ns3:TrackPointExtension/>
        </extensions>
      </trkpt>
      <trkpt lat="31.4091330952942371368408203125" lon="119.487471990287303924560546875">
        <ele>8</ele>
        <time>2023-08-30T01:48:30.000Z</time>
        <extensions>
          <ns3:TrackPointExtension/>
        </extensions>
      </trkpt>
      <trkpt lat="31.4091421477496623992919921875" lon="119.4874674640595912933349609375">
        <ele>7.80000019073486328125</ele>
        <time>2023-08-30T01:48:31.000Z</time>
        <extensions>
          <ns3:TrackPointExtension>
            <ns3:hr>86</ns3:hr>
          </ns3:TrackPointExtension>
        </extensions>
      </trkpt>
      <trkpt lat="31.40915145166218280792236328125" lon="119.4874642789363861083984375">
        <ele>7.80000019073486328125</ele>
        <time>2023-08-30T01:48:32.000Z</time>
        <extensions>
          <ns3:TrackPointExtension/>
        </extensions>
      </trkpt>
      <trkpt lat="31.409161090850830078125" lon="119.4874624349176883697509765625">
        <ele>7.80000019073486328125</ele>
        <time>2023-08-30T01:48:33.000Z</time>
        <extensions>
          <ns3:TrackPointExtension/>
        </extensions>
      </trkpt>
      <trkpt lat="31.40917123295366764068603515625" lon="119.48746117763221263885498046875">
        <ele>7.80000019073486328125</ele>
        <time>2023-08-30T01:48:34.000Z</time>
        <extensions>
          <ns3:TrackPointExtension/>
        </extensions>
      </trkpt>
      <trkpt lat="31.40918179415166378021240234375" lon="119.48745983652770519256591796875">
        <ele>7.80000019073486328125</ele>
        <time>2023-08-30T01:48:35.000Z</time>
        <extensions>
          <ns3:TrackPointExtension/>
        </extensions>
      </trkpt>
      <trkpt lat="31.4091924391686916351318359375" lon="119.48745849542319774627685546875">
        <ele>7.80000019073486328125</ele>
        <time>2023-08-30T01:48:36.000Z</time>
        <extensions>
          <ns3:TrackPointExtension>
            <ns3:hr>87</ns3:hr>
          </ns3:TrackPointExtension>
        </extensions>
      </trkpt>
      <trkpt lat="31.4092018269002437591552734375" lon="119.487457238137722015380859375">
        <ele>7.80000019073486328125</ele>
        <time>2023-08-30T01:48:37.000Z</time>
        <extensions>
          <ns3:TrackPointExtension/>
        </extensions>
      </trkpt>
      <trkpt lat="31.409209705889225006103515625" lon="119.48745531029999256134033203125">
        <ele>7.80000019073486328125</ele>
        <time>2023-08-30T01:48:38.000Z</time>
        <extensions>
          <ns3:TrackPointExtension/>
        </extensions>
      </trkpt>
      <trkpt lat="31.40921674668788909912109375" lon="119.487452544271945953369140625">
        <ele>7.80000019073486328125</ele>
        <time>2023-08-30T01:48:39.000Z</time>
        <extensions>
          <ns3:TrackPointExtension/>
        </extensions>
      </trkpt>
      <trkpt lat="31.40922370366752147674560546875" lon="119.48744952678680419921875">
        <ele>7.80000019073486328125</ele>
        <time>2023-08-30T01:48:40.000Z</time>
        <extensions>
          <ns3:TrackPointExtension/>
        </extensions>
      </trkpt>
      <trkpt lat="31.40923191793262958526611328125" lon="119.48744676075875759124755859375">
        <ele>7.80000019073486328125</ele>
        <time>2023-08-30T01:48:41.000Z</time>
        <extensions>
          <ns3:TrackPointExtension/>
        </extensions>
      </trkpt>
      <trkpt lat="31.40924222767353057861328125" lon="119.4874453358352184295654296875">
        <ele>7.80000019073486328125</ele>
        <time>2023-08-30T01:48:42.000Z</time>
        <extensions>
          <ns3:TrackPointExtension>
            <ns3:hr>88</ns3:hr>
          </ns3:TrackPointExtension>
        </extensions>
      </trkpt>
      <trkpt lat="31.40925404615700244903564453125" lon="119.4874453358352184295654296875">
        <ele>7.80000019073486328125</ele>
        <time>2023-08-30T01:48:43.000Z</time>
        <extensions>
          <ns3:TrackPointExtension/>
        </extensions>
      </trkpt>
      <trkpt lat="31.4092651940882205963134765625" lon="119.48744592256844043731689453125">
        <ele>7.80000019073486328125</ele>
        <time>2023-08-30T01:48:44.000Z</time>
        <extensions>
          <ns3:TrackPointExtension/>
        </extensions>
      </trkpt>
      <trkpt lat="31.409275420010089874267578125" lon="119.48744617402553558349609375">
        <ele>7.80000019073486328125</ele>
        <time>2023-08-30T01:48:45.000Z</time>
        <extensions>
          <ns3:TrackPointExtension/>
        </extensions>
      </trkpt>
      <trkpt lat="31.40928556211292743682861328125" lon="119.48744617402553558349609375">
        <ele>7.80000019073486328125</ele>
        <time>2023-08-30T01:48:46.000Z</time>
        <extensions>
          <ns3:TrackPointExtension/>
        </extensions>
      </trkpt>
      <trkpt lat="31.40929562039673328399658203125" lon="119.48744625784456729888916015625">
        <ele>7.80000019073486328125</ele>
        <time>2023-08-30T01:48:47.000Z</time>
        <extensions>
          <ns3:TrackPointExtension/>
        </extensions>
      </trkpt>
      <trkpt lat="31.40930651687085628509521484375" lon="119.48744659312069416046142578125">
        <ele>7.80000019073486328125</ele>
        <time>2023-08-30T01:48:48.000Z</time>
        <extensions>
          <ns3:TrackPointExtension/>
        </extensions>
      </trkpt>
      <trkpt lat="31.4093185029923915863037109375" lon="119.4874473474919795989990234375">
        <ele>7.80000019073486328125</ele>
        <time>2023-08-30T01:48:49.000Z</time>
        <extensions>
          <ns3:TrackPointExtension/>
        </extensions>
      </trkpt>
      <trkpt lat="31.40933099202811717987060546875" lon="119.4874486885964870452880859375">
        <ele>7.80000019073486328125</ele>
        <time>2023-08-30T01:48:50.000Z</time>
        <extensions>
          <ns3:TrackPointExtension>
            <ns3:hr>87</ns3:hr>
          </ns3:TrackPointExtension>
        </extensions>
      </trkpt>
      <trkpt lat="31.4093429781496524810791015625" lon="119.4874496944248676300048828125">
        <ele>7.80000019073486328125</ele>
        <time>2023-08-30T01:48:51.000Z</time>
        <extensions>
          <ns3:TrackPointExtension/>
        </extensions>
      </trkpt>
      <trkpt lat="31.409354545176029205322265625" lon="119.4874490238726139068603515625">
        <ele>7.80000019073486328125</ele>
        <time>2023-08-30T01:48:52.000Z</time>
        <extensions>
          <ns3:TrackPointExtension/>
        </extensions>
      </trkpt>
      <trkpt lat="31.40936636365950107574462890625" lon="119.48744609020650386810302734375">
        <ele>7.80000019073486328125</ele>
        <time>2023-08-30T01:48:53.000Z</time>
        <extensions>
          <ns3:TrackPointExtension/>
        </extensions>
      </trkpt>
      <trkpt lat="31.4093785174190998077392578125" lon="119.48744072578847408294677734375">
        <ele>7.80000019073486328125</ele>
        <time>2023-08-30T01:48:54.000Z</time>
        <extensions>
          <ns3:TrackPointExtension/>
        </extensions>
      </trkpt>
      <trkpt lat="31.4093909226357936859130859375" lon="119.487433768808841705322265625">
        <ele>7.80000019073486328125</ele>
        <time>2023-08-30T01:48:55.000Z</time>
        <extensions>
          <ns3:TrackPointExtension>
            <ns3:hr>86</ns3:hr>
          </ns3:TrackPointExtension>
        </extensions>
      </trkpt>
      <trkpt lat="31.40940341167151927947998046875" lon="119.48742614127695560455322265625">
        <ele>7.80000019073486328125</ele>
        <time>2023-08-30T01:48:56.000Z</time>
        <extensions>
          <ns3:TrackPointExtension/>
        </extensions>
      </trkpt>
      <trkpt lat="31.4094150625169277191162109375" lon="119.48741935193538665771484375">
        <ele>7.80000019073486328125</ele>
        <time>2023-08-30T01:48:57.000Z</time>
        <extensions>
          <ns3:TrackPointExtension/>
        </extensions>
      </trkpt>
      <trkpt lat="31.409426294267177581787109375" lon="119.4874141551554203033447265625">
        <ele>7.80000019073486328125</ele>
        <time>2023-08-30T01:48:58.000Z</time>
        <extensions>
          <ns3:TrackPointExtension/>
        </extensions>
      </trkpt>
      <trkpt lat="31.40943794511258602142333984375" lon="119.48741071857511997222900390625">
        <ele>7.599999904632568359375</ele>
        <time>2023-08-30T01:48:59.000Z</time>
        <extensions>
          <ns3:TrackPointExtension/>
        </extensions>
      </trkpt>
      <trkpt lat="31.4094494283199310302734375" lon="119.487409293651580810546875">
        <ele>7.599999904632568359375</ele>
        <time>2023-08-30T01:49:00.000Z</time>
        <extensions>
          <ns3:TrackPointExtension>
            <ns3:hr>85</ns3:hr>
          </ns3:TrackPointExtension>
        </extensions>
      </trkpt>
      <trkpt lat="31.40945948660373687744140625" lon="119.48740937747061252593994140625">
        <ele>7.599999904632568359375</ele>
        <time>2023-08-30T01:49:01.000Z</time>
        <extensions>
          <ns3:TrackPointExtension/>
        </extensions>
      </trkpt>
      <trkpt lat="31.40946728177368640899658203125" lon="119.4874094612896442413330078125">
        <ele>7.599999904632568359375</ele>
        <time>2023-08-30T01:49:02.000Z</time>
        <extensions>
          <ns3:TrackPointExtension/>
        </extensions>
      </trkpt>
      <trkpt lat="31.4094730652868747711181640625" lon="119.48740904219448566436767578125">
        <ele>7.599999904632568359375</ele>
        <time>2023-08-30T01:49:03.000Z</time>
        <extensions>
          <ns3:TrackPointExtension>
            <ns3:hr>85</ns3:hr>
          </ns3:TrackPointExtension>
        </extensions>
      </trkpt>
      <trkpt lat="31.409477256238460540771484375" lon="119.4874084554612636566162109375">
        <ele>7.599999904632568359375</ele>
        <time>2023-08-30T01:49:04.000Z</time>
        <extensions>
          <ns3:TrackPointExtension/>
        </extensions>
      </trkpt>
      <trkpt lat="31.40947968699038028717041015625" lon="119.487409293651580810546875">
        <ele>7.599999904632568359375</ele>
        <time>2023-08-30T01:49:05.000Z</time>
        <extensions>
          <ns3:TrackPointExtension/>
        </extensions>
      </trkpt>
      <trkpt lat="31.4094801060855388641357421875" lon="119.4874124787747859954833984375">
        <ele>7.599999904632568359375</ele>
        <time>2023-08-30T01:49:06.000Z</time>
        <extensions>
          <ns3:TrackPointExtension/>
        </extensions>
      </trkpt>
      <trkpt lat="31.4094789326190948486328125" lon="119.487418346107006072998046875">
        <ele>7.80000019073486328125</ele>
        <time>2023-08-30T01:49:07.000Z</time>
        <extensions>
          <ns3:TrackPointExtension/>
        </extensions>
      </trkpt>
      <trkpt lat="31.409475915133953094482421875" lon="119.48742597363889217376708984375">
        <ele>7.80000019073486328125</ele>
        <time>2023-08-30T01:49:08.000Z</time>
        <extensions>
          <ns3:TrackPointExtension/>
        </extensions>
      </trkpt>
      <trkpt lat="31.4094720594584941864013671875" lon="119.48743410408496856689453125">
        <ele>7.80000019073486328125</ele>
        <time>2023-08-30T01:49:09.000Z</time>
        <extensions>
          <ns3:TrackPointExtension/>
        </extensions>
      </trkpt>
      <trkpt lat="31.4094690419733524322509765625" lon="119.48744173161685466766357421875">
        <ele>7.80000019073486328125</ele>
        <time>2023-08-30T01:49:10.000Z</time>
        <extensions>
          <ns3:TrackPointExtension>
            <ns3:hr>85</ns3:hr>
          </ns3:TrackPointExtension>
        </extensions>
      </trkpt>
      <trkpt lat="31.40946711413562297821044921875" lon="119.48744952678680419921875">
        <ele>7.80000019073486328125</ele>
        <time>2023-08-30T01:49:11.000Z</time>
        <extensions>
          <ns3:TrackPointExtension/>
        </extensions>
      </trkpt>
      <trkpt lat="31.40946644358336925506591796875" lon="119.48745866306126117706298828125">
        <ele>7.80000019073486328125</ele>
        <time>2023-08-30T01:49:12.000Z</time>
        <extensions>
          <ns3:TrackPointExtension/>
        </extensions>
      </trkpt>
      <trkpt lat="31.40946677885949611663818359375" lon="119.48746939189732074737548828125">
        <ele>8</ele>
        <time>2023-08-30T01:49:13.000Z</time>
        <extensions>
          <ns3:TrackPointExtension/>
        </extensions>
      </trkpt>
      <trkpt lat="31.40946811996400356292724609375" lon="119.4874822162091732025146484375">
        <ele>8</ele>
        <time>2023-08-30T01:49:14.000Z</time>
        <extensions>
          <ns3:TrackPointExtension/>
        </extensions>
      </trkpt>
      <trkpt lat="31.40947080217301845550537109375" lon="119.48749671690165996551513671875">
        <ele>8</ele>
        <time>2023-08-30T01:49:15.000Z</time>
        <extensions>
          <ns3:TrackPointExtension>
            <ns3:hr>84</ns3:hr>
          </ns3:TrackPointExtension>
        </extensions>
      </trkpt>
      <trkpt lat="31.4094754122197628021240234375" lon="119.4875123910605907440185546875">
        <ele>8</ele>
        <time>2023-08-30T01:49:16.000Z</time>
        <extensions>
          <ns3:TrackPointExtension>
            <ns3:hr>83</ns3:hr>
          </ns3:TrackPointExtension>
        </extensions>
      </trkpt>
      <trkpt lat="31.40948186628520488739013671875" lon="119.4875298254191875457763671875">
        <ele>8.19999980926513671875</ele>
        <time>2023-08-30T01:49:17.000Z</time>
        <extensions>
          <ns3:TrackPointExtension/>
        </extensions>
      </trkpt>
      <trkpt lat="31.40948957763612270355224609375" lon="119.4875489361584186553955078125">
        <ele>8.19999980926513671875</ele>
        <time>2023-08-30T01:49:18.000Z</time>
        <extensions>
          <ns3:TrackPointExtension/>
        </extensions>
      </trkpt>
      <trkpt lat="31.4094972051680088043212890625" lon="119.4875677116215229034423828125">
        <ele>8.19999980926513671875</ele>
        <time>2023-08-30T01:49:19.000Z</time>
        <extensions>
          <ns3:TrackPointExtension/>
        </extensions>
      </trkpt>
      <trkpt lat="31.409504078328609466552734375" lon="119.48758539743721485137939453125">
        <ele>8.3999996185302734375</ele>
        <time>2023-08-30T01:49:20.000Z</time>
        <extensions>
          <ns3:TrackPointExtension/>
        </extensions>
      </trkpt>
      <trkpt lat="31.4095109514892101287841796875" lon="119.48760266415774822235107421875">
        <ele>8.3999996185302734375</ele>
        <time>2023-08-30T01:49:21.000Z</time>
        <extensions>
          <ns3:TrackPointExtension>
            <ns3:hr>83</ns3:hr>
          </ns3:TrackPointExtension>
        </extensions>
      </trkpt>
      <trkpt lat="31.40951790846884250640869140625" lon="119.48761909268796443939208984375">
        <ele>8.3999996185302734375</ele>
        <time>2023-08-30T01:49:22.000Z</time>
        <extensions>
          <ns3:TrackPointExtension/>
        </extensions>
      </trkpt>
      <trkpt lat="31.40952478162944316864013671875" lon="119.48763418011367321014404296875">
        <ele>8.3999996185302734375</ele>
        <time>2023-08-30T01:49:23.000Z</time>
        <extensions>
          <ns3:TrackPointExtension/>
        </extensions>
      </trkpt>
      <trkpt lat="31.4095317386090755462646484375" lon="119.48764859698712825775146484375">
        <ele>8.6000003814697265625</ele>
        <time>2023-08-30T01:49:24.000Z</time>
        <extensions>
          <ns3:TrackPointExtension/>
        </extensions>
      </trkpt>
      <trkpt lat="31.40953869558870792388916015625" lon="119.4876627624034881591796875">
        <ele>8.6000003814697265625</ele>
        <time>2023-08-30T01:49:25.000Z</time>
        <extensions>
          <ns3:TrackPointExtension/>
        </extensions>
      </trkpt>
      <trkpt lat="31.40954523347318172454833984375" lon="119.48767642490565776824951171875">
        <ele>8.6000003814697265625</ele>
        <time>2023-08-30T01:49:26.000Z</time>
        <extensions>
          <ns3:TrackPointExtension>
            <ns3:hr>83</ns3:hr>
          </ns3:TrackPointExtension>
        </extensions>
      </trkpt>
      <trkpt lat="31.4095511846244335174560546875" lon="119.4876895844936370849609375">
        <ele>8.6000003814697265625</ele>
        <time>2023-08-30T01:49:27.000Z</time>
        <extensions>
          <ns3:TrackPointExtension/>
        </extensions>
      </trkpt>
      <trkpt lat="31.409556381404399871826171875" lon="119.4877024926245212554931640625">
        <ele>8.80000019073486328125</ele>
        <time>2023-08-30T01:49:28.000Z</time>
        <extensions>
          <ns3:TrackPointExtension/>
        </extensions>
      </trkpt>
      <trkpt lat="31.409561075270175933837890625" lon="119.48771573603153228759765625">
        <ele>8.80000019073486328125</ele>
        <time>2023-08-30T01:49:29.000Z</time>
        <extensions>
          <ns3:TrackPointExtension/>
        </extensions>
      </trkpt>
      <trkpt lat="31.4095656014978885650634765625" lon="119.48772923089563846588134765625">
        <ele>8.80000019073486328125</ele>
        <time>2023-08-30T01:49:30.000Z</time>
        <extensions>
          <ns3:TrackPointExtension/>
        </extensions>
      </trkpt>
      <trkpt lat="31.40957088209688663482666015625" lon="119.48774280957877635955810546875">
        <ele>8.80000019073486328125</ele>
        <time>2023-08-30T01:49:31.000Z</time>
        <extensions>
          <ns3:TrackPointExtension>
            <ns3:hr>82</ns3:hr>
          </ns3:TrackPointExtension>
        </extensions>
      </trkpt>
      <trkpt lat="31.4095770008862018585205078125" lon="119.4877558015286922454833984375">
        <ele>9</ele>
        <time>2023-08-30T01:49:32.000Z</time>
        <extensions>
          <ns3:TrackPointExtension/>
        </extensions>
      </trkpt>
      <trkpt lat="31.4095833711326122283935546875" lon="119.4877675361931324005126953125">
        <ele>9</ele>
        <time>2023-08-30T01:49:33.000Z</time>
        <extensions>
          <ns3:TrackPointExtension/>
        </extensions>
      </trkpt>
      <trkpt lat="31.4095894061028957366943359375" lon="119.4877780973911285400390625">
        <ele>9</ele>
        <time>2023-08-30T01:49:34.000Z</time>
        <extensions>
          <ns3:TrackPointExtension/>
        </extensions>
      </trkpt>
      <trkpt lat="31.40959493815898895263671875" lon="119.4877876527607440948486328125">
        <ele>9</ele>
        <time>2023-08-30T01:49:35.000Z</time>
        <extensions>
          <ns3:TrackPointExtension/>
        </extensions>
      </trkpt>
      <trkpt lat="31.4095997996628284454345703125" lon="119.4877963699400424957275390625">
        <ele>9</ele>
        <time>2023-08-30T01:49:36.000Z</time>
        <extensions>
          <ns3:TrackPointExtension/>
        </extensions>
      </trkpt>
      <trkpt lat="31.409603990614414215087890625" lon="119.4878047518432140350341796875">
        <ele>9</ele>
        <time>2023-08-30T01:49:37.000Z</time>
        <extensions>
          <ns3:TrackPointExtension/>
        </extensions>
      </trkpt>
      <trkpt lat="31.4096075110137462615966796875" lon="119.4878134690225124359130859375">
        <ele>9</ele>
        <time>2023-08-30T01:49:38.000Z</time>
        <extensions>
          <ns3:TrackPointExtension/>
        </extensions>
      </trkpt>
      <trkpt lat="31.40960943885147571563720703125" lon="119.48782327584922313690185546875">
        <ele>9</ele>
        <time>2023-08-30T01:49:40.000Z</time>
        <extensions>
          <ns3:TrackPointExtension>
            <ns3:hr>83</ns3:hr>
          </ns3:TrackPointExtension>
        </extensions>
      </trkpt>
      <trkpt lat="31.409609355032444000244140625" lon="119.4878344237804412841796875">
        <ele>9</ele>
        <time>2023-08-30T01:49:41.000Z</time>
        <extensions>
          <ns3:TrackPointExtension>
            <ns3:hr>84</ns3:hr>
          </ns3:TrackPointExtension>
        </extensions>
      </trkpt>
      <trkpt lat="31.40960809774696826934814453125" lon="119.48784674517810344696044921875">
        <ele>9</ele>
        <time>2023-08-30T01:49:42.000Z</time>
        <extensions>
          <ns3:TrackPointExtension/>
        </extensions>
      </trkpt>
      <trkpt lat="31.40960591845214366912841796875" lon="119.48785915039479732513427734375">
        <ele>9</ele>
        <time>2023-08-30T01:49:43.000Z</time>
        <extensions>
          <ns3:TrackPointExtension/>
        </extensions>
      </trkpt>
      <trkpt lat="31.4096028171479701995849609375" lon="119.487870298326015472412109375">
        <ele>9</ele>
        <time>2023-08-30T01:49:44.000Z</time>
        <extensions>
          <ns3:TrackPointExtension/>
        </extensions>
      </trkpt>
      <trkpt lat="31.409599296748638153076171875" lon="119.48788010515272617340087890625">
        <ele>9</ele>
        <time>2023-08-30T01:49:45.000Z</time>
        <extensions>
          <ns3:TrackPointExtension/>
        </extensions>
      </trkpt>
      <trkpt lat="31.40959586016833782196044921875" lon="119.4878895767033100128173828125">
        <ele>9</ele>
        <time>2023-08-30T01:49:46.000Z</time>
        <extensions>
          <ns3:TrackPointExtension>
            <ns3:hr>85</ns3:hr>
          </ns3:TrackPointExtension>
        </extensions>
      </trkpt>
      <trkpt lat="31.40959301032125949859619140625" lon="119.48789955116808414459228515625">
        <ele>9</ele>
        <time>2023-08-30T01:49:47.000Z</time>
        <extensions>
          <ns3:TrackPointExtension/>
        </extensions>
      </trkpt>
      <trkpt lat="31.4095915853977203369140625" lon="119.487909860908985137939453125">
        <ele>9</ele>
        <time>2023-08-30T01:49:48.000Z</time>
        <extensions>
          <ns3:TrackPointExtension/>
        </extensions>
      </trkpt>
      <trkpt lat="31.4095910824835300445556640625" lon="119.48792050592601299285888671875">
        <ele>9</ele>
        <time>2023-08-30T01:49:49.000Z</time>
        <extensions>
          <ns3:TrackPointExtension/>
        </extensions>
      </trkpt>
    </trkseg>
  </trk>
</gpx>
