<gpx xmlns:ns3="http://www.garmin.com/xmlschemas/TrackPointExtension/v1" xmlns="http://www.topografix.com/GPX/1/1" xmlns:xsi="http://www.w3.org/2001/XMLSchema-instance" xmlns:ns2="http://www.garmin.com/xmlschemas/GpxExtensions/v3" creator="Garmin Connect" version="1.1" xsi:schemaLocation="http://www.topografix.com/GPX/1/1 http://www.topografix.com/GPX/11.xsd">
  <extensions>
<distance>38.98</distance>
<average_hr></average_hr>
<average_speed>0.18299999833106992</average_speed>
<start_time>2018-11-25T05:52:50+00:00</start_time>
<end_time>2018-11-25T05:56:23.168000+00:00</end_time>
<moving_time>13.0</moving_time>
<elapsed_time>213.168</elapsed_time>
</extensions>
<metadata>
    <link href="connect.garmin.com">
      <text>Garmin Connect</text>
    </link>
    <time>2018-11-25T05:52:50.000Z</time>
  </metadata>
  <trk>
    <name>台州市 跑步</name>
    <type>running</type>
    <trkseg>
      <trkpt lat="28.6438681371510028839111328125" lon="121.2744318880140781402587890625">
        <ele>52.799999237060546875</ele>
        <time>2018-11-25T05:53:44.000Z</time>
        <extensions>
          <ns3:TrackPointExtension>
            <ns3:atemp>25.0</ns3:atemp>
            <ns3:cad>0</ns3:cad>
          </ns3:TrackPointExtension>
        </extensions>
      </trkpt>
      <trkpt lat="28.6438600905239582061767578125" lon="121.2744137831032276153564453125">
        <ele>52.799999237060546875</ele>
        <time>2018-11-25T05:53:45.000Z</time>
        <extensions>
          <ns3:TrackPointExtension>
            <ns3:atemp>25.0</ns3:atemp>
            <ns3:cad>0</ns3:cad>
          </ns3:TrackPointExtension>
        </extensions>
      </trkpt>
      <trkpt lat="28.6438600905239582061767578125" lon="121.2744137831032276153564453125">
        <ele>52.799999237060546875</ele>
        <time>2018-11-25T05:53:46.000Z</time>
        <extensions>
          <ns3:TrackPointExtension>
            <ns3:atemp>25.0</ns3:atemp>
            <ns3:cad>0</ns3:cad>
          </ns3:TrackPointExtension>
        </extensions>
      </trkpt>
      <trkpt lat="28.64394734613597393035888671875" lon="121.2744245119392871856689453125">
        <ele>52.799999237060546875</ele>
        <time>2018-11-25T05:53:47.000Z</time>
        <extensions>
          <ns3:TrackPointExtension>
            <ns3:atemp>25.0</ns3:atemp>
            <ns3:cad>0</ns3:cad>
          </ns3:TrackPointExtension>
        </extensions>
      </trkpt>
      <trkpt lat="28.6439737491309642791748046875" lon="121.274405233561992645263671875">
        <ele>52.799999237060546875</ele>
        <time>2018-11-25T05:53:48.000Z</time>
        <extensions>
          <ns3:TrackPointExtension>
            <ns3:atemp>25.0</ns3:atemp>
            <ns3:cad>0</ns3:cad>
          </ns3:TrackPointExtension>
        </extensions>
      </trkpt>
      <trkpt lat="28.64397550933063030242919921875" lon="121.27439081668853759765625">
        <ele>52.799999237060546875</ele>
        <time>2018-11-25T05:53:49.000Z</time>
        <extensions>
          <ns3:TrackPointExtension>
            <ns3:atemp>25.0</ns3:atemp>
            <ns3:cad>0</ns3:cad>
          </ns3:TrackPointExtension>
        </extensions>
      </trkpt>
      <trkpt lat="28.64395438693463802337646484375" lon="121.27436223439872264862060546875">
        <ele>52.799999237060546875</ele>
        <time>2018-11-25T05:53:50.000Z</time>
        <extensions>
          <ns3:TrackPointExtension>
            <ns3:atemp>25.0</ns3:atemp>
            <ns3:cad>0</ns3:cad>
          </ns3:TrackPointExtension>
        </extensions>
      </trkpt>
      <trkpt lat="28.64395656622946262359619140625" lon="121.27435284666717052459716796875">
        <ele>52.799999237060546875</ele>
        <time>2018-11-25T05:53:51.000Z</time>
        <extensions>
          <ns3:TrackPointExtension>
            <ns3:atemp>25.0</ns3:atemp>
            <ns3:cad>0</ns3:cad>
          </ns3:TrackPointExtension>
        </extensions>
      </trkpt>
      <trkpt lat="28.64395271055400371551513671875" lon="121.274338178336620330810546875">
        <ele>52.799999237060546875</ele>
        <time>2018-11-25T05:53:52.000Z</time>
        <extensions>
          <ns3:TrackPointExtension>
            <ns3:atemp>25.0</ns3:atemp>
            <ns3:cad>0</ns3:cad>
          </ns3:TrackPointExtension>
        </extensions>
      </trkpt>
      <trkpt lat="28.64395312964916229248046875" lon="121.27432870678603649139404296875">
        <ele>52.799999237060546875</ele>
        <time>2018-11-25T05:53:53.000Z</time>
        <extensions>
          <ns3:TrackPointExtension>
            <ns3:atemp>26.0</ns3:atemp>
            <ns3:cad>0</ns3:cad>
          </ns3:TrackPointExtension>
        </extensions>
      </trkpt>
      <trkpt lat="28.643947429955005645751953125" lon="121.27431571483612060546875">
        <ele>52.799999237060546875</ele>
        <time>2018-11-25T05:53:54.000Z</time>
        <extensions>
          <ns3:TrackPointExtension>
            <ns3:atemp>26.0</ns3:atemp>
            <ns3:cad>0</ns3:cad>
          </ns3:TrackPointExtension>
        </extensions>
      </trkpt>
      <trkpt lat="28.6439445801079273223876953125" lon="121.2743155471980571746826171875">
        <ele>52.799999237060546875</ele>
        <time>2018-11-25T05:53:55.000Z</time>
        <extensions>
          <ns3:TrackPointExtension>
            <ns3:atemp>26.0</ns3:atemp>
            <ns3:cad>0</ns3:cad>
          </ns3:TrackPointExtension>
        </extensions>
      </trkpt>
      <trkpt lat="28.6439417302608489990234375" lon="121.27431529574096202850341796875">
        <ele>52.799999237060546875</ele>
        <time>2018-11-25T05:53:56.000Z</time>
        <extensions>
          <ns3:TrackPointExtension>
            <ns3:atemp>26.0</ns3:atemp>
            <ns3:cad>0</ns3:cad>
          </ns3:TrackPointExtension>
        </extensions>
      </trkpt>
      <trkpt lat="28.6439355276525020599365234375" lon="121.274313032627105712890625">
        <ele>52.799999237060546875</ele>
        <time>2018-11-25T05:53:57.000Z</time>
        <extensions>
          <ns3:TrackPointExtension>
            <ns3:atemp>26.0</ns3:atemp>
            <ns3:cad>0</ns3:cad>
          </ns3:TrackPointExtension>
        </extensions>
      </trkpt>
      <trkpt lat="28.64392940886318683624267578125" lon="121.27430842258036136627197265625">
        <ele>52.799999237060546875</ele>
        <time>2018-11-25T05:53:58.000Z</time>
        <extensions>
          <ns3:TrackPointExtension>
            <ns3:atemp>26.0</ns3:atemp>
            <ns3:cad>0</ns3:cad>
          </ns3:TrackPointExtension>
        </extensions>
      </trkpt>
      <trkpt lat="28.64391901530325412750244140625" lon="121.2742957659065723419189453125">
        <ele>52.799999237060546875</ele>
        <time>2018-11-25T05:53:59.000Z</time>
        <extensions>
          <ns3:TrackPointExtension>
            <ns3:atemp>26.0</ns3:atemp>
            <ns3:cad>0</ns3:cad>
          </ns3:TrackPointExtension>
        </extensions>
      </trkpt>
      <trkpt lat="28.643918931484222412109375" lon="121.27429132349789142608642578125">
        <ele>52.799999237060546875</ele>
        <time>2018-11-25T05:54:00.000Z</time>
        <extensions>
          <ns3:TrackPointExtension>
            <ns3:atemp>26.0</ns3:atemp>
            <ns3:cad>0</ns3:cad>
          </ns3:TrackPointExtension>
        </extensions>
      </trkpt>
      <trkpt lat="28.643918596208095550537109375" lon="121.27428822219371795654296875">
        <ele>52.799999237060546875</ele>
        <time>2018-11-25T05:54:01.000Z</time>
        <extensions>
          <ns3:TrackPointExtension>
            <ns3:atemp>26.0</ns3:atemp>
            <ns3:cad>0</ns3:cad>
          </ns3:TrackPointExtension>
        </extensions>
      </trkpt>
      <trkpt lat="28.64391767419874668121337890625" lon="121.27428595907986164093017578125">
        <ele>52.799999237060546875</ele>
        <time>2018-11-25T05:54:02.000Z</time>
        <extensions>
          <ns3:TrackPointExtension>
            <ns3:atemp>26.0</ns3:atemp>
            <ns3:cad>0</ns3:cad>
          </ns3:TrackPointExtension>
        </extensions>
      </trkpt>
      <trkpt lat="28.6439150758087635040283203125" lon="121.274283193051815032958984375">
        <ele>52.799999237060546875</ele>
        <time>2018-11-25T05:54:08.000Z</time>
        <extensions>
          <ns3:TrackPointExtension>
            <ns3:atemp>26.0</ns3:atemp>
            <ns3:cad>0</ns3:cad>
          </ns3:TrackPointExtension>
        </extensions>
      </trkpt>
      <trkpt lat="28.6439144052565097808837890625" lon="121.27428914420306682586669921875">
        <ele>52.799999237060546875</ele>
        <time>2018-11-25T05:54:09.000Z</time>
        <extensions>
          <ns3:TrackPointExtension>
            <ns3:atemp>26.0</ns3:atemp>
            <ns3:cad>0</ns3:cad>
          </ns3:TrackPointExtension>
        </extensions>
      </trkpt>
      <trkpt lat="28.64391499198973178863525390625" lon="121.27429501153528690338134765625">
        <ele>52.799999237060546875</ele>
        <time>2018-11-25T05:54:10.000Z</time>
        <extensions>
          <ns3:TrackPointExtension>
            <ns3:atemp>26.0</ns3:atemp>
            <ns3:cad>0</ns3:cad>
          </ns3:TrackPointExtension>
        </extensions>
      </trkpt>
      <trkpt lat="28.6439170874655246734619140625" lon="121.27429501153528690338134765625">
        <ele>52.799999237060546875</ele>
        <time>2018-11-25T05:54:11.000Z</time>
        <extensions>
          <ns3:TrackPointExtension>
            <ns3:atemp>26.0</ns3:atemp>
            <ns3:cad>0</ns3:cad>
          </ns3:TrackPointExtension>
        </extensions>
      </trkpt>
      <trkpt lat="28.64391985349357128143310546875" lon="121.2742957659065723419189453125">
        <ele>52.799999237060546875</ele>
        <time>2018-11-25T05:54:12.000Z</time>
        <extensions>
          <ns3:TrackPointExtension>
            <ns3:atemp>26.0</ns3:atemp>
            <ns3:cad>0</ns3:cad>
          </ns3:TrackPointExtension>
        </extensions>
      </trkpt>
      <trkpt lat="28.64392270334064960479736328125" lon="121.27429685555398464202880859375">
        <ele>52.799999237060546875</ele>
        <time>2018-11-25T05:54:13.000Z</time>
        <extensions>
          <ns3:TrackPointExtension>
            <ns3:atemp>26.0</ns3:atemp>
            <ns3:cad>0</ns3:cad>
          </ns3:TrackPointExtension>
        </extensions>
      </trkpt>
      <trkpt lat="28.643921948969364166259765625" lon="121.2743078358471393585205078125">
        <ele>52.799999237060546875</ele>
        <time>2018-11-25T05:54:14.000Z</time>
        <extensions>
          <ns3:TrackPointExtension>
            <ns3:atemp>26.0</ns3:atemp>
            <ns3:cad>0</ns3:cad>
          </ns3:TrackPointExtension>
        </extensions>
      </trkpt>
      <trkpt lat="28.64392370916903018951416015625" lon="121.27431781031191349029541015625">
        <ele>52.799999237060546875</ele>
        <time>2018-11-25T05:54:15.000Z</time>
        <extensions>
          <ns3:TrackPointExtension>
            <ns3:atemp>26.0</ns3:atemp>
            <ns3:cad>0</ns3:cad>
          </ns3:TrackPointExtension>
        </extensions>
      </trkpt>
      <trkpt lat="28.6439234577119350433349609375" lon="121.27432971261441707611083984375">
        <ele>52.799999237060546875</ele>
        <time>2018-11-25T05:54:16.000Z</time>
        <extensions>
          <ns3:TrackPointExtension>
            <ns3:atemp>26.0</ns3:atemp>
            <ns3:cad>0</ns3:cad>
          </ns3:TrackPointExtension>
        </extensions>
      </trkpt>
      <trkpt lat="28.64392303861677646636962890625" lon="121.274342201650142669677734375">
        <ele>52.799999237060546875</ele>
        <time>2018-11-25T05:54:17.000Z</time>
        <extensions>
          <ns3:TrackPointExtension>
            <ns3:atemp>26.0</ns3:atemp>
            <ns3:cad>0</ns3:cad>
          </ns3:TrackPointExtension>
        </extensions>
      </trkpt>
      <trkpt lat="28.64392471499741077423095703125" lon="121.2743611447513103485107421875">
        <ele>52.799999237060546875</ele>
        <time>2018-11-25T05:54:18.000Z</time>
        <extensions>
          <ns3:TrackPointExtension>
            <ns3:atemp>26.0</ns3:atemp>
            <ns3:cad>0</ns3:cad>
          </ns3:TrackPointExtension>
        </extensions>
      </trkpt>
      <trkpt lat="28.64392622373998165130615234375" lon="121.27437950111925601959228515625">
        <ele>52.799999237060546875</ele>
        <time>2018-11-25T05:54:19.000Z</time>
        <extensions>
          <ns3:TrackPointExtension>
            <ns3:atemp>26.0</ns3:atemp>
            <ns3:cad>0</ns3:cad>
          </ns3:TrackPointExtension>
        </extensions>
      </trkpt>
      <trkpt lat="28.64393460564315319061279296875" lon="121.2743997015058994293212890625">
        <ele>52.799999237060546875</ele>
        <time>2018-11-25T05:54:20.000Z</time>
        <extensions>
          <ns3:TrackPointExtension>
            <ns3:atemp>26.0</ns3:atemp>
            <ns3:cad>0</ns3:cad>
          </ns3:TrackPointExtension>
        </extensions>
      </trkpt>
      <trkpt lat="28.64394332282245159149169921875" lon="121.274417303502559661865234375">
        <ele>52.799999237060546875</ele>
        <time>2018-11-25T05:54:21.000Z</time>
        <extensions>
          <ns3:TrackPointExtension>
            <ns3:atemp>26.0</ns3:atemp>
            <ns3:cad>0</ns3:cad>
          </ns3:TrackPointExtension>
        </extensions>
      </trkpt>
      <trkpt lat="28.6439459212124347686767578125" lon="121.2744323909282684326171875">
        <ele>52.799999237060546875</ele>
        <time>2018-11-25T05:54:22.000Z</time>
        <extensions>
          <ns3:TrackPointExtension>
            <ns3:atemp>26.0</ns3:atemp>
            <ns3:cad>0</ns3:cad>
          </ns3:TrackPointExtension>
        </extensions>
      </trkpt>
      <trkpt lat="28.64394600503146648406982421875" lon="121.2744404375553131103515625">
        <ele>52.799999237060546875</ele>
        <time>2018-11-25T05:54:23.000Z</time>
        <extensions>
          <ns3:TrackPointExtension>
            <ns3:atemp>26.0</ns3:atemp>
            <ns3:cad>0</ns3:cad>
          </ns3:TrackPointExtension>
        </extensions>
      </trkpt>
      <trkpt lat="28.64394734613597393035888671875" lon="121.27445175312459468841552734375">
        <ele>52.799999237060546875</ele>
        <time>2018-11-25T05:54:24.000Z</time>
        <extensions>
          <ns3:TrackPointExtension>
            <ns3:atemp>26.0</ns3:atemp>
            <ns3:cad>0</ns3:cad>
          </ns3:TrackPointExtension>
        </extensions>
      </trkpt>
      <trkpt lat="28.64394902251660823822021484375" lon="121.2744647450745105743408203125">
        <ele>52.799999237060546875</ele>
        <time>2018-11-25T05:54:25.000Z</time>
        <extensions>
          <ns3:TrackPointExtension>
            <ns3:atemp>26.0</ns3:atemp>
            <ns3:cad>0</ns3:cad>
          </ns3:TrackPointExtension>
        </extensions>
      </trkpt>
      <trkpt lat="28.6439509503543376922607421875" lon="121.27447756938636302947998046875">
        <ele>52.799999237060546875</ele>
        <time>2018-11-25T05:54:26.000Z</time>
        <extensions>
          <ns3:TrackPointExtension>
            <ns3:atemp>26.0</ns3:atemp>
            <ns3:cad>0</ns3:cad>
          </ns3:TrackPointExtension>
        </extensions>
      </trkpt>
      <trkpt lat="28.64395103417336940765380859375" lon="121.27448402345180511474609375">
        <ele>52.799999237060546875</ele>
        <time>2018-11-25T05:54:27.000Z</time>
        <extensions>
          <ns3:TrackPointExtension>
            <ns3:atemp>26.0</ns3:atemp>
            <ns3:cad>0</ns3:cad>
          </ns3:TrackPointExtension>
        </extensions>
      </trkpt>
      <trkpt lat="28.643950782716274261474609375" lon="121.274488382041454315185546875">
        <ele>52.799999237060546875</ele>
        <time>2018-11-25T05:54:28.000Z</time>
        <extensions>
          <ns3:TrackPointExtension>
            <ns3:atemp>26.0</ns3:atemp>
            <ns3:cad>0</ns3:cad>
          </ns3:TrackPointExtension>
        </extensions>
      </trkpt>
      <trkpt lat="28.64395002834498882293701171875" lon="121.27448947168886661529541015625">
        <ele>52.799999237060546875</ele>
        <time>2018-11-25T05:54:29.000Z</time>
        <extensions>
          <ns3:TrackPointExtension>
            <ns3:atemp>26.0</ns3:atemp>
            <ns3:cad>0</ns3:cad>
          </ns3:TrackPointExtension>
        </extensions>
      </trkpt>
      <trkpt lat="28.643948771059513092041015625" lon="121.2744860351085662841796875">
        <ele>52.799999237060546875</ele>
        <time>2018-11-25T05:54:30.000Z</time>
        <extensions>
          <ns3:TrackPointExtension>
            <ns3:atemp>26.0</ns3:atemp>
            <ns3:cad>0</ns3:cad>
          </ns3:TrackPointExtension>
        </extensions>
      </trkpt>
      <trkpt lat="28.64394776523113250732421875" lon="121.27448192797601222991943359375">
        <ele>52.799999237060546875</ele>
        <time>2018-11-25T05:54:31.000Z</time>
        <extensions>
          <ns3:TrackPointExtension>
            <ns3:atemp>26.0</ns3:atemp>
            <ns3:cad>0</ns3:cad>
          </ns3:TrackPointExtension>
        </extensions>
      </trkpt>
      <trkpt lat="28.643947429955005645751953125" lon="121.2744788266718387603759765625">
        <ele>52.799999237060546875</ele>
        <time>2018-11-25T05:54:32.000Z</time>
        <extensions>
          <ns3:TrackPointExtension>
            <ns3:atemp>26.0</ns3:atemp>
            <ns3:cad>0</ns3:cad>
          </ns3:TrackPointExtension>
        </extensions>
      </trkpt>
      <trkpt lat="28.643947429955005645751953125" lon="121.2744758091866970062255859375">
        <ele>52.799999237060546875</ele>
        <time>2018-11-25T05:54:33.000Z</time>
        <extensions>
          <ns3:TrackPointExtension>
            <ns3:atemp>26.0</ns3:atemp>
            <ns3:cad>0</ns3:cad>
          </ns3:TrackPointExtension>
        </extensions>
      </trkpt>
      <trkpt lat="28.643946088850498199462890625" lon="121.2744597159326076507568359375">
        <ele>52.799999237060546875</ele>
        <time>2018-11-25T05:54:34.000Z</time>
        <extensions>
          <ns3:TrackPointExtension>
            <ns3:atemp>26.0</ns3:atemp>
            <ns3:cad>0</ns3:cad>
          </ns3:TrackPointExtension>
        </extensions>
      </trkpt>
      <trkpt lat="28.64394533447921276092529296875" lon="121.274444125592708587646484375">
        <ele>52.799999237060546875</ele>
        <time>2018-11-25T05:54:35.000Z</time>
        <extensions>
          <ns3:TrackPointExtension>
            <ns3:atemp>26.0</ns3:atemp>
            <ns3:cad>0</ns3:cad>
          </ns3:TrackPointExtension>
        </extensions>
      </trkpt>
      <trkpt lat="28.64394583739340305328369140625" lon="121.27443096600472927093505859375">
        <ele>52.799999237060546875</ele>
        <time>2018-11-25T05:54:36.000Z</time>
        <extensions>
          <ns3:TrackPointExtension>
            <ns3:atemp>26.0</ns3:atemp>
            <ns3:cad>0</ns3:cad>
          </ns3:TrackPointExtension>
        </extensions>
      </trkpt>
      <trkpt lat="28.64388884045183658599853515625" lon="121.27434094436466693878173828125">
        <ele>52.799999237060546875</ele>
        <time>2018-11-25T05:54:42.000Z</time>
        <extensions>
          <ns3:TrackPointExtension>
            <ns3:atemp>26.0</ns3:atemp>
            <ns3:cad>0</ns3:cad>
          </ns3:TrackPointExtension>
        </extensions>
      </trkpt>
      <trkpt lat="28.643846176564693450927734375" lon="121.27428646199405193328857421875">
        <ele>52.799999237060546875</ele>
        <time>2018-11-25T05:54:43.000Z</time>
        <extensions>
          <ns3:TrackPointExtension>
            <ns3:atemp>26.0</ns3:atemp>
            <ns3:cad>0</ns3:cad>
          </ns3:TrackPointExtension>
        </extensions>
      </trkpt>
      <trkpt lat="28.643766380846500396728515625" lon="121.27420599572360515594482421875">
        <ele>52.799999237060546875</ele>
        <time>2018-11-25T05:54:44.000Z</time>
        <extensions>
          <ns3:TrackPointExtension>
            <ns3:atemp>26.0</ns3:atemp>
            <ns3:cad>0</ns3:cad>
          </ns3:TrackPointExtension>
        </extensions>
      </trkpt>
      <trkpt lat="28.64375732839107513427734375" lon="121.274191997945308685302734375">
        <ele>52.799999237060546875</ele>
        <time>2018-11-25T05:54:45.000Z</time>
        <extensions>
          <ns3:TrackPointExtension>
            <ns3:atemp>26.0</ns3:atemp>
            <ns3:cad>0</ns3:cad>
          </ns3:TrackPointExtension>
        </extensions>
      </trkpt>
      <trkpt lat="28.64377032034099102020263671875" lon="121.27418763935565948486328125">
        <ele>52.799999237060546875</ele>
        <time>2018-11-25T05:54:46.000Z</time>
        <extensions>
          <ns3:TrackPointExtension>
            <ns3:atemp>26.0</ns3:atemp>
            <ns3:cad>0</ns3:cad>
          </ns3:TrackPointExtension>
        </extensions>
      </trkpt>
      <trkpt lat="28.64378624595701694488525390625" lon="121.2741992063820362091064453125">
        <ele>52.799999237060546875</ele>
        <time>2018-11-25T05:54:47.000Z</time>
        <extensions>
          <ns3:TrackPointExtension>
            <ns3:atemp>26.0</ns3:atemp>
            <ns3:cad>0</ns3:cad>
          </ns3:TrackPointExtension>
        </extensions>
      </trkpt>
      <trkpt lat="28.64379219710826873779296875" lon="121.27420247532427310943603515625">
        <ele>52.799999237060546875</ele>
        <time>2018-11-25T05:54:48.000Z</time>
        <extensions>
          <ns3:TrackPointExtension>
            <ns3:atemp>26.0</ns3:atemp>
            <ns3:cad>0</ns3:cad>
          </ns3:TrackPointExtension>
        </extensions>
      </trkpt>
      <trkpt lat="28.64378951489925384521484375" lon="121.27419861964881420135498046875">
        <ele>52.799999237060546875</ele>
        <time>2018-11-25T05:54:49.000Z</time>
        <extensions>
          <ns3:TrackPointExtension>
            <ns3:atemp>26.0</ns3:atemp>
            <ns3:cad>0</ns3:cad>
          </ns3:TrackPointExtension>
        </extensions>
      </trkpt>
      <trkpt lat="28.64379378966987133026123046875" lon="121.27419778145849704742431640625">
        <ele>52.799999237060546875</ele>
        <time>2018-11-25T05:54:50.000Z</time>
        <extensions>
          <ns3:TrackPointExtension>
            <ns3:atemp>26.0</ns3:atemp>
            <ns3:cad>0</ns3:cad>
          </ns3:TrackPointExtension>
        </extensions>
      </trkpt>
      <trkpt lat="28.643795549869537353515625" lon="121.27420683391392230987548828125">
        <ele>52.799999237060546875</ele>
        <time>2018-11-25T05:54:51.000Z</time>
        <extensions>
          <ns3:TrackPointExtension>
            <ns3:atemp>26.0</ns3:atemp>
            <ns3:cad>0</ns3:cad>
          </ns3:TrackPointExtension>
        </extensions>
      </trkpt>
      <trkpt lat="28.64379965700209140777587890625" lon="121.274210773408412933349609375">
        <ele>52.799999237060546875</ele>
        <time>2018-11-25T05:54:52.000Z</time>
        <extensions>
          <ns3:TrackPointExtension>
            <ns3:atemp>26.0</ns3:atemp>
            <ns3:cad>0</ns3:cad>
          </ns3:TrackPointExtension>
        </extensions>
      </trkpt>
      <trkpt lat="28.643802590668201446533203125" lon="121.2742142938077449798583984375">
        <ele>52.799999237060546875</ele>
        <time>2018-11-25T05:54:53.000Z</time>
        <extensions>
          <ns3:TrackPointExtension>
            <ns3:atemp>26.0</ns3:atemp>
            <ns3:cad>0</ns3:cad>
          </ns3:TrackPointExtension>
        </extensions>
      </trkpt>
      <trkpt lat="28.64380418322980403900146484375" lon="121.27421538345515727996826171875">
        <ele>52.799999237060546875</ele>
        <time>2018-11-25T05:54:54.000Z</time>
        <extensions>
          <ns3:TrackPointExtension>
            <ns3:atemp>26.0</ns3:atemp>
            <ns3:cad>0</ns3:cad>
          </ns3:TrackPointExtension>
        </extensions>
      </trkpt>
      <trkpt lat="28.6438049376010894775390625" lon="121.2742169760167598724365234375">
        <ele>52.799999237060546875</ele>
        <time>2018-11-25T05:54:55.000Z</time>
        <extensions>
          <ns3:TrackPointExtension>
            <ns3:atemp>26.0</ns3:atemp>
            <ns3:cad>0</ns3:cad>
          </ns3:TrackPointExtension>
        </extensions>
      </trkpt>
      <trkpt lat="28.6438044346868991851806640625" lon="121.27421219833195209503173828125">
        <ele>52.799999237060546875</ele>
        <time>2018-11-25T05:54:56.000Z</time>
        <extensions>
          <ns3:TrackPointExtension>
            <ns3:atemp>26.0</ns3:atemp>
            <ns3:cad>0</ns3:cad>
          </ns3:TrackPointExtension>
        </extensions>
      </trkpt>
      <trkpt lat="28.643801249563694000244140625" lon="121.274210102856159210205078125">
        <ele>52.799999237060546875</ele>
        <time>2018-11-25T05:54:57.000Z</time>
        <extensions>
          <ns3:TrackPointExtension>
            <ns3:atemp>26.0</ns3:atemp>
            <ns3:cad>0</ns3:cad>
          </ns3:TrackPointExtension>
        </extensions>
      </trkpt>
      <trkpt lat="28.64380183629691600799560546875" lon="121.27421555109322071075439453125">
        <ele>52.799999237060546875</ele>
        <time>2018-11-25T05:54:58.000Z</time>
        <extensions>
          <ns3:TrackPointExtension>
            <ns3:atemp>26.0</ns3:atemp>
            <ns3:cad>0</ns3:cad>
          </ns3:TrackPointExtension>
        </extensions>
      </trkpt>
      <trkpt lat="28.643817342817783355712890625" lon="121.27422292716801166534423828125">
        <ele>52.799999237060546875</ele>
        <time>2018-11-25T05:54:59.000Z</time>
        <extensions>
          <ns3:TrackPointExtension>
            <ns3:atemp>26.0</ns3:atemp>
            <ns3:cad>0</ns3:cad>
          </ns3:TrackPointExtension>
        </extensions>
      </trkpt>
      <trkpt lat="28.64382949657738208770751953125" lon="121.27422393299639225006103515625">
        <ele>52.799999237060546875</ele>
        <time>2018-11-25T05:55:00.000Z</time>
        <extensions>
          <ns3:TrackPointExtension>
            <ns3:atemp>26.0</ns3:atemp>
            <ns3:cad>0</ns3:cad>
          </ns3:TrackPointExtension>
        </extensions>
      </trkpt>
      <trkpt lat="28.6438406445086002349853515625" lon="121.27422711811959743499755859375">
        <ele>52.799999237060546875</ele>
        <time>2018-11-25T05:55:01.000Z</time>
        <extensions>
          <ns3:TrackPointExtension>
            <ns3:atemp>26.0</ns3:atemp>
            <ns3:cad>0</ns3:cad>
          </ns3:TrackPointExtension>
        </extensions>
      </trkpt>
      <trkpt lat="28.64384810440242290496826171875" lon="121.27422510646283626556396484375">
        <ele>52.799999237060546875</ele>
        <time>2018-11-25T05:55:02.000Z</time>
        <extensions>
          <ns3:TrackPointExtension>
            <ns3:atemp>26.0</ns3:atemp>
            <ns3:cad>0</ns3:cad>
          </ns3:TrackPointExtension>
        </extensions>
      </trkpt>
      <trkpt lat="28.643854558467864990234375" lon="121.27422912977635860443115234375">
        <ele>52.799999237060546875</ele>
        <time>2018-11-25T05:55:03.000Z</time>
        <extensions>
          <ns3:TrackPointExtension>
            <ns3:atemp>26.0</ns3:atemp>
            <ns3:cad>0</ns3:cad>
          </ns3:TrackPointExtension>
        </extensions>
      </trkpt>
      <trkpt lat="28.6438585817813873291015625" lon="121.274227201938629150390625">
        <ele>52.799999237060546875</ele>
        <time>2018-11-25T05:55:04.000Z</time>
        <extensions>
          <ns3:TrackPointExtension>
            <ns3:atemp>26.0</ns3:atemp>
            <ns3:cad>0</ns3:cad>
          </ns3:TrackPointExtension>
        </extensions>
      </trkpt>
      <trkpt lat="28.643860928714275360107421875" lon="121.27422384917736053466796875">
        <ele>52.799999237060546875</ele>
        <time>2018-11-25T05:55:05.000Z</time>
        <extensions>
          <ns3:TrackPointExtension>
            <ns3:atemp>26.0</ns3:atemp>
            <ns3:cad>0</ns3:cad>
          </ns3:TrackPointExtension>
        </extensions>
      </trkpt>
      <trkpt lat="28.6438621021807193756103515625" lon="121.2742256931960582733154296875">
        <ele>52.799999237060546875</ele>
        <time>2018-11-25T05:55:06.000Z</time>
        <extensions>
          <ns3:TrackPointExtension>
            <ns3:atemp>26.0</ns3:atemp>
            <ns3:cad>0</ns3:cad>
          </ns3:TrackPointExtension>
        </extensions>
      </trkpt>
      <trkpt lat="28.64386268891394138336181640625" lon="121.27422560937702655792236328125">
        <ele>52.799999237060546875</ele>
        <time>2018-11-25T05:55:07.000Z</time>
        <extensions>
          <ns3:TrackPointExtension>
            <ns3:atemp>26.0</ns3:atemp>
            <ns3:cad>0</ns3:cad>
          </ns3:TrackPointExtension>
        </extensions>
      </trkpt>
      <trkpt lat="28.643862940371036529541015625" lon="121.27422711811959743499755859375">
        <ele>52.799999237060546875</ele>
        <time>2018-11-25T05:55:08.000Z</time>
        <extensions>
          <ns3:TrackPointExtension>
            <ns3:atemp>26.0</ns3:atemp>
            <ns3:cad>0</ns3:cad>
          </ns3:TrackPointExtension>
        </extensions>
      </trkpt>
      <trkpt lat="28.643864281475543975830078125" lon="121.27422787249088287353515625">
        <ele>52.799999237060546875</ele>
        <time>2018-11-25T05:55:09.000Z</time>
        <extensions>
          <ns3:TrackPointExtension>
            <ns3:atemp>26.0</ns3:atemp>
            <ns3:cad>0</ns3:cad>
          </ns3:TrackPointExtension>
        </extensions>
      </trkpt>
      <trkpt lat="28.64386587403714656829833984375" lon="121.27422862686216831207275390625">
        <ele>52.799999237060546875</ele>
        <time>2018-11-25T05:55:10.000Z</time>
        <extensions>
          <ns3:TrackPointExtension>
            <ns3:atemp>26.0</ns3:atemp>
            <ns3:cad>0</ns3:cad>
          </ns3:TrackPointExtension>
        </extensions>
      </trkpt>
      <trkpt lat="28.6438694782555103302001953125" lon="121.27423055469989776611328125">
        <ele>52.799999237060546875</ele>
        <time>2018-11-25T05:55:11.000Z</time>
        <extensions>
          <ns3:TrackPointExtension>
            <ns3:atemp>26.0</ns3:atemp>
            <ns3:cad>0</ns3:cad>
          </ns3:TrackPointExtension>
        </extensions>
      </trkpt>
      <trkpt lat="28.6438714899122714996337890625" lon="121.274232901632785797119140625">
        <ele>52.799999237060546875</ele>
        <time>2018-11-25T05:55:12.000Z</time>
        <extensions>
          <ns3:TrackPointExtension>
            <ns3:atemp>26.0</ns3:atemp>
            <ns3:cad>0</ns3:cad>
          </ns3:TrackPointExtension>
        </extensions>
      </trkpt>
      <trkpt lat="28.64387325011193752288818359375" lon="121.2742350809276103973388671875">
        <ele>52.799999237060546875</ele>
        <time>2018-11-25T05:55:13.000Z</time>
        <extensions>
          <ns3:TrackPointExtension>
            <ns3:atemp>26.0</ns3:atemp>
            <ns3:cad>0</ns3:cad>
          </ns3:TrackPointExtension>
        </extensions>
      </trkpt>
      <trkpt lat="28.643880374729633331298828125" lon="121.2742320634424686431884765625">
        <ele>52.799999237060546875</ele>
        <time>2018-11-25T05:55:14.000Z</time>
        <extensions>
          <ns3:TrackPointExtension>
            <ns3:atemp>26.0</ns3:atemp>
            <ns3:cad>0</ns3:cad>
          </ns3:TrackPointExtension>
        </extensions>
      </trkpt>
      <trkpt lat="28.6438832245767116546630859375" lon="121.27423382364213466644287109375">
        <ele>52.799999237060546875</ele>
        <time>2018-11-25T05:55:15.000Z</time>
        <extensions>
          <ns3:TrackPointExtension>
            <ns3:atemp>26.0</ns3:atemp>
            <ns3:cad>0</ns3:cad>
          </ns3:TrackPointExtension>
        </extensions>
      </trkpt>
      <trkpt lat="28.64388481713831424713134765625" lon="121.27423281781375408172607421875">
        <ele>52.799999237060546875</ele>
        <time>2018-11-25T05:55:16.000Z</time>
        <extensions>
          <ns3:TrackPointExtension>
            <ns3:atemp>26.0</ns3:atemp>
            <ns3:cad>0</ns3:cad>
          </ns3:TrackPointExtension>
        </extensions>
      </trkpt>
      <trkpt lat="28.6438912712037563323974609375" lon="121.2742360867559909820556640625">
        <ele>52.799999237060546875</ele>
        <time>2018-11-25T05:55:17.000Z</time>
        <extensions>
          <ns3:TrackPointExtension>
            <ns3:atemp>26.0</ns3:atemp>
            <ns3:cad>0</ns3:cad>
          </ns3:TrackPointExtension>
        </extensions>
      </trkpt>
      <trkpt lat="28.64389336667954921722412109375" lon="121.27423499710857868194580078125">
        <ele>52.799999237060546875</ele>
        <time>2018-11-25T05:55:18.000Z</time>
        <extensions>
          <ns3:TrackPointExtension>
            <ns3:atemp>26.0</ns3:atemp>
            <ns3:cad>0</ns3:cad>
          </ns3:TrackPointExtension>
        </extensions>
      </trkpt>
      <trkpt lat="28.64389839582145214080810546875" lon="121.2742344103753566741943359375">
        <ele>52.799999237060546875</ele>
        <time>2018-11-25T05:55:19.000Z</time>
        <extensions>
          <ns3:TrackPointExtension>
            <ns3:atemp>26.0</ns3:atemp>
            <ns3:cad>0</ns3:cad>
          </ns3:TrackPointExtension>
        </extensions>
      </trkpt>
      <trkpt lat="28.64389806054532527923583984375" lon="121.274233572185039520263671875">
        <ele>52.799999237060546875</ele>
        <time>2018-11-25T05:55:20.000Z</time>
        <extensions>
          <ns3:TrackPointExtension>
            <ns3:atemp>26.0</ns3:atemp>
            <ns3:cad>0</ns3:cad>
          </ns3:TrackPointExtension>
        </extensions>
      </trkpt>
      <trkpt lat="28.64389990456402301788330078125" lon="121.27424203790724277496337890625">
        <ele>52.799999237060546875</ele>
        <time>2018-11-25T05:55:21.000Z</time>
        <extensions>
          <ns3:TrackPointExtension>
            <ns3:atemp>26.0</ns3:atemp>
            <ns3:cad>0</ns3:cad>
          </ns3:TrackPointExtension>
        </extensions>
      </trkpt>
      <trkpt lat="28.64390811882913112640380859375" lon="121.27424388192594051361083984375">
        <ele>52.799999237060546875</ele>
        <time>2018-11-25T05:55:22.000Z</time>
        <extensions>
          <ns3:TrackPointExtension>
            <ns3:atemp>26.0</ns3:atemp>
            <ns3:cad>0</ns3:cad>
          </ns3:TrackPointExtension>
        </extensions>
      </trkpt>
      <trkpt lat="28.643913902342319488525390625" lon="121.274248324334621429443359375">
        <ele>52.799999237060546875</ele>
        <time>2018-11-25T05:55:23.000Z</time>
        <extensions>
          <ns3:TrackPointExtension>
            <ns3:atemp>26.0</ns3:atemp>
            <ns3:cad>0</ns3:cad>
          </ns3:TrackPointExtension>
        </extensions>
      </trkpt>
      <trkpt lat="28.64391700364649295806884765625" lon="121.2742521800100803375244140625">
        <ele>52.799999237060546875</ele>
        <time>2018-11-25T05:55:24.000Z</time>
        <extensions>
          <ns3:TrackPointExtension>
            <ns3:atemp>26.0</ns3:atemp>
            <ns3:cad>0</ns3:cad>
          </ns3:TrackPointExtension>
        </extensions>
      </trkpt>
      <trkpt lat="28.6439167521893978118896484375" lon="121.27425259910523891448974609375">
        <ele>52.799999237060546875</ele>
        <time>2018-11-25T05:55:25.000Z</time>
        <extensions>
          <ns3:TrackPointExtension>
            <ns3:atemp>26.0</ns3:atemp>
            <ns3:cad>0</ns3:cad>
          </ns3:TrackPointExtension>
        </extensions>
      </trkpt>
      <trkpt lat="28.64391817711293697357177734375" lon="121.27425394020974636077880859375">
        <ele>52.799999237060546875</ele>
        <time>2018-11-25T05:55:26.000Z</time>
        <extensions>
          <ns3:TrackPointExtension>
            <ns3:atemp>26.0</ns3:atemp>
            <ns3:cad>0</ns3:cad>
          </ns3:TrackPointExtension>
        </extensions>
      </trkpt>
      <trkpt lat="28.643918596208095550537109375" lon="121.27425410784780979156494140625">
        <ele>52.799999237060546875</ele>
        <time>2018-11-25T05:55:27.000Z</time>
        <extensions>
          <ns3:TrackPointExtension>
            <ns3:atemp>26.0</ns3:atemp>
            <ns3:cad>0</ns3:cad>
          </ns3:TrackPointExtension>
        </extensions>
      </trkpt>
      <trkpt lat="28.64391683600842952728271484375" lon="121.274257712066173553466796875">
        <ele>52.799999237060546875</ele>
        <time>2018-11-25T05:55:28.000Z</time>
        <extensions>
          <ns3:TrackPointExtension>
            <ns3:atemp>26.0</ns3:atemp>
            <ns3:cad>0</ns3:cad>
          </ns3:TrackPointExtension>
        </extensions>
      </trkpt>
      <trkpt lat="28.64391884766519069671630859375" lon="121.27426148392260074615478515625">
        <ele>52.799999237060546875</ele>
        <time>2018-11-25T05:55:29.000Z</time>
        <extensions>
          <ns3:TrackPointExtension>
            <ns3:atemp>26.0</ns3:atemp>
            <ns3:cad>0</ns3:cad>
          </ns3:TrackPointExtension>
        </extensions>
      </trkpt>
      <trkpt lat="28.64391951821744441986083984375" lon="121.27426215447485446929931640625">
        <ele>52.799999237060546875</ele>
        <time>2018-11-25T05:55:30.000Z</time>
        <extensions>
          <ns3:TrackPointExtension>
            <ns3:atemp>26.0</ns3:atemp>
            <ns3:cad>0</ns3:cad>
          </ns3:TrackPointExtension>
        </extensions>
      </trkpt>
      <trkpt lat="28.6439177580177783966064453125" lon="121.2742629088461399078369140625">
        <ele>52.799999237060546875</ele>
        <time>2018-11-25T05:55:31.000Z</time>
        <extensions>
          <ns3:TrackPointExtension>
            <ns3:atemp>26.0</ns3:atemp>
            <ns3:cad>0</ns3:cad>
          </ns3:TrackPointExtension>
        </extensions>
      </trkpt>
      <trkpt lat="28.64398590289056301116943359375" lon="121.2741857953369617462158203125">
        <ele>52.799999237060546875</ele>
        <time>2018-11-25T05:55:32.000Z</time>
        <extensions>
          <ns3:TrackPointExtension>
            <ns3:atemp>26.0</ns3:atemp>
            <ns3:cad>0</ns3:cad>
          </ns3:TrackPointExtension>
        </extensions>
      </trkpt>
      <trkpt lat="28.6442475020885467529296875" lon="121.2741056643426418304443359375">
        <ele>52.799999237060546875</ele>
        <time>2018-11-25T05:55:33.000Z</time>
        <extensions>
          <ns3:TrackPointExtension>
            <ns3:atemp>26.0</ns3:atemp>
            <ns3:cad>0</ns3:cad>
          </ns3:TrackPointExtension>
        </extensions>
      </trkpt>
      <trkpt lat="28.64428379572927951812744140625" lon="121.27410340122878551483154296875">
        <ele>52.799999237060546875</ele>
        <time>2018-11-25T05:55:34.000Z</time>
        <extensions>
          <ns3:TrackPointExtension>
            <ns3:atemp>26.0</ns3:atemp>
            <ns3:cad>0</ns3:cad>
          </ns3:TrackPointExtension>
        </extensions>
      </trkpt>
      <trkpt lat="28.644299469888210296630859375" lon="121.27410583198070526123046875">
        <ele>52.799999237060546875</ele>
        <time>2018-11-25T05:55:35.000Z</time>
        <extensions>
          <ns3:TrackPointExtension>
            <ns3:atemp>26.0</ns3:atemp>
            <ns3:cad>0</ns3:cad>
          </ns3:TrackPointExtension>
        </extensions>
      </trkpt>
      <trkpt lat="28.64430793561041355133056640625" lon="121.27411027438938617706298828125">
        <ele>52.799999237060546875</ele>
        <time>2018-11-25T05:55:36.000Z</time>
        <extensions>
          <ns3:TrackPointExtension>
            <ns3:atemp>26.0</ns3:atemp>
            <ns3:cad>0</ns3:cad>
          </ns3:TrackPointExtension>
        </extensions>
      </trkpt>
      <trkpt lat="28.6443133838474750518798828125" lon="121.27411245368421077728271484375">
        <ele>52.799999237060546875</ele>
        <time>2018-11-25T05:55:37.000Z</time>
        <extensions>
          <ns3:TrackPointExtension>
            <ns3:atemp>26.0</ns3:atemp>
            <ns3:cad>0</ns3:cad>
          </ns3:TrackPointExtension>
        </extensions>
      </trkpt>
      <trkpt lat="28.6443147249519824981689453125" lon="121.2741140462458133697509765625">
        <ele>52.799999237060546875</ele>
        <time>2018-11-25T05:55:38.000Z</time>
        <extensions>
          <ns3:TrackPointExtension>
            <ns3:atemp>26.0</ns3:atemp>
            <ns3:cad>0</ns3:cad>
          </ns3:TrackPointExtension>
        </extensions>
      </trkpt>
      <trkpt lat="28.64431648515164852142333984375" lon="121.27411513589322566986083984375">
        <ele>52.799999237060546875</ele>
        <time>2018-11-25T05:55:39.000Z</time>
        <extensions>
          <ns3:TrackPointExtension>
            <ns3:atemp>26.0</ns3:atemp>
            <ns3:cad>0</ns3:cad>
          </ns3:TrackPointExtension>
        </extensions>
      </trkpt>
      <trkpt lat="28.64432218484580516815185546875" lon="121.27411848865449428558349609375">
        <ele>52.799999237060546875</ele>
        <time>2018-11-25T05:55:40.000Z</time>
        <extensions>
          <ns3:TrackPointExtension>
            <ns3:atemp>26.0</ns3:atemp>
            <ns3:cad>0</ns3:cad>
          </ns3:TrackPointExtension>
        </extensions>
      </trkpt>
      <trkpt lat="28.64432771690189838409423828125" lon="121.27412117086350917816162109375">
        <ele>52.799999237060546875</ele>
        <time>2018-11-25T05:55:41.000Z</time>
        <extensions>
          <ns3:TrackPointExtension>
            <ns3:atemp>26.0</ns3:atemp>
            <ns3:cad>0</ns3:cad>
          </ns3:TrackPointExtension>
        </extensions>
      </trkpt>
      <trkpt lat="28.64432838745415210723876953125" lon="121.2741214223206043243408203125">
        <ele>53</ele>
        <time>2018-11-25T05:55:42.000Z</time>
        <extensions>
          <ns3:TrackPointExtension>
            <ns3:atemp>26.0</ns3:atemp>
            <ns3:cad>0</ns3:cad>
          </ns3:TrackPointExtension>
        </extensions>
      </trkpt>
      <trkpt lat="28.64432729780673980712890625" lon="121.27412234432995319366455078125">
        <ele>53</ele>
        <time>2018-11-25T05:55:43.000Z</time>
        <extensions>
          <ns3:TrackPointExtension>
            <ns3:atemp>26.0</ns3:atemp>
            <ns3:cad>0</ns3:cad>
          </ns3:TrackPointExtension>
        </extensions>
      </trkpt>
      <trkpt lat="28.64432604052126407623291015625" lon="121.27412318252027034759521484375">
        <ele>53</ele>
        <time>2018-11-25T05:55:44.000Z</time>
        <extensions>
          <ns3:TrackPointExtension>
            <ns3:atemp>26.0</ns3:atemp>
            <ns3:cad>0</ns3:cad>
          </ns3:TrackPointExtension>
        </extensions>
      </trkpt>
      <trkpt lat="28.64432503469288349151611328125" lon="121.27412351779639720916748046875">
        <ele>53</ele>
        <time>2018-11-25T05:55:45.000Z</time>
        <extensions>
          <ns3:TrackPointExtension>
            <ns3:atemp>26.0</ns3:atemp>
            <ns3:cad>0</ns3:cad>
          </ns3:TrackPointExtension>
        </extensions>
      </trkpt>
      <trkpt lat="28.64432369358837604522705078125" lon="121.27412402071058750152587890625">
        <ele>53.200000762939453125</ele>
        <time>2018-11-25T05:55:46.000Z</time>
        <extensions>
          <ns3:TrackPointExtension>
            <ns3:atemp>26.0</ns3:atemp>
            <ns3:cad>0</ns3:cad>
          </ns3:TrackPointExtension>
        </extensions>
      </trkpt>
      <trkpt lat="28.644320257008075714111328125" lon="121.274126954376697540283203125">
        <ele>53.59999847412109375</ele>
        <time>2018-11-25T05:55:47.000Z</time>
        <extensions>
          <ns3:TrackPointExtension>
            <ns3:atemp>26.0</ns3:atemp>
            <ns3:cad>0</ns3:cad>
          </ns3:TrackPointExtension>
        </extensions>
      </trkpt>
      <trkpt lat="28.64431614987552165985107421875" lon="121.27413072623312473297119140625">
        <ele>53.799999237060546875</ele>
        <time>2018-11-25T05:55:48.000Z</time>
        <extensions>
          <ns3:TrackPointExtension>
            <ns3:atemp>26.0</ns3:atemp>
            <ns3:cad>0</ns3:cad>
          </ns3:TrackPointExtension>
        </extensions>
      </trkpt>
      <trkpt lat="28.64431313239037990570068359375" lon="121.2741338275372982025146484375">
        <ele>53.799999237060546875</ele>
        <time>2018-11-25T05:55:49.000Z</time>
        <extensions>
          <ns3:TrackPointExtension>
            <ns3:atemp>26.0</ns3:atemp>
            <ns3:cad>0</ns3:cad>
          </ns3:TrackPointExtension>
        </extensions>
      </trkpt>
      <trkpt lat="28.6443113721907138824462890625" lon="121.2741348333656787872314453125">
        <ele>53.799999237060546875</ele>
        <time>2018-11-25T05:55:50.000Z</time>
        <extensions>
          <ns3:TrackPointExtension>
            <ns3:atemp>26.0</ns3:atemp>
            <ns3:cad>0</ns3:cad>
          </ns3:TrackPointExtension>
        </extensions>
      </trkpt>
      <trkpt lat="28.64430910907685756683349609375" lon="121.27413642592728137969970703125">
        <ele>53.799999237060546875</ele>
        <time>2018-11-25T05:55:51.000Z</time>
        <extensions>
          <ns3:TrackPointExtension>
            <ns3:atemp>26.0</ns3:atemp>
            <ns3:cad>0</ns3:cad>
          </ns3:TrackPointExtension>
        </extensions>
      </trkpt>
      <trkpt lat="28.64430776797235012054443359375" lon="121.2741378508508205413818359375">
        <ele>53.59999847412109375</ele>
        <time>2018-11-25T05:55:52.000Z</time>
        <extensions>
          <ns3:TrackPointExtension>
            <ns3:atemp>26.0</ns3:atemp>
            <ns3:cad>0</ns3:cad>
          </ns3:TrackPointExtension>
        </extensions>
      </trkpt>
      <trkpt lat="28.64430449903011322021484375" lon="121.27414095215499401092529296875">
        <ele>53.59999847412109375</ele>
        <time>2018-11-25T05:55:53.000Z</time>
        <extensions>
          <ns3:TrackPointExtension>
            <ns3:atemp>26.0</ns3:atemp>
            <ns3:cad>0</ns3:cad>
          </ns3:TrackPointExtension>
        </extensions>
      </trkpt>
      <trkpt lat="28.64430055953562259674072265625" lon="121.27414447255432605743408203125">
        <ele>53.40000152587890625</ele>
        <time>2018-11-25T05:55:54.000Z</time>
        <extensions>
          <ns3:TrackPointExtension>
            <ns3:atemp>26.0</ns3:atemp>
            <ns3:cad>0</ns3:cad>
          </ns3:TrackPointExtension>
        </extensions>
      </trkpt>
      <trkpt lat="28.64429770968854427337646484375" lon="121.27414631657302379608154296875">
        <ele>53.40000152587890625</ele>
        <time>2018-11-25T05:55:55.000Z</time>
        <extensions>
          <ns3:TrackPointExtension>
            <ns3:atemp>26.0</ns3:atemp>
            <ns3:cad>0</ns3:cad>
          </ns3:TrackPointExtension>
        </extensions>
      </trkpt>
      <trkpt lat="28.64429385401308536529541015625" lon="121.27414816059172153472900390625">
        <ele>53.200000762939453125</ele>
        <time>2018-11-25T05:55:56.000Z</time>
        <extensions>
          <ns3:TrackPointExtension>
            <ns3:atemp>26.0</ns3:atemp>
            <ns3:cad>0</ns3:cad>
          </ns3:TrackPointExtension>
        </extensions>
      </trkpt>
      <trkpt lat="28.64428706467151641845703125" lon="121.27414849586784839630126953125">
        <ele>53.200000762939453125</ele>
        <time>2018-11-25T05:55:57.000Z</time>
        <extensions>
          <ns3:TrackPointExtension>
            <ns3:atemp>26.0</ns3:atemp>
            <ns3:cad>0</ns3:cad>
          </ns3:TrackPointExtension>
        </extensions>
      </trkpt>
      <trkpt lat="28.6442868970334529876708984375" lon="121.27415251918137073516845703125">
        <ele>53.200000762939453125</ele>
        <time>2018-11-25T05:55:58.000Z</time>
        <extensions>
          <ns3:TrackPointExtension>
            <ns3:atemp>26.0</ns3:atemp>
            <ns3:cad>0</ns3:cad>
          </ns3:TrackPointExtension>
        </extensions>
      </trkpt>
      <trkpt lat="28.64428077824413776397705078125" lon="121.2741556204855442047119140625">
        <ele>53.40000152587890625</ele>
        <time>2018-11-25T05:55:59.000Z</time>
        <extensions>
          <ns3:TrackPointExtension>
            <ns3:atemp>26.0</ns3:atemp>
            <ns3:cad>0</ns3:cad>
          </ns3:TrackPointExtension>
        </extensions>
      </trkpt>
      <trkpt lat="28.64427709020674228668212890625" lon="121.27415838651359081268310546875">
        <ele>53.40000152587890625</ele>
        <time>2018-11-25T05:56:00.000Z</time>
        <extensions>
          <ns3:TrackPointExtension>
            <ns3:atemp>26.0</ns3:atemp>
            <ns3:cad>0</ns3:cad>
          </ns3:TrackPointExtension>
        </extensions>
      </trkpt>
      <trkpt lat="28.64427457563579082489013671875" lon="121.27416090108454227447509765625">
        <ele>53.59999847412109375</ele>
        <time>2018-11-25T05:56:01.000Z</time>
        <extensions>
          <ns3:TrackPointExtension>
            <ns3:atemp>26.0</ns3:atemp>
            <ns3:cad>0</ns3:cad>
          </ns3:TrackPointExtension>
        </extensions>
      </trkpt>
      <trkpt lat="28.6442721448838710784912109375" lon="121.2741641700267791748046875">
        <ele>53.799999237060546875</ele>
        <time>2018-11-25T05:56:02.000Z</time>
        <extensions>
          <ns3:TrackPointExtension>
            <ns3:atemp>26.0</ns3:atemp>
            <ns3:cad>0</ns3:cad>
          </ns3:TrackPointExtension>
        </extensions>
      </trkpt>
      <trkpt lat="28.6442724801599979400634765625" lon="121.274165175855159759521484375">
        <ele>53.799999237060546875</ele>
        <time>2018-11-25T05:56:03.000Z</time>
        <extensions>
          <ns3:TrackPointExtension>
            <ns3:atemp>26.0</ns3:atemp>
            <ns3:cad>0</ns3:cad>
          </ns3:TrackPointExtension>
        </extensions>
      </trkpt>
      <trkpt lat="28.64426820538938045501708984375" lon="121.27416743896901607513427734375">
        <ele>53.799999237060546875</ele>
        <time>2018-11-25T05:56:04.000Z</time>
        <extensions>
          <ns3:TrackPointExtension>
            <ns3:atemp>26.0</ns3:atemp>
            <ns3:cad>0</ns3:cad>
          </ns3:TrackPointExtension>
        </extensions>
      </trkpt>
      <trkpt lat="28.6442662775516510009765625" lon="121.27416743896901607513427734375">
        <ele>54</ele>
        <time>2018-11-25T05:56:05.000Z</time>
        <extensions>
          <ns3:TrackPointExtension>
            <ns3:atemp>26.0</ns3:atemp>
            <ns3:cad>0</ns3:cad>
          </ns3:TrackPointExtension>
        </extensions>
      </trkpt>
      <trkpt lat="28.644263930618762969970703125" lon="121.27416945062577724456787109375">
        <ele>54.200000762939453125</ele>
        <time>2018-11-25T05:56:06.000Z</time>
        <extensions>
          <ns3:TrackPointExtension>
            <ns3:atemp>26.0</ns3:atemp>
            <ns3:cad>0</ns3:cad>
          </ns3:TrackPointExtension>
        </extensions>
      </trkpt>
      <trkpt lat="28.64426082931458950042724609375" lon="121.2741690315306186676025390625">
        <ele>54.200000762939453125</ele>
        <time>2018-11-25T05:56:07.000Z</time>
        <extensions>
          <ns3:TrackPointExtension>
            <ns3:atemp>26.0</ns3:atemp>
            <ns3:cad>0</ns3:cad>
          </ns3:TrackPointExtension>
        </extensions>
      </trkpt>
      <trkpt lat="28.6442583985626697540283203125" lon="121.274169199168682098388671875">
        <ele>54</ele>
        <time>2018-11-25T05:56:08.000Z</time>
        <extensions>
          <ns3:TrackPointExtension>
            <ns3:atemp>26.0</ns3:atemp>
            <ns3:cad>0</ns3:cad>
          </ns3:TrackPointExtension>
        </extensions>
      </trkpt>
      <trkpt lat="28.64425512962043285369873046875" lon="121.27417129464447498321533203125">
        <ele>54</ele>
        <time>2018-11-25T05:56:09.000Z</time>
        <extensions>
          <ns3:TrackPointExtension>
            <ns3:atemp>26.0</ns3:atemp>
            <ns3:cad>0</ns3:cad>
          </ns3:TrackPointExtension>
        </extensions>
      </trkpt>
      <trkpt lat="28.64425043575465679168701171875" lon="121.27417330630123615264892578125">
        <ele>54</ele>
        <time>2018-11-25T05:56:10.000Z</time>
        <extensions>
          <ns3:TrackPointExtension>
            <ns3:atemp>26.0</ns3:atemp>
            <ns3:cad>0</ns3:cad>
          </ns3:TrackPointExtension>
        </extensions>
      </trkpt>
      <trkpt lat="28.64424741826951503753662109375" lon="121.27417397685348987579345703125">
        <ele>54</ele>
        <time>2018-11-25T05:56:11.000Z</time>
        <extensions>
          <ns3:TrackPointExtension>
            <ns3:atemp>26.0</ns3:atemp>
            <ns3:cad>0</ns3:cad>
          </ns3:TrackPointExtension>
        </extensions>
      </trkpt>
      <trkpt lat="28.644244484603404998779296875" lon="121.274165846407413482666015625">
        <ele>53.799999237060546875</ele>
        <time>2018-11-25T05:56:12.000Z</time>
        <extensions>
          <ns3:TrackPointExtension>
            <ns3:atemp>26.0</ns3:atemp>
            <ns3:cad>0</ns3:cad>
          </ns3:TrackPointExtension>
        </extensions>
      </trkpt>
      <trkpt lat="28.6442396230995655059814453125" lon="121.27416056580841541290283203125">
        <ele>53.799999237060546875</ele>
        <time>2018-11-25T05:56:13.000Z</time>
        <extensions>
          <ns3:TrackPointExtension>
            <ns3:atemp>26.0</ns3:atemp>
            <ns3:cad>0</ns3:cad>
          </ns3:TrackPointExtension>
        </extensions>
      </trkpt>
      <trkpt lat="28.644230067729949951171875" lon="121.2741666845977306365966796875">
        <ele>53.799999237060546875</ele>
        <time>2018-11-25T05:56:14.000Z</time>
        <extensions>
          <ns3:TrackPointExtension>
            <ns3:atemp>26.0</ns3:atemp>
            <ns3:cad>0</ns3:cad>
          </ns3:TrackPointExtension>
        </extensions>
      </trkpt>
      <trkpt lat="28.6442314088344573974609375" lon="121.2741802632808685302734375">
        <ele>53.799999237060546875</ele>
        <time>2018-11-25T05:56:15.000Z</time>
        <extensions>
          <ns3:TrackPointExtension>
            <ns3:atemp>26.0</ns3:atemp>
            <ns3:cad>0</ns3:cad>
          </ns3:TrackPointExtension>
        </extensions>
      </trkpt>
      <trkpt lat="28.64425697363913059234619140625" lon="121.2741539441049098968505859375">
        <ele>54.200000762939453125</ele>
        <time>2018-11-25T05:56:16.000Z</time>
        <extensions>
          <ns3:TrackPointExtension>
            <ns3:atemp>26.0</ns3:atemp>
            <ns3:cad>0</ns3:cad>
          </ns3:TrackPointExtension>
        </extensions>
      </trkpt>
      <trkpt lat="28.64424825645983219146728515625" lon="121.27415620721876621246337890625">
        <ele>54.200000762939453125</ele>
        <time>2018-11-25T05:56:17.000Z</time>
        <extensions>
          <ns3:TrackPointExtension>
            <ns3:atemp>26.0</ns3:atemp>
            <ns3:cad>0</ns3:cad>
          </ns3:TrackPointExtension>
        </extensions>
      </trkpt>
      <trkpt lat="28.64425093866884708404541015625" lon="121.2741562910377979278564453125">
        <ele>54.40000152587890625</ele>
        <time>2018-11-25T05:56:18.000Z</time>
        <extensions>
          <ns3:TrackPointExtension>
            <ns3:atemp>26.0</ns3:atemp>
            <ns3:cad>0</ns3:cad>
          </ns3:TrackPointExtension>
        </extensions>
      </trkpt>
      <trkpt lat="28.64425479434430599212646484375" lon="121.2741529382765293121337890625">
        <ele>54.59999847412109375</ele>
        <time>2018-11-25T05:56:19.000Z</time>
        <extensions>
          <ns3:TrackPointExtension>
            <ns3:atemp>26.0</ns3:atemp>
            <ns3:cad>0</ns3:cad>
          </ns3:TrackPointExtension>
        </extensions>
      </trkpt>
      <trkpt lat="28.6442609131336212158203125" lon="121.27414933405816555023193359375">
        <ele>54.59999847412109375</ele>
        <time>2018-11-25T05:56:20.000Z</time>
        <extensions>
          <ns3:TrackPointExtension>
            <ns3:atemp>26.0</ns3:atemp>
            <ns3:cad>0</ns3:cad>
          </ns3:TrackPointExtension>
        </extensions>
      </trkpt>
      <trkpt lat="28.64426502026617527008056640625" lon="121.27414681948721408843994140625">
        <ele>54.59999847412109375</ele>
        <time>2018-11-25T05:56:21.000Z</time>
        <extensions>
          <ns3:TrackPointExtension>
            <ns3:atemp>26.0</ns3:atemp>
            <ns3:cad>0</ns3:cad>
          </ns3:TrackPointExtension>
        </extensions>
      </trkpt>
      <trkpt lat="28.64427139051258563995361328125" lon="121.2741452269256114959716796875">
        <ele>54.59999847412109375</ele>
        <time>2018-11-25T05:56:22.000Z</time>
        <extensions>
          <ns3:TrackPointExtension>
            <ns3:atemp>26.0</ns3:atemp>
            <ns3:cad>0</ns3:cad>
          </ns3:TrackPointExtension>
        </extensions>
      </trkpt>
      <trkpt lat="28.64427658729255199432373046875" lon="121.27414413727819919586181640625">
        <ele>54.59999847412109375</ele>
        <time>2018-11-25T05:56:23.000Z</time>
        <extensions>
          <ns3:TrackPointExtension>
            <ns3:atemp>26.0</ns3:atemp>
            <ns3:cad>0</ns3:cad>
          </ns3:TrackPointExtension>
        </extensions>
      </trkpt>
    </trkseg>
  </trk>
</gpx>
