<gpx xmlns:ns3="http://www.garmin.com/xmlschemas/TrackPointExtension/v1" xmlns="http://www.topografix.com/GPX/1/1" xmlns:xsi="http://www.w3.org/2001/XMLSchema-instance" xmlns:ns2="http://www.garmin.com/xmlschemas/GpxExtensions/v3" creator="Garmin Connect" version="1.1" xsi:schemaLocation="http://www.topografix.com/GPX/1/1 http://www.topografix.com/GPX/11.xsd">
  <extensions>
<distance>1104.14</distance>
<average_hr>80.0</average_hr>
<average_speed>0.9407047385331683</average_speed>
<start_time>2023-08-30T00:14:56+00:00</start_time>
<end_time>2023-08-30T00:34:29.737000+00:00</end_time>
<moving_time>663.84</moving_time>
<elapsed_time>1173.737</elapsed_time>
</extensions>
<metadata>
    <link href="connect.garmin.com">
      <text>Garmin Connect</text>
    </link>
    <time>2023-08-30T00:14:56.000Z</time>
  </metadata>
  <trk>
    <name>常州市 步行</name>
    <type>walking</type>
    <trkseg>
      <trkpt lat="31.40958060510456562042236328125" lon="119.48775068856775760650634765625">
        <ele>9</ele>
        <time>2023-08-30T00:29:50.000Z</time>
        <extensions>
          <ns3:TrackPointExtension/>
        </extensions>
      </trkpt>
      <trkpt lat="31.409585215151309967041015625" lon="119.4877591542899608612060546875">
        <ele>9</ele>
        <time>2023-08-30T00:29:51.000Z</time>
        <extensions>
          <ns3:TrackPointExtension/>
        </extensions>
      </trkpt>
      <trkpt lat="31.40959016047418117523193359375" lon="119.48776795528829097747802734375">
        <ele>9</ele>
        <time>2023-08-30T00:29:52.000Z</time>
        <extensions>
          <ns3:TrackPointExtension/>
        </extensions>
      </trkpt>
      <trkpt lat="31.40959586016833782196044921875" lon="119.4877772592008113861083984375">
        <ele>9</ele>
        <time>2023-08-30T00:29:53.000Z</time>
        <extensions>
          <ns3:TrackPointExtension/>
        </extensions>
      </trkpt>
      <trkpt lat="31.4096024818718433380126953125" lon="119.487787149846553802490234375">
        <ele>9</ele>
        <time>2023-08-30T00:29:54.000Z</time>
        <extensions>
          <ns3:TrackPointExtension/>
        </extensions>
      </trkpt>
      <trkpt lat="31.40960969030857086181640625" lon="119.4877967052161693572998046875">
        <ele>9</ele>
        <time>2023-08-30T00:29:55.000Z</time>
        <extensions>
          <ns3:TrackPointExtension>
            <ns3:hr>85</ns3:hr>
          </ns3:TrackPointExtension>
        </extensions>
      </trkpt>
      <trkpt lat="31.40961706638336181640625" lon="119.48780559003353118896484375">
        <ele>9</ele>
        <time>2023-08-30T00:29:56.000Z</time>
        <extensions>
          <ns3:TrackPointExtension/>
        </extensions>
      </trkpt>
      <trkpt lat="31.40962452627718448638916015625" lon="119.48781430721282958984375">
        <ele>9</ele>
        <time>2023-08-30T00:29:57.000Z</time>
        <extensions>
          <ns3:TrackPointExtension/>
        </extensions>
      </trkpt>
      <trkpt lat="31.409631483256816864013671875" lon="119.48782302439212799072265625">
        <ele>9</ele>
        <time>2023-08-30T00:29:58.000Z</time>
        <extensions>
          <ns3:TrackPointExtension/>
        </extensions>
      </trkpt>
      <trkpt lat="31.4096366800367832183837890625" lon="119.48783165775239467620849609375">
        <ele>9</ele>
        <time>2023-08-30T00:29:59.000Z</time>
        <extensions>
          <ns3:TrackPointExtension/>
        </extensions>
      </trkpt>
      <trkpt lat="31.409639529883861541748046875" lon="119.48784045875072479248046875">
        <ele>9</ele>
        <time>2023-08-30T00:30:00.000Z</time>
        <extensions>
          <ns3:TrackPointExtension/>
        </extensions>
      </trkpt>
      <trkpt lat="31.4096407033503055572509765625" lon="119.48784993030130863189697265625">
        <ele>9</ele>
        <time>2023-08-30T00:30:01.000Z</time>
        <extensions>
          <ns3:TrackPointExtension/>
        </extensions>
      </trkpt>
      <trkpt lat="31.409640870988368988037109375" lon="119.48785982094705104827880859375">
        <ele>9</ele>
        <time>2023-08-30T00:30:02.000Z</time>
        <extensions>
          <ns3:TrackPointExtension>
            <ns3:hr>85</ns3:hr>
          </ns3:TrackPointExtension>
        </extensions>
      </trkpt>
      <trkpt lat="31.409640200436115264892578125" lon="119.4878692924976348876953125">
        <ele>9</ele>
        <time>2023-08-30T00:30:03.000Z</time>
        <extensions>
          <ns3:TrackPointExtension/>
        </extensions>
      </trkpt>
      <trkpt lat="31.409638859331607818603515625" lon="119.487877674400806427001953125">
        <ele>9</ele>
        <time>2023-08-30T00:30:04.000Z</time>
        <extensions>
          <ns3:TrackPointExtension/>
        </extensions>
      </trkpt>
      <trkpt lat="31.40963709913194179534912109375" lon="119.487885050475597381591796875">
        <ele>9</ele>
        <time>2023-08-30T00:30:05.000Z</time>
        <extensions>
          <ns3:TrackPointExtension/>
        </extensions>
      </trkpt>
      <trkpt lat="31.409635506570339202880859375" lon="119.48789200745522975921630859375">
        <ele>9</ele>
        <time>2023-08-30T00:30:06.000Z</time>
        <extensions>
          <ns3:TrackPointExtension/>
        </extensions>
      </trkpt>
      <trkpt lat="31.40963383018970489501953125" lon="119.48789888061583042144775390625">
        <ele>9</ele>
        <time>2023-08-30T00:30:07.000Z</time>
        <extensions>
          <ns3:TrackPointExtension>
            <ns3:hr>87</ns3:hr>
          </ns3:TrackPointExtension>
        </extensions>
      </trkpt>
      <trkpt lat="31.40963248908519744873046875" lon="119.48790558613836765289306640625">
        <ele>9</ele>
        <time>2023-08-30T00:30:08.000Z</time>
        <extensions>
          <ns3:TrackPointExtension/>
        </extensions>
      </trkpt>
      <trkpt lat="31.409632153809070587158203125" lon="119.4879117049276828765869140625">
        <ele>9</ele>
        <time>2023-08-30T00:30:09.000Z</time>
        <extensions>
          <ns3:TrackPointExtension/>
        </extensions>
      </trkpt>
      <trkpt lat="31.4096329919993877410888671875" lon="119.48791690170764923095703125">
        <ele>9</ele>
        <time>2023-08-30T00:30:10.000Z</time>
        <extensions>
          <ns3:TrackPointExtension/>
        </extensions>
      </trkpt>
      <trkpt lat="31.40963525511324405670166015625" lon="119.487921260297298431396484375">
        <ele>9</ele>
        <time>2023-08-30T00:30:11.000Z</time>
        <extensions>
          <ns3:TrackPointExtension/>
        </extensions>
      </trkpt>
      <trkpt lat="31.40963911078870296478271484375" lon="119.4879244454205036163330078125">
        <ele>9</ele>
        <time>2023-08-30T00:30:12.000Z</time>
        <extensions>
          <ns3:TrackPointExtension>
            <ns3:hr>87</ns3:hr>
          </ns3:TrackPointExtension>
        </extensions>
      </trkpt>
      <trkpt lat="31.40964481048285961151123046875" lon="119.48792637325823307037353515625">
        <ele>9</ele>
        <time>2023-08-30T00:30:13.000Z</time>
        <extensions>
          <ns3:TrackPointExtension>
            <ns3:hr>87</ns3:hr>
          </ns3:TrackPointExtension>
        </extensions>
      </trkpt>
      <trkpt lat="31.40965185128152370452880859375" lon="119.4879271276295185089111328125">
        <ele>9</ele>
        <time>2023-08-30T00:30:14.000Z</time>
        <extensions>
          <ns3:TrackPointExtension/>
        </extensions>
      </trkpt>
      <trkpt lat="31.4096586406230926513671875" lon="119.48792821727693080902099609375">
        <ele>9</ele>
        <time>2023-08-30T00:30:15.000Z</time>
        <extensions>
          <ns3:TrackPointExtension/>
        </extensions>
      </trkpt>
      <trkpt lat="31.4096648432314395904541015625" lon="119.48793022893369197845458984375">
        <ele>9</ele>
        <time>2023-08-30T00:30:16.000Z</time>
        <extensions>
          <ns3:TrackPointExtension/>
        </extensions>
      </trkpt>
      <trkpt lat="31.4096698723733425140380859375" lon="119.48793391697108745574951171875">
        <ele>9</ele>
        <time>2023-08-30T00:30:17.000Z</time>
        <extensions>
          <ns3:TrackPointExtension/>
        </extensions>
      </trkpt>
      <trkpt lat="31.4096732251346111297607421875" lon="119.487939365208148956298828125">
        <ele>9</ele>
        <time>2023-08-30T00:30:18.000Z</time>
        <extensions>
          <ns3:TrackPointExtension/>
        </extensions>
      </trkpt>
      <trkpt lat="31.40967481769621372222900390625" lon="119.48794598691165447235107421875">
        <ele>9</ele>
        <time>2023-08-30T00:30:19.000Z</time>
        <extensions>
          <ns3:TrackPointExtension/>
        </extensions>
      </trkpt>
      <trkpt lat="31.40967465005815029144287109375" lon="119.487954117357730865478515625">
        <ele>9</ele>
        <time>2023-08-30T00:30:20.000Z</time>
        <extensions>
          <ns3:TrackPointExtension/>
        </extensions>
      </trkpt>
      <trkpt lat="31.40967280603945255279541015625" lon="119.4879636727273464202880859375">
        <ele>9</ele>
        <time>2023-08-30T00:30:21.000Z</time>
        <extensions>
          <ns3:TrackPointExtension/>
        </extensions>
      </trkpt>
      <trkpt lat="31.40966928564012050628662109375" lon="119.48797347955405712127685546875">
        <ele>9</ele>
        <time>2023-08-30T00:30:22.000Z</time>
        <extensions>
          <ns3:TrackPointExtension>
            <ns3:hr>85</ns3:hr>
          </ns3:TrackPointExtension>
        </extensions>
      </trkpt>
      <trkpt lat="31.40966526232659816741943359375" lon="119.48798068799078464508056640625">
        <ele>9</ele>
        <time>2023-08-30T00:30:23.000Z</time>
        <extensions>
          <ns3:TrackPointExtension>
            <ns3:hr>86</ns3:hr>
          </ns3:TrackPointExtension>
        </extensions>
      </trkpt>
      <trkpt lat="31.409659646451473236083984375" lon="119.487987644970417022705078125">
        <ele>9</ele>
        <time>2023-08-30T00:30:24.000Z</time>
        <extensions>
          <ns3:TrackPointExtension/>
        </extensions>
      </trkpt>
      <trkpt lat="31.40965528786182403564453125" lon="119.48799074627459049224853515625">
        <ele>9</ele>
        <time>2023-08-30T00:30:25.000Z</time>
        <extensions>
          <ns3:TrackPointExtension/>
        </extensions>
      </trkpt>
      <trkpt lat="31.40965352766215801239013671875" lon="119.48798823170363903045654296875">
        <ele>9</ele>
        <time>2023-08-30T00:30:26.000Z</time>
        <extensions>
          <ns3:TrackPointExtension/>
        </extensions>
      </trkpt>
      <trkpt lat="31.4096554554998874664306640625" lon="119.48797984980046749114990234375">
        <ele>9</ele>
        <time>2023-08-30T00:30:27.000Z</time>
        <extensions>
          <ns3:TrackPointExtension/>
        </extensions>
      </trkpt>
      <trkpt lat="31.4096618257462978363037109375" lon="119.4879670254886150360107421875">
        <ele>9</ele>
        <time>2023-08-30T00:30:28.000Z</time>
        <extensions>
          <ns3:TrackPointExtension/>
        </extensions>
      </trkpt>
      <trkpt lat="31.4096712134778499603271484375" lon="119.487952105700969696044921875">
        <ele>9</ele>
        <time>2023-08-30T00:30:29.000Z</time>
        <extensions>
          <ns3:TrackPointExtension/>
        </extensions>
      </trkpt>
      <trkpt lat="31.40968219377100467681884765625" lon="119.487936682999134063720703125">
        <ele>9</ele>
        <time>2023-08-30T00:30:30.000Z</time>
        <extensions>
          <ns3:TrackPointExtension>
            <ns3:hr>86</ns3:hr>
          </ns3:TrackPointExtension>
        </extensions>
      </trkpt>
      <trkpt lat="31.409691832959651947021484375" lon="119.48792251758277416229248046875">
        <ele>9</ele>
        <time>2023-08-30T00:30:31.000Z</time>
        <extensions>
          <ns3:TrackPointExtension/>
        </extensions>
      </trkpt>
      <trkpt lat="31.40969862230122089385986328125" lon="119.4879110343754291534423828125">
        <ele>9</ele>
        <time>2023-08-30T00:30:32.000Z</time>
        <extensions>
          <ns3:TrackPointExtension/>
        </extensions>
      </trkpt>
      <trkpt lat="31.4097015559673309326171875" lon="119.48790390975773334503173828125">
        <ele>9</ele>
        <time>2023-08-30T00:30:33.000Z</time>
        <extensions>
          <ns3:TrackPointExtension/>
        </extensions>
      </trkpt>
      <trkpt lat="31.40970163978636264801025390625" lon="119.48790005408227443695068359375">
        <ele>9</ele>
        <time>2023-08-30T00:30:34.000Z</time>
        <extensions>
          <ns3:TrackPointExtension/>
        </extensions>
      </trkpt>
      <trkpt lat="31.40970046631991863250732421875" lon="119.48789804242551326751708984375">
        <ele>9</ele>
        <time>2023-08-30T00:30:35.000Z</time>
        <extensions>
          <ns3:TrackPointExtension/>
        </extensions>
      </trkpt>
      <trkpt lat="31.4096987061202526092529296875" lon="119.4878969527781009674072265625">
        <ele>9</ele>
        <time>2023-08-30T00:30:36.000Z</time>
        <extensions>
          <ns3:TrackPointExtension>
            <ns3:hr>84</ns3:hr>
          </ns3:TrackPointExtension>
        </extensions>
      </trkpt>
      <trkpt lat="31.4096970297396183013916015625" lon="119.487896449863910675048828125">
        <ele>9</ele>
        <time>2023-08-30T00:30:37.000Z</time>
        <extensions>
          <ns3:TrackPointExtension/>
        </extensions>
      </trkpt>
      <trkpt lat="31.40969560481607913970947265625" lon="119.4878961145877838134765625">
        <ele>9</ele>
        <time>2023-08-30T00:30:38.000Z</time>
        <extensions>
          <ns3:TrackPointExtension>
            <ns3:hr>84</ns3:hr>
          </ns3:TrackPointExtension>
        </extensions>
      </trkpt>
      <trkpt lat="31.409694515168666839599609375" lon="119.487895779311656951904296875">
        <ele>9</ele>
        <time>2023-08-30T00:30:39.000Z</time>
        <extensions>
          <ns3:TrackPointExtension/>
        </extensions>
      </trkpt>
      <trkpt lat="31.40931741334497928619384765625" lon="119.48812133632600307464599609375">
        <ele>8</ele>
        <time>2023-08-30T00:32:44.000Z</time>
        <extensions>
          <ns3:TrackPointExtension/>
        </extensions>
      </trkpt>
      <trkpt lat="31.4092973805963993072509765625" lon="119.48810943402349948883056640625">
        <ele>8</ele>
        <time>2023-08-30T00:32:45.000Z</time>
        <extensions>
          <ns3:TrackPointExtension/>
        </extensions>
      </trkpt>
      <trkpt lat="31.409276425838470458984375" lon="119.488098286092281341552734375">
        <ele>7.80000019073486328125</ele>
        <time>2023-08-30T00:32:46.000Z</time>
        <extensions>
          <ns3:TrackPointExtension/>
        </extensions>
      </trkpt>
      <trkpt lat="31.40925488434731960296630859375" lon="119.48809015564620494842529296875">
        <ele>7.599999904632568359375</ele>
        <time>2023-08-30T00:32:47.000Z</time>
        <extensions>
          <ns3:TrackPointExtension/>
        </extensions>
      </trkpt>
      <trkpt lat="31.40923191793262958526611328125" lon="119.488082192838191986083984375">
        <ele>7.599999904632568359375</ele>
        <time>2023-08-30T00:32:48.000Z</time>
        <extensions>
          <ns3:TrackPointExtension>
            <ns3:hr>79</ns3:hr>
          </ns3:TrackPointExtension>
        </extensions>
      </trkpt>
      <trkpt lat="31.4091964624822139739990234375" lon="119.48807791806757450103759765625">
        <ele>7.400000095367431640625</ele>
        <time>2023-08-30T00:32:49.000Z</time>
        <extensions>
          <ns3:TrackPointExtension>
            <ns3:hr>79</ns3:hr>
          </ns3:TrackPointExtension>
        </extensions>
      </trkpt>
      <trkpt lat="31.40915296040475368499755859375" lon="119.48806232772767543792724609375">
        <ele>7</ele>
        <time>2023-08-30T00:32:50.000Z</time>
        <extensions>
          <ns3:TrackPointExtension/>
        </extensions>
      </trkpt>
      <trkpt lat="31.4091408066451549530029296875" lon="119.48804640211164951324462890625">
        <ele>7</ele>
        <time>2023-08-30T00:32:51.000Z</time>
        <extensions>
          <ns3:TrackPointExtension/>
        </extensions>
      </trkpt>
      <trkpt lat="31.40916570089757442474365234375" lon="119.4880034029483795166015625">
        <ele>7.599999904632568359375</ele>
        <time>2023-08-30T00:32:53.000Z</time>
        <extensions>
          <ns3:TrackPointExtension/>
        </extensions>
      </trkpt>
      <trkpt lat="31.409201659262180328369140625" lon="119.4879817776381969451904296875">
        <ele>8</ele>
        <time>2023-08-30T00:32:54.000Z</time>
        <extensions>
          <ns3:TrackPointExtension/>
        </extensions>
      </trkpt>
      <trkpt lat="31.409247927367687225341796875" lon="119.4879631698131561279296875">
        <ele>8.3999996185302734375</ele>
        <time>2023-08-30T00:32:55.000Z</time>
        <extensions>
          <ns3:TrackPointExtension>
            <ns3:hr>80</ns3:hr>
          </ns3:TrackPointExtension>
        </extensions>
      </trkpt>
      <trkpt lat="31.40930618159472942352294921875" lon="119.487946070730686187744140625">
        <ele>9</ele>
        <time>2023-08-30T00:32:56.000Z</time>
        <extensions>
          <ns3:TrackPointExtension/>
        </extensions>
      </trkpt>
      <trkpt lat="31.409378014504909515380859375" lon="119.4879284687340259552001953125">
        <ele>9</ele>
        <time>2023-08-30T00:32:57.000Z</time>
        <extensions>
          <ns3:TrackPointExtension/>
        </extensions>
      </trkpt>
      <trkpt lat="31.40945923514664173126220703125" lon="119.48791514150798320770263671875">
        <ele>9</ele>
        <time>2023-08-30T00:32:58.000Z</time>
        <extensions>
          <ns3:TrackPointExtension/>
        </extensions>
      </trkpt>
      <trkpt lat="31.40968789346516132354736328125" lon="119.48787809349596500396728515625">
        <ele>9</ele>
        <time>2023-08-30T00:33:03.000Z</time>
        <extensions>
          <ns3:TrackPointExtension/>
        </extensions>
      </trkpt>
      <trkpt lat="31.40970314852893352508544921875" lon="119.48788203299045562744140625">
        <ele>9</ele>
        <time>2023-08-30T00:33:04.000Z</time>
        <extensions>
          <ns3:TrackPointExtension/>
        </extensions>
      </trkpt>
      <trkpt lat="31.4097122848033905029296875" lon="119.4878862239420413970947265625">
        <ele>9</ele>
        <time>2023-08-30T00:33:05.000Z</time>
        <extensions>
          <ns3:TrackPointExtension/>
        </extensions>
      </trkpt>
      <trkpt lat="31.40971790067851543426513671875" lon="119.48789066635072231292724609375">
        <ele>9</ele>
        <time>2023-08-30T00:33:06.000Z</time>
        <extensions>
          <ns3:TrackPointExtension/>
        </extensions>
      </trkpt>
      <trkpt lat="31.40972100198268890380859375" lon="119.48789552785456180572509765625">
        <ele>9</ele>
        <time>2023-08-30T00:33:07.000Z</time>
        <extensions>
          <ns3:TrackPointExtension/>
        </extensions>
      </trkpt>
      <trkpt lat="31.40972225926816463470458984375" lon="119.48790105991065502166748046875">
        <ele>9</ele>
        <time>2023-08-30T00:33:08.000Z</time>
        <extensions>
          <ns3:TrackPointExtension>
            <ns3:hr>71</ns3:hr>
          </ns3:TrackPointExtension>
        </extensions>
      </trkpt>
      <trkpt lat="31.40972175635397434234619140625" lon="119.4879080168902873992919921875">
        <ele>9</ele>
        <time>2023-08-30T00:33:09.000Z</time>
        <extensions>
          <ns3:TrackPointExtension/>
        </extensions>
      </trkpt>
      <trkpt lat="31.40971924178302288055419921875" lon="119.487917907536029815673828125">
        <ele>9</ele>
        <time>2023-08-30T00:33:10.000Z</time>
        <extensions>
          <ns3:TrackPointExtension>
            <ns3:hr>71</ns3:hr>
          </ns3:TrackPointExtension>
        </extensions>
      </trkpt>
      <trkpt lat="31.409714631736278533935546875" lon="119.4879311509430408477783203125">
        <ele>9</ele>
        <time>2023-08-30T00:33:11.000Z</time>
        <extensions>
          <ns3:TrackPointExtension/>
        </extensions>
      </trkpt>
      <trkpt lat="31.4096983708441257476806640625" lon="119.48794481344521045684814453125">
        <ele>9</ele>
        <time>2023-08-30T00:33:12.000Z</time>
        <extensions>
          <ns3:TrackPointExtension/>
        </extensions>
      </trkpt>
      <trkpt lat="31.40968152321875095367431640625" lon="119.48795805685222148895263671875">
        <ele>9</ele>
        <time>2023-08-30T00:33:13.000Z</time>
        <extensions>
          <ns3:TrackPointExtension/>
        </extensions>
      </trkpt>
      <trkpt lat="31.40966509468853473663330078125" lon="119.487969875335693359375">
        <ele>9</ele>
        <time>2023-08-30T00:33:14.000Z</time>
        <extensions>
          <ns3:TrackPointExtension/>
        </extensions>
      </trkpt>
      <trkpt lat="31.4096507616341114044189453125" lon="119.4879797659814357757568359375">
        <ele>9</ele>
        <time>2023-08-30T00:33:15.000Z</time>
        <extensions>
          <ns3:TrackPointExtension/>
        </extensions>
      </trkpt>
      <trkpt lat="31.409635841846466064453125" lon="119.487987644970417022705078125">
        <ele>9</ele>
        <time>2023-08-30T00:33:16.000Z</time>
        <extensions>
          <ns3:TrackPointExtension/>
        </extensions>
      </trkpt>
      <trkpt lat="31.4096202515065670013427734375" lon="119.487993679940700531005859375">
        <ele>9</ele>
        <time>2023-08-30T00:33:17.000Z</time>
        <extensions>
          <ns3:TrackPointExtension/>
        </extensions>
      </trkpt>
      <trkpt lat="31.40960357151925563812255859375" lon="119.4879982061684131622314453125">
        <ele>9</ele>
        <time>2023-08-30T00:33:18.000Z</time>
        <extensions>
          <ns3:TrackPointExtension>
            <ns3:hr>74</ns3:hr>
          </ns3:TrackPointExtension>
        </extensions>
      </trkpt>
      <trkpt lat="31.4095863886177539825439453125" lon="119.48800139129161834716796875">
        <ele>9</ele>
        <time>2023-08-30T00:33:19.000Z</time>
        <extensions>
          <ns3:TrackPointExtension/>
        </extensions>
      </trkpt>
      <trkpt lat="31.4095676131546497344970703125" lon="119.4880034029483795166015625">
        <ele>9</ele>
        <time>2023-08-30T00:33:20.000Z</time>
        <extensions>
          <ns3:TrackPointExtension/>
        </extensions>
      </trkpt>
      <trkpt lat="31.40952779911458492279052734375" lon="119.48800533078610897064208984375">
        <ele>9</ele>
        <time>2023-08-30T00:33:21.000Z</time>
        <extensions>
          <ns3:TrackPointExtension>
            <ns3:hr>75</ns3:hr>
          </ns3:TrackPointExtension>
        </extensions>
      </trkpt>
      <trkpt lat="31.409505419433116912841796875" lon="119.488006420433521270751953125">
        <ele>9</ele>
        <time>2023-08-30T00:33:22.000Z</time>
        <extensions>
          <ns3:TrackPointExtension/>
        </extensions>
      </trkpt>
      <trkpt lat="31.40948974527418613433837890625" lon="119.48800801299512386322021484375">
        <ele>9</ele>
        <time>2023-08-30T00:33:23.000Z</time>
        <extensions>
          <ns3:TrackPointExtension/>
        </extensions>
      </trkpt>
      <trkpt lat="31.4094861410558223724365234375" lon="119.4880082644522190093994140625">
        <ele>9</ele>
        <time>2023-08-30T00:33:24.000Z</time>
        <extensions>
          <ns3:TrackPointExtension/>
        </extensions>
      </trkpt>
      <trkpt lat="31.40949460677802562713623046875" lon="119.4880082644522190093994140625">
        <ele>9</ele>
        <time>2023-08-30T00:33:25.000Z</time>
        <extensions>
          <ns3:TrackPointExtension>
            <ns3:hr>74</ns3:hr>
          </ns3:TrackPointExtension>
        </extensions>
      </trkpt>
      <trkpt lat="31.409515477716922760009765625" lon="119.48800834827125072479248046875">
        <ele>9</ele>
        <time>2023-08-30T00:33:26.000Z</time>
        <extensions>
          <ns3:TrackPointExtension/>
        </extensions>
      </trkpt>
      <trkpt lat="31.40961094759404659271240234375" lon="119.48800751008093357086181640625">
        <ele>9</ele>
        <time>2023-08-30T00:33:30.000Z</time>
        <extensions>
          <ns3:TrackPointExtension>
            <ns3:hr>72</ns3:hr>
          </ns3:TrackPointExtension>
        </extensions>
      </trkpt>
      <trkpt lat="31.40963089652359485626220703125" lon="119.488004408776760101318359375">
        <ele>9</ele>
        <time>2023-08-30T00:33:31.000Z</time>
        <extensions>
          <ns3:TrackPointExtension/>
        </extensions>
      </trkpt>
      <trkpt lat="31.40964631922543048858642578125" lon="119.48800080455839633941650390625">
        <ele>9</ele>
        <time>2023-08-30T00:33:32.000Z</time>
        <extensions>
          <ns3:TrackPointExtension/>
        </extensions>
      </trkpt>
      <trkpt lat="31.409658975899219512939453125" lon="119.487996362149715423583984375">
        <ele>9</ele>
        <time>2023-08-30T00:33:33.000Z</time>
        <extensions>
          <ns3:TrackPointExtension/>
        </extensions>
      </trkpt>
      <trkpt lat="31.40967012383043766021728515625" lon="119.4879908300936222076416015625">
        <ele>9</ele>
        <time>2023-08-30T00:33:34.000Z</time>
        <extensions>
          <ns3:TrackPointExtension/>
        </extensions>
      </trkpt>
      <trkpt lat="31.40968068502843379974365234375" lon="119.48798387311398983001708984375">
        <ele>9</ele>
        <time>2023-08-30T00:33:35.000Z</time>
        <extensions>
          <ns3:TrackPointExtension/>
        </extensions>
      </trkpt>
      <trkpt lat="31.40969141386449337005615234375" lon="119.48797498829662799835205078125">
        <ele>9</ele>
        <time>2023-08-30T00:33:37.000Z</time>
        <extensions>
          <ns3:TrackPointExtension/>
        </extensions>
      </trkpt>
      <trkpt lat="31.40971018932759761810302734375" lon="119.487957470118999481201171875">
        <ele>9</ele>
        <time>2023-08-30T00:33:39.000Z</time>
        <extensions>
          <ns3:TrackPointExtension/>
        </extensions>
      </trkpt>
      <trkpt lat="31.4097174815833568572998046875" lon="119.48795042932033538818359375">
        <ele>9</ele>
        <time>2023-08-30T00:33:40.000Z</time>
        <extensions>
          <ns3:TrackPointExtension/>
        </extensions>
      </trkpt>
      <trkpt lat="31.40973030589520931243896484375" lon="119.48793978430330753326416015625">
        <ele>9</ele>
        <time>2023-08-30T00:33:41.000Z</time>
        <extensions>
          <ns3:TrackPointExtension/>
        </extensions>
      </trkpt>
      <trkpt lat="31.40973852016031742095947265625" lon="119.48793408460915088653564453125">
        <ele>9</ele>
        <time>2023-08-30T00:33:42.000Z</time>
        <extensions>
          <ns3:TrackPointExtension/>
        </extensions>
      </trkpt>
      <trkpt lat="31.40974958427250385284423828125" lon="119.48792721144855022430419921875">
        <ele>9</ele>
        <time>2023-08-30T00:33:43.000Z</time>
        <extensions>
          <ns3:TrackPointExtension>
            <ns3:hr>70</ns3:hr>
          </ns3:TrackPointExtension>
        </extensions>
      </trkpt>
      <trkpt lat="31.4097831957042217254638671875" lon="119.4879096932709217071533203125">
        <ele>9</ele>
        <time>2023-08-30T00:33:45.000Z</time>
        <extensions>
          <ns3:TrackPointExtension/>
        </extensions>
      </trkpt>
      <trkpt lat="31.40985704027116298675537109375" lon="119.48787976987659931182861328125">
        <ele>8.6000003814697265625</ele>
        <time>2023-08-30T00:33:49.000Z</time>
        <extensions>
          <ns3:TrackPointExtension/>
        </extensions>
      </trkpt>
      <trkpt lat="31.40988461673259735107421875" lon="119.48787004686892032623291015625">
        <ele>8.3999996185302734375</ele>
        <time>2023-08-30T00:33:50.000Z</time>
        <extensions>
          <ns3:TrackPointExtension>
            <ns3:hr>74</ns3:hr>
          </ns3:TrackPointExtension>
        </extensions>
      </trkpt>
      <trkpt lat="31.41000959090888500213623046875" lon="119.48784724809229373931884765625">
        <ele>7.19999980926513671875</ele>
        <time>2023-08-30T00:33:56.000Z</time>
        <extensions>
          <ns3:TrackPointExtension/>
        </extensions>
      </trkpt>
      <trkpt lat="31.41002275049686431884765625" lon="119.487847499549388885498046875">
        <ele>7.19999980926513671875</ele>
        <time>2023-08-30T00:33:57.000Z</time>
        <extensions>
          <ns3:TrackPointExtension/>
        </extensions>
      </trkpt>
      <trkpt lat="31.41003490425646305084228515625" lon="119.48784674517810344696044921875">
        <ele>7</ele>
        <time>2023-08-30T00:33:58.000Z</time>
        <extensions>
          <ns3:TrackPointExtension/>
        </extensions>
      </trkpt>
      <trkpt lat="31.41004513017833232879638671875" lon="119.48784640990197658538818359375">
        <ele>7</ele>
        <time>2023-08-30T00:33:59.000Z</time>
        <extensions>
          <ns3:TrackPointExtension/>
        </extensions>
      </trkpt>
      <trkpt lat="31.41005418263375759124755859375" lon="119.4878451526165008544921875">
        <ele>7</ele>
        <time>2023-08-30T00:34:00.000Z</time>
        <extensions>
          <ns3:TrackPointExtension/>
        </extensions>
      </trkpt>
      <trkpt lat="31.41006239689886569976806640625" lon="119.487842805683612823486328125">
        <ele>7</ele>
        <time>2023-08-30T00:34:01.000Z</time>
        <extensions>
          <ns3:TrackPointExtension/>
        </extensions>
      </trkpt>
      <trkpt lat="31.41006977297365665435791015625" lon="119.4878389500081539154052734375">
        <ele>6.80000019073486328125</ele>
        <time>2023-08-30T00:34:02.000Z</time>
        <extensions>
          <ns3:TrackPointExtension/>
        </extensions>
      </trkpt>
      <trkpt lat="31.4100770652294158935546875" lon="119.48783417232334613800048828125">
        <ele>6.80000019073486328125</ele>
        <time>2023-08-30T00:34:03.000Z</time>
        <extensions>
          <ns3:TrackPointExtension>
            <ns3:hr>76</ns3:hr>
          </ns3:TrackPointExtension>
        </extensions>
      </trkpt>
      <trkpt lat="31.41008486039936542510986328125" lon="119.48782880790531635284423828125">
        <ele>6.80000019073486328125</ele>
        <time>2023-08-30T00:34:04.000Z</time>
        <extensions>
          <ns3:TrackPointExtension/>
        </extensions>
      </trkpt>
      <trkpt lat="31.41009307466447353363037109375" lon="119.4878231920301914215087890625">
        <ele>6.80000019073486328125</ele>
        <time>2023-08-30T00:34:05.000Z</time>
        <extensions>
          <ns3:TrackPointExtension>
            <ns3:hr>77</ns3:hr>
          </ns3:TrackPointExtension>
        </extensions>
      </trkpt>
      <trkpt lat="31.4101010374724864959716796875" lon="119.48781774379312992095947265625">
        <ele>6.80000019073486328125</ele>
        <time>2023-08-30T00:34:06.000Z</time>
        <extensions>
          <ns3:TrackPointExtension/>
        </extensions>
      </trkpt>
      <trkpt lat="31.4101080782711505889892578125" lon="119.48781304992735385894775390625">
        <ele>6.599999904632568359375</ele>
        <time>2023-08-30T00:34:07.000Z</time>
        <extensions>
          <ns3:TrackPointExtension/>
        </extensions>
      </trkpt>
      <trkpt lat="31.410114280879497528076171875" lon="119.4878094457089900970458984375">
        <ele>6.599999904632568359375</ele>
        <time>2023-08-30T00:34:08.000Z</time>
        <extensions>
          <ns3:TrackPointExtension/>
        </extensions>
      </trkpt>
      <trkpt lat="31.41012023203074932098388671875" lon="119.48780701495707035064697265625">
        <ele>6.599999904632568359375</ele>
        <time>2023-08-30T00:34:09.000Z</time>
        <extensions>
          <ns3:TrackPointExtension/>
        </extensions>
      </trkpt>
      <trkpt lat="31.4101261831820011138916015625" lon="119.48780517093837261199951171875">
        <ele>6.599999904632568359375</ele>
        <time>2023-08-30T00:34:10.000Z</time>
        <extensions>
          <ns3:TrackPointExtension>
            <ns3:hr>77</ns3:hr>
          </ns3:TrackPointExtension>
        </extensions>
      </trkpt>
      <trkpt lat="31.41013196669518947601318359375" lon="119.48780366219580173492431640625">
        <ele>6.599999904632568359375</ele>
        <time>2023-08-30T00:34:11.000Z</time>
        <extensions>
          <ns3:TrackPointExtension/>
        </extensions>
      </trkpt>
      <trkpt lat="31.41013984568417072296142578125" lon="119.48780064471065998077392578125">
        <ele>6.599999904632568359375</ele>
        <time>2023-08-30T00:34:14.000Z</time>
        <extensions>
          <ns3:TrackPointExtension/>
        </extensions>
      </trkpt>
      <trkpt lat="31.4101392589509487152099609375" lon="119.48780014179646968841552734375">
        <ele>6.599999904632568359375</ele>
        <time>2023-08-30T00:34:15.000Z</time>
        <extensions>
          <ns3:TrackPointExtension/>
        </extensions>
      </trkpt>
      <trkpt lat="31.4101387560367584228515625" lon="119.487799890339374542236328125">
        <ele>6.599999904632568359375</ele>
        <time>2023-08-30T00:34:16.000Z</time>
        <extensions>
          <ns3:TrackPointExtension/>
        </extensions>
      </trkpt>
      <trkpt lat="31.41013850457966327667236328125" lon="119.48779963888227939605712890625">
        <ele>6.599999904632568359375</ele>
        <time>2023-08-30T00:34:17.000Z</time>
        <extensions>
          <ns3:TrackPointExtension>
            <ns3:hr>76</ns3:hr>
          </ns3:TrackPointExtension>
        </extensions>
      </trkpt>
      <trkpt lat="31.41013816930353641510009765625" lon="119.48779930360615253448486328125">
        <ele>6.599999904632568359375</ele>
        <time>2023-08-30T00:34:18.000Z</time>
        <extensions>
          <ns3:TrackPointExtension/>
        </extensions>
      </trkpt>
      <trkpt lat="31.41013783402740955352783203125" lon="119.48779896833002567291259765625">
        <ele>6.599999904632568359375</ele>
        <time>2023-08-30T00:34:19.000Z</time>
        <extensions>
          <ns3:TrackPointExtension/>
        </extensions>
      </trkpt>
      <trkpt lat="31.41013766638934612274169921875" lon="119.48779880069196224212646484375">
        <ele>6.599999904632568359375</ele>
        <time>2023-08-30T00:34:20.000Z</time>
        <extensions>
          <ns3:TrackPointExtension>
            <ns3:hr>75</ns3:hr>
          </ns3:TrackPointExtension>
        </extensions>
      </trkpt>
      <trkpt lat="31.410137750208377838134765625" lon="119.48779863305389881134033203125">
        <ele>6.599999904632568359375</ele>
        <time>2023-08-30T00:34:21.000Z</time>
        <extensions>
          <ns3:TrackPointExtension/>
        </extensions>
      </trkpt>
      <trkpt lat="31.41013816930353641510009765625" lon="119.48779846541583538055419921875">
        <ele>6.400000095367431640625</ele>
        <time>2023-08-30T00:34:22.000Z</time>
        <extensions>
          <ns3:TrackPointExtension/>
        </extensions>
      </trkpt>
      <trkpt lat="31.41013917513191699981689453125" lon="119.487798213958740234375">
        <ele>6.400000095367431640625</ele>
        <time>2023-08-30T00:34:23.000Z</time>
        <extensions>
          <ns3:TrackPointExtension/>
        </extensions>
      </trkpt>
      <trkpt lat="31.41014118678867816925048828125" lon="119.4877977110445499420166015625">
        <ele>6.400000095367431640625</ele>
        <time>2023-08-30T00:34:24.000Z</time>
        <extensions>
          <ns3:TrackPointExtension/>
        </extensions>
      </trkpt>
      <trkpt lat="31.410143785178661346435546875" lon="119.48779712431132793426513671875">
        <ele>6.400000095367431640625</ele>
        <time>2023-08-30T00:34:25.000Z</time>
        <extensions>
          <ns3:TrackPointExtension/>
        </extensions>
      </trkpt>
      <trkpt lat="31.41014688648283481597900390625" lon="119.48779645375907421112060546875">
        <ele>6.400000095367431640625</ele>
        <time>2023-08-30T00:34:26.000Z</time>
        <extensions>
          <ns3:TrackPointExtension/>
        </extensions>
      </trkpt>
      <trkpt lat="31.41015023924410343170166015625" lon="119.4877956993877887725830078125">
        <ele>6.400000095367431640625</ele>
        <time>2023-08-30T00:34:27.000Z</time>
        <extensions>
          <ns3:TrackPointExtension/>
        </extensions>
      </trkpt>
      <trkpt lat="31.41015375964343547821044921875" lon="119.48779494501650333404541015625">
        <ele>6.400000095367431640625</ele>
        <time>2023-08-30T00:34:28.000Z</time>
        <extensions>
          <ns3:TrackPointExtension>
            <ns3:hr>74</ns3:hr>
          </ns3:TrackPointExtension>
        </extensions>
      </trkpt>
      <trkpt lat="31.4101573638617992401123046875" lon="119.48779410682618618011474609375">
        <ele>6.400000095367431640625</ele>
        <time>2023-08-30T00:34:29.000Z</time>
        <extensions>
          <ns3:TrackPointExtension/>
        </extensions>
      </trkpt>
    </trkseg>
  </trk>
</gpx>
