<gpx xmlns:ns3="http://www.garmin.com/xmlschemas/TrackPointExtension/v1" xmlns="http://www.topografix.com/GPX/1/1" xmlns:xsi="http://www.w3.org/2001/XMLSchema-instance" xmlns:ns2="http://www.garmin.com/xmlschemas/GpxExtensions/v3" creator="Garmin Connect" version="1.1" xsi:schemaLocation="http://www.topografix.com/GPX/1/1 http://www.topografix.com/GPX/11.xsd">
  <extensions>
<distance>1011.2</distance>
<average_hr>86.0</average_hr>
<average_speed>1.0737673420625573</average_speed>
<start_time>2023-07-28T09:03:31+00:00</start_time>
<end_time>2023-07-28T09:19:12.731000+00:00</end_time>
<moving_time>682.0</moving_time>
<elapsed_time>941.731</elapsed_time>
</extensions>
<metadata>
    <link href="connect.garmin.com">
      <text>Garmin Connect</text>
    </link>
    <time>2023-07-28T09:03:31.000Z</time>
  </metadata>
  <trk>
    <name>常州市 步行</name>
    <type>walking</type>
    <trkseg>
      <trkpt lat="31.4074163138866424560546875" lon="119.494493007659912109375">
        <ele>6.80000019073486328125</ele>
        <time>2023-07-28T09:18:19.000Z</time>
        <extensions>
          <ns3:TrackPointExtension/>
        </extensions>
      </trkpt>
      <trkpt lat="31.40740583650767803192138671875" lon="119.49449677951633930206298828125">
        <ele>6.80000019073486328125</ele>
        <time>2023-07-28T09:18:21.000Z</time>
        <extensions>
          <ns3:TrackPointExtension/>
        </extensions>
      </trkpt>
      <trkpt lat="31.4073956944048404693603515625" lon="119.49450180865824222564697265625">
        <ele>6.80000019073486328125</ele>
        <time>2023-07-28T09:18:22.000Z</time>
        <extensions>
          <ns3:TrackPointExtension/>
        </extensions>
      </trkpt>
      <trkpt lat="31.40738437883555889129638671875" lon="119.49450734071433544158935546875">
        <ele>6.599999904632568359375</ele>
        <time>2023-07-28T09:18:23.000Z</time>
        <extensions>
          <ns3:TrackPointExtension/>
        </extensions>
      </trkpt>
      <trkpt lat="31.407373063266277313232421875" lon="119.4945131242275238037109375">
        <ele>6.599999904632568359375</ele>
        <time>2023-07-28T09:18:24.000Z</time>
        <extensions>
          <ns3:TrackPointExtension/>
        </extensions>
      </trkpt>
      <trkpt lat="31.40735261142253875732421875" lon="119.49452276341617107391357421875">
        <ele>6.599999904632568359375</ele>
        <time>2023-07-28T09:18:25.000Z</time>
        <extensions>
          <ns3:TrackPointExtension>
            <ns3:hr>91</ns3:hr>
          </ns3:TrackPointExtension>
        </extensions>
      </trkpt>
      <trkpt lat="31.40734464861452579498291015625" lon="119.49452645145356655120849609375">
        <ele>6.599999904632568359375</ele>
        <time>2023-07-28T09:18:26.000Z</time>
        <extensions>
          <ns3:TrackPointExtension/>
        </extensions>
      </trkpt>
      <trkpt lat="31.40733844600617885589599609375" lon="119.49452988803386688232421875">
        <ele>6.599999904632568359375</ele>
        <time>2023-07-28T09:18:27.000Z</time>
        <extensions>
          <ns3:TrackPointExtension/>
        </extensions>
      </trkpt>
      <trkpt lat="31.40733224339783191680908203125" lon="119.4945340789854526519775390625">
        <ele>6.400000095367431640625</ele>
        <time>2023-07-28T09:18:28.000Z</time>
        <extensions>
          <ns3:TrackPointExtension/>
        </extensions>
      </trkpt>
      <trkpt lat="31.40732637606561183929443359375" lon="119.4945391081273555755615234375">
        <ele>6.400000095367431640625</ele>
        <time>2023-07-28T09:18:29.000Z</time>
        <extensions>
          <ns3:TrackPointExtension/>
        </extensions>
      </trkpt>
      <trkpt lat="31.407322771847248077392578125" lon="119.4945444725453853607177734375">
        <ele>6.400000095367431640625</ele>
        <time>2023-07-28T09:18:30.000Z</time>
        <extensions>
          <ns3:TrackPointExtension>
            <ns3:hr>91</ns3:hr>
          </ns3:TrackPointExtension>
        </extensions>
      </trkpt>
      <trkpt lat="31.4073199220001697540283203125" lon="119.4945518486201763153076171875">
        <ele>6.400000095367431640625</ele>
        <time>2023-07-28T09:18:31.000Z</time>
        <extensions>
          <ns3:TrackPointExtension/>
        </extensions>
      </trkpt>
      <trkpt lat="31.4073158986866474151611328125" lon="119.49456207454204559326171875">
        <ele>6.400000095367431640625</ele>
        <time>2023-07-28T09:18:32.000Z</time>
        <extensions>
          <ns3:TrackPointExtension/>
        </extensions>
      </trkpt>
      <trkpt lat="31.40731145627796649932861328125" lon="119.494573138654232025146484375">
        <ele>6.400000095367431640625</ele>
        <time>2023-07-28T09:18:33.000Z</time>
        <extensions>
          <ns3:TrackPointExtension/>
        </extensions>
      </trkpt>
      <trkpt lat="31.407307349145412445068359375" lon="119.4945840351283550262451171875">
        <ele>6.599999904632568359375</ele>
        <time>2023-07-28T09:18:34.000Z</time>
        <extensions>
          <ns3:TrackPointExtension/>
        </extensions>
      </trkpt>
      <trkpt lat="31.40730299055576324462890625" lon="119.49459493160247802734375">
        <ele>6.599999904632568359375</ele>
        <time>2023-07-28T09:18:35.000Z</time>
        <extensions>
          <ns3:TrackPointExtension/>
        </extensions>
      </trkpt>
      <trkpt lat="31.40729838050901889801025390625" lon="119.4946061633527278900146484375">
        <ele>6.599999904632568359375</ele>
        <time>2023-07-28T09:18:36.000Z</time>
        <extensions>
          <ns3:TrackPointExtension>
            <ns3:hr>91</ns3:hr>
          </ns3:TrackPointExtension>
        </extensions>
      </trkpt>
      <trkpt lat="31.40729368664324283599853515625" lon="119.49461831711232662200927734375">
        <ele>6.599999904632568359375</ele>
        <time>2023-07-28T09:18:37.000Z</time>
        <extensions>
          <ns3:TrackPointExtension/>
        </extensions>
      </trkpt>
      <trkpt lat="31.40728882513940334320068359375" lon="119.49463122524321079254150390625">
        <ele>6.599999904632568359375</ele>
        <time>2023-07-28T09:18:38.000Z</time>
        <extensions>
          <ns3:TrackPointExtension>
            <ns3:hr>91</ns3:hr>
          </ns3:TrackPointExtension>
        </extensions>
      </trkpt>
      <trkpt lat="31.40728421509265899658203125" lon="119.49464321136474609375">
        <ele>6.80000019073486328125</ele>
        <time>2023-07-28T09:18:39.000Z</time>
        <extensions>
          <ns3:TrackPointExtension/>
        </extensions>
      </trkpt>
      <trkpt lat="31.40727960504591464996337890625" lon="119.494654946029186248779296875">
        <ele>6.80000019073486328125</ele>
        <time>2023-07-28T09:18:40.000Z</time>
        <extensions>
          <ns3:TrackPointExtension/>
        </extensions>
      </trkpt>
      <trkpt lat="31.40727457590401172637939453125" lon="119.4946675188839435577392578125">
        <ele>6.80000019073486328125</ele>
        <time>2023-07-28T09:18:41.000Z</time>
        <extensions>
          <ns3:TrackPointExtension/>
        </extensions>
      </trkpt>
      <trkpt lat="31.40726971440017223358154296875" lon="119.4946799241006374359130859375">
        <ele>6.80000019073486328125</ele>
        <time>2023-07-28T09:18:42.000Z</time>
        <extensions>
          <ns3:TrackPointExtension/>
        </extensions>
      </trkpt>
      <trkpt lat="31.40726502053439617156982421875" lon="119.49469191022217273712158203125">
        <ele>6.80000019073486328125</ele>
        <time>2023-07-28T09:18:43.000Z</time>
        <extensions>
          <ns3:TrackPointExtension/>
        </extensions>
      </trkpt>
      <trkpt lat="31.40726066194474697113037109375" lon="119.49470347724854946136474609375">
        <ele>7</ele>
        <time>2023-07-28T09:18:44.000Z</time>
        <extensions>
          <ns3:TrackPointExtension/>
        </extensions>
      </trkpt>
      <trkpt lat="31.4072568900883197784423828125" lon="119.4947147928178310394287109375">
        <ele>7</ele>
        <time>2023-07-28T09:18:45.000Z</time>
        <extensions>
          <ns3:TrackPointExtension/>
        </extensions>
      </trkpt>
      <trkpt lat="31.4072535373270511627197265625" lon="119.4947258569300174713134765625">
        <ele>7</ele>
        <time>2023-07-28T09:18:46.000Z</time>
        <extensions>
          <ns3:TrackPointExtension>
            <ns3:hr>87</ns3:hr>
          </ns3:TrackPointExtension>
        </extensions>
      </trkpt>
      <trkpt lat="31.4072505198419094085693359375" lon="119.49473641812801361083984375">
        <ele>7</ele>
        <time>2023-07-28T09:18:47.000Z</time>
        <extensions>
          <ns3:TrackPointExtension/>
        </extensions>
      </trkpt>
      <trkpt lat="31.40724758617579936981201171875" lon="119.4947459734976291656494140625">
        <ele>7</ele>
        <time>2023-07-28T09:18:48.000Z</time>
        <extensions>
          <ns3:TrackPointExtension/>
        </extensions>
      </trkpt>
      <trkpt lat="31.40724456869065761566162109375" lon="119.49475527741014957427978515625">
        <ele>7.19999980926513671875</ele>
        <time>2023-07-28T09:18:49.000Z</time>
        <extensions>
          <ns3:TrackPointExtension/>
        </extensions>
      </trkpt>
      <trkpt lat="31.40724121592938899993896484375" lon="119.49476550333201885223388671875">
        <ele>7.19999980926513671875</ele>
        <time>2023-07-28T09:18:50.000Z</time>
        <extensions>
          <ns3:TrackPointExtension/>
        </extensions>
      </trkpt>
      <trkpt lat="31.40723736025393009185791015625" lon="119.49477732181549072265625">
        <ele>7</ele>
        <time>2023-07-28T09:18:51.000Z</time>
        <extensions>
          <ns3:TrackPointExtension>
            <ns3:hr>87</ns3:hr>
          </ns3:TrackPointExtension>
        </extensions>
      </trkpt>
      <trkpt lat="31.40723325312137603759765625" lon="119.494790397584438323974609375">
        <ele>7</ele>
        <time>2023-07-28T09:18:52.000Z</time>
        <extensions>
          <ns3:TrackPointExtension/>
        </extensions>
      </trkpt>
      <trkpt lat="31.40722881071269512176513671875" lon="119.49480406008660793304443359375">
        <ele>7</ele>
        <time>2023-07-28T09:18:53.000Z</time>
        <extensions>
          <ns3:TrackPointExtension/>
        </extensions>
      </trkpt>
      <trkpt lat="31.40722411684691905975341796875" lon="119.49481763876974582672119140625">
        <ele>6.80000019073486328125</ele>
        <time>2023-07-28T09:18:54.000Z</time>
        <extensions>
          <ns3:TrackPointExtension/>
        </extensions>
      </trkpt>
      <trkpt lat="31.4072190038859844207763671875" lon="119.49483138509094715118408203125">
        <ele>6.80000019073486328125</ele>
        <time>2023-07-28T09:18:55.000Z</time>
        <extensions>
          <ns3:TrackPointExtension/>
        </extensions>
      </trkpt>
      <trkpt lat="31.4072133041918277740478515625" lon="119.49484504759311676025390625">
        <ele>6.599999904632568359375</ele>
        <time>2023-07-28T09:18:56.000Z</time>
        <extensions>
          <ns3:TrackPointExtension>
            <ns3:hr>84</ns3:hr>
          </ns3:TrackPointExtension>
        </extensions>
      </trkpt>
      <trkpt lat="31.40720735304057598114013671875" lon="119.49485820718109607696533203125">
        <ele>6.599999904632568359375</ele>
        <time>2023-07-28T09:18:57.000Z</time>
        <extensions>
          <ns3:TrackPointExtension>
            <ns3:hr>85</ns3:hr>
          </ns3:TrackPointExtension>
        </extensions>
      </trkpt>
      <trkpt lat="31.40720165334641933441162109375" lon="119.49487078003585338592529296875">
        <ele>6.400000095367431640625</ele>
        <time>2023-07-28T09:18:58.000Z</time>
        <extensions>
          <ns3:TrackPointExtension/>
        </extensions>
      </trkpt>
      <trkpt lat="31.40719645656645298004150390625" lon="119.49488352052867412567138671875">
        <ele>6.400000095367431640625</ele>
        <time>2023-07-28T09:18:59.000Z</time>
        <extensions>
          <ns3:TrackPointExtension/>
        </extensions>
      </trkpt>
      <trkpt lat="31.40719176270067691802978515625" lon="119.49489676393568515777587890625">
        <ele>6.400000095367431640625</ele>
        <time>2023-07-28T09:19:00.000Z</time>
        <extensions>
          <ns3:TrackPointExtension/>
        </extensions>
      </trkpt>
      <trkpt lat="31.4071878232061862945556640625" lon="119.49491034261882305145263671875">
        <ele>6.19999980926513671875</ele>
        <time>2023-07-28T09:19:01.000Z</time>
        <extensions>
          <ns3:TrackPointExtension/>
        </extensions>
      </trkpt>
      <trkpt lat="31.40718455426394939422607421875" lon="119.49492375366389751434326171875">
        <ele>6.19999980926513671875</ele>
        <time>2023-07-28T09:19:02.000Z</time>
        <extensions>
          <ns3:TrackPointExtension/>
        </extensions>
      </trkpt>
      <trkpt lat="31.40718136914074420928955078125" lon="119.4949367456138134002685546875">
        <ele>6.19999980926513671875</ele>
        <time>2023-07-28T09:19:03.000Z</time>
        <extensions>
          <ns3:TrackPointExtension/>
        </extensions>
      </trkpt>
      <trkpt lat="31.40717784874141216278076171875" lon="119.4949488155543804168701171875">
        <ele>6</ele>
        <time>2023-07-28T09:19:04.000Z</time>
        <extensions>
          <ns3:TrackPointExtension/>
        </extensions>
      </trkpt>
      <trkpt lat="31.40717399306595325469970703125" lon="119.4949602149426937103271484375">
        <ele>6</ele>
        <time>2023-07-28T09:19:05.000Z</time>
        <extensions>
          <ns3:TrackPointExtension>
            <ns3:hr>83</ns3:hr>
          </ns3:TrackPointExtension>
        </extensions>
      </trkpt>
      <trkpt lat="31.40716996975243091583251953125" lon="119.49497136287391185760498046875">
        <ele>6</ele>
        <time>2023-07-28T09:19:06.000Z</time>
        <extensions>
          <ns3:TrackPointExtension/>
        </extensions>
      </trkpt>
      <trkpt lat="31.4071656949818134307861328125" lon="119.4949826784431934356689453125">
        <ele>5.80000019073486328125</ele>
        <time>2023-07-28T09:19:07.000Z</time>
        <extensions>
          <ns3:TrackPointExtension/>
        </extensions>
      </trkpt>
      <trkpt lat="31.40716083347797393798828125" lon="119.49499416165053844451904296875">
        <ele>5.80000019073486328125</ele>
        <time>2023-07-28T09:19:08.000Z</time>
        <extensions>
          <ns3:TrackPointExtension/>
        </extensions>
      </trkpt>
      <trkpt lat="31.4071553014218807220458984375" lon="119.4950058124959468841552734375">
        <ele>5.80000019073486328125</ele>
        <time>2023-07-28T09:19:09.000Z</time>
        <extensions>
          <ns3:TrackPointExtension/>
        </extensions>
      </trkpt>
      <trkpt lat="31.40714935027062892913818359375" lon="119.49501712806522846221923828125">
        <ele>5.80000019073486328125</ele>
        <time>2023-07-28T09:19:10.000Z</time>
        <extensions>
          <ns3:TrackPointExtension>
            <ns3:hr>84</ns3:hr>
          </ns3:TrackPointExtension>
        </extensions>
      </trkpt>
      <trkpt lat="31.40714348293840885162353515625" lon="119.4950286112725734710693359375">
        <ele>5.80000019073486328125</ele>
        <time>2023-07-28T09:19:11.000Z</time>
        <extensions>
          <ns3:TrackPointExtension/>
        </extensions>
      </trkpt>
    </trkseg>
  </trk>
</gpx>
