<gpx xmlns:ns3="http://www.garmin.com/xmlschemas/TrackPointExtension/v1" xmlns="http://www.topografix.com/GPX/1/1" xmlns:xsi="http://www.w3.org/2001/XMLSchema-instance" xmlns:ns2="http://www.garmin.com/xmlschemas/GpxExtensions/v3" creator="Garmin Connect" version="1.1" xsi:schemaLocation="http://www.topografix.com/GPX/1/1 http://www.topografix.com/GPX/11.xsd">
  <extensions>
<distance>360.86</distance>
<average_hr>87.0</average_hr>
<average_speed>0.23930596401204332</average_speed>
<start_time>2024-11-03T00:25:14+00:00</start_time>
<end_time>2024-11-03T00:50:21.944000+00:00</end_time>
<moving_time>0.0</moving_time>
<elapsed_time>1507.944</elapsed_time>
</extensions>
<metadata>
    <link href="connect.garmin.com">
      <text>Garmin Connect</text>
    </link>
    <time>2024-11-03T00:25:14.000Z</time>
  </metadata>
  <trk>
    <name>其他</name>
    <type>other</type>
    <trkseg/>
  </trk>
</gpx>
