<gpx xmlns:ns3="http://www.garmin.com/xmlschemas/TrackPointExtension/v1" xmlns="http://www.topografix.com/GPX/1/1" xmlns:xsi="http://www.w3.org/2001/XMLSchema-instance" xmlns:ns2="http://www.garmin.com/xmlschemas/GpxExtensions/v3" creator="Garmin Connect" version="1.1" xsi:schemaLocation="http://www.topografix.com/GPX/1/1 http://www.topografix.com/GPX/11.xsd">
  <extensions>
<distance>665.28</distance>
<average_hr>105.0</average_hr>
<average_speed>2.6057632346808184</average_speed>
<start_time>2024-12-01T06:56:35+00:00</start_time>
<end_time>2024-12-01T07:00:50.311000+00:00</end_time>
<moving_time>213.0</moving_time>
<elapsed_time>298.713</elapsed_time>
</extensions>
<metadata>
    <link href="connect.garmin.com">
      <text>Garmin Connect</text>
    </link>
    <time>2024-12-01T06:56:35.000Z</time>
  </metadata>
  <trk>
    <name>徐汇区 骑行</name>
    <type>cycling</type>
    <trkseg>
      <trkpt lat="31.192992143332958221435546875" lon="121.419804431498050689697265625">
        <ele>6.599999904632568359375</ele>
        <time>2024-12-01T06:56:36.000Z</time>
        <extensions>
          <ns3:TrackPointExtension/>
        </extensions>
      </trkpt>
      <trkpt lat="31.19301988743245601654052734375" lon="121.41978439874947071075439453125">
        <ele>6.599999904632568359375</ele>
        <time>2024-12-01T06:56:37.000Z</time>
        <extensions>
          <ns3:TrackPointExtension/>
        </extensions>
      </trkpt>
      <trkpt lat="31.1930483020842075347900390625" lon="121.4197647012770175933837890625">
        <ele>6.400000095367431640625</ele>
        <time>2024-12-01T06:56:38.000Z</time>
        <extensions>
          <ns3:TrackPointExtension/>
        </extensions>
      </trkpt>
      <trkpt lat="31.19307688437402248382568359375" lon="121.41974483616650104522705078125">
        <ele>6.400000095367431640625</ele>
        <time>2024-12-01T06:56:39.000Z</time>
        <extensions>
          <ns3:TrackPointExtension/>
        </extensions>
      </trkpt>
      <trkpt lat="31.19310538284480571746826171875" lon="121.4197248034179210662841796875">
        <ele>6.400000095367431640625</ele>
        <time>2024-12-01T06:56:40.000Z</time>
        <extensions>
          <ns3:TrackPointExtension>
            <ns3:hr>104</ns3:hr>
          </ns3:TrackPointExtension>
        </extensions>
      </trkpt>
      <trkpt lat="31.19313421659171581268310546875" lon="121.419704519212245941162109375">
        <ele>6.400000095367431640625</ele>
        <time>2024-12-01T06:56:41.000Z</time>
        <extensions>
          <ns3:TrackPointExtension>
            <ns3:hr>104</ns3:hr>
          </ns3:TrackPointExtension>
        </extensions>
      </trkpt>
      <trkpt lat="31.193162463605403900146484375" lon="121.41968348063528537750244140625">
        <ele>6.400000095367431640625</ele>
        <time>2024-12-01T06:56:42.000Z</time>
        <extensions>
          <ns3:TrackPointExtension/>
        </extensions>
      </trkpt>
      <trkpt lat="31.193189956247806549072265625" lon="121.419662274420261383056640625">
        <ele>6.19999980926513671875</ele>
        <time>2024-12-01T06:56:43.000Z</time>
        <extensions>
          <ns3:TrackPointExtension/>
        </extensions>
      </trkpt>
      <trkpt lat="31.19321753270924091339111328125" lon="121.41964140348136425018310546875">
        <ele>6.19999980926513671875</ele>
        <time>2024-12-01T06:56:44.000Z</time>
        <extensions>
          <ns3:TrackPointExtension/>
        </extensions>
      </trkpt>
      <trkpt lat="31.1932451091706752777099609375" lon="121.4196215383708477020263671875">
        <ele>6</ele>
        <time>2024-12-01T06:56:45.000Z</time>
        <extensions>
          <ns3:TrackPointExtension/>
        </extensions>
      </trkpt>
      <trkpt lat="31.193272769451141357421875" lon="121.41960267908871173858642578125">
        <ele>5.80000019073486328125</ele>
        <time>2024-12-01T06:56:46.000Z</time>
        <extensions>
          <ns3:TrackPointExtension/>
        </extensions>
      </trkpt>
      <trkpt lat="31.19330135174095630645751953125" lon="121.4195843227207660675048828125">
        <ele>5.599999904632568359375</ele>
        <time>2024-12-01T06:56:47.000Z</time>
        <extensions>
          <ns3:TrackPointExtension/>
        </extensions>
      </trkpt>
      <trkpt lat="31.193330772221088409423828125" lon="121.41956596635282039642333984375">
        <ele>5.400000095367431640625</ele>
        <time>2024-12-01T06:56:48.000Z</time>
        <extensions>
          <ns3:TrackPointExtension/>
        </extensions>
      </trkpt>
      <trkpt lat="31.1933601088821887969970703125" lon="121.419546939432621002197265625">
        <ele>5.19999980926513671875</ele>
        <time>2024-12-01T06:56:49.000Z</time>
        <extensions>
          <ns3:TrackPointExtension/>
        </extensions>
      </trkpt>
      <trkpt lat="31.19338936172425746917724609375" lon="121.41952808015048503875732421875">
        <ele>5</ele>
        <time>2024-12-01T06:56:50.000Z</time>
        <extensions>
          <ns3:TrackPointExtension>
            <ns3:hr>102</ns3:hr>
          </ns3:TrackPointExtension>
        </extensions>
      </trkpt>
      <trkpt lat="31.19341827929019927978515625" lon="121.41950905323028564453125">
        <ele>4.80000019073486328125</ele>
        <time>2024-12-01T06:56:51.000Z</time>
        <extensions>
          <ns3:TrackPointExtension/>
        </extensions>
      </trkpt>
      <trkpt lat="31.19344652630388736724853515625" lon="121.41949002631008625030517578125">
        <ele>4.599999904632568359375</ele>
        <time>2024-12-01T06:56:52.000Z</time>
        <extensions>
          <ns3:TrackPointExtension>
            <ns3:hr>102</ns3:hr>
          </ns3:TrackPointExtension>
        </extensions>
      </trkpt>
      <trkpt lat="31.193474270403385162353515625" lon="121.41947083175182342529296875">
        <ele>4.400000095367431640625</ele>
        <time>2024-12-01T06:56:53.000Z</time>
        <extensions>
          <ns3:TrackPointExtension/>
        </extensions>
      </trkpt>
      <trkpt lat="31.1935020983219146728515625" lon="121.419451721012592315673828125">
        <ele>4.19999980926513671875</ele>
        <time>2024-12-01T06:56:54.000Z</time>
        <extensions>
          <ns3:TrackPointExtension/>
        </extensions>
      </trkpt>
      <trkpt lat="31.19352984242141246795654296875" lon="121.41943252645432949066162109375">
        <ele>4</ele>
        <time>2024-12-01T06:56:55.000Z</time>
        <extensions>
          <ns3:TrackPointExtension/>
        </extensions>
      </trkpt>
      <trkpt lat="31.19355716742575168609619140625" lon="121.41941324807703495025634765625">
        <ele>4.19999980926513671875</ele>
        <time>2024-12-01T06:56:56.000Z</time>
        <extensions>
          <ns3:TrackPointExtension/>
        </extensions>
      </trkpt>
      <trkpt lat="31.1935844086110591888427734375" lon="121.419393382966518402099609375">
        <ele>4.19999980926513671875</ele>
        <time>2024-12-01T06:56:57.000Z</time>
        <extensions>
          <ns3:TrackPointExtension/>
        </extensions>
      </trkpt>
      <trkpt lat="31.19361181743443012237548828125" lon="121.41937234438955783843994140625">
        <ele>4.400000095367431640625</ele>
        <time>2024-12-01T06:56:58.000Z</time>
        <extensions>
          <ns3:TrackPointExtension>
            <ns3:hr>103</ns3:hr>
          </ns3:TrackPointExtension>
        </extensions>
      </trkpt>
      <trkpt lat="31.1936397291719913482666015625" lon="121.41935105435550212860107421875">
        <ele>4.400000095367431640625</ele>
        <time>2024-12-01T06:56:59.000Z</time>
        <extensions>
          <ns3:TrackPointExtension/>
        </extensions>
      </trkpt>
      <trkpt lat="31.19366772472858428955078125" lon="121.419329680502414703369140625">
        <ele>4.599999904632568359375</ele>
        <time>2024-12-01T06:57:00.000Z</time>
        <extensions>
          <ns3:TrackPointExtension/>
        </extensions>
      </trkpt>
      <trkpt lat="31.19369588792324066162109375" lon="121.4193077199161052703857421875">
        <ele>4.599999904632568359375</ele>
        <time>2024-12-01T06:57:01.000Z</time>
        <extensions>
          <ns3:TrackPointExtension/>
        </extensions>
      </trkpt>
      <trkpt lat="31.19372405111789703369140625" lon="121.41928517259657382965087890625">
        <ele>5</ele>
        <time>2024-12-01T06:57:02.000Z</time>
        <extensions>
          <ns3:TrackPointExtension/>
        </extensions>
      </trkpt>
      <trkpt lat="31.19375221431255340576171875" lon="121.41926161944866180419921875">
        <ele>5.19999980926513671875</ele>
        <time>2024-12-01T06:57:03.000Z</time>
        <extensions>
          <ns3:TrackPointExtension>
            <ns3:hr>104</ns3:hr>
          </ns3:TrackPointExtension>
        </extensions>
      </trkpt>
      <trkpt lat="31.1937797069549560546875" lon="121.41923722811043262481689453125">
        <ele>5.400000095367431640625</ele>
        <time>2024-12-01T06:57:04.000Z</time>
        <extensions>
          <ns3:TrackPointExtension/>
        </extensions>
      </trkpt>
      <trkpt lat="31.19380661286413669586181640625" lon="121.41921308822929859161376953125">
        <ele>5.80000019073486328125</ele>
        <time>2024-12-01T06:57:05.000Z</time>
        <extensions>
          <ns3:TrackPointExtension/>
        </extensions>
      </trkpt>
      <trkpt lat="31.19383309967815876007080078125" lon="121.419189535081386566162109375">
        <ele>5.80000019073486328125</ele>
        <time>2024-12-01T06:57:06.000Z</time>
        <extensions>
          <ns3:TrackPointExtension/>
        </extensions>
      </trkpt>
      <trkpt lat="31.19385958649218082427978515625" lon="121.41916573047637939453125">
        <ele>5.80000019073486328125</ele>
        <time>2024-12-01T06:57:07.000Z</time>
        <extensions>
          <ns3:TrackPointExtension/>
        </extensions>
      </trkpt>
      <trkpt lat="31.19388657622039318084716796875" lon="121.419141925871372222900390625">
        <ele>5.599999904632568359375</ele>
        <time>2024-12-01T06:57:08.000Z</time>
        <extensions>
          <ns3:TrackPointExtension/>
        </extensions>
      </trkpt>
      <trkpt lat="31.19391423650085926055908203125" lon="121.41911904327571392059326171875">
        <ele>5.599999904632568359375</ele>
        <time>2024-12-01T06:57:09.000Z</time>
        <extensions>
          <ns3:TrackPointExtension>
            <ns3:hr>105</ns3:hr>
          </ns3:TrackPointExtension>
        </extensions>
      </trkpt>
      <trkpt lat="31.19394223205745220184326171875" lon="121.41909674741327762603759765625">
        <ele>5.400000095367431640625</ele>
        <time>2024-12-01T06:57:10.000Z</time>
        <extensions>
          <ns3:TrackPointExtension/>
        </extensions>
      </trkpt>
      <trkpt lat="31.19396989233791828155517578125" lon="121.41907394863665103912353515625">
        <ele>5.19999980926513671875</ele>
        <time>2024-12-01T06:57:11.000Z</time>
        <extensions>
          <ns3:TrackPointExtension/>
        </extensions>
      </trkpt>
      <trkpt lat="31.19399755261838436126708984375" lon="121.41905081458389759063720703125">
        <ele>5</ele>
        <time>2024-12-01T06:57:12.000Z</time>
        <extensions>
          <ns3:TrackPointExtension/>
        </extensions>
      </trkpt>
      <trkpt lat="31.1940252967178821563720703125" lon="121.4190275967121124267578125">
        <ele>4.80000019073486328125</ele>
        <time>2024-12-01T06:57:13.000Z</time>
        <extensions>
          <ns3:TrackPointExtension/>
        </extensions>
      </trkpt>
      <trkpt lat="31.194052956998348236083984375" lon="121.41900412738323211669921875">
        <ele>4.599999904632568359375</ele>
        <time>2024-12-01T06:57:14.000Z</time>
        <extensions>
          <ns3:TrackPointExtension>
            <ns3:hr>102</ns3:hr>
          </ns3:TrackPointExtension>
        </extensions>
      </trkpt>
      <trkpt lat="31.19408086873590946197509765625" lon="121.4189804904162883758544921875">
        <ele>4.400000095367431640625</ele>
        <time>2024-12-01T06:57:15.000Z</time>
        <extensions>
          <ns3:TrackPointExtension/>
        </extensions>
      </trkpt>
      <trkpt lat="31.1941094510257244110107421875" lon="121.41895718872547149658203125">
        <ele>4.19999980926513671875</ele>
        <time>2024-12-01T06:57:16.000Z</time>
        <extensions>
          <ns3:TrackPointExtension/>
        </extensions>
      </trkpt>
      <trkpt lat="31.194138787686824798583984375" lon="121.41893430612981319427490234375">
        <ele>4</ele>
        <time>2024-12-01T06:57:17.000Z</time>
        <extensions>
          <ns3:TrackPointExtension>
            <ns3:hr>103</ns3:hr>
          </ns3:TrackPointExtension>
        </extensions>
      </trkpt>
      <trkpt lat="31.1941687949001789093017578125" lon="121.41891184262931346893310546875">
        <ele>3.7999999523162841796875</ele>
        <time>2024-12-01T06:57:18.000Z</time>
        <extensions>
          <ns3:TrackPointExtension/>
        </extensions>
      </trkpt>
      <trkpt lat="31.19419855065643787384033203125" lon="121.41889013350009918212890625">
        <ele>3.599999904632568359375</ele>
        <time>2024-12-01T06:57:19.000Z</time>
        <extensions>
          <ns3:TrackPointExtension/>
        </extensions>
      </trkpt>
      <trkpt lat="31.1942274682223796844482421875" lon="121.4188688434660434722900390625">
        <ele>3.400000095367431640625</ele>
        <time>2024-12-01T06:57:20.000Z</time>
        <extensions>
          <ns3:TrackPointExtension/>
        </extensions>
      </trkpt>
      <trkpt lat="31.19425537995994091033935546875" lon="121.41884746961295604705810546875">
        <ele>3.2000000476837158203125</ele>
        <time>2024-12-01T06:57:21.000Z</time>
        <extensions>
          <ns3:TrackPointExtension/>
        </extensions>
      </trkpt>
      <trkpt lat="31.1942831240594387054443359375" lon="121.41882576048374176025390625">
        <ele>3</ele>
        <time>2024-12-01T06:57:22.000Z</time>
        <extensions>
          <ns3:TrackPointExtension>
            <ns3:hr>102</ns3:hr>
          </ns3:TrackPointExtension>
        </extensions>
      </trkpt>
      <trkpt lat="31.1943109519779682159423828125" lon="121.41880421899259090423583984375">
        <ele>2.7999999523162841796875</ele>
        <time>2024-12-01T06:57:23.000Z</time>
        <extensions>
          <ns3:TrackPointExtension/>
        </extensions>
      </trkpt>
      <trkpt lat="31.1943384446203708648681640625" lon="121.41878284513950347900390625">
        <ele>2.599999904632568359375</ele>
        <time>2024-12-01T06:57:24.000Z</time>
        <extensions>
          <ns3:TrackPointExtension/>
        </extensions>
      </trkpt>
      <trkpt lat="31.19436551816761493682861328125" lon="121.41876180656254291534423828125">
        <ele>2.599999904632568359375</ele>
        <time>2024-12-01T06:57:25.000Z</time>
        <extensions>
          <ns3:TrackPointExtension/>
        </extensions>
      </trkpt>
      <trkpt lat="31.19439234025776386260986328125" lon="121.41874127089977264404296875">
        <ele>2.400000095367431640625</ele>
        <time>2024-12-01T06:57:26.000Z</time>
        <extensions>
          <ns3:TrackPointExtension/>
        </extensions>
      </trkpt>
      <trkpt lat="31.19441807270050048828125" lon="121.41872090287506580352783203125">
        <ele>2.2000000476837158203125</ele>
        <time>2024-12-01T06:57:27.000Z</time>
        <extensions>
          <ns3:TrackPointExtension/>
        </extensions>
      </trkpt>
      <trkpt lat="31.1944435536861419677734375" lon="121.418701373040676116943359375">
        <ele>2.2000000476837158203125</ele>
        <time>2024-12-01T06:57:28.000Z</time>
        <extensions>
          <ns3:TrackPointExtension/>
        </extensions>
      </trkpt>
      <trkpt lat="31.1944695375859737396240234375" lon="121.41868351958692073822021484375">
        <ele>2</ele>
        <time>2024-12-01T06:57:29.000Z</time>
        <extensions>
          <ns3:TrackPointExtension/>
        </extensions>
      </trkpt>
      <trkpt lat="31.194495521485805511474609375" lon="121.41866642050445079803466796875">
        <ele>2.2000000476837158203125</ele>
        <time>2024-12-01T06:57:30.000Z</time>
        <extensions>
          <ns3:TrackPointExtension>
            <ns3:hr>102</ns3:hr>
          </ns3:TrackPointExtension>
        </extensions>
      </trkpt>
      <trkpt lat="31.19452125392854213714599609375" lon="121.4186489023268222808837890625">
        <ele>2.400000095367431640625</ele>
        <time>2024-12-01T06:57:31.000Z</time>
        <extensions>
          <ns3:TrackPointExtension>
            <ns3:hr>102</ns3:hr>
          </ns3:TrackPointExtension>
        </extensions>
      </trkpt>
      <trkpt lat="31.19454707019031047821044921875" lon="121.4186318032443523406982421875">
        <ele>2.599999904632568359375</ele>
        <time>2024-12-01T06:57:32.000Z</time>
        <extensions>
          <ns3:TrackPointExtension/>
        </extensions>
      </trkpt>
      <trkpt lat="31.19457338936626911163330078125" lon="121.418615542352199554443359375">
        <ele>2.599999904632568359375</ele>
        <time>2024-12-01T06:57:33.000Z</time>
        <extensions>
          <ns3:TrackPointExtension/>
        </extensions>
      </trkpt>
      <trkpt lat="31.194599457085132598876953125" lon="121.4185984432697296142578125">
        <ele>2.7999999523162841796875</ele>
        <time>2024-12-01T06:57:34.000Z</time>
        <extensions>
          <ns3:TrackPointExtension/>
        </extensions>
      </trkpt>
      <trkpt lat="31.1946254409849643707275390625" lon="121.41858075745403766632080078125">
        <ele>3</ele>
        <time>2024-12-01T06:57:35.000Z</time>
        <extensions>
          <ns3:TrackPointExtension/>
        </extensions>
      </trkpt>
      <trkpt lat="31.19465201161801815032958984375" lon="121.41856298781931400299072265625">
        <ele>3</ele>
        <time>2024-12-01T06:57:36.000Z</time>
        <extensions>
          <ns3:TrackPointExtension/>
        </extensions>
      </trkpt>
      <trkpt lat="31.19467900134623050689697265625" lon="121.41854521818459033966064453125">
        <ele>3.2000000476837158203125</ele>
        <time>2024-12-01T06:57:37.000Z</time>
        <extensions>
          <ns3:TrackPointExtension/>
        </extensions>
      </trkpt>
      <trkpt lat="31.1947062425315380096435546875" lon="121.41852744854986667633056640625">
        <ele>3.2000000476837158203125</ele>
        <time>2024-12-01T06:57:38.000Z</time>
        <extensions>
          <ns3:TrackPointExtension/>
        </extensions>
      </trkpt>
      <trkpt lat="31.19473331607878208160400390625" lon="121.41850917600095272064208984375">
        <ele>3.400000095367431640625</ele>
        <time>2024-12-01T06:57:39.000Z</time>
        <extensions>
          <ns3:TrackPointExtension>
            <ns3:hr>104</ns3:hr>
          </ns3:TrackPointExtension>
        </extensions>
      </trkpt>
      <trkpt lat="31.194760389626026153564453125" lon="121.41849040053784847259521484375">
        <ele>3.400000095367431640625</ele>
        <time>2024-12-01T06:57:40.000Z</time>
        <extensions>
          <ns3:TrackPointExtension/>
        </extensions>
      </trkpt>
      <trkpt lat="31.194787882268428802490234375" lon="121.41847145743668079376220703125">
        <ele>3.599999904632568359375</ele>
        <time>2024-12-01T06:57:41.000Z</time>
        <extensions>
          <ns3:TrackPointExtension/>
        </extensions>
      </trkpt>
      <trkpt lat="31.19481571018695831298828125" lon="121.41845234669744968414306640625">
        <ele>3.599999904632568359375</ele>
        <time>2024-12-01T06:57:42.000Z</time>
        <extensions>
          <ns3:TrackPointExtension/>
        </extensions>
      </trkpt>
      <trkpt lat="31.1948433704674243927001953125" lon="121.41843323595821857452392578125">
        <ele>3.7999999523162841796875</ele>
        <time>2024-12-01T06:57:43.000Z</time>
        <extensions>
          <ns3:TrackPointExtension/>
        </extensions>
      </trkpt>
      <trkpt lat="31.1948705278337001800537109375" lon="121.41841446049511432647705078125">
        <ele>3.7999999523162841796875</ele>
        <time>2024-12-01T06:57:44.000Z</time>
        <extensions>
          <ns3:TrackPointExtension/>
        </extensions>
      </trkpt>
      <trkpt lat="31.1948968470096588134765625" lon="121.41839660704135894775390625">
        <ele>4</ele>
        <time>2024-12-01T06:57:45.000Z</time>
        <extensions>
          <ns3:TrackPointExtension>
            <ns3:hr>107</ns3:hr>
          </ns3:TrackPointExtension>
        </extensions>
      </trkpt>
      <trkpt lat="31.19492291472852230072021484375" lon="121.41837959177792072296142578125">
        <ele>4.19999980926513671875</ele>
        <time>2024-12-01T06:57:46.000Z</time>
        <extensions>
          <ns3:TrackPointExtension/>
        </extensions>
      </trkpt>
      <trkpt lat="31.19494889862835407257080078125" lon="121.4183632470667362213134765625">
        <ele>4.400000095367431640625</ele>
        <time>2024-12-01T06:57:47.000Z</time>
        <extensions>
          <ns3:TrackPointExtension>
            <ns3:hr>107</ns3:hr>
          </ns3:TrackPointExtension>
        </extensions>
      </trkpt>
      <trkpt lat="31.19497538544237613677978515625" lon="121.4183481596410274505615234375">
        <ele>4.80000019073486328125</ele>
        <time>2024-12-01T06:57:48.000Z</time>
        <extensions>
          <ns3:TrackPointExtension/>
        </extensions>
      </trkpt>
      <trkpt lat="31.1950019560754299163818359375" lon="121.41833332367241382598876953125">
        <ele>5.19999980926513671875</ele>
        <time>2024-12-01T06:57:49.000Z</time>
        <extensions>
          <ns3:TrackPointExtension/>
        </extensions>
      </trkpt>
      <trkpt lat="31.195027939975261688232421875" lon="121.41831739805638790130615234375">
        <ele>5.599999904632568359375</ele>
        <time>2024-12-01T06:57:50.000Z</time>
        <extensions>
          <ns3:TrackPointExtension/>
        </extensions>
      </trkpt>
      <trkpt lat="31.1950532533228397369384765625" lon="121.4183007180690765380859375">
        <ele>6</ele>
        <time>2024-12-01T06:57:51.000Z</time>
        <extensions>
          <ns3:TrackPointExtension>
            <ns3:hr>107</ns3:hr>
          </ns3:TrackPointExtension>
        </extensions>
      </trkpt>
      <trkpt lat="31.1950778961181640625" lon="121.41828370280563831329345703125">
        <ele>6.400000095367431640625</ele>
        <time>2024-12-01T06:57:52.000Z</time>
        <extensions>
          <ns3:TrackPointExtension/>
        </extensions>
      </trkpt>
      <trkpt lat="31.19510295800864696502685546875" lon="121.418266184628009796142578125">
        <ele>6.80000019073486328125</ele>
        <time>2024-12-01T06:57:53.000Z</time>
        <extensions>
          <ns3:TrackPointExtension/>
        </extensions>
      </trkpt>
      <trkpt lat="31.1951286904513835906982421875" lon="121.41824916936457157135009765625">
        <ele>7.19999980926513671875</ele>
        <time>2024-12-01T06:57:54.000Z</time>
        <extensions>
          <ns3:TrackPointExtension/>
        </extensions>
      </trkpt>
      <trkpt lat="31.195154674351215362548828125" lon="121.4182321541011333465576171875">
        <ele>7.599999904632568359375</ele>
        <time>2024-12-01T06:57:55.000Z</time>
        <extensions>
          <ns3:TrackPointExtension/>
        </extensions>
      </trkpt>
      <trkpt lat="31.19518158026039600372314453125" lon="121.41821497119963169097900390625">
        <ele>7.80000019073486328125</ele>
        <time>2024-12-01T06:57:56.000Z</time>
        <extensions>
          <ns3:TrackPointExtension>
            <ns3:hr>107</ns3:hr>
          </ns3:TrackPointExtension>
        </extensions>
      </trkpt>
      <trkpt lat="31.19520907290279865264892578125" lon="121.41819770447909832000732421875">
        <ele>8.19999980926513671875</ele>
        <time>2024-12-01T06:57:57.000Z</time>
        <extensions>
          <ns3:TrackPointExtension/>
        </extensions>
      </trkpt>
      <trkpt lat="31.19523690082132816314697265625" lon="121.41818068921566009521484375">
        <ele>8.3999996185302734375</ele>
        <time>2024-12-01T06:57:58.000Z</time>
        <extensions>
          <ns3:TrackPointExtension/>
        </extensions>
      </trkpt>
      <trkpt lat="31.19526523165404796600341796875" lon="121.41816434450447559356689453125">
        <ele>8.80000019073486328125</ele>
        <time>2024-12-01T06:57:59.000Z</time>
        <extensions>
          <ns3:TrackPointExtension/>
        </extensions>
      </trkpt>
      <trkpt lat="31.19529389776289463043212890625" lon="121.41814774833619594573974609375">
        <ele>9</ele>
        <time>2024-12-01T06:58:00.000Z</time>
        <extensions>
          <ns3:TrackPointExtension/>
        </extensions>
      </trkpt>
      <trkpt lat="31.19532239623367786407470703125" lon="121.4181298948824405670166015625">
        <ele>9.3999996185302734375</ele>
        <time>2024-12-01T06:58:01.000Z</time>
        <extensions>
          <ns3:TrackPointExtension>
            <ns3:hr>109</ns3:hr>
          </ns3:TrackPointExtension>
        </extensions>
      </trkpt>
      <trkpt lat="31.1953499726951122283935546875" lon="121.4181117899715900421142578125">
        <ele>9.6000003814697265625</ele>
        <time>2024-12-01T06:58:02.000Z</time>
        <extensions>
          <ns3:TrackPointExtension/>
        </extensions>
      </trkpt>
      <trkpt lat="31.19537771679461002349853515625" lon="121.41809510998427867889404296875">
        <ele>10</ele>
        <time>2024-12-01T06:58:03.000Z</time>
        <extensions>
          <ns3:TrackPointExtension/>
        </extensions>
      </trkpt>
      <trkpt lat="31.19540621526539325714111328125" lon="121.41808035783469676971435546875">
        <ele>10.3999996185302734375</ele>
        <time>2024-12-01T06:58:04.000Z</time>
        <extensions>
          <ns3:TrackPointExtension/>
        </extensions>
      </trkpt>
      <trkpt lat="31.19543454609811305999755859375" lon="121.41806661151349544525146484375">
        <ele>10.6000003814697265625</ele>
        <time>2024-12-01T06:58:05.000Z</time>
        <extensions>
          <ns3:TrackPointExtension/>
        </extensions>
      </trkpt>
      <trkpt lat="31.19546187110245227813720703125" lon="121.4180527813732624053955078125">
        <ele>11</ele>
        <time>2024-12-01T06:58:06.000Z</time>
        <extensions>
          <ns3:TrackPointExtension/>
        </extensions>
      </trkpt>
      <trkpt lat="31.1954884417355060577392578125" lon="121.4180397056043148040771484375">
        <ele>10.80000019073486328125</ele>
        <time>2024-12-01T06:58:07.000Z</time>
        <extensions>
          <ns3:TrackPointExtension>
            <ns3:hr>107</ns3:hr>
          </ns3:TrackPointExtension>
        </extensions>
      </trkpt>
      <trkpt lat="31.19551551528275012969970703125" lon="121.418028138577938079833984375">
        <ele>10.6000003814697265625</ele>
        <time>2024-12-01T06:58:08.000Z</time>
        <extensions>
          <ns3:TrackPointExtension/>
        </extensions>
      </trkpt>
      <trkpt lat="31.1955434270203113555908203125" lon="121.418017409741878509521484375">
        <ele>10.3999996185302734375</ele>
        <time>2024-12-01T06:58:09.000Z</time>
        <extensions>
          <ns3:TrackPointExtension/>
        </extensions>
      </trkpt>
      <trkpt lat="31.1955715902149677276611328125" lon="121.4180071838200092315673828125">
        <ele>10.19999980926513671875</ele>
        <time>2024-12-01T06:58:10.000Z</time>
        <extensions>
          <ns3:TrackPointExtension/>
        </extensions>
      </trkpt>
      <trkpt lat="31.19560000486671924591064453125" lon="121.41799821518361568450927734375">
        <ele>10</ele>
        <time>2024-12-01T06:58:11.000Z</time>
        <extensions>
          <ns3:TrackPointExtension/>
        </extensions>
      </trkpt>
      <trkpt lat="31.1956289224326610565185546875" lon="121.41799050383269786834716796875">
        <ele>9.80000019073486328125</ele>
        <time>2024-12-01T06:58:12.000Z</time>
        <extensions>
          <ns3:TrackPointExtension/>
        </extensions>
      </trkpt>
      <trkpt lat="31.1956577561795711517333984375" lon="121.41798228956758975982666015625">
        <ele>9.3999996185302734375</ele>
        <time>2024-12-01T06:58:13.000Z</time>
        <extensions>
          <ns3:TrackPointExtension/>
        </extensions>
      </trkpt>
      <trkpt lat="31.19568583555519580841064453125" lon="121.41797156073153018951416015625">
        <ele>9.19999980926513671875</ele>
        <time>2024-12-01T06:58:14.000Z</time>
        <extensions>
          <ns3:TrackPointExtension/>
        </extensions>
      </trkpt>
      <trkpt lat="31.19571332819759845733642578125" lon="121.4179589040577411651611328125">
        <ele>9.19999980926513671875</ele>
        <time>2024-12-01T06:58:15.000Z</time>
        <extensions>
          <ns3:TrackPointExtension>
            <ns3:hr>108</ns3:hr>
          </ns3:TrackPointExtension>
        </extensions>
      </trkpt>
      <trkpt lat="31.19574065320193767547607421875" lon="121.41794607974588871002197265625">
        <ele>9</ele>
        <time>2024-12-01T06:58:16.000Z</time>
        <extensions>
          <ns3:TrackPointExtension/>
        </extensions>
      </trkpt>
      <trkpt lat="31.19576797820627689361572265625" lon="121.4179334230720996856689453125">
        <ele>8.80000019073486328125</ele>
        <time>2024-12-01T06:58:17.000Z</time>
        <extensions>
          <ns3:TrackPointExtension/>
        </extensions>
      </trkpt>
      <trkpt lat="31.19579547084867954254150390625" lon="121.41792051494121551513671875">
        <ele>8.6000003814697265625</ele>
        <time>2024-12-01T06:58:18.000Z</time>
        <extensions>
          <ns3:TrackPointExtension>
            <ns3:hr>109</ns3:hr>
          </ns3:TrackPointExtension>
        </extensions>
      </trkpt>
      <trkpt lat="31.19582246057689189910888671875" lon="121.4179072715342044830322265625">
        <ele>8.3999996185302734375</ele>
        <time>2024-12-01T06:58:19.000Z</time>
        <extensions>
          <ns3:TrackPointExtension/>
        </extensions>
      </trkpt>
      <trkpt lat="31.19584961794316768646240234375" lon="121.41789562068879604339599609375">
        <ele>8.19999980926513671875</ele>
        <time>2024-12-01T06:58:20.000Z</time>
        <extensions>
          <ns3:TrackPointExtension/>
        </extensions>
      </trkpt>
      <trkpt lat="31.19587778113782405853271484375" lon="121.417888663709163665771484375">
        <ele>8</ele>
        <time>2024-12-01T06:58:21.000Z</time>
        <extensions>
          <ns3:TrackPointExtension/>
        </extensions>
      </trkpt>
      <trkpt lat="31.19590678252279758453369140625" lon="121.41788564622402191162109375">
        <ele>7.80000019073486328125</ele>
        <time>2024-12-01T06:58:22.000Z</time>
        <extensions>
          <ns3:TrackPointExtension/>
        </extensions>
      </trkpt>
      <trkpt lat="31.1959357000887393951416015625" lon="121.41788204200565814971923828125">
        <ele>7.599999904632568359375</ele>
        <time>2024-12-01T06:58:23.000Z</time>
        <extensions>
          <ns3:TrackPointExtension/>
        </extensions>
      </trkpt>
      <trkpt lat="31.19596428237855434417724609375" lon="121.4178744144737720489501953125">
        <ele>7.400000095367431640625</ele>
        <time>2024-12-01T06:58:24.000Z</time>
        <extensions>
          <ns3:TrackPointExtension>
            <ns3:hr>108</ns3:hr>
          </ns3:TrackPointExtension>
        </extensions>
      </trkpt>
      <trkpt lat="31.19599278084933757781982421875" lon="121.417863853275775909423828125">
        <ele>7.19999980926513671875</ele>
        <time>2024-12-01T06:58:25.000Z</time>
        <extensions>
          <ns3:TrackPointExtension/>
        </extensions>
      </trkpt>
      <trkpt lat="31.196021698415279388427734375" lon="121.417852453887462615966796875">
        <ele>7</ele>
        <time>2024-12-01T06:58:26.000Z</time>
        <extensions>
          <ns3:TrackPointExtension>
            <ns3:hr>109</ns3:hr>
          </ns3:TrackPointExtension>
        </extensions>
      </trkpt>
      <trkpt lat="31.1960510350763797760009765625" lon="121.4178407192230224609375">
        <ele>7</ele>
        <time>2024-12-01T06:58:27.000Z</time>
        <extensions>
          <ns3:TrackPointExtension/>
        </extensions>
      </trkpt>
      <trkpt lat="31.19608179666101932525634765625" lon="121.41783007420599460601806640625">
        <ele>7</ele>
        <time>2024-12-01T06:58:28.000Z</time>
        <extensions>
          <ns3:TrackPointExtension/>
        </extensions>
      </trkpt>
      <trkpt lat="31.196112893521785736083984375" lon="121.4178197644650936126708984375">
        <ele>7.19999980926513671875</ele>
        <time>2024-12-01T06:58:29.000Z</time>
        <extensions>
          <ns3:TrackPointExtension/>
        </extensions>
      </trkpt>
      <trkpt lat="31.19614315219223499298095703125" lon="121.4178093709051609039306640625">
        <ele>7.400000095367431640625</ele>
        <time>2024-12-01T06:58:30.000Z</time>
        <extensions>
          <ns3:TrackPointExtension/>
        </extensions>
      </trkpt>
      <trkpt lat="31.19617349468171596527099609375" lon="121.417800150811672210693359375">
        <ele>7.80000019073486328125</ele>
        <time>2024-12-01T06:58:31.000Z</time>
        <extensions>
          <ns3:TrackPointExtension/>
        </extensions>
      </trkpt>
      <trkpt lat="31.19620434008538722991943359375" lon="121.417791433632373809814453125">
        <ele>8</ele>
        <time>2024-12-01T06:58:32.000Z</time>
        <extensions>
          <ns3:TrackPointExtension/>
        </extensions>
      </trkpt>
      <trkpt lat="31.1962357722222805023193359375" lon="121.41778212971985340118408203125">
        <ele>8.3999996185302734375</ele>
        <time>2024-12-01T06:58:33.000Z</time>
        <extensions>
          <ns3:TrackPointExtension>
            <ns3:hr>108</ns3:hr>
          </ns3:TrackPointExtension>
        </extensions>
      </trkpt>
      <trkpt lat="31.19626737199723720550537109375" lon="121.41777257435023784637451171875">
        <ele>8.6000003814697265625</ele>
        <time>2024-12-01T06:58:34.000Z</time>
        <extensions>
          <ns3:TrackPointExtension/>
        </extensions>
      </trkpt>
      <trkpt lat="31.1962991394102573394775390625" lon="121.41776352189481258392333984375">
        <ele>8.80000019073486328125</ele>
        <time>2024-12-01T06:58:35.000Z</time>
        <extensions>
          <ns3:TrackPointExtension/>
        </extensions>
      </trkpt>
      <trkpt lat="31.19633057154715061187744140625" lon="121.41775430180132389068603515625">
        <ele>9.19999980926513671875</ele>
        <time>2024-12-01T06:58:36.000Z</time>
        <extensions>
          <ns3:TrackPointExtension/>
        </extensions>
      </trkpt>
      <trkpt lat="31.19636191986501216888427734375" lon="121.41774457879364490509033203125">
        <ele>9.3999996185302734375</ele>
        <time>2024-12-01T06:58:37.000Z</time>
        <extensions>
          <ns3:TrackPointExtension>
            <ns3:hr>108</ns3:hr>
          </ns3:TrackPointExtension>
        </extensions>
      </trkpt>
      <trkpt lat="31.1963935196399688720703125" lon="121.41773468814790248870849609375">
        <ele>9.80000019073486328125</ele>
        <time>2024-12-01T06:58:38.000Z</time>
        <extensions>
          <ns3:TrackPointExtension/>
        </extensions>
      </trkpt>
      <trkpt lat="31.1964252032339572906494140625" lon="121.417725048959255218505859375">
        <ele>10</ele>
        <time>2024-12-01T06:58:39.000Z</time>
        <extensions>
          <ns3:TrackPointExtension/>
        </extensions>
      </trkpt>
      <trkpt lat="31.19645680300891399383544921875" lon="121.417714990675449371337890625">
        <ele>10.3999996185302734375</ele>
        <time>2024-12-01T06:58:40.000Z</time>
        <extensions>
          <ns3:TrackPointExtension/>
        </extensions>
      </trkpt>
      <trkpt lat="31.19648831896483898162841796875" lon="121.417704261839389801025390625">
        <ele>10.6000003814697265625</ele>
        <time>2024-12-01T06:58:41.000Z</time>
        <extensions>
          <ns3:TrackPointExtension>
            <ns3:hr>108</ns3:hr>
          </ns3:TrackPointExtension>
        </extensions>
      </trkpt>
      <trkpt lat="31.19651966728270053863525390625" lon="121.4176933653652667999267578125">
        <ele>11</ele>
        <time>2024-12-01T06:58:42.000Z</time>
        <extensions>
          <ns3:TrackPointExtension/>
        </extensions>
      </trkpt>
      <trkpt lat="31.19655084796249866485595703125" lon="121.41768238507211208343505859375">
        <ele>11.3999996185302734375</ele>
        <time>2024-12-01T06:58:43.000Z</time>
        <extensions>
          <ns3:TrackPointExtension/>
        </extensions>
      </trkpt>
      <trkpt lat="31.19658202864229679107666015625" lon="121.41767115332186222076416015625">
        <ele>12</ele>
        <time>2024-12-01T06:58:44.000Z</time>
        <extensions>
          <ns3:TrackPointExtension/>
        </extensions>
      </trkpt>
      <trkpt lat="31.19661320932209491729736328125" lon="121.41766059212386608123779296875">
        <ele>12</ele>
        <time>2024-12-01T06:58:45.000Z</time>
        <extensions>
          <ns3:TrackPointExtension/>
        </extensions>
      </trkpt>
      <trkpt lat="31.19664439000189304351806640625" lon="121.41765120439231395721435546875">
        <ele>12.19999980926513671875</ele>
        <time>2024-12-01T06:58:46.000Z</time>
        <extensions>
          <ns3:TrackPointExtension/>
        </extensions>
      </trkpt>
      <trkpt lat="31.19667490012943744659423828125" lon="121.4176427386701107025146484375">
        <ele>12.19999980926513671875</ele>
        <time>2024-12-01T06:58:47.000Z</time>
        <extensions>
          <ns3:TrackPointExtension/>
        </extensions>
      </trkpt>
      <trkpt lat="31.1967048235237598419189453125" lon="121.4176350273191928863525390625">
        <ele>12.19999980926513671875</ele>
        <time>2024-12-01T06:58:48.000Z</time>
        <extensions>
          <ns3:TrackPointExtension/>
        </extensions>
      </trkpt>
      <trkpt lat="31.19673390872776508331298828125" lon="121.4176276512444019317626953125">
        <ele>12.3999996185302734375</ele>
        <time>2024-12-01T06:58:49.000Z</time>
        <extensions>
          <ns3:TrackPointExtension/>
        </extensions>
      </trkpt>
      <trkpt lat="31.19676156900823116302490234375" lon="121.41762077808380126953125">
        <ele>12.3999996185302734375</ele>
        <time>2024-12-01T06:58:50.000Z</time>
        <extensions>
          <ns3:TrackPointExtension>
            <ns3:hr>107</ns3:hr>
          </ns3:TrackPointExtension>
        </extensions>
      </trkpt>
      <trkpt lat="31.196788139641284942626953125" lon="121.41761449165642261505126953125">
        <ele>12.19999980926513671875</ele>
        <time>2024-12-01T06:58:51.000Z</time>
        <extensions>
          <ns3:TrackPointExtension/>
        </extensions>
      </trkpt>
      <trkpt lat="31.1968131177127361297607421875" lon="121.4176087081432342529296875">
        <ele>12.19999980926513671875</ele>
        <time>2024-12-01T06:58:52.000Z</time>
        <extensions>
          <ns3:TrackPointExtension>
            <ns3:hr>107</ns3:hr>
          </ns3:TrackPointExtension>
        </extensions>
      </trkpt>
      <trkpt lat="31.19683675467967987060546875" lon="121.41760376282036304473876953125">
        <ele>12.19999980926513671875</ele>
        <time>2024-12-01T06:58:53.000Z</time>
        <extensions>
          <ns3:TrackPointExtension/>
        </extensions>
      </trkpt>
      <trkpt lat="31.19685980491340160369873046875" lon="121.4176001586019992828369140625">
        <ele>12.19999980926513671875</ele>
        <time>2024-12-01T06:58:54.000Z</time>
        <extensions>
          <ns3:TrackPointExtension/>
        </extensions>
      </trkpt>
      <trkpt lat="31.19688210077583789825439453125" lon="121.417599655687808990478515625">
        <ele>11.80000019073486328125</ele>
        <time>2024-12-01T06:58:55.000Z</time>
        <extensions>
          <ns3:TrackPointExtension/>
        </extensions>
      </trkpt>
      <trkpt lat="31.1969029717147350311279296875" lon="121.4176048524677753448486328125">
        <ele>11.3999996185302734375</ele>
        <time>2024-12-01T06:58:56.000Z</time>
        <extensions>
          <ns3:TrackPointExtension/>
        </extensions>
      </trkpt>
      <trkpt lat="31.19692149572074413299560546875" lon="121.4176139049232006072998046875">
        <ele>11.19999980926513671875</ele>
        <time>2024-12-01T06:58:57.000Z</time>
        <extensions>
          <ns3:TrackPointExtension/>
        </extensions>
      </trkpt>
      <trkpt lat="31.1969381757080554962158203125" lon="121.41762354411184787750244140625">
        <ele>10.80000019073486328125</ele>
        <time>2024-12-01T06:58:58.000Z</time>
        <extensions>
          <ns3:TrackPointExtension/>
        </extensions>
      </trkpt>
      <trkpt lat="31.19695200584828853607177734375" lon="121.41763259656727313995361328125">
        <ele>10.6000003814697265625</ele>
        <time>2024-12-01T06:58:59.000Z</time>
        <extensions>
          <ns3:TrackPointExtension/>
        </extensions>
      </trkpt>
      <trkpt lat="31.1969582922756671905517578125" lon="121.41763695515692234039306640625">
        <ele>10.3999996185302734375</ele>
        <time>2024-12-01T06:59:00.000Z</time>
        <extensions>
          <ns3:TrackPointExtension>
            <ns3:hr>105</ns3:hr>
          </ns3:TrackPointExtension>
        </extensions>
      </trkpt>
      <trkpt lat="31.19695904664695262908935546875" lon="121.4176373742520809173583984375">
        <ele>10.3999996185302734375</ele>
        <time>2024-12-01T06:59:01.000Z</time>
        <extensions>
          <ns3:TrackPointExtension>
            <ns3:hr>105</ns3:hr>
          </ns3:TrackPointExtension>
        </extensions>
      </trkpt>
      <trkpt lat="31.19695938192307949066162109375" lon="121.41763762570917606353759765625">
        <ele>10.3999996185302734375</ele>
        <time>2024-12-01T06:59:02.000Z</time>
        <extensions>
          <ns3:TrackPointExtension/>
        </extensions>
      </trkpt>
      <trkpt lat="31.1969599686563014984130859375" lon="121.41763796098530292510986328125">
        <ele>10.3999996185302734375</ele>
        <time>2024-12-01T06:59:03.000Z</time>
        <extensions>
          <ns3:TrackPointExtension/>
        </extensions>
      </trkpt>
      <trkpt lat="31.1969609744846820831298828125" lon="121.417638547718524932861328125">
        <ele>10.3999996185302734375</ele>
        <time>2024-12-01T06:59:04.000Z</time>
        <extensions>
          <ns3:TrackPointExtension/>
        </extensions>
      </trkpt>
      <trkpt lat="31.19696156121790409088134765625" lon="121.41763896681368350982666015625">
        <ele>10.3999996185302734375</ele>
        <time>2024-12-01T06:59:05.000Z</time>
        <extensions>
          <ns3:TrackPointExtension/>
        </extensions>
      </trkpt>
      <trkpt lat="31.19696223177015781402587890625" lon="121.4176393859088420867919921875">
        <ele>10.3999996185302734375</ele>
        <time>2024-12-01T06:59:06.000Z</time>
        <extensions>
          <ns3:TrackPointExtension/>
        </extensions>
      </trkpt>
      <trkpt lat="31.19696608744561672210693359375" lon="121.41764181666076183319091796875">
        <ele>10.19999980926513671875</ele>
        <time>2024-12-01T06:59:07.000Z</time>
        <extensions>
          <ns3:TrackPointExtension/>
        </extensions>
      </trkpt>
      <trkpt lat="31.19697354733943939208984375" lon="121.417647935450077056884765625">
        <ele>10.19999980926513671875</ele>
        <time>2024-12-01T06:59:08.000Z</time>
        <extensions>
          <ns3:TrackPointExtension/>
        </extensions>
      </trkpt>
      <trkpt lat="31.19698352180421352386474609375" lon="121.41765556298196315765380859375">
        <ele>10</ele>
        <time>2024-12-01T06:59:09.000Z</time>
        <extensions>
          <ns3:TrackPointExtension/>
        </extensions>
      </trkpt>
      <trkpt lat="31.19699441827833652496337890625" lon="121.41766562126576900482177734375">
        <ele>9.80000019073486328125</ele>
        <time>2024-12-01T06:59:10.000Z</time>
        <extensions>
          <ns3:TrackPointExtension>
            <ns3:hr>102</ns3:hr>
          </ns3:TrackPointExtension>
        </extensions>
      </trkpt>
      <trkpt lat="31.197004728019237518310546875" lon="121.41768037341535091400146484375">
        <ele>9.3999996185302734375</ele>
        <time>2024-12-01T06:59:11.000Z</time>
        <extensions>
          <ns3:TrackPointExtension/>
        </extensions>
      </trkpt>
      <trkpt lat="31.19701621122658252716064453125" lon="121.417699567973613739013671875">
        <ele>9.19999980926513671875</ele>
        <time>2024-12-01T06:59:12.000Z</time>
        <extensions>
          <ns3:TrackPointExtension>
            <ns3:hr>103</ns3:hr>
          </ns3:TrackPointExtension>
        </extensions>
      </trkpt>
      <trkpt lat="31.19702844880521297454833984375" lon="121.4177213609218597412109375">
        <ele>8.80000019073486328125</ele>
        <time>2024-12-01T06:59:13.000Z</time>
        <extensions>
          <ns3:TrackPointExtension/>
        </extensions>
      </trkpt>
      <trkpt lat="31.19704001583158969879150390625" lon="121.4177426509559154510498046875">
        <ele>8.6000003814697265625</ele>
        <time>2024-12-01T06:59:14.000Z</time>
        <extensions>
          <ns3:TrackPointExtension/>
        </extensions>
      </trkpt>
      <trkpt lat="31.19705024175345897674560546875" lon="121.41776318661868572235107421875">
        <ele>8.19999980926513671875</ele>
        <time>2024-12-01T06:59:15.000Z</time>
        <extensions>
          <ns3:TrackPointExtension/>
        </extensions>
      </trkpt>
      <trkpt lat="31.1970588751137256622314453125" lon="121.41778380610048770904541015625">
        <ele>8</ele>
        <time>2024-12-01T06:59:16.000Z</time>
        <extensions>
          <ns3:TrackPointExtension/>
        </extensions>
      </trkpt>
      <trkpt lat="31.197065412998199462890625" lon="121.41780517995357513427734375">
        <ele>7.599999904632568359375</ele>
        <time>2024-12-01T06:59:17.000Z</time>
        <extensions>
          <ns3:TrackPointExtension/>
        </extensions>
      </trkpt>
      <trkpt lat="31.1970667541027069091796875" lon="121.4178268052637577056884765625">
        <ele>7.599999904632568359375</ele>
        <time>2024-12-01T06:59:18.000Z</time>
        <extensions>
          <ns3:TrackPointExtension/>
        </extensions>
      </trkpt>
      <trkpt lat="31.19706298224627971649169921875" lon="121.4178479276597499847412109375">
        <ele>7.400000095367431640625</ele>
        <time>2024-12-01T06:59:19.000Z</time>
        <extensions>
          <ns3:TrackPointExtension>
            <ns3:hr>104</ns3:hr>
          </ns3:TrackPointExtension>
        </extensions>
      </trkpt>
      <trkpt lat="31.1970588751137256622314453125" lon="121.4178663678467273712158203125">
        <ele>7.400000095367431640625</ele>
        <time>2024-12-01T06:59:20.000Z</time>
        <extensions>
          <ns3:TrackPointExtension/>
        </extensions>
      </trkpt>
      <trkpt lat="31.19705711491405963897705078125" lon="121.4178804494440555572509765625">
        <ele>7.19999980926513671875</ele>
        <time>2024-12-01T06:59:21.000Z</time>
        <extensions>
          <ns3:TrackPointExtension/>
        </extensions>
      </trkpt>
      <trkpt lat="31.19705728255212306976318359375" lon="121.41788698732852935791015625">
        <ele>7.19999980926513671875</ele>
        <time>2024-12-01T06:59:22.000Z</time>
        <extensions>
          <ns3:TrackPointExtension/>
        </extensions>
      </trkpt>
      <trkpt lat="31.19705736637115478515625" lon="121.41788807697594165802001953125">
        <ele>7.19999980926513671875</ele>
        <time>2024-12-01T06:59:23.000Z</time>
        <extensions>
          <ns3:TrackPointExtension>
            <ns3:hr>103</ns3:hr>
          </ns3:TrackPointExtension>
        </extensions>
      </trkpt>
      <trkpt lat="31.1970571987330913543701171875" lon="121.417888663709163665771484375">
        <ele>7.19999980926513671875</ele>
        <time>2024-12-01T06:59:24.000Z</time>
        <extensions>
          <ns3:TrackPointExtension/>
        </extensions>
      </trkpt>
      <trkpt lat="31.1970571987330913543701171875" lon="121.41788891516625881195068359375">
        <ele>7.19999980926513671875</ele>
        <time>2024-12-01T06:59:25.000Z</time>
        <extensions>
          <ns3:TrackPointExtension/>
        </extensions>
      </trkpt>
      <trkpt lat="31.19705711491405963897705078125" lon="121.41788899898529052734375">
        <ele>7.19999980926513671875</ele>
        <time>2024-12-01T06:59:26.000Z</time>
        <extensions>
          <ns3:TrackPointExtension/>
        </extensions>
      </trkpt>
      <trkpt lat="31.19705711491405963897705078125" lon="121.41788908280432224273681640625">
        <ele>7.19999980926513671875</ele>
        <time>2024-12-01T06:59:27.000Z</time>
        <extensions>
          <ns3:TrackPointExtension/>
        </extensions>
      </trkpt>
      <trkpt lat="31.19705711491405963897705078125" lon="121.4178891666233539581298828125">
        <ele>7.19999980926513671875</ele>
        <time>2024-12-01T06:59:28.000Z</time>
        <extensions>
          <ns3:TrackPointExtension>
            <ns3:hr>104</ns3:hr>
          </ns3:TrackPointExtension>
        </extensions>
      </trkpt>
      <trkpt lat="31.197057031095027923583984375" lon="121.417889334261417388916015625">
        <ele>7.19999980926513671875</ele>
        <time>2024-12-01T06:59:29.000Z</time>
        <extensions>
          <ns3:TrackPointExtension/>
        </extensions>
      </trkpt>
      <trkpt lat="31.197057031095027923583984375" lon="121.4178895018994808197021484375">
        <ele>7.19999980926513671875</ele>
        <time>2024-12-01T06:59:30.000Z</time>
        <extensions>
          <ns3:TrackPointExtension/>
        </extensions>
      </trkpt>
      <trkpt lat="31.19705694727599620819091796875" lon="121.41788966953754425048828125">
        <ele>7.19999980926513671875</ele>
        <time>2024-12-01T06:59:31.000Z</time>
        <extensions>
          <ns3:TrackPointExtension>
            <ns3:hr>103</ns3:hr>
          </ns3:TrackPointExtension>
        </extensions>
      </trkpt>
      <trkpt lat="31.19705694727599620819091796875" lon="121.41788992099463939666748046875">
        <ele>7.19999980926513671875</ele>
        <time>2024-12-01T06:59:32.000Z</time>
        <extensions>
          <ns3:TrackPointExtension/>
        </extensions>
      </trkpt>
      <trkpt lat="31.19705728255212306976318359375" lon="121.41788757406175136566162109375">
        <ele>7.19999980926513671875</ele>
        <time>2024-12-01T06:59:33.000Z</time>
        <extensions>
          <ns3:TrackPointExtension/>
        </extensions>
      </trkpt>
      <trkpt lat="31.19705728255212306976318359375" lon="121.41788757406175136566162109375">
        <ele>7.19999980926513671875</ele>
        <time>2024-12-01T06:59:34.000Z</time>
        <extensions>
          <ns3:TrackPointExtension/>
        </extensions>
      </trkpt>
      <trkpt lat="31.19705728255212306976318359375" lon="121.4178876578807830810546875">
        <ele>7.19999980926513671875</ele>
        <time>2024-12-01T06:59:35.000Z</time>
        <extensions>
          <ns3:TrackPointExtension/>
        </extensions>
      </trkpt>
      <trkpt lat="31.1970571987330913543701171875" lon="121.41788774169981479644775390625">
        <ele>7.19999980926513671875</ele>
        <time>2024-12-01T06:59:36.000Z</time>
        <extensions>
          <ns3:TrackPointExtension/>
        </extensions>
      </trkpt>
      <trkpt lat="31.1970571987330913543701171875" lon="121.41788790933787822723388671875">
        <ele>7.19999980926513671875</ele>
        <time>2024-12-01T06:59:37.000Z</time>
        <extensions>
          <ns3:TrackPointExtension/>
        </extensions>
      </trkpt>
      <trkpt lat="31.1970571987330913543701171875" lon="121.417887993156909942626953125">
        <ele>7.19999980926513671875</ele>
        <time>2024-12-01T06:59:38.000Z</time>
        <extensions>
          <ns3:TrackPointExtension/>
        </extensions>
      </trkpt>
      <trkpt lat="31.19705711491405963897705078125" lon="121.4178881607949733734130859375">
        <ele>7.19999980926513671875</ele>
        <time>2024-12-01T06:59:39.000Z</time>
        <extensions>
          <ns3:TrackPointExtension>
            <ns3:hr>100</ns3:hr>
          </ns3:TrackPointExtension>
        </extensions>
      </trkpt>
      <trkpt lat="31.197057031095027923583984375" lon="121.41788841225206851959228515625">
        <ele>7.19999980926513671875</ele>
        <time>2024-12-01T06:59:40.000Z</time>
        <extensions>
          <ns3:TrackPointExtension/>
        </extensions>
      </trkpt>
      <trkpt lat="31.197057031095027923583984375" lon="121.41788790933787822723388671875">
        <ele>7.19999980926513671875</ele>
        <time>2024-12-01T06:59:41.000Z</time>
        <extensions>
          <ns3:TrackPointExtension>
            <ns3:hr>100</ns3:hr>
          </ns3:TrackPointExtension>
        </extensions>
      </trkpt>
      <trkpt lat="31.197057031095027923583984375" lon="121.41788673587143421173095703125">
        <ele>7.19999980926513671875</ele>
        <time>2024-12-01T06:59:42.000Z</time>
        <extensions>
          <ns3:TrackPointExtension/>
        </extensions>
      </trkpt>
      <trkpt lat="31.19705694727599620819091796875" lon="121.4178864844143390655517578125">
        <ele>7.19999980926513671875</ele>
        <time>2024-12-01T06:59:43.000Z</time>
        <extensions>
          <ns3:TrackPointExtension/>
        </extensions>
      </trkpt>
      <trkpt lat="31.1970568634569644927978515625" lon="121.41788623295724391937255859375">
        <ele>7.19999980926513671875</ele>
        <time>2024-12-01T06:59:44.000Z</time>
        <extensions>
          <ns3:TrackPointExtension/>
        </extensions>
      </trkpt>
      <trkpt lat="31.19705677963793277740478515625" lon="121.417885981500148773193359375">
        <ele>7.19999980926513671875</ele>
        <time>2024-12-01T06:59:45.000Z</time>
        <extensions>
          <ns3:TrackPointExtension/>
        </extensions>
      </trkpt>
      <trkpt lat="31.19705677963793277740478515625" lon="121.41788623295724391937255859375">
        <ele>7.19999980926513671875</ele>
        <time>2024-12-01T06:59:46.000Z</time>
        <extensions>
          <ns3:TrackPointExtension/>
        </extensions>
      </trkpt>
      <trkpt lat="31.19705669581890106201171875" lon="121.417886316776275634765625">
        <ele>7.19999980926513671875</ele>
        <time>2024-12-01T06:59:47.000Z</time>
        <extensions>
          <ns3:TrackPointExtension/>
        </extensions>
      </trkpt>
      <trkpt lat="31.19705669581890106201171875" lon="121.41788640059530735015869140625">
        <ele>7.19999980926513671875</ele>
        <time>2024-12-01T06:59:48.000Z</time>
        <extensions>
          <ns3:TrackPointExtension>
            <ns3:hr>99</ns3:hr>
          </ns3:TrackPointExtension>
        </extensions>
      </trkpt>
      <trkpt lat="31.19705661199986934661865234375" lon="121.41788640059530735015869140625">
        <ele>7.19999980926513671875</ele>
        <time>2024-12-01T06:59:49.000Z</time>
        <extensions>
          <ns3:TrackPointExtension/>
        </extensions>
      </trkpt>
      <trkpt lat="31.19705661199986934661865234375" lon="121.41788606531918048858642578125">
        <ele>7.19999980926513671875</ele>
        <time>2024-12-01T06:59:50.000Z</time>
        <extensions>
          <ns3:TrackPointExtension/>
        </extensions>
      </trkpt>
      <trkpt lat="31.19705661199986934661865234375" lon="121.41788589768111705780029296875">
        <ele>7.19999980926513671875</ele>
        <time>2024-12-01T06:59:51.000Z</time>
        <extensions>
          <ns3:TrackPointExtension/>
        </extensions>
      </trkpt>
      <trkpt lat="31.1970565281808376312255859375" lon="121.417885981500148773193359375">
        <ele>7.19999980926513671875</ele>
        <time>2024-12-01T06:59:52.000Z</time>
        <extensions>
          <ns3:TrackPointExtension/>
        </extensions>
      </trkpt>
      <trkpt lat="31.1970565281808376312255859375" lon="121.41788606531918048858642578125">
        <ele>7.19999980926513671875</ele>
        <time>2024-12-01T06:59:53.000Z</time>
        <extensions>
          <ns3:TrackPointExtension>
            <ns3:hr>98</ns3:hr>
          </ns3:TrackPointExtension>
        </extensions>
      </trkpt>
      <trkpt lat="31.1970565281808376312255859375" lon="121.41788623295724391937255859375">
        <ele>7.19999980926513671875</ele>
        <time>2024-12-01T06:59:54.000Z</time>
        <extensions>
          <ns3:TrackPointExtension/>
        </extensions>
      </trkpt>
      <trkpt lat="31.19705644436180591583251953125" lon="121.4178864844143390655517578125">
        <ele>7.19999980926513671875</ele>
        <time>2024-12-01T06:59:55.000Z</time>
        <extensions>
          <ns3:TrackPointExtension/>
        </extensions>
      </trkpt>
      <trkpt lat="31.19705644436180591583251953125" lon="121.41788656823337078094482421875">
        <ele>7.19999980926513671875</ele>
        <time>2024-12-01T06:59:56.000Z</time>
        <extensions>
          <ns3:TrackPointExtension>
            <ns3:hr>97</ns3:hr>
          </ns3:TrackPointExtension>
        </extensions>
      </trkpt>
      <trkpt lat="31.19705644436180591583251953125" lon="121.417886652052402496337890625">
        <ele>7.19999980926513671875</ele>
        <time>2024-12-01T06:59:57.000Z</time>
        <extensions>
          <ns3:TrackPointExtension/>
        </extensions>
      </trkpt>
      <trkpt lat="31.19705644436180591583251953125" lon="121.41788673587143421173095703125">
        <ele>7.19999980926513671875</ele>
        <time>2024-12-01T06:59:58.000Z</time>
        <extensions>
          <ns3:TrackPointExtension/>
        </extensions>
      </trkpt>
      <trkpt lat="31.197056360542774200439453125" lon="121.41788690350949764251708984375">
        <ele>7.19999980926513671875</ele>
        <time>2024-12-01T06:59:59.000Z</time>
        <extensions>
          <ns3:TrackPointExtension/>
        </extensions>
      </trkpt>
      <trkpt lat="31.197056360542774200439453125" lon="121.41788698732852935791015625">
        <ele>7.19999980926513671875</ele>
        <time>2024-12-01T07:00:01.000Z</time>
        <extensions>
          <ns3:TrackPointExtension/>
        </extensions>
      </trkpt>
      <trkpt lat="31.197056360542774200439453125" lon="121.4178871549665927886962890625">
        <ele>7.19999980926513671875</ele>
        <time>2024-12-01T07:00:02.000Z</time>
        <extensions>
          <ns3:TrackPointExtension/>
        </extensions>
      </trkpt>
      <trkpt lat="31.19705644436180591583251953125" lon="121.4178871549665927886962890625">
        <ele>7.19999980926513671875</ele>
        <time>2024-12-01T07:00:03.000Z</time>
        <extensions>
          <ns3:TrackPointExtension>
            <ns3:hr>101</ns3:hr>
          </ns3:TrackPointExtension>
        </extensions>
      </trkpt>
      <trkpt lat="31.19705661199986934661865234375" lon="121.41788698732852935791015625">
        <ele>7.19999980926513671875</ele>
        <time>2024-12-01T07:00:04.000Z</time>
        <extensions>
          <ns3:TrackPointExtension/>
        </extensions>
      </trkpt>
      <trkpt lat="31.1970568634569644927978515625" lon="121.4178868196904659271240234375">
        <ele>7.19999980926513671875</ele>
        <time>2024-12-01T07:00:05.000Z</time>
        <extensions>
          <ns3:TrackPointExtension/>
        </extensions>
      </trkpt>
      <trkpt lat="31.19705711491405963897705078125" lon="121.41788673587143421173095703125">
        <ele>7.19999980926513671875</ele>
        <time>2024-12-01T07:00:06.000Z</time>
        <extensions>
          <ns3:TrackPointExtension/>
        </extensions>
      </trkpt>
      <trkpt lat="31.19705728255212306976318359375" lon="121.417886652052402496337890625">
        <ele>7.19999980926513671875</ele>
        <time>2024-12-01T07:00:07.000Z</time>
        <extensions>
          <ns3:TrackPointExtension>
            <ns3:hr>98</ns3:hr>
          </ns3:TrackPointExtension>
        </extensions>
      </trkpt>
      <trkpt lat="31.19705745019018650054931640625" lon="121.417886652052402496337890625">
        <ele>7.19999980926513671875</ele>
        <time>2024-12-01T07:00:08.000Z</time>
        <extensions>
          <ns3:TrackPointExtension/>
        </extensions>
      </trkpt>
      <trkpt lat="31.19705761782824993133544921875" lon="121.41788690350949764251708984375">
        <ele>7.19999980926513671875</ele>
        <time>2024-12-01T07:00:09.000Z</time>
        <extensions>
          <ns3:TrackPointExtension/>
        </extensions>
      </trkpt>
      <trkpt lat="31.197057701647281646728515625" lon="121.417887322604656219482421875">
        <ele>7.19999980926513671875</ele>
        <time>2024-12-01T07:00:10.000Z</time>
        <extensions>
          <ns3:TrackPointExtension/>
        </extensions>
      </trkpt>
      <trkpt lat="31.19705778546631336212158203125" lon="121.4178874902427196502685546875">
        <ele>7.19999980926513671875</ele>
        <time>2024-12-01T07:00:11.000Z</time>
        <extensions>
          <ns3:TrackPointExtension/>
        </extensions>
      </trkpt>
      <trkpt lat="31.19705795310437679290771484375" lon="121.4178874902427196502685546875">
        <ele>7.19999980926513671875</ele>
        <time>2024-12-01T07:00:12.000Z</time>
        <extensions>
          <ns3:TrackPointExtension>
            <ns3:hr>98</ns3:hr>
          </ns3:TrackPointExtension>
        </extensions>
      </trkpt>
      <trkpt lat="31.19705803692340850830078125" lon="121.41788740642368793487548828125">
        <ele>7.19999980926513671875</ele>
        <time>2024-12-01T07:00:13.000Z</time>
        <extensions>
          <ns3:TrackPointExtension/>
        </extensions>
      </trkpt>
      <trkpt lat="31.19705812074244022369384765625" lon="121.41788723878562450408935546875">
        <ele>7.19999980926513671875</ele>
        <time>2024-12-01T07:00:14.000Z</time>
        <extensions>
          <ns3:TrackPointExtension/>
        </extensions>
      </trkpt>
      <trkpt lat="31.1970582045614719390869140625" lon="121.4178871549665927886962890625">
        <ele>7.19999980926513671875</ele>
        <time>2024-12-01T07:00:15.000Z</time>
        <extensions>
          <ns3:TrackPointExtension/>
        </extensions>
      </trkpt>
      <trkpt lat="31.19705828838050365447998046875" lon="121.41788707114756107330322265625">
        <ele>7.19999980926513671875</ele>
        <time>2024-12-01T07:00:16.000Z</time>
        <extensions>
          <ns3:TrackPointExtension/>
        </extensions>
      </trkpt>
      <trkpt lat="31.1970582045614719390869140625" lon="121.41788723878562450408935546875">
        <ele>7.19999980926513671875</ele>
        <time>2024-12-01T07:00:17.000Z</time>
        <extensions>
          <ns3:TrackPointExtension/>
        </extensions>
      </trkpt>
      <trkpt lat="31.19705812074244022369384765625" lon="121.41788774169981479644775390625">
        <ele>7.19999980926513671875</ele>
        <time>2024-12-01T07:00:18.000Z</time>
        <extensions>
          <ns3:TrackPointExtension>
            <ns3:hr>100</ns3:hr>
          </ns3:TrackPointExtension>
        </extensions>
      </trkpt>
      <trkpt lat="31.19705795310437679290771484375" lon="121.4178881607949733734130859375">
        <ele>7.19999980926513671875</ele>
        <time>2024-12-01T07:00:19.000Z</time>
        <extensions>
          <ns3:TrackPointExtension/>
        </extensions>
      </trkpt>
      <trkpt lat="31.1970578692853450775146484375" lon="121.41788841225206851959228515625">
        <ele>7.19999980926513671875</ele>
        <time>2024-12-01T07:00:20.000Z</time>
        <extensions>
          <ns3:TrackPointExtension/>
        </extensions>
      </trkpt>
      <trkpt lat="31.197057701647281646728515625" lon="121.41788857989013195037841796875">
        <ele>7.19999980926513671875</ele>
        <time>2024-12-01T07:00:21.000Z</time>
        <extensions>
          <ns3:TrackPointExtension/>
        </extensions>
      </trkpt>
      <trkpt lat="31.1970575340092182159423828125" lon="121.41788857989013195037841796875">
        <ele>7.19999980926513671875</ele>
        <time>2024-12-01T07:00:22.000Z</time>
        <extensions>
          <ns3:TrackPointExtension/>
        </extensions>
      </trkpt>
      <trkpt lat="31.19705736637115478515625" lon="121.4178884960711002349853515625">
        <ele>7.19999980926513671875</ele>
        <time>2024-12-01T07:00:23.000Z</time>
        <extensions>
          <ns3:TrackPointExtension/>
        </extensions>
      </trkpt>
      <trkpt lat="31.19705728255212306976318359375" lon="121.41788824461400508880615234375">
        <ele>7.19999980926513671875</ele>
        <time>2024-12-01T07:00:24.000Z</time>
        <extensions>
          <ns3:TrackPointExtension/>
        </extensions>
      </trkpt>
      <trkpt lat="31.19705711491405963897705078125" lon="121.41788790933787822723388671875">
        <ele>7.19999980926513671875</ele>
        <time>2024-12-01T07:00:25.000Z</time>
        <extensions>
          <ns3:TrackPointExtension>
            <ns3:hr>100</ns3:hr>
          </ns3:TrackPointExtension>
        </extensions>
      </trkpt>
      <trkpt lat="31.19705694727599620819091796875" lon="121.41788757406175136566162109375">
        <ele>7.19999980926513671875</ele>
        <time>2024-12-01T07:00:26.000Z</time>
        <extensions>
          <ns3:TrackPointExtension>
            <ns3:hr>99</ns3:hr>
          </ns3:TrackPointExtension>
        </extensions>
      </trkpt>
      <trkpt lat="31.19705694727599620819091796875" lon="121.4178871549665927886962890625">
        <ele>7.19999980926513671875</ele>
        <time>2024-12-01T07:00:27.000Z</time>
        <extensions>
          <ns3:TrackPointExtension/>
        </extensions>
      </trkpt>
      <trkpt lat="31.19705694727599620819091796875" lon="121.41788673587143421173095703125">
        <ele>7.19999980926513671875</ele>
        <time>2024-12-01T07:00:28.000Z</time>
        <extensions>
          <ns3:TrackPointExtension/>
        </extensions>
      </trkpt>
      <trkpt lat="31.19705711491405963897705078125" lon="121.41788640059530735015869140625">
        <ele>7.19999980926513671875</ele>
        <time>2024-12-01T07:00:29.000Z</time>
        <extensions>
          <ns3:TrackPointExtension/>
        </extensions>
      </trkpt>
      <trkpt lat="31.19705745019018650054931640625" lon="121.4178861491382122039794921875">
        <ele>7.19999980926513671875</ele>
        <time>2024-12-01T07:00:30.000Z</time>
        <extensions>
          <ns3:TrackPointExtension/>
        </extensions>
      </trkpt>
      <trkpt lat="31.1970582045614719390869140625" lon="121.41788589768111705780029296875">
        <ele>7.19999980926513671875</ele>
        <time>2024-12-01T07:00:31.000Z</time>
        <extensions>
          <ns3:TrackPointExtension/>
        </extensions>
      </trkpt>
      <trkpt lat="31.19705946184694766998291015625" lon="121.41788589768111705780029296875">
        <ele>7.19999980926513671875</ele>
        <time>2024-12-01T07:00:32.000Z</time>
        <extensions>
          <ns3:TrackPointExtension/>
        </extensions>
      </trkpt>
      <trkpt lat="31.1970613896846771240234375" lon="121.4178861491382122039794921875">
        <ele>7.19999980926513671875</ele>
        <time>2024-12-01T07:00:33.000Z</time>
        <extensions>
          <ns3:TrackPointExtension/>
        </extensions>
      </trkpt>
      <trkpt lat="31.19706482626497745513916015625" lon="121.4178868196904659271240234375">
        <ele>7.19999980926513671875</ele>
        <time>2024-12-01T07:00:34.000Z</time>
        <extensions>
          <ns3:TrackPointExtension/>
        </extensions>
      </trkpt>
      <trkpt lat="31.197070442140102386474609375" lon="121.41788832843303680419921875">
        <ele>7</ele>
        <time>2024-12-01T07:00:35.000Z</time>
        <extensions>
          <ns3:TrackPointExtension>
            <ns3:hr>102</ns3:hr>
          </ns3:TrackPointExtension>
        </extensions>
      </trkpt>
      <trkpt lat="31.19707857258617877960205078125" lon="121.41789025627076625823974609375">
        <ele>6.80000019073486328125</ele>
        <time>2024-12-01T07:00:36.000Z</time>
        <extensions>
          <ns3:TrackPointExtension>
            <ns3:hr>102</ns3:hr>
          </ns3:TrackPointExtension>
        </extensions>
      </trkpt>
      <trkpt lat="31.19708913378417491912841796875" lon="121.4178921841084957122802734375">
        <ele>6.80000019073486328125</ele>
        <time>2024-12-01T07:00:37.000Z</time>
        <extensions>
          <ns3:TrackPointExtension/>
        </extensions>
      </trkpt>
      <trkpt lat="31.19710220955312252044677734375" lon="121.41789369285106658935546875">
        <ele>6.599999904632568359375</ele>
        <time>2024-12-01T07:00:38.000Z</time>
        <extensions>
          <ns3:TrackPointExtension/>
        </extensions>
      </trkpt>
      <trkpt lat="31.1971177160739898681640625" lon="121.4178945310413837432861328125">
        <ele>6.19999980926513671875</ele>
        <time>2024-12-01T07:00:39.000Z</time>
        <extensions>
          <ns3:TrackPointExtension/>
        </extensions>
      </trkpt>
      <trkpt lat="31.1971353180706501007080078125" lon="121.4178941957652568817138671875">
        <ele>6</ele>
        <time>2024-12-01T07:00:40.000Z</time>
        <extensions>
          <ns3:TrackPointExtension/>
        </extensions>
      </trkpt>
      <trkpt lat="31.197154931724071502685546875" lon="121.41789226792752742767333984375">
        <ele>5.80000019073486328125</ele>
        <time>2024-12-01T07:00:41.000Z</time>
        <extensions>
          <ns3:TrackPointExtension/>
        </extensions>
      </trkpt>
      <trkpt lat="31.1971762217581272125244140625" lon="121.41788824461400508880615234375">
        <ele>5.599999904632568359375</ele>
        <time>2024-12-01T07:00:42.000Z</time>
        <extensions>
          <ns3:TrackPointExtension/>
        </extensions>
      </trkpt>
      <trkpt lat="31.19719910435378551483154296875" lon="121.41788170672953128814697265625">
        <ele>5.400000095367431640625</ele>
        <time>2024-12-01T07:00:43.000Z</time>
        <extensions>
          <ns3:TrackPointExtension/>
        </extensions>
      </trkpt>
      <trkpt lat="31.197223328053951263427734375" lon="121.41787248663604259490966796875">
        <ele>5.19999980926513671875</ele>
        <time>2024-12-01T07:00:44.000Z</time>
        <extensions>
          <ns3:TrackPointExtension>
            <ns3:hr>105</ns3:hr>
          </ns3:TrackPointExtension>
        </extensions>
      </trkpt>
      <trkpt lat="31.1972486414015293121337890625" lon="121.41786058433353900909423828125">
        <ele>5</ele>
        <time>2024-12-01T07:00:45.000Z</time>
        <extensions>
          <ns3:TrackPointExtension/>
        </extensions>
      </trkpt>
      <trkpt lat="31.19727454148232936859130859375" lon="121.41784608364105224609375">
        <ele>4.80000019073486328125</ele>
        <time>2024-12-01T07:00:46.000Z</time>
        <extensions>
          <ns3:TrackPointExtension/>
        </extensions>
      </trkpt>
      <trkpt lat="31.19730052538216114044189453125" lon="121.4178288169205188751220703125">
        <ele>4.400000095367431640625</ele>
        <time>2024-12-01T07:00:47.000Z</time>
        <extensions>
          <ns3:TrackPointExtension/>
        </extensions>
      </trkpt>
      <trkpt lat="31.1973257549107074737548828125" lon="121.41780853271484375">
        <ele>4.19999980926513671875</ele>
        <time>2024-12-01T07:00:48.000Z</time>
        <extensions>
          <ns3:TrackPointExtension/>
        </extensions>
      </trkpt>
      <trkpt lat="31.19734947569668292999267578125" lon="121.41778514720499515533447265625">
        <ele>3.7999999523162841796875</ele>
        <time>2024-12-01T07:00:49.000Z</time>
        <extensions>
          <ns3:TrackPointExtension/>
        </extensions>
      </trkpt>
      <trkpt lat="31.1973710171878337860107421875" lon="121.41775866039097309112548828125">
        <ele>3.599999904632568359375</ele>
        <time>2024-12-01T07:00:50.000Z</time>
        <extensions>
          <ns3:TrackPointExtension>
            <ns3:hr>109</ns3:hr>
          </ns3:TrackPointExtension>
        </extensions>
      </trkpt>
      <trkpt lat="31.1973901279270648956298828125" lon="121.4177294075489044189453125">
        <ele>3.400000095367431640625</ele>
        <time>2024-12-01T07:00:51.000Z</time>
        <extensions>
          <ns3:TrackPointExtension/>
        </extensions>
      </trkpt>
      <trkpt lat="31.1974065564572811126708984375" lon="121.41769814305007457733154296875">
        <ele>3.2000000476837158203125</ele>
        <time>2024-12-01T07:00:52.000Z</time>
        <extensions>
          <ns3:TrackPointExtension/>
        </extensions>
      </trkpt>
      <trkpt lat="31.197420470416545867919921875" lon="121.41766528598964214324951171875">
        <ele>3</ele>
        <time>2024-12-01T07:00:53.000Z</time>
        <extensions>
          <ns3:TrackPointExtension/>
        </extensions>
      </trkpt>
      <trkpt lat="31.1974320374429225921630859375" lon="121.41763125546276569366455078125">
        <ele>3</ele>
        <time>2024-12-01T07:00:54.000Z</time>
        <extensions>
          <ns3:TrackPointExtension/>
        </extensions>
      </trkpt>
      <trkpt lat="31.19744201190769672393798828125" lon="121.41759655438363552093505859375">
        <ele>3</ele>
        <time>2024-12-01T07:00:55.000Z</time>
        <extensions>
          <ns3:TrackPointExtension>
            <ns3:hr>109</ns3:hr>
          </ns3:TrackPointExtension>
        </extensions>
      </trkpt>
      <trkpt lat="31.19745089672505855560302734375" lon="121.417561434209346771240234375">
        <ele>3</ele>
        <time>2024-12-01T07:00:56.000Z</time>
        <extensions>
          <ns3:TrackPointExtension>
            <ns3:hr>109</ns3:hr>
          </ns3:TrackPointExtension>
        </extensions>
      </trkpt>
      <trkpt lat="31.1974595300853252410888671875" lon="121.41752623021602630615234375">
        <ele>3</ele>
        <time>2024-12-01T07:00:57.000Z</time>
        <extensions>
          <ns3:TrackPointExtension/>
        </extensions>
      </trkpt>
      <trkpt lat="31.1974682472646236419677734375" lon="121.41749136149883270263671875">
        <ele>3</ele>
        <time>2024-12-01T07:00:58.000Z</time>
        <extensions>
          <ns3:TrackPointExtension/>
        </extensions>
      </trkpt>
      <trkpt lat="31.1974776349961757659912109375" lon="121.4174569956958293914794921875">
        <ele>3</ele>
        <time>2024-12-01T07:00:59.000Z</time>
        <extensions>
          <ns3:TrackPointExtension/>
        </extensions>
      </trkpt>
      <trkpt lat="31.1974878609180450439453125" lon="121.41742355190217494964599609375">
        <ele>3.2000000476837158203125</ele>
        <time>2024-12-01T07:01:00.000Z</time>
        <extensions>
          <ns3:TrackPointExtension/>
        </extensions>
      </trkpt>
      <trkpt lat="31.19749951176345348358154296875" lon="121.4173912815749645233154296875">
        <ele>3.400000095367431640625</ele>
        <time>2024-12-01T07:01:01.000Z</time>
        <extensions>
          <ns3:TrackPointExtension/>
        </extensions>
      </trkpt>
      <trkpt lat="31.19751267135143280029296875" lon="121.417360603809356689453125">
        <ele>3.400000095367431640625</ele>
        <time>2024-12-01T07:01:02.000Z</time>
        <extensions>
          <ns3:TrackPointExtension>
            <ns3:hr>108</ns3:hr>
          </ns3:TrackPointExtension>
        </extensions>
      </trkpt>
      <trkpt lat="31.197527758777141571044921875" lon="121.417332105338573455810546875">
        <ele>3.599999904632568359375</ele>
        <time>2024-12-01T07:01:03.000Z</time>
        <extensions>
          <ns3:TrackPointExtension/>
        </extensions>
      </trkpt>
      <trkpt lat="31.1975450254976749420166015625" lon="121.41730704344809055328369140625">
        <ele>3.400000095367431640625</ele>
        <time>2024-12-01T07:01:04.000Z</time>
        <extensions>
          <ns3:TrackPointExtension/>
        </extensions>
      </trkpt>
      <trkpt lat="31.1975641362369060516357421875" lon="121.41728617250919342041015625">
        <ele>3.2000000476837158203125</ele>
        <time>2024-12-01T07:01:05.000Z</time>
        <extensions>
          <ns3:TrackPointExtension/>
        </extensions>
      </trkpt>
      <trkpt lat="31.1975849233567714691162109375" lon="121.41726999543607234954833984375">
        <ele>3</ele>
        <time>2024-12-01T07:01:06.000Z</time>
        <extensions>
          <ns3:TrackPointExtension/>
        </extensions>
      </trkpt>
      <trkpt lat="31.19760680012404918670654296875" lon="121.41725876368582248687744140625">
        <ele>2.7999999523162841796875</ele>
        <time>2024-12-01T07:01:07.000Z</time>
        <extensions>
          <ns3:TrackPointExtension>
            <ns3:hr>107</ns3:hr>
          </ns3:TrackPointExtension>
        </extensions>
      </trkpt>
      <trkpt lat="31.19762934744358062744140625" lon="121.41725222580134868621826171875">
        <ele>2.599999904632568359375</ele>
        <time>2024-12-01T07:01:08.000Z</time>
        <extensions>
          <ns3:TrackPointExtension/>
        </extensions>
      </trkpt>
      <trkpt lat="31.19765189476311206817626953125" lon="121.41724954359233379364013671875">
        <ele>2.400000095367431640625</ele>
        <time>2024-12-01T07:01:09.000Z</time>
        <extensions>
          <ns3:TrackPointExtension/>
        </extensions>
      </trkpt>
      <trkpt lat="31.19767385534942150115966796875" lon="121.41724837012588977813720703125">
        <ele>2.400000095367431640625</ele>
        <time>2024-12-01T07:01:10.000Z</time>
        <extensions>
          <ns3:TrackPointExtension/>
        </extensions>
      </trkpt>
      <trkpt lat="31.19769531302154064178466796875" lon="121.41724619083106517791748046875">
        <ele>2.2000000476837158203125</ele>
        <time>2024-12-01T07:01:11.000Z</time>
        <extensions>
          <ns3:TrackPointExtension/>
        </extensions>
      </trkpt>
      <trkpt lat="31.197717189788818359375" lon="121.41724233515560626983642578125">
        <ele>2</ele>
        <time>2024-12-01T07:01:12.000Z</time>
        <extensions>
          <ns3:TrackPointExtension/>
        </extensions>
      </trkpt>
      <trkpt lat="31.197739653289318084716796875" lon="121.41723680309951305389404296875">
        <ele>2</ele>
        <time>2024-12-01T07:01:13.000Z</time>
        <extensions>
          <ns3:TrackPointExtension/>
        </extensions>
      </trkpt>
      <trkpt lat="31.197762787342071533203125" lon="121.41722992993891239166259765625">
        <ele>2</ele>
        <time>2024-12-01T07:01:14.000Z</time>
        <extensions>
          <ns3:TrackPointExtension>
            <ns3:hr>107</ns3:hr>
          </ns3:TrackPointExtension>
        </extensions>
      </trkpt>
      <trkpt lat="31.19778634048998355865478515625" lon="121.417222134768962860107421875">
        <ele>2</ele>
        <time>2024-12-01T07:01:15.000Z</time>
        <extensions>
          <ns3:TrackPointExtension/>
        </extensions>
      </trkpt>
      <trkpt lat="31.19780997745692729949951171875" lon="121.4172139205038547515869140625">
        <ele>2</ele>
        <time>2024-12-01T07:01:16.000Z</time>
        <extensions>
          <ns3:TrackPointExtension/>
        </extensions>
      </trkpt>
      <trkpt lat="31.1978330276906490325927734375" lon="121.41720562241971492767333984375">
        <ele>2</ele>
        <time>2024-12-01T07:01:17.000Z</time>
        <extensions>
          <ns3:TrackPointExtension/>
        </extensions>
      </trkpt>
      <trkpt lat="31.19785507209599018096923828125" lon="121.41719740815460681915283203125">
        <ele>2</ele>
        <time>2024-12-01T07:01:18.000Z</time>
        <extensions>
          <ns3:TrackPointExtension/>
        </extensions>
      </trkpt>
      <trkpt lat="31.1978756077587604522705078125" lon="121.41718969680368900299072265625">
        <ele>2</ele>
        <time>2024-12-01T07:01:19.000Z</time>
        <extensions>
          <ns3:TrackPointExtension/>
        </extensions>
      </trkpt>
      <trkpt lat="31.197894550859928131103515625" lon="121.41718248836696147918701171875">
        <ele>2</ele>
        <time>2024-12-01T07:01:20.000Z</time>
        <extensions>
          <ns3:TrackPointExtension>
            <ns3:hr>107</ns3:hr>
          </ns3:TrackPointExtension>
        </extensions>
      </trkpt>
      <trkpt lat="31.197911985218524932861328125" lon="121.41717595048248767852783203125">
        <ele>2</ele>
        <time>2024-12-01T07:01:21.000Z</time>
        <extensions>
          <ns3:TrackPointExtension/>
        </extensions>
      </trkpt>
      <trkpt lat="31.19792765937745571136474609375" lon="121.41716991551220417022705078125">
        <ele>2.2000000476837158203125</ele>
        <time>2024-12-01T07:01:22.000Z</time>
        <extensions>
          <ns3:TrackPointExtension>
            <ns3:hr>107</ns3:hr>
          </ns3:TrackPointExtension>
        </extensions>
      </trkpt>
      <trkpt lat="31.19794123806059360504150390625" lon="121.41716471873223781585693359375">
        <ele>2.2000000476837158203125</ele>
        <time>2024-12-01T07:01:23.000Z</time>
        <extensions>
          <ns3:TrackPointExtension/>
        </extensions>
      </trkpt>
      <trkpt lat="31.1979520507156848907470703125" lon="121.417160443961620330810546875">
        <ele>2.400000095367431640625</ele>
        <time>2024-12-01T07:01:24.000Z</time>
        <extensions>
          <ns3:TrackPointExtension/>
        </extensions>
      </trkpt>
      <trkpt lat="31.1979599297046661376953125" lon="121.4171572588384151458740234375">
        <ele>2.400000095367431640625</ele>
        <time>2024-12-01T07:01:25.000Z</time>
        <extensions>
          <ns3:TrackPointExtension/>
        </extensions>
      </trkpt>
      <trkpt lat="31.19796554557979106903076171875" lon="121.41715466044843196868896484375">
        <ele>2.599999904632568359375</ele>
        <time>2024-12-01T07:01:26.000Z</time>
        <extensions>
          <ns3:TrackPointExtension/>
        </extensions>
      </trkpt>
      <trkpt lat="31.19797023944556713104248046875" lon="121.41715214587748050689697265625">
        <ele>2.599999904632568359375</ele>
        <time>2024-12-01T07:01:27.000Z</time>
        <extensions>
          <ns3:TrackPointExtension/>
        </extensions>
      </trkpt>
      <trkpt lat="31.197974681854248046875" lon="121.4171495474874973297119140625">
        <ele>2.7999999523162841796875</ele>
        <time>2024-12-01T07:01:28.000Z</time>
        <extensions>
          <ns3:TrackPointExtension/>
        </extensions>
      </trkpt>
      <trkpt lat="31.19797912426292896270751953125" lon="121.41714661382138729095458984375">
        <ele>2.7999999523162841796875</ele>
        <time>2024-12-01T07:01:29.000Z</time>
        <extensions>
          <ns3:TrackPointExtension>
            <ns3:hr>104</ns3:hr>
          </ns3:TrackPointExtension>
        </extensions>
      </trkpt>
      <trkpt lat="31.19798348285257816314697265625" lon="121.41714359633624553680419921875">
        <ele>3</ele>
        <time>2024-12-01T07:01:30.000Z</time>
        <extensions>
          <ns3:TrackPointExtension/>
        </extensions>
      </trkpt>
      <trkpt lat="31.19798700325191020965576171875" lon="121.4171408303081989288330078125">
        <ele>3</ele>
        <time>2024-12-01T07:01:31.000Z</time>
        <extensions>
          <ns3:TrackPointExtension>
            <ns3:hr>104</ns3:hr>
          </ns3:TrackPointExtension>
        </extensions>
      </trkpt>
      <trkpt lat="31.19798935018479824066162109375" lon="121.41713865101337432861328125">
        <ele>3</ele>
        <time>2024-12-01T07:01:32.000Z</time>
        <extensions>
          <ns3:TrackPointExtension/>
        </extensions>
      </trkpt>
      <trkpt lat="31.19799085892736911773681640625" lon="121.4171371422708034515380859375">
        <ele>3.2000000476837158203125</ele>
        <time>2024-12-01T07:01:33.000Z</time>
        <extensions>
          <ns3:TrackPointExtension/>
        </extensions>
      </trkpt>
      <trkpt lat="31.19799152947962284088134765625" lon="121.4171361364424228668212890625">
        <ele>3.2000000476837158203125</ele>
        <time>2024-12-01T07:01:34.000Z</time>
        <extensions>
          <ns3:TrackPointExtension/>
        </extensions>
      </trkpt>
      <trkpt lat="31.1979916132986545562744140625" lon="121.41713571734726428985595703125">
        <ele>3.2000000476837158203125</ele>
        <time>2024-12-01T07:01:35.000Z</time>
        <extensions>
          <ns3:TrackPointExtension/>
        </extensions>
      </trkpt>
      <trkpt lat="31.19799144566059112548828125" lon="121.41713554970920085906982421875">
        <ele>3.2000000476837158203125</ele>
        <time>2024-12-01T07:01:36.000Z</time>
        <extensions>
          <ns3:TrackPointExtension/>
        </extensions>
      </trkpt>
      <trkpt lat="31.19799102656543254852294921875" lon="121.417135633528232574462890625">
        <ele>3.2000000476837158203125</ele>
        <time>2024-12-01T07:01:37.000Z</time>
        <extensions>
          <ns3:TrackPointExtension/>
        </extensions>
      </trkpt>
      <trkpt lat="31.19799052365124225616455078125" lon="121.41713588498532772064208984375">
        <ele>3.2000000476837158203125</ele>
        <time>2024-12-01T07:01:38.000Z</time>
        <extensions>
          <ns3:TrackPointExtension/>
        </extensions>
      </trkpt>
      <trkpt lat="31.1979899369180202484130859375" lon="121.41713622026145458221435546875">
        <ele>3.2000000476837158203125</ele>
        <time>2024-12-01T07:01:39.000Z</time>
        <extensions>
          <ns3:TrackPointExtension/>
        </extensions>
      </trkpt>
      <trkpt lat="31.1979894340038299560546875" lon="121.41713655553758144378662109375">
        <ele>3</ele>
        <time>2024-12-01T07:01:40.000Z</time>
        <extensions>
          <ns3:TrackPointExtension/>
        </extensions>
      </trkpt>
      <trkpt lat="31.19798884727060794830322265625" lon="121.41713705845177173614501953125">
        <ele>3</ele>
        <time>2024-12-01T07:01:41.000Z</time>
        <extensions>
          <ns3:TrackPointExtension/>
        </extensions>
      </trkpt>
      <trkpt lat="31.1979882605373859405517578125" lon="121.41713756136596202850341796875">
        <ele>3</ele>
        <time>2024-12-01T07:01:42.000Z</time>
        <extensions>
          <ns3:TrackPointExtension/>
        </extensions>
      </trkpt>
      <trkpt lat="31.19798767380416393280029296875" lon="121.4171381480991840362548828125">
        <ele>3</ele>
        <time>2024-12-01T07:01:43.000Z</time>
        <extensions>
          <ns3:TrackPointExtension/>
        </extensions>
      </trkpt>
      <trkpt lat="31.19798717088997364044189453125" lon="121.41713873483240604400634765625">
        <ele>3</ele>
        <time>2024-12-01T07:01:44.000Z</time>
        <extensions>
          <ns3:TrackPointExtension/>
        </extensions>
      </trkpt>
      <trkpt lat="31.1979867517948150634765625" lon="121.4171393215656280517578125">
        <ele>3</ele>
        <time>2024-12-01T07:01:45.000Z</time>
        <extensions>
          <ns3:TrackPointExtension/>
        </extensions>
      </trkpt>
      <trkpt lat="31.19798650033771991729736328125" lon="121.41713990829885005950927734375">
        <ele>3</ele>
        <time>2024-12-01T07:01:46.000Z</time>
        <extensions>
          <ns3:TrackPointExtension/>
        </extensions>
      </trkpt>
      <trkpt lat="31.19798650033771991729736328125" lon="121.41714041121304035186767578125">
        <ele>3</ele>
        <time>2024-12-01T07:01:47.000Z</time>
        <extensions>
          <ns3:TrackPointExtension/>
        </extensions>
      </trkpt>
      <trkpt lat="31.1979867517948150634765625" lon="121.41714091412723064422607421875">
        <ele>3</ele>
        <time>2024-12-01T07:01:48.000Z</time>
        <extensions>
          <ns3:TrackPointExtension/>
        </extensions>
      </trkpt>
      <trkpt lat="31.19798717088997364044189453125" lon="121.41714141704142093658447265625">
        <ele>3</ele>
        <time>2024-12-01T07:01:49.000Z</time>
        <extensions>
          <ns3:TrackPointExtension/>
        </extensions>
      </trkpt>
      <trkpt lat="31.197987757623195648193359375" lon="121.41714191995561122894287109375">
        <ele>3</ele>
        <time>2024-12-01T07:01:50.000Z</time>
        <extensions>
          <ns3:TrackPointExtension/>
        </extensions>
      </trkpt>
      <trkpt lat="31.19798851199448108673095703125" lon="121.417142339050769805908203125">
        <ele>3</ele>
        <time>2024-12-01T07:01:51.000Z</time>
        <extensions>
          <ns3:TrackPointExtension/>
        </extensions>
      </trkpt>
      <trkpt lat="31.1979896016418933868408203125" lon="121.41714275814592838287353515625">
        <ele>3</ele>
        <time>2024-12-01T07:01:52.000Z</time>
        <extensions>
          <ns3:TrackPointExtension/>
        </extensions>
      </trkpt>
      <trkpt lat="31.197991110384464263916015625" lon="121.41714309342205524444580078125">
        <ele>3</ele>
        <time>2024-12-01T07:01:53.000Z</time>
        <extensions>
          <ns3:TrackPointExtension/>
        </extensions>
      </trkpt>
      <trkpt lat="31.19799303822219371795654296875" lon="121.41714342869818210601806640625">
        <ele>3</ele>
        <time>2024-12-01T07:01:54.000Z</time>
        <extensions>
          <ns3:TrackPointExtension/>
        </extensions>
      </trkpt>
      <trkpt lat="31.19799555279314517974853515625" lon="121.417143680155277252197265625">
        <ele>3</ele>
        <time>2024-12-01T07:01:55.000Z</time>
        <extensions>
          <ns3:TrackPointExtension/>
        </extensions>
      </trkpt>
      <trkpt lat="31.1979986540973186492919921875" lon="121.41714393161237239837646484375">
        <ele>3</ele>
        <time>2024-12-01T07:01:56.000Z</time>
        <extensions>
          <ns3:TrackPointExtension/>
        </extensions>
      </trkpt>
      <trkpt lat="31.19800242595374584197998046875" lon="121.4171441830694675445556640625">
        <ele>3.2000000476837158203125</ele>
        <time>2024-12-01T07:01:57.000Z</time>
        <extensions>
          <ns3:TrackPointExtension/>
        </extensions>
      </trkpt>
      <trkpt lat="31.1980068683624267578125" lon="121.41714460216462612152099609375">
        <ele>3.2000000476837158203125</ele>
        <time>2024-12-01T07:01:58.000Z</time>
        <extensions>
          <ns3:TrackPointExtension/>
        </extensions>
      </trkpt>
      <trkpt lat="31.198011897504329681396484375" lon="121.4171451888978481292724609375">
        <ele>3.2000000476837158203125</ele>
        <time>2024-12-01T07:01:59.000Z</time>
        <extensions>
          <ns3:TrackPointExtension/>
        </extensions>
      </trkpt>
      <trkpt lat="31.19801751337945461273193359375" lon="121.4171461947262287139892578125">
        <ele>3.2000000476837158203125</ele>
        <time>2024-12-01T07:02:00.000Z</time>
        <extensions>
          <ns3:TrackPointExtension/>
        </extensions>
      </trkpt>
      <trkpt lat="31.1980237998068332672119140625" lon="121.4171478711068630218505859375">
        <ele>3.400000095367431640625</ele>
        <time>2024-12-01T07:02:01.000Z</time>
        <extensions>
          <ns3:TrackPointExtension/>
        </extensions>
      </trkpt>
      <trkpt lat="31.1980305053293704986572265625" lon="121.41715063713490962982177734375">
        <ele>3.400000095367431640625</ele>
        <time>2024-12-01T07:02:02.000Z</time>
        <extensions>
          <ns3:TrackPointExtension/>
        </extensions>
      </trkpt>
      <trkpt lat="31.19803729467093944549560546875" lon="121.4171545766294002532958984375">
        <ele>3.400000095367431640625</ele>
        <time>2024-12-01T07:02:03.000Z</time>
        <extensions>
          <ns3:TrackPointExtension/>
        </extensions>
      </trkpt>
      <trkpt lat="31.19804366491734981536865234375" lon="121.41715952195227146148681640625">
        <ele>3.400000095367431640625</ele>
        <time>2024-12-01T07:02:04.000Z</time>
        <extensions>
          <ns3:TrackPointExtension/>
        </extensions>
      </trkpt>
      <trkpt lat="31.1980496160686016082763671875" lon="121.4171653054654598236083984375">
        <ele>3.400000095367431640625</ele>
        <time>2024-12-01T07:02:05.000Z</time>
        <extensions>
          <ns3:TrackPointExtension/>
        </extensions>
      </trkpt>
      <trkpt lat="31.19805523194372653961181640625" lon="121.41717142425477504730224609375">
        <ele>3.400000095367431640625</ele>
        <time>2024-12-01T07:02:06.000Z</time>
        <extensions>
          <ns3:TrackPointExtension/>
        </extensions>
      </trkpt>
      <trkpt lat="31.198060512542724609375" lon="121.4171777106821537017822265625">
        <ele>3.2000000476837158203125</ele>
        <time>2024-12-01T07:02:07.000Z</time>
        <extensions>
          <ns3:TrackPointExtension/>
        </extensions>
      </trkpt>
      <trkpt lat="31.19806562550365924835205078125" lon="121.41718382947146892547607421875">
        <ele>3.2000000476837158203125</ele>
        <time>2024-12-01T07:02:08.000Z</time>
        <extensions>
          <ns3:TrackPointExtension/>
        </extensions>
      </trkpt>
      <trkpt lat="31.19807065464556217193603515625" lon="121.41718961298465728759765625">
        <ele>3.2000000476837158203125</ele>
        <time>2024-12-01T07:02:09.000Z</time>
        <extensions>
          <ns3:TrackPointExtension/>
        </extensions>
      </trkpt>
      <trkpt lat="31.19807551614940166473388671875" lon="121.41719506122171878814697265625">
        <ele>3.2000000476837158203125</ele>
        <time>2024-12-01T07:02:10.000Z</time>
        <extensions>
          <ns3:TrackPointExtension/>
        </extensions>
      </trkpt>
      <trkpt lat="31.19807995855808258056640625" lon="121.4172001741826534271240234375">
        <ele>3.2000000476837158203125</ele>
        <time>2024-12-01T07:02:11.000Z</time>
        <extensions>
          <ns3:TrackPointExtension/>
        </extensions>
      </trkpt>
      <trkpt lat="31.19808389805257320404052734375" lon="121.41720511950552463531494140625">
        <ele>3.2000000476837158203125</ele>
        <time>2024-12-01T07:02:12.000Z</time>
        <extensions>
          <ns3:TrackPointExtension/>
        </extensions>
      </trkpt>
      <trkpt lat="31.19808725081384181976318359375" lon="121.41720931045711040496826171875">
        <ele>3.2000000476837158203125</ele>
        <time>2024-12-01T07:02:13.000Z</time>
        <extensions>
          <ns3:TrackPointExtension/>
        </extensions>
      </trkpt>
      <trkpt lat="31.198089681565761566162109375" lon="121.41721148975193500518798828125">
        <ele>3.2000000476837158203125</ele>
        <time>2024-12-01T07:02:14.000Z</time>
        <extensions>
          <ns3:TrackPointExtension/>
        </extensions>
      </trkpt>
      <trkpt lat="31.1980915255844593048095703125" lon="121.41721132211387157440185546875">
        <ele>3.2000000476837158203125</ele>
        <time>2024-12-01T07:02:15.000Z</time>
        <extensions>
          <ns3:TrackPointExtension/>
        </extensions>
      </trkpt>
      <trkpt lat="31.1980928666889667510986328125" lon="121.4172095619142055511474609375">
        <ele>3.2000000476837158203125</ele>
        <time>2024-12-01T07:02:16.000Z</time>
        <extensions>
          <ns3:TrackPointExtension/>
        </extensions>
      </trkpt>
      <trkpt lat="31.1980938725173473358154296875" lon="121.4172072149813175201416015625">
        <ele>3.2000000476837158203125</ele>
        <time>2024-12-01T07:02:17.000Z</time>
        <extensions>
          <ns3:TrackPointExtension/>
        </extensions>
      </trkpt>
      <trkpt lat="31.19809462688863277435302734375" lon="121.4172048680484294891357421875">
        <ele>3.2000000476837158203125</ele>
        <time>2024-12-01T07:02:18.000Z</time>
        <extensions>
          <ns3:TrackPointExtension/>
        </extensions>
      </trkpt>
      <trkpt lat="31.1980952136218547821044921875" lon="121.417202688753604888916015625">
        <ele>3.400000095367431640625</ele>
        <time>2024-12-01T07:02:19.000Z</time>
        <extensions>
          <ns3:TrackPointExtension/>
        </extensions>
      </trkpt>
      <trkpt lat="31.198095716536045074462890625" lon="121.417200677096843719482421875">
        <ele>3.400000095367431640625</ele>
        <time>2024-12-01T07:02:20.000Z</time>
        <extensions>
          <ns3:TrackPointExtension/>
        </extensions>
      </trkpt>
    </trkseg>
  </trk>
</gpx>
