<gpx xmlns:ns3="http://www.garmin.com/xmlschemas/TrackPointExtension/v1" xmlns="http://www.topografix.com/GPX/1/1" xmlns:xsi="http://www.w3.org/2001/XMLSchema-instance" xmlns:ns2="http://www.garmin.com/xmlschemas/GpxExtensions/v3" creator="Garmin Connect" version="1.1" xsi:schemaLocation="http://www.topografix.com/GPX/1/1 http://www.topografix.com/GPX/11.xsd">
  <extensions>
<distance>1048.61</distance>
<average_hr>118.0</average_hr>
<average_speed>0.5513863267284153</average_speed>
<start_time>2024-12-24T11:23:03+00:00</start_time>
<end_time>2024-12-24T11:54:44.770000+00:00</end_time>
<moving_time>142.0</moving_time>
<elapsed_time>2852.901</elapsed_time>
</extensions>
<metadata>
    <link href="connect.garmin.com">
      <text>Garmin Connect</text>
    </link>
    <time>2024-12-24T11:23:03.000Z</time>
  </metadata>
  <trk>
    <name>游泳</name>
    <type>swimming</type>
    <trkseg/>
  </trk>
</gpx>
