<gpx xmlns:ns3="http://www.garmin.com/xmlschemas/TrackPointExtension/v1" xmlns="http://www.topografix.com/GPX/1/1" xmlns:xsi="http://www.w3.org/2001/XMLSchema-instance" xmlns:ns2="http://www.garmin.com/xmlschemas/GpxExtensions/v3" creator="Garmin Connect" version="1.1" xsi:schemaLocation="http://www.topografix.com/GPX/1/1 http://www.topografix.com/GPX/11.xsd">
  <extensions>
<distance>303.83</distance>
<average_hr>115.0</average_hr>
<average_speed>2.3919999599456787</average_speed>
<start_time>2020-11-13T09:13:58+00:00</start_time>
<end_time>2020-11-13T09:16:05+00:00</end_time>
<moving_time>123.0</moving_time>
<elapsed_time>127.0</elapsed_time>
</extensions>
<metadata>
    <link href="connect.garmin.com">
      <text>Garmin Connect</text>
    </link>
    <time>2020-11-13T09:13:58.000Z</time>
  </metadata>
  <trk>
    <name>常州市 跑步</name>
    <type>running</type>
    <trkseg>
      <trkpt lat="31.4094177447259426116943359375" lon="119.48731935583055019378662109375">
        <ele>7.400000095367431640625</ele>
        <time>2020-11-13T09:14:01.000Z</time>
        <extensions>
          <ns3:TrackPointExtension>
            <ns3:hr>94</ns3:hr>
          </ns3:TrackPointExtension>
        </extensions>
      </trkpt>
      <trkpt lat="31.4094066806137561798095703125" lon="119.4873108901083469390869140625">
        <ele>7.400000095367431640625</ele>
        <time>2020-11-13T09:14:02.000Z</time>
        <extensions>
          <ns3:TrackPointExtension>
            <ns3:hr>91</ns3:hr>
          </ns3:TrackPointExtension>
        </extensions>
      </trkpt>
      <trkpt lat="31.40939368866384029388427734375" lon="119.48730535805225372314453125">
        <ele>7.400000095367431640625</ele>
        <time>2020-11-13T09:14:03.000Z</time>
        <extensions>
          <ns3:TrackPointExtension>
            <ns3:hr>91</ns3:hr>
          </ns3:TrackPointExtension>
        </extensions>
      </trkpt>
      <trkpt lat="31.409380696713924407958984375" lon="119.4872998259961605072021484375">
        <ele>7.19999980926513671875</ele>
        <time>2020-11-13T09:14:04.000Z</time>
        <extensions>
          <ns3:TrackPointExtension>
            <ns3:hr>92</ns3:hr>
          </ns3:TrackPointExtension>
        </extensions>
      </trkpt>
      <trkpt lat="31.40936619602143764495849609375" lon="119.48729638941586017608642578125">
        <ele>7.19999980926513671875</ele>
        <time>2020-11-13T09:14:05.000Z</time>
        <extensions>
          <ns3:TrackPointExtension>
            <ns3:hr>92</ns3:hr>
          </ns3:TrackPointExtension>
        </extensions>
      </trkpt>
      <trkpt lat="31.4093516953289508819580078125" lon="119.48729286901652812957763671875">
        <ele>7.19999980926513671875</ele>
        <time>2020-11-13T09:14:06.000Z</time>
        <extensions>
          <ns3:TrackPointExtension>
            <ns3:hr>92</ns3:hr>
          </ns3:TrackPointExtension>
        </extensions>
      </trkpt>
      <trkpt lat="31.40933568589389324188232421875" lon="119.48729186318814754486083984375">
        <ele>7.19999980926513671875</ele>
        <time>2020-11-13T09:14:07.000Z</time>
        <extensions>
          <ns3:TrackPointExtension>
            <ns3:hr>92</ns3:hr>
            <ns3:cad>97</ns3:cad>
          </ns3:TrackPointExtension>
        </extensions>
      </trkpt>
      <trkpt lat="31.40931976027786731719970703125" lon="119.48729085735976696014404296875">
        <ele>7.19999980926513671875</ele>
        <time>2020-11-13T09:14:08.000Z</time>
        <extensions>
          <ns3:TrackPointExtension>
            <ns3:hr>92</ns3:hr>
            <ns3:cad>96</ns3:cad>
          </ns3:TrackPointExtension>
        </extensions>
      </trkpt>
      <trkpt lat="31.409302242100238800048828125" lon="119.48729488067328929901123046875">
        <ele>7.19999980926513671875</ele>
        <time>2020-11-13T09:14:09.000Z</time>
        <extensions>
          <ns3:TrackPointExtension>
            <ns3:hr>94</ns3:hr>
            <ns3:cad>95</ns3:cad>
          </ns3:TrackPointExtension>
        </extensions>
      </trkpt>
      <trkpt lat="31.40928472392261028289794921875" lon="119.4872988201677799224853515625">
        <ele>7.19999980926513671875</ele>
        <time>2020-11-13T09:14:10.000Z</time>
        <extensions>
          <ns3:TrackPointExtension>
            <ns3:hr>96</ns3:hr>
            <ns3:cad>94</ns3:cad>
          </ns3:TrackPointExtension>
        </extensions>
      </trkpt>
      <trkpt lat="31.40926770865917205810546875" lon="119.4873078726232051849365234375">
        <ele>7.400000095367431640625</ele>
        <time>2020-11-13T09:14:11.000Z</time>
        <extensions>
          <ns3:TrackPointExtension>
            <ns3:hr>97</ns3:hr>
            <ns3:cad>93</ns3:cad>
          </ns3:TrackPointExtension>
        </extensions>
      </trkpt>
      <trkpt lat="31.40925069339573383331298828125" lon="119.48731684125959873199462890625">
        <ele>7.400000095367431640625</ele>
        <time>2020-11-13T09:14:12.000Z</time>
        <extensions>
          <ns3:TrackPointExtension>
            <ns3:hr>97</ns3:hr>
            <ns3:cad>92</ns3:cad>
          </ns3:TrackPointExtension>
        </extensions>
      </trkpt>
      <trkpt lat="31.4092361927032470703125" lon="119.48732681572437286376953125">
        <ele>7.400000095367431640625</ele>
        <time>2020-11-13T09:14:13.000Z</time>
        <extensions>
          <ns3:TrackPointExtension>
            <ns3:hr>98</ns3:hr>
            <ns3:cad>92</ns3:cad>
          </ns3:TrackPointExtension>
        </extensions>
      </trkpt>
      <trkpt lat="31.40922169201076030731201171875" lon="119.4873368740081787109375">
        <ele>7.400000095367431640625</ele>
        <time>2020-11-13T09:14:14.000Z</time>
        <extensions>
          <ns3:TrackPointExtension>
            <ns3:hr>99</ns3:hr>
            <ns3:cad>92</ns3:cad>
          </ns3:TrackPointExtension>
        </extensions>
      </trkpt>
      <trkpt lat="31.4092132262885570526123046875" lon="119.48735439218580722808837890625">
        <ele>7.400000095367431640625</ele>
        <time>2020-11-13T09:14:15.000Z</time>
        <extensions>
          <ns3:TrackPointExtension>
            <ns3:hr>99</ns3:hr>
            <ns3:cad>92</ns3:cad>
          </ns3:TrackPointExtension>
        </extensions>
      </trkpt>
      <trkpt lat="31.40920467674732208251953125" lon="119.48737182654440402984619140625">
        <ele>7.599999904632568359375</ele>
        <time>2020-11-13T09:14:16.000Z</time>
        <extensions>
          <ns3:TrackPointExtension>
            <ns3:hr>102</ns3:hr>
            <ns3:cad>92</ns3:cad>
          </ns3:TrackPointExtension>
        </extensions>
      </trkpt>
      <trkpt lat="31.40919922851026058197021484375" lon="119.48740082792937755584716796875">
        <ele>7.599999904632568359375</ele>
        <time>2020-11-13T09:14:17.000Z</time>
        <extensions>
          <ns3:TrackPointExtension>
            <ns3:hr>103</ns3:hr>
            <ns3:cad>92</ns3:cad>
          </ns3:TrackPointExtension>
        </extensions>
      </trkpt>
      <trkpt lat="31.40919369645416736602783203125" lon="119.48742982931435108184814453125">
        <ele>7.80000019073486328125</ele>
        <time>2020-11-13T09:14:18.000Z</time>
        <extensions>
          <ns3:TrackPointExtension>
            <ns3:hr>103</ns3:hr>
            <ns3:cad>92</ns3:cad>
          </ns3:TrackPointExtension>
        </extensions>
      </trkpt>
      <trkpt lat="31.4091887511312961578369140625" lon="119.48746084235608577728271484375">
        <ele>7.80000019073486328125</ele>
        <time>2020-11-13T09:14:19.000Z</time>
        <extensions>
          <ns3:TrackPointExtension>
            <ns3:hr>103</ns3:hr>
            <ns3:cad>93</ns3:cad>
          </ns3:TrackPointExtension>
        </extensions>
      </trkpt>
      <trkpt lat="31.4091837219893932342529296875" lon="119.48749185539782047271728515625">
        <ele>8</ele>
        <time>2020-11-13T09:14:20.000Z</time>
        <extensions>
          <ns3:TrackPointExtension>
            <ns3:hr>104</ns3:hr>
            <ns3:cad>93</ns3:cad>
          </ns3:TrackPointExtension>
        </extensions>
      </trkpt>
      <trkpt lat="31.409180201590061187744140625" lon="119.48752236552536487579345703125">
        <ele>8</ele>
        <time>2020-11-13T09:14:21.000Z</time>
        <extensions>
          <ns3:TrackPointExtension>
            <ns3:hr>105</ns3:hr>
            <ns3:cad>93</ns3:cad>
          </ns3:TrackPointExtension>
        </extensions>
      </trkpt>
      <trkpt lat="31.4091766811907291412353515625" lon="119.48755287565290927886962890625">
        <ele>8.19999980926513671875</ele>
        <time>2020-11-13T09:14:22.000Z</time>
        <extensions>
          <ns3:TrackPointExtension>
            <ns3:hr>106</ns3:hr>
            <ns3:cad>93</ns3:cad>
          </ns3:TrackPointExtension>
        </extensions>
      </trkpt>
      <trkpt lat="31.40917274169623851776123046875" lon="119.48758288286626338958740234375">
        <ele>8.3999996185302734375</ele>
        <time>2020-11-13T09:14:23.000Z</time>
        <extensions>
          <ns3:TrackPointExtension>
            <ns3:hr>106</ns3:hr>
            <ns3:cad>93</ns3:cad>
          </ns3:TrackPointExtension>
        </extensions>
      </trkpt>
      <trkpt lat="31.40916871838271617889404296875" lon="119.48761289007961750030517578125">
        <ele>8.3999996185302734375</ele>
        <time>2020-11-13T09:14:24.000Z</time>
        <extensions>
          <ns3:TrackPointExtension>
            <ns3:hr>106</ns3:hr>
            <ns3:cad>93</ns3:cad>
          </ns3:TrackPointExtension>
        </extensions>
      </trkpt>
      <trkpt lat="31.40916368924081325531005859375" lon="119.48764138855040073394775390625">
        <ele>8.6000003814697265625</ele>
        <time>2020-11-13T09:14:25.000Z</time>
        <extensions>
          <ns3:TrackPointExtension>
            <ns3:hr>108</ns3:hr>
            <ns3:cad>93</ns3:cad>
          </ns3:TrackPointExtension>
        </extensions>
      </trkpt>
      <trkpt lat="31.409158743917942047119140625" lon="119.48766988702118396759033203125">
        <ele>8.6000003814697265625</ele>
        <time>2020-11-13T09:14:26.000Z</time>
        <extensions>
          <ns3:TrackPointExtension>
            <ns3:hr>110</ns3:hr>
            <ns3:cad>93</ns3:cad>
          </ns3:TrackPointExtension>
        </extensions>
      </trkpt>
      <trkpt lat="31.409152708947658538818359375" lon="119.48769737966358661651611328125">
        <ele>8.80000019073486328125</ele>
        <time>2020-11-13T09:14:27.000Z</time>
        <extensions>
          <ns3:TrackPointExtension>
            <ns3:hr>110</ns3:hr>
            <ns3:cad>93</ns3:cad>
          </ns3:TrackPointExtension>
        </extensions>
      </trkpt>
      <trkpt lat="31.40914675779640674591064453125" lon="119.48772487230598926544189453125">
        <ele>8.80000019073486328125</ele>
        <time>2020-11-13T09:14:28.000Z</time>
        <extensions>
          <ns3:TrackPointExtension>
            <ns3:hr>109</ns3:hr>
            <ns3:cad>93</ns3:cad>
          </ns3:TrackPointExtension>
        </extensions>
      </trkpt>
      <trkpt lat="31.40914122574031352996826171875" lon="119.48775286786258220672607421875">
        <ele>9</ele>
        <time>2020-11-13T09:14:29.000Z</time>
        <extensions>
          <ns3:TrackPointExtension>
            <ns3:hr>109</ns3:hr>
            <ns3:cad>92</ns3:cad>
          </ns3:TrackPointExtension>
        </extensions>
      </trkpt>
      <trkpt lat="31.40913569368422031402587890625" lon="119.48778086341917514801025390625">
        <ele>9</ele>
        <time>2020-11-13T09:14:30.000Z</time>
        <extensions>
          <ns3:TrackPointExtension>
            <ns3:hr>109</ns3:hr>
            <ns3:cad>92</ns3:cad>
          </ns3:TrackPointExtension>
        </extensions>
      </trkpt>
      <trkpt lat="31.4091307483613491058349609375" lon="119.48781087063252925872802734375">
        <ele>8.80000019073486328125</ele>
        <time>2020-11-13T09:14:31.000Z</time>
        <extensions>
          <ns3:TrackPointExtension>
            <ns3:hr>109</ns3:hr>
            <ns3:cad>92</ns3:cad>
          </ns3:TrackPointExtension>
        </extensions>
      </trkpt>
      <trkpt lat="31.4091257192194461822509765625" lon="119.48784087784588336944580078125">
        <ele>8.6000003814697265625</ele>
        <time>2020-11-13T09:14:32.000Z</time>
        <extensions>
          <ns3:TrackPointExtension>
            <ns3:hr>109</ns3:hr>
            <ns3:cad>92</ns3:cad>
          </ns3:TrackPointExtension>
        </extensions>
      </trkpt>
      <trkpt lat="31.409121192991733551025390625" lon="119.48787038214504718780517578125">
        <ele>8.3999996185302734375</ele>
        <time>2020-11-13T09:14:33.000Z</time>
        <extensions>
          <ns3:TrackPointExtension>
            <ns3:hr>109</ns3:hr>
            <ns3:cad>92</ns3:cad>
          </ns3:TrackPointExtension>
        </extensions>
      </trkpt>
      <trkpt lat="31.40911675058305263519287109375" lon="119.48789988644421100616455078125">
        <ele>8</ele>
        <time>2020-11-13T09:14:34.000Z</time>
        <extensions>
          <ns3:TrackPointExtension>
            <ns3:hr>108</ns3:hr>
            <ns3:cad>92</ns3:cad>
          </ns3:TrackPointExtension>
        </extensions>
      </trkpt>
      <trkpt lat="31.40911272726953029632568359375" lon="119.48792788200080394744873046875">
        <ele>7.80000019073486328125</ele>
        <time>2020-11-13T09:14:35.000Z</time>
        <extensions>
          <ns3:TrackPointExtension>
            <ns3:hr>109</ns3:hr>
            <ns3:cad>92</ns3:cad>
          </ns3:TrackPointExtension>
        </extensions>
      </trkpt>
      <trkpt lat="31.40910870395600795745849609375" lon="119.48795587755739688873291015625">
        <ele>7.599999904632568359375</ele>
        <time>2020-11-13T09:14:36.000Z</time>
        <extensions>
          <ns3:TrackPointExtension>
            <ns3:hr>109</ns3:hr>
            <ns3:cad>92</ns3:cad>
          </ns3:TrackPointExtension>
        </extensions>
      </trkpt>
      <trkpt lat="31.40910417772829532623291015625" lon="119.48798437602818012237548828125">
        <ele>7.400000095367431640625</ele>
        <time>2020-11-13T09:14:37.000Z</time>
        <extensions>
          <ns3:TrackPointExtension>
            <ns3:hr>109</ns3:hr>
            <ns3:cad>92</ns3:cad>
          </ns3:TrackPointExtension>
        </extensions>
      </trkpt>
      <trkpt lat="31.409099735319614410400390625" lon="119.48801287449896335601806640625">
        <ele>7.19999980926513671875</ele>
        <time>2020-11-13T09:14:38.000Z</time>
        <extensions>
          <ns3:TrackPointExtension>
            <ns3:hr>111</ns3:hr>
            <ns3:cad>92</ns3:cad>
          </ns3:TrackPointExtension>
        </extensions>
      </trkpt>
      <trkpt lat="31.409095712006092071533203125" lon="119.48804237879812717437744140625">
        <ele>7.19999980926513671875</ele>
        <time>2020-11-13T09:14:39.000Z</time>
        <extensions>
          <ns3:TrackPointExtension>
            <ns3:hr>111</ns3:hr>
            <ns3:cad>92</ns3:cad>
          </ns3:TrackPointExtension>
        </extensions>
      </trkpt>
      <trkpt lat="31.409091688692569732666015625" lon="119.48807188309729099273681640625">
        <ele>7.19999980926513671875</ele>
        <time>2020-11-13T09:14:40.000Z</time>
        <extensions>
          <ns3:TrackPointExtension>
            <ns3:hr>111</ns3:hr>
            <ns3:cad>92</ns3:cad>
          </ns3:TrackPointExtension>
        </extensions>
      </trkpt>
      <trkpt lat="31.40908875502645969390869140625" lon="119.48810038156807422637939453125">
        <ele>7.19999980926513671875</ele>
        <time>2020-11-13T09:14:41.000Z</time>
        <extensions>
          <ns3:TrackPointExtension>
            <ns3:hr>111</ns3:hr>
            <ns3:cad>92</ns3:cad>
          </ns3:TrackPointExtension>
        </extensions>
      </trkpt>
      <trkpt lat="31.40908573754131793975830078125" lon="119.48812888003885746002197265625">
        <ele>7.19999980926513671875</ele>
        <time>2020-11-13T09:14:42.000Z</time>
        <extensions>
          <ns3:TrackPointExtension>
            <ns3:hr>111</ns3:hr>
            <ns3:cad>92</ns3:cad>
          </ns3:TrackPointExtension>
        </extensions>
      </trkpt>
      <trkpt lat="31.40908372588455677032470703125" lon="119.48815637268126010894775390625">
        <ele>7.19999980926513671875</ele>
        <time>2020-11-13T09:14:43.000Z</time>
        <extensions>
          <ns3:TrackPointExtension>
            <ns3:hr>112</ns3:hr>
            <ns3:cad>92</ns3:cad>
          </ns3:TrackPointExtension>
        </extensions>
      </trkpt>
      <trkpt lat="31.40908171422779560089111328125" lon="119.48818386532366275787353515625">
        <ele>7.19999980926513671875</ele>
        <time>2020-11-13T09:14:44.000Z</time>
        <extensions>
          <ns3:TrackPointExtension>
            <ns3:hr>112</ns3:hr>
            <ns3:cad>92</ns3:cad>
          </ns3:TrackPointExtension>
        </extensions>
      </trkpt>
      <trkpt lat="31.40907919965684413909912109375" lon="119.48820934630930423736572265625">
        <ele>7.19999980926513671875</ele>
        <time>2020-11-13T09:14:45.000Z</time>
        <extensions>
          <ns3:TrackPointExtension>
            <ns3:hr>114</ns3:hr>
            <ns3:cad>91</ns3:cad>
          </ns3:TrackPointExtension>
        </extensions>
      </trkpt>
      <trkpt lat="31.40907668508589267730712890625" lon="119.48823482729494571685791015625">
        <ele>7.19999980926513671875</ele>
        <time>2020-11-13T09:14:46.000Z</time>
        <extensions>
          <ns3:TrackPointExtension>
            <ns3:hr>114</ns3:hr>
            <ns3:cad>91</ns3:cad>
          </ns3:TrackPointExtension>
        </extensions>
      </trkpt>
      <trkpt lat="31.409072242677211761474609375" lon="119.48825888335704803466796875">
        <ele>7.19999980926513671875</ele>
        <time>2020-11-13T09:14:47.000Z</time>
        <extensions>
          <ns3:TrackPointExtension>
            <ns3:hr>116</ns3:hr>
            <ns3:cad>90</ns3:cad>
          </ns3:TrackPointExtension>
        </extensions>
      </trkpt>
      <trkpt lat="31.4090677164494991302490234375" lon="119.4882828556001186370849609375">
        <ele>7.19999980926513671875</ele>
        <time>2020-11-13T09:14:48.000Z</time>
        <extensions>
          <ns3:TrackPointExtension>
            <ns3:hr>116</ns3:hr>
            <ns3:cad>89</ns3:cad>
          </ns3:TrackPointExtension>
        </extensions>
      </trkpt>
      <trkpt lat="31.40906075946986675262451171875" lon="119.48830783367156982421875">
        <ele>7</ele>
        <time>2020-11-13T09:14:49.000Z</time>
        <extensions>
          <ns3:TrackPointExtension>
            <ns3:hr>115</ns3:hr>
            <ns3:cad>88</ns3:cad>
          </ns3:TrackPointExtension>
        </extensions>
      </trkpt>
      <trkpt lat="31.40905371867120265960693359375" lon="119.4883328117430210113525390625">
        <ele>7</ele>
        <time>2020-11-13T09:14:50.000Z</time>
        <extensions>
          <ns3:TrackPointExtension>
            <ns3:hr>116</ns3:hr>
            <ns3:cad>88</ns3:cad>
          </ns3:TrackPointExtension>
        </extensions>
      </trkpt>
      <trkpt lat="31.4090422354638576507568359375" lon="119.48835988529026508331298828125">
        <ele>6.80000019073486328125</ele>
        <time>2020-11-13T09:14:51.000Z</time>
        <extensions>
          <ns3:TrackPointExtension>
            <ns3:hr>119</ns3:hr>
            <ns3:cad>88</ns3:cad>
          </ns3:TrackPointExtension>
        </extensions>
      </trkpt>
      <trkpt lat="31.40903075225651264190673828125" lon="119.48838687501847743988037109375">
        <ele>6.80000019073486328125</ele>
        <time>2020-11-13T09:14:52.000Z</time>
        <extensions>
          <ns3:TrackPointExtension>
            <ns3:hr>120</ns3:hr>
            <ns3:cad>88</ns3:cad>
          </ns3:TrackPointExtension>
        </extensions>
      </trkpt>
      <trkpt lat="31.409013234078884124755859375" lon="119.48841285891830921173095703125">
        <ele>6.80000019073486328125</ele>
        <time>2020-11-13T09:14:53.000Z</time>
        <extensions>
          <ns3:TrackPointExtension>
            <ns3:hr>120</ns3:hr>
            <ns3:cad>89</ns3:cad>
          </ns3:TrackPointExtension>
        </extensions>
      </trkpt>
      <trkpt lat="31.40899571590125560760498046875" lon="119.48843884281814098358154296875">
        <ele>6.599999904632568359375</ele>
        <time>2020-11-13T09:14:54.000Z</time>
        <extensions>
          <ns3:TrackPointExtension>
            <ns3:hr>120</ns3:hr>
            <ns3:cad>89</ns3:cad>
          </ns3:TrackPointExtension>
        </extensions>
      </trkpt>
      <trkpt lat="31.40897023491561412811279296875" lon="119.4884593784809112548828125">
        <ele>6.599999904632568359375</ele>
        <time>2020-11-13T09:14:55.000Z</time>
        <extensions>
          <ns3:TrackPointExtension>
            <ns3:hr>120</ns3:hr>
            <ns3:cad>89</ns3:cad>
          </ns3:TrackPointExtension>
        </extensions>
      </trkpt>
      <trkpt lat="31.40894475392997264862060546875" lon="119.488479830324649810791015625">
        <ele>6.400000095367431640625</ele>
        <time>2020-11-13T09:14:56.000Z</time>
        <extensions>
          <ns3:TrackPointExtension>
            <ns3:hr>120</ns3:hr>
            <ns3:cad>90</ns3:cad>
          </ns3:TrackPointExtension>
        </extensions>
      </trkpt>
      <trkpt lat="31.40891323797404766082763671875" lon="119.48849332518875598907470703125">
        <ele>6.400000095367431640625</ele>
        <time>2020-11-13T09:14:57.000Z</time>
        <extensions>
          <ns3:TrackPointExtension>
            <ns3:hr>120</ns3:hr>
            <ns3:cad>90</ns3:cad>
          </ns3:TrackPointExtension>
        </extensions>
      </trkpt>
      <trkpt lat="31.40888172201812267303466796875" lon="119.4885068200528621673583984375">
        <ele>6.400000095367431640625</ele>
        <time>2020-11-13T09:14:58.000Z</time>
        <extensions>
          <ns3:TrackPointExtension>
            <ns3:hr>120</ns3:hr>
            <ns3:cad>90</ns3:cad>
          </ns3:TrackPointExtension>
        </extensions>
      </trkpt>
      <trkpt lat="31.40884869731962680816650390625" lon="119.4885168783366680145263671875">
        <ele>6.19999980926513671875</ele>
        <time>2020-11-13T09:14:59.000Z</time>
        <extensions>
          <ns3:TrackPointExtension>
            <ns3:hr>120</ns3:hr>
            <ns3:cad>90</ns3:cad>
          </ns3:TrackPointExtension>
        </extensions>
      </trkpt>
      <trkpt lat="31.40881575644016265869140625" lon="119.48852685280144214630126953125">
        <ele>6.19999980926513671875</ele>
        <time>2020-11-13T09:15:00.000Z</time>
        <extensions>
          <ns3:TrackPointExtension>
            <ns3:hr>120</ns3:hr>
            <ns3:cad>91</ns3:cad>
          </ns3:TrackPointExtension>
        </extensions>
      </trkpt>
      <trkpt lat="31.408785246312618255615234375" lon="119.4885373301804065704345703125">
        <ele>6</ele>
        <time>2020-11-13T09:15:01.000Z</time>
        <extensions>
          <ns3:TrackPointExtension>
            <ns3:hr>120</ns3:hr>
            <ns3:cad>91</ns3:cad>
          </ns3:TrackPointExtension>
        </extensions>
      </trkpt>
      <trkpt lat="31.4087547361850738525390625" lon="119.4885478913784027099609375">
        <ele>5.80000019073486328125</ele>
        <time>2020-11-13T09:15:02.000Z</time>
        <extensions>
          <ns3:TrackPointExtension>
            <ns3:hr>120</ns3:hr>
            <ns3:cad>92</ns3:cad>
          </ns3:TrackPointExtension>
        </extensions>
      </trkpt>
      <trkpt lat="31.408729255199432373046875" lon="119.48856188915669918060302734375">
        <ele>5.599999904632568359375</ele>
        <time>2020-11-13T09:15:03.000Z</time>
        <extensions>
          <ns3:TrackPointExtension>
            <ns3:hr>120</ns3:hr>
            <ns3:cad>92</ns3:cad>
          </ns3:TrackPointExtension>
        </extensions>
      </trkpt>
      <trkpt lat="31.40870369039475917816162109375" lon="119.4885758869349956512451171875">
        <ele>5.599999904632568359375</ele>
        <time>2020-11-13T09:15:04.000Z</time>
        <extensions>
          <ns3:TrackPointExtension>
            <ns3:hr>121</ns3:hr>
            <ns3:cad>93</ns3:cad>
          </ns3:TrackPointExtension>
        </extensions>
      </trkpt>
      <trkpt lat="31.40868474729359149932861328125" lon="119.4885943271219730377197265625">
        <ele>5.400000095367431640625</ele>
        <time>2020-11-13T09:15:05.000Z</time>
        <extensions>
          <ns3:TrackPointExtension>
            <ns3:hr>121</ns3:hr>
            <ns3:cad>93</ns3:cad>
          </ns3:TrackPointExtension>
        </extensions>
      </trkpt>
      <trkpt lat="31.4086657203733921051025390625" lon="119.48861285112798213958740234375">
        <ele>5.19999980926513671875</ele>
        <time>2020-11-13T09:15:06.000Z</time>
        <extensions>
          <ns3:TrackPointExtension>
            <ns3:hr>121</ns3:hr>
            <ns3:cad>93</ns3:cad>
          </ns3:TrackPointExtension>
        </extensions>
      </trkpt>
      <trkpt lat="31.40865423716604709625244140625" lon="119.488632380962371826171875">
        <ele>5.19999980926513671875</ele>
        <time>2020-11-13T09:15:07.000Z</time>
        <extensions>
          <ns3:TrackPointExtension>
            <ns3:hr>121</ns3:hr>
            <ns3:cad>92</ns3:cad>
          </ns3:TrackPointExtension>
        </extensions>
      </trkpt>
      <trkpt lat="31.40864275395870208740234375" lon="119.48865182697772979736328125">
        <ele>5.19999980926513671875</ele>
        <time>2020-11-13T09:15:08.000Z</time>
        <extensions>
          <ns3:TrackPointExtension>
            <ns3:hr>121</ns3:hr>
            <ns3:cad>92</ns3:cad>
          </ns3:TrackPointExtension>
        </extensions>
      </trkpt>
      <trkpt lat="31.4086372219026088714599609375" lon="119.48867185972630977630615234375">
        <ele>5.19999980926513671875</ele>
        <time>2020-11-13T09:15:09.000Z</time>
        <extensions>
          <ns3:TrackPointExtension>
            <ns3:hr>123</ns3:hr>
            <ns3:cad>92</ns3:cad>
          </ns3:TrackPointExtension>
        </extensions>
      </trkpt>
      <trkpt lat="31.408631689846515655517578125" lon="119.4886918924748897552490234375">
        <ele>5.400000095367431640625</ele>
        <time>2020-11-13T09:15:10.000Z</time>
        <extensions>
          <ns3:TrackPointExtension>
            <ns3:hr>124</ns3:hr>
            <ns3:cad>92</ns3:cad>
          </ns3:TrackPointExtension>
        </extensions>
      </trkpt>
      <trkpt lat="31.408629678189754486083984375" lon="119.488712847232818603515625">
        <ele>5.400000095367431640625</ele>
        <time>2020-11-13T09:15:11.000Z</time>
        <extensions>
          <ns3:TrackPointExtension>
            <ns3:hr>124</ns3:hr>
            <ns3:cad>91</ns3:cad>
          </ns3:TrackPointExtension>
        </extensions>
      </trkpt>
      <trkpt lat="31.40862775035202503204345703125" lon="119.48873388580977916717529296875">
        <ele>5.400000095367431640625</ele>
        <time>2020-11-13T09:15:12.000Z</time>
        <extensions>
          <ns3:TrackPointExtension>
            <ns3:hr>124</ns3:hr>
            <ns3:cad>91</ns3:cad>
          </ns3:TrackPointExtension>
        </extensions>
      </trkpt>
      <trkpt lat="31.40862573869526386260986328125" lon="119.48875584639608860015869140625">
        <ele>5.599999904632568359375</ele>
        <time>2020-11-13T09:15:13.000Z</time>
        <extensions>
          <ns3:TrackPointExtension>
            <ns3:hr>124</ns3:hr>
            <ns3:cad>91</ns3:cad>
          </ns3:TrackPointExtension>
        </extensions>
      </trkpt>
      <trkpt lat="31.40862372703850269317626953125" lon="119.48877789080142974853515625">
        <ele>5.599999904632568359375</ele>
        <time>2020-11-13T09:15:14.000Z</time>
        <extensions>
          <ns3:TrackPointExtension>
            <ns3:hr>124</ns3:hr>
            <ns3:cad>91</ns3:cad>
          </ns3:TrackPointExtension>
        </extensions>
      </trkpt>
      <trkpt lat="31.40862322412431240081787109375" lon="119.4887998513877391815185546875">
        <ele>5.599999904632568359375</ele>
        <time>2020-11-13T09:15:15.000Z</time>
        <extensions>
          <ns3:TrackPointExtension>
            <ns3:hr>124</ns3:hr>
            <ns3:cad>91</ns3:cad>
          </ns3:TrackPointExtension>
        </extensions>
      </trkpt>
      <trkpt lat="31.40862272121012210845947265625" lon="119.488821811974048614501953125">
        <ele>5.80000019073486328125</ele>
        <time>2020-11-13T09:15:16.000Z</time>
        <extensions>
          <ns3:TrackPointExtension>
            <ns3:hr>124</ns3:hr>
            <ns3:cad>90</ns3:cad>
          </ns3:TrackPointExtension>
        </extensions>
      </trkpt>
      <trkpt lat="31.40862523578107357025146484375" lon="119.48884536512196063995361328125">
        <ele>5.80000019073486328125</ele>
        <time>2020-11-13T09:15:17.000Z</time>
        <extensions>
          <ns3:TrackPointExtension>
            <ns3:hr>124</ns3:hr>
            <ns3:cad>90</ns3:cad>
          </ns3:TrackPointExtension>
        </extensions>
      </trkpt>
      <trkpt lat="31.40862775035202503204345703125" lon="119.48886883445084095001220703125">
        <ele>6</ele>
        <time>2020-11-13T09:15:18.000Z</time>
        <extensions>
          <ns3:TrackPointExtension>
            <ns3:hr>124</ns3:hr>
            <ns3:cad>90</ns3:cad>
          </ns3:TrackPointExtension>
        </extensions>
      </trkpt>
      <trkpt lat="31.40862523578107357025146484375" lon="119.488889873027801513671875">
        <ele>6</ele>
        <time>2020-11-13T09:15:19.000Z</time>
        <extensions>
          <ns3:TrackPointExtension>
            <ns3:hr>124</ns3:hr>
            <ns3:cad>90</ns3:cad>
          </ns3:TrackPointExtension>
        </extensions>
      </trkpt>
      <trkpt lat="31.40862272121012210845947265625" lon="119.4889108277857303619384765625">
        <ele>6</ele>
        <time>2020-11-13T09:15:20.000Z</time>
        <extensions>
          <ns3:TrackPointExtension>
            <ns3:hr>124</ns3:hr>
            <ns3:cad>90</ns3:cad>
          </ns3:TrackPointExtension>
        </extensions>
      </trkpt>
      <trkpt lat="31.40861769206821918487548828125" lon="119.48892884887754917144775390625">
        <ele>6.19999980926513671875</ele>
        <time>2020-11-13T09:15:21.000Z</time>
        <extensions>
          <ns3:TrackPointExtension>
            <ns3:hr>124</ns3:hr>
            <ns3:cad>90</ns3:cad>
          </ns3:TrackPointExtension>
        </extensions>
      </trkpt>
      <trkpt lat="31.4086127467453479766845703125" lon="119.48894686996936798095703125">
        <ele>6.19999980926513671875</ele>
        <time>2020-11-13T09:15:22.000Z</time>
        <extensions>
          <ns3:TrackPointExtension>
            <ns3:hr>124</ns3:hr>
            <ns3:cad>90</ns3:cad>
          </ns3:TrackPointExtension>
        </extensions>
      </trkpt>
      <trkpt lat="31.408608220517635345458984375" lon="119.4889658130705356597900390625">
        <ele>6.19999980926513671875</ele>
        <time>2020-11-13T09:15:23.000Z</time>
        <extensions>
          <ns3:TrackPointExtension>
            <ns3:hr>126</ns3:hr>
            <ns3:cad>90</ns3:cad>
          </ns3:TrackPointExtension>
        </extensions>
      </trkpt>
      <trkpt lat="31.4086036942899227142333984375" lon="119.48898483999073505401611328125">
        <ele>6.400000095367431640625</ele>
        <time>2020-11-13T09:15:24.000Z</time>
        <extensions>
          <ns3:TrackPointExtension>
            <ns3:hr>126</ns3:hr>
            <ns3:cad>90</ns3:cad>
          </ns3:TrackPointExtension>
        </extensions>
      </trkpt>
      <trkpt lat="31.408602185547351837158203125" lon="119.4890053756535053253173828125">
        <ele>6.400000095367431640625</ele>
        <time>2020-11-13T09:15:25.000Z</time>
        <extensions>
          <ns3:TrackPointExtension>
            <ns3:hr>126</ns3:hr>
            <ns3:cad>90</ns3:cad>
          </ns3:TrackPointExtension>
        </extensions>
      </trkpt>
      <trkpt lat="31.4086006768047809600830078125" lon="119.4890258274972438812255859375">
        <ele>6.599999904632568359375</ele>
        <time>2020-11-13T09:15:26.000Z</time>
        <extensions>
          <ns3:TrackPointExtension>
            <ns3:hr>126</ns3:hr>
            <ns3:cad>90</ns3:cad>
          </ns3:TrackPointExtension>
        </extensions>
      </trkpt>
      <trkpt lat="31.40859874896705150604248046875" lon="119.48904686607420444488525390625">
        <ele>6.599999904632568359375</ele>
        <time>2020-11-13T09:15:27.000Z</time>
        <extensions>
          <ns3:TrackPointExtension>
            <ns3:hr>126</ns3:hr>
            <ns3:cad>90</ns3:cad>
          </ns3:TrackPointExtension>
        </extensions>
      </trkpt>
      <trkpt lat="31.40859673731029033660888671875" lon="119.48906782083213329315185546875">
        <ele>6.599999904632568359375</ele>
        <time>2020-11-13T09:15:28.000Z</time>
        <extensions>
          <ns3:TrackPointExtension>
            <ns3:hr>126</ns3:hr>
            <ns3:cad>90</ns3:cad>
          </ns3:TrackPointExtension>
        </extensions>
      </trkpt>
      <trkpt lat="31.40859472565352916717529296875" lon="119.489089362323284149169921875">
        <ele>6.80000019073486328125</ele>
        <time>2020-11-13T09:15:29.000Z</time>
        <extensions>
          <ns3:TrackPointExtension>
            <ns3:hr>126</ns3:hr>
            <ns3:cad>90</ns3:cad>
          </ns3:TrackPointExtension>
        </extensions>
      </trkpt>
      <trkpt lat="31.40859271399676799774169921875" lon="119.489110819995403289794921875">
        <ele>6.80000019073486328125</ele>
        <time>2020-11-13T09:15:30.000Z</time>
        <extensions>
          <ns3:TrackPointExtension>
            <ns3:hr>126</ns3:hr>
            <ns3:cad>90</ns3:cad>
          </ns3:TrackPointExtension>
        </extensions>
      </trkpt>
      <trkpt lat="31.40859120525419712066650390625" lon="119.48913387022912502288818359375">
        <ele>6.80000019073486328125</ele>
        <time>2020-11-13T09:15:31.000Z</time>
        <extensions>
          <ns3:TrackPointExtension>
            <ns3:hr>126</ns3:hr>
            <ns3:cad>90</ns3:cad>
          </ns3:TrackPointExtension>
        </extensions>
      </trkpt>
      <trkpt lat="31.40858969651162624359130859375" lon="119.48915683664381504058837890625">
        <ele>7</ele>
        <time>2020-11-13T09:15:32.000Z</time>
        <extensions>
          <ns3:TrackPointExtension>
            <ns3:hr>127</ns3:hr>
            <ns3:cad>90</ns3:cad>
          </ns3:TrackPointExtension>
        </extensions>
      </trkpt>
      <trkpt lat="31.40858969651162624359130859375" lon="119.48918382637202739715576171875">
        <ele>7</ele>
        <time>2020-11-13T09:15:33.000Z</time>
        <extensions>
          <ns3:TrackPointExtension>
            <ns3:hr>127</ns3:hr>
            <ns3:cad>90</ns3:cad>
          </ns3:TrackPointExtension>
        </extensions>
      </trkpt>
      <trkpt lat="31.40858969651162624359130859375" lon="119.48921081610023975372314453125">
        <ele>7</ele>
        <time>2020-11-13T09:15:34.000Z</time>
        <extensions>
          <ns3:TrackPointExtension>
            <ns3:hr>127</ns3:hr>
            <ns3:cad>90</ns3:cad>
          </ns3:TrackPointExtension>
        </extensions>
      </trkpt>
      <trkpt lat="31.40859120525419712066650390625" lon="119.48923881165683269500732421875">
        <ele>7</ele>
        <time>2020-11-13T09:15:35.000Z</time>
        <extensions>
          <ns3:TrackPointExtension>
            <ns3:hr>127</ns3:hr>
            <ns3:cad>90</ns3:cad>
          </ns3:TrackPointExtension>
        </extensions>
      </trkpt>
      <trkpt lat="31.40859271399676799774169921875" lon="119.4892668910324573516845703125">
        <ele>7</ele>
        <time>2020-11-13T09:15:36.000Z</time>
        <extensions>
          <ns3:TrackPointExtension>
            <ns3:hr>127</ns3:hr>
            <ns3:cad>90</ns3:cad>
          </ns3:TrackPointExtension>
        </extensions>
      </trkpt>
      <trkpt lat="31.40859623439610004425048828125" lon="119.4892943836748600006103515625">
        <ele>7</ele>
        <time>2020-11-13T09:15:37.000Z</time>
        <extensions>
          <ns3:TrackPointExtension>
            <ns3:hr>127</ns3:hr>
            <ns3:cad>90</ns3:cad>
          </ns3:TrackPointExtension>
        </extensions>
      </trkpt>
      <trkpt lat="31.40859975479543209075927734375" lon="119.4893218763172626495361328125">
        <ele>7</ele>
        <time>2020-11-13T09:15:38.000Z</time>
        <extensions>
          <ns3:TrackPointExtension>
            <ns3:hr>127</ns3:hr>
            <ns3:cad>90</ns3:cad>
          </ns3:TrackPointExtension>
        </extensions>
      </trkpt>
      <trkpt lat="31.40860025770962238311767578125" lon="119.4893463514745235443115234375">
        <ele>7</ele>
        <time>2020-11-13T09:15:39.000Z</time>
        <extensions>
          <ns3:TrackPointExtension>
            <ns3:hr>122</ns3:hr>
            <ns3:cad>90</ns3:cad>
          </ns3:TrackPointExtension>
        </extensions>
      </trkpt>
      <trkpt lat="31.4086006768047809600830078125" lon="119.4893708266317844390869140625">
        <ele>7</ele>
        <time>2020-11-13T09:15:40.000Z</time>
        <extensions>
          <ns3:TrackPointExtension>
            <ns3:hr>122</ns3:hr>
            <ns3:cad>90</ns3:cad>
          </ns3:TrackPointExtension>
        </extensions>
      </trkpt>
      <trkpt lat="31.40859573148190975189208984375" lon="119.48939136229455471038818359375">
        <ele>7</ele>
        <time>2020-11-13T09:15:41.000Z</time>
        <extensions>
          <ns3:TrackPointExtension>
            <ns3:hr>122</ns3:hr>
            <ns3:cad>89</ns3:cad>
          </ns3:TrackPointExtension>
        </extensions>
      </trkpt>
      <trkpt lat="31.40859070234000682830810546875" lon="119.48941181413829326629638671875">
        <ele>7</ele>
        <time>2020-11-13T09:15:42.000Z</time>
        <extensions>
          <ns3:TrackPointExtension>
            <ns3:hr>123</ns3:hr>
            <ns3:cad>89</ns3:cad>
          </ns3:TrackPointExtension>
        </extensions>
      </trkpt>
      <trkpt lat="31.408582739531993865966796875" lon="119.4894288294017314910888671875">
        <ele>7</ele>
        <time>2020-11-13T09:15:43.000Z</time>
        <extensions>
          <ns3:TrackPointExtension>
            <ns3:hr>123</ns3:hr>
            <ns3:cad>89</ns3:cad>
          </ns3:TrackPointExtension>
        </extensions>
      </trkpt>
      <trkpt lat="31.408574692904949188232421875" lon="119.48944584466516971588134765625">
        <ele>7</ele>
        <time>2020-11-13T09:15:44.000Z</time>
        <extensions>
          <ns3:TrackPointExtension>
            <ns3:hr>123</ns3:hr>
            <ns3:cad>88</ns3:cad>
          </ns3:TrackPointExtension>
        </extensions>
      </trkpt>
      <trkpt lat="31.40856471844017505645751953125" lon="119.489462859928607940673828125">
        <ele>6.80000019073486328125</ele>
        <time>2020-11-13T09:15:45.000Z</time>
        <extensions>
          <ns3:TrackPointExtension>
            <ns3:hr>123</ns3:hr>
            <ns3:cad>88</ns3:cad>
          </ns3:TrackPointExtension>
        </extensions>
      </trkpt>
      <trkpt lat="31.4085547439754009246826171875" lon="119.48947987519204616546630859375">
        <ele>6.80000019073486328125</ele>
        <time>2020-11-13T09:15:46.000Z</time>
        <extensions>
          <ns3:TrackPointExtension>
            <ns3:hr>123</ns3:hr>
            <ns3:cad>88</ns3:cad>
          </ns3:TrackPointExtension>
        </extensions>
      </trkpt>
      <trkpt lat="31.408547200262546539306640625" lon="119.48949781246483325958251953125">
        <ele>6.599999904632568359375</ele>
        <time>2020-11-13T09:15:47.000Z</time>
        <extensions>
          <ns3:TrackPointExtension>
            <ns3:hr>123</ns3:hr>
            <ns3:cad>88</ns3:cad>
          </ns3:TrackPointExtension>
        </extensions>
      </trkpt>
      <trkpt lat="31.40853974036872386932373046875" lon="119.489515833556652069091796875">
        <ele>6.599999904632568359375</ele>
        <time>2020-11-13T09:15:48.000Z</time>
        <extensions>
          <ns3:TrackPointExtension>
            <ns3:hr>124</ns3:hr>
            <ns3:cad>88</ns3:cad>
          </ns3:TrackPointExtension>
        </extensions>
      </trkpt>
      <trkpt lat="31.40853722579777240753173828125" lon="119.48953687213361263275146484375">
        <ele>6.400000095367431640625</ele>
        <time>2020-11-13T09:15:49.000Z</time>
        <extensions>
          <ns3:TrackPointExtension>
            <ns3:hr>124</ns3:hr>
            <ns3:cad>87</ns3:cad>
          </ns3:TrackPointExtension>
        </extensions>
      </trkpt>
      <trkpt lat="31.40853471122682094573974609375" lon="119.48955782689154148101806640625">
        <ele>6.400000095367431640625</ele>
        <time>2020-11-13T09:15:50.000Z</time>
        <extensions>
          <ns3:TrackPointExtension>
            <ns3:hr>124</ns3:hr>
            <ns3:cad>87</ns3:cad>
          </ns3:TrackPointExtension>
        </extensions>
      </trkpt>
      <trkpt lat="31.40853471122682094573974609375" lon="119.4895793683826923370361328125">
        <ele>6.400000095367431640625</ele>
        <time>2020-11-13T09:15:51.000Z</time>
        <extensions>
          <ns3:TrackPointExtension>
            <ns3:hr>124</ns3:hr>
            <ns3:cad>87</ns3:cad>
          </ns3:TrackPointExtension>
        </extensions>
      </trkpt>
      <trkpt lat="31.40853471122682094573974609375" lon="119.4896008260548114776611328125">
        <ele>6.19999980926513671875</ele>
        <time>2020-11-13T09:15:52.000Z</time>
        <extensions>
          <ns3:TrackPointExtension>
            <ns3:hr>123</ns3:hr>
            <ns3:cad>88</ns3:cad>
          </ns3:TrackPointExtension>
        </extensions>
      </trkpt>
      <trkpt lat="31.40853521414101123809814453125" lon="119.48962186463177204132080078125">
        <ele>6.19999980926513671875</ele>
        <time>2020-11-13T09:15:53.000Z</time>
        <extensions>
          <ns3:TrackPointExtension>
            <ns3:hr>123</ns3:hr>
            <ns3:cad>88</ns3:cad>
          </ns3:TrackPointExtension>
        </extensions>
      </trkpt>
      <trkpt lat="31.40853571705520153045654296875" lon="119.48964281938970088958740234375">
        <ele>6</ele>
        <time>2020-11-13T09:15:54.000Z</time>
        <extensions>
          <ns3:TrackPointExtension>
            <ns3:hr>122</ns3:hr>
            <ns3:cad>88</ns3:cad>
          </ns3:TrackPointExtension>
        </extensions>
      </trkpt>
      <trkpt lat="31.40853672288358211517333984375" lon="119.48966436088085174560546875">
        <ele>6</ele>
        <time>2020-11-13T09:15:55.000Z</time>
        <extensions>
          <ns3:TrackPointExtension>
            <ns3:hr>122</ns3:hr>
            <ns3:cad>88</ns3:cad>
          </ns3:TrackPointExtension>
        </extensions>
      </trkpt>
      <trkpt lat="31.40853772871196269989013671875" lon="119.48968581855297088623046875">
        <ele>6</ele>
        <time>2020-11-13T09:15:56.000Z</time>
        <extensions>
          <ns3:TrackPointExtension>
            <ns3:hr>122</ns3:hr>
            <ns3:cad>88</ns3:cad>
          </ns3:TrackPointExtension>
        </extensions>
      </trkpt>
      <trkpt lat="31.40853772871196269989013671875" lon="119.48970886878669261932373046875">
        <ele>5.80000019073486328125</ele>
        <time>2020-11-13T09:15:57.000Z</time>
        <extensions>
          <ns3:TrackPointExtension>
            <ns3:hr>121</ns3:hr>
            <ns3:cad>88</ns3:cad>
          </ns3:TrackPointExtension>
        </extensions>
      </trkpt>
      <trkpt lat="31.40853772871196269989013671875" lon="119.48973183520138263702392578125">
        <ele>5.80000019073486328125</ele>
        <time>2020-11-13T09:15:58.000Z</time>
        <extensions>
          <ns3:TrackPointExtension>
            <ns3:hr>121</ns3:hr>
            <ns3:cad>88</ns3:cad>
          </ns3:TrackPointExtension>
        </extensions>
      </trkpt>
      <trkpt lat="31.40853823162615299224853515625" lon="119.489755891263484954833984375">
        <ele>5.599999904632568359375</ele>
        <time>2020-11-13T09:15:59.000Z</time>
        <extensions>
          <ns3:TrackPointExtension>
            <ns3:hr>121</ns3:hr>
            <ns3:cad>88</ns3:cad>
          </ns3:TrackPointExtension>
        </extensions>
      </trkpt>
      <trkpt lat="31.40853873454034328460693359375" lon="119.4897798635065555572509765625">
        <ele>5.599999904632568359375</ele>
        <time>2020-11-13T09:16:00.000Z</time>
        <extensions>
          <ns3:TrackPointExtension>
            <ns3:hr>120</ns3:hr>
            <ns3:cad>89</ns3:cad>
          </ns3:TrackPointExtension>
        </extensions>
      </trkpt>
      <trkpt lat="31.40853873454034328460693359375" lon="119.4898058474063873291015625">
        <ele>5.599999904632568359375</ele>
        <time>2020-11-13T09:16:01.000Z</time>
        <extensions>
          <ns3:TrackPointExtension>
            <ns3:hr>120</ns3:hr>
            <ns3:cad>89</ns3:cad>
          </ns3:TrackPointExtension>
        </extensions>
      </trkpt>
      <trkpt lat="31.40853873454034328460693359375" lon="119.4898318313062191009521484375">
        <ele>5.400000095367431640625</ele>
        <time>2020-11-13T09:16:02.000Z</time>
        <extensions>
          <ns3:TrackPointExtension>
            <ns3:hr>120</ns3:hr>
            <ns3:cad>89</ns3:cad>
          </ns3:TrackPointExtension>
        </extensions>
      </trkpt>
      <trkpt lat="31.40854175202548503875732421875" lon="119.489859826862812042236328125">
        <ele>5.400000095367431640625</ele>
        <time>2020-11-13T09:16:03.000Z</time>
        <extensions>
          <ns3:TrackPointExtension>
            <ns3:hr>120</ns3:hr>
            <ns3:cad>89</ns3:cad>
          </ns3:TrackPointExtension>
        </extensions>
      </trkpt>
      <trkpt lat="31.4085446856915950775146484375" lon="119.4898878224194049835205078125">
        <ele>5.19999980926513671875</ele>
        <time>2020-11-13T09:16:04.000Z</time>
        <extensions>
          <ns3:TrackPointExtension>
            <ns3:hr>120</ns3:hr>
          </ns3:TrackPointExtension>
        </extensions>
      </trkpt>
      <trkpt lat="31.4085409976541996002197265625" lon="119.48991942219436168670654296875">
        <ele>5.19999980926513671875</ele>
        <time>2020-11-13T09:16:05.000Z</time>
        <extensions>
          <ns3:TrackPointExtension>
            <ns3:hr>120</ns3:hr>
          </ns3:TrackPointExtension>
        </extensions>
      </trkpt>
    </trkseg>
  </trk>
</gpx>
