<gpx xmlns:ns3="http://www.garmin.com/xmlschemas/TrackPointExtension/v1" xmlns="http://www.topografix.com/GPX/1/1" xmlns:xsi="http://www.w3.org/2001/XMLSchema-instance" xmlns:ns2="http://www.garmin.com/xmlschemas/GpxExtensions/v3" creator="Garmin Connect" version="1.1" xsi:schemaLocation="http://www.topografix.com/GPX/1/1 http://www.topografix.com/GPX/11.xsd">
  <extensions>
<distance>1031.41</distance>
<average_hr>141.0</average_hr>
<average_speed>9.307000160217285</average_speed>
<start_time>2025-01-27T23:17:32+00:00</start_time>
<end_time>2025-01-27T23:24:10+00:00</end_time>
<moving_time>396.0</moving_time>
<elapsed_time>402.0</elapsed_time>
</extensions>
<metadata>
    <link href="connect.garmin.com">
      <text>Garmin Connect</text>
    </link>
    <time>2025-01-27T23:17:32.000Z</time>
  </metadata>
  <trk>
    <name>常州市 街道路跑</name>
    <type>street_running</type>
    <trkseg>
      <trkpt lat="31.401246227324008941650390625" lon="119.49351944960653781890869140625">
        <ele>8.3999996185302734375</ele>
        <time>2025-01-27T23:17:37.000Z</time>
        <extensions>
          <ns3:TrackPointExtension>
            <ns3:cad>94</ns3:cad>
          </ns3:TrackPointExtension>
        </extensions>
      </trkpt>
      <trkpt lat="31.4013483189046382904052734375" lon="119.493480138480663299560546875">
        <ele>8.3999996185302734375</ele>
        <time>2025-01-27T23:17:41.000Z</time>
        <extensions>
          <ns3:TrackPointExtension>
            <ns3:cad>94</ns3:cad>
          </ns3:TrackPointExtension>
        </extensions>
      </trkpt>
      <trkpt lat="31.4014398492872714996337890625" lon="119.49346370995044708251953125">
        <ele>8.6000003814697265625</ele>
        <time>2025-01-27T23:17:45.000Z</time>
        <extensions>
          <ns3:TrackPointExtension>
            <ns3:cad>94</ns3:cad>
          </ns3:TrackPointExtension>
        </extensions>
      </trkpt>
      <trkpt lat="31.40153062529861927032470703125" lon="119.49343428947031497955322265625">
        <ele>8.6000003814697265625</ele>
        <time>2025-01-27T23:17:49.000Z</time>
        <extensions>
          <ns3:TrackPointExtension>
            <ns3:cad>94</ns3:cad>
          </ns3:TrackPointExtension>
        </extensions>
      </trkpt>
      <trkpt lat="31.40162634663283824920654296875" lon="119.49341651983559131622314453125">
        <ele>8.6000003814697265625</ele>
        <time>2025-01-27T23:17:53.000Z</time>
        <extensions>
          <ns3:TrackPointExtension>
            <ns3:cad>94</ns3:cad>
          </ns3:TrackPointExtension>
        </extensions>
      </trkpt>
      <trkpt lat="31.40171519480645656585693359375" lon="119.49338852427899837493896484375">
        <ele>9</ele>
        <time>2025-01-27T23:17:57.000Z</time>
        <extensions>
          <ns3:TrackPointExtension>
            <ns3:cad>94</ns3:cad>
          </ns3:TrackPointExtension>
        </extensions>
      </trkpt>
      <trkpt lat="31.401823572814464569091796875" lon="119.49335566721856594085693359375">
        <ele>9</ele>
        <time>2025-01-27T23:18:02.000Z</time>
        <extensions>
          <ns3:TrackPointExtension>
            <ns3:cad>94</ns3:cad>
          </ns3:TrackPointExtension>
        </extensions>
      </trkpt>
      <trkpt lat="31.4019286818802356719970703125" lon="119.4933230616152286529541015625">
        <ele>9</ele>
        <time>2025-01-27T23:18:07.000Z</time>
        <extensions>
          <ns3:TrackPointExtension>
            <ns3:cad>82</ns3:cad>
          </ns3:TrackPointExtension>
        </extensions>
      </trkpt>
      <trkpt lat="31.40203504823148250579833984375" lon="119.493304789066314697265625">
        <ele>8.3999996185302734375</ele>
        <time>2025-01-27T23:18:11.000Z</time>
        <extensions>
          <ns3:TrackPointExtension>
            <ns3:hr>139</ns3:hr>
            <ns3:cad>94</ns3:cad>
          </ns3:TrackPointExtension>
        </extensions>
      </trkpt>
      <trkpt lat="31.40213177539408206939697265625" lon="119.49328475631773471832275390625">
        <ele>8</ele>
        <time>2025-01-27T23:18:15.000Z</time>
        <extensions>
          <ns3:TrackPointExtension>
            <ns3:cad>94</ns3:cad>
          </ns3:TrackPointExtension>
        </extensions>
      </trkpt>
      <trkpt lat="31.4022235572338104248046875" lon="119.49326095171272754669189453125">
        <ele>8.19999980926513671875</ele>
        <time>2025-01-27T23:18:19.000Z</time>
        <extensions>
          <ns3:TrackPointExtension>
            <ns3:cad>94</ns3:cad>
          </ns3:TrackPointExtension>
        </extensions>
      </trkpt>
      <trkpt lat="31.4023135788738727569580078125" lon="119.4932412542402744293212890625">
        <ele>7.80000019073486328125</ele>
        <time>2025-01-27T23:18:23.000Z</time>
        <extensions>
          <ns3:TrackPointExtension>
            <ns3:cad>94</ns3:cad>
          </ns3:TrackPointExtension>
        </extensions>
      </trkpt>
      <trkpt lat="31.4024067856371402740478515625" lon="119.493202529847621917724609375">
        <ele>7.80000019073486328125</ele>
        <time>2025-01-27T23:18:28.000Z</time>
        <extensions>
          <ns3:TrackPointExtension>
            <ns3:hr>140</ns3:hr>
            <ns3:cad>94</ns3:cad>
          </ns3:TrackPointExtension>
        </extensions>
      </trkpt>
      <trkpt lat="31.40249923802912235260009765625" lon="119.49317210353910923004150390625">
        <ele>7.599999904632568359375</ele>
        <time>2025-01-27T23:18:32.000Z</time>
        <extensions>
          <ns3:TrackPointExtension>
            <ns3:cad>94</ns3:cad>
          </ns3:TrackPointExtension>
        </extensions>
      </trkpt>
      <trkpt lat="31.402593366801738739013671875" lon="119.493152908980846405029296875">
        <ele>7.599999904632568359375</ele>
        <time>2025-01-27T23:18:36.000Z</time>
        <extensions>
          <ns3:TrackPointExtension>
            <ns3:hr>140</ns3:hr>
            <ns3:cad>94</ns3:cad>
          </ns3:TrackPointExtension>
        </extensions>
      </trkpt>
      <trkpt lat="31.4027090370655059814453125" lon="119.4931373186409473419189453125">
        <ele>7.599999904632568359375</ele>
        <time>2025-01-27T23:18:41.000Z</time>
        <extensions>
          <ns3:TrackPointExtension>
            <ns3:cad>94</ns3:cad>
          </ns3:TrackPointExtension>
        </extensions>
      </trkpt>
      <trkpt lat="31.40279956161975860595703125" lon="119.49310588650405406951904296875">
        <ele>8</ele>
        <time>2025-01-27T23:18:45.000Z</time>
        <extensions>
          <ns3:TrackPointExtension>
            <ns3:cad>94</ns3:cad>
          </ns3:TrackPointExtension>
        </extensions>
      </trkpt>
      <trkpt lat="31.40289419330656528472900390625" lon="119.49308124370872974395751953125">
        <ele>8</ele>
        <time>2025-01-27T23:18:49.000Z</time>
        <extensions>
          <ns3:TrackPointExtension>
            <ns3:cad>94</ns3:cad>
          </ns3:TrackPointExtension>
        </extensions>
      </trkpt>
      <trkpt lat="31.40298974700272083282470703125" lon="119.4930672459304332733154296875">
        <ele>8</ele>
        <time>2025-01-27T23:18:53.000Z</time>
        <extensions>
          <ns3:TrackPointExtension>
            <ns3:hr>140</ns3:hr>
            <ns3:cad>94</ns3:cad>
          </ns3:TrackPointExtension>
        </extensions>
      </trkpt>
      <trkpt lat="31.40308119356632232666015625" lon="119.49305525980889797210693359375">
        <ele>8.19999980926513671875</ele>
        <time>2025-01-27T23:18:57.000Z</time>
        <extensions>
          <ns3:TrackPointExtension>
            <ns3:cad>94</ns3:cad>
          </ns3:TrackPointExtension>
        </extensions>
      </trkpt>
      <trkpt lat="31.403176747262477874755859375" lon="119.4930367358028888702392578125">
        <ele>8.3999996185302734375</ele>
        <time>2025-01-27T23:19:01.000Z</time>
        <extensions>
          <ns3:TrackPointExtension>
            <ns3:cad>82</ns3:cad>
          </ns3:TrackPointExtension>
        </extensions>
      </trkpt>
      <trkpt lat="31.40327674336731433868408203125" lon="119.4930003583431243896484375">
        <ele>8.80000019073486328125</ele>
        <time>2025-01-27T23:19:05.000Z</time>
        <extensions>
          <ns3:TrackPointExtension>
            <ns3:cad>94</ns3:cad>
          </ns3:TrackPointExtension>
        </extensions>
      </trkpt>
      <trkpt lat="31.4033804275095462799072265625" lon="119.49297018349170684814453125">
        <ele>9</ele>
        <time>2025-01-27T23:19:09.000Z</time>
        <extensions>
          <ns3:TrackPointExtension>
            <ns3:cad>94</ns3:cad>
          </ns3:TrackPointExtension>
        </extensions>
      </trkpt>
      <trkpt lat="31.403479166328907012939453125" lon="119.49294344522058963775634765625">
        <ele>9</ele>
        <time>2025-01-27T23:19:13.000Z</time>
        <extensions>
          <ns3:TrackPointExtension>
            <ns3:cad>94</ns3:cad>
          </ns3:TrackPointExtension>
        </extensions>
      </trkpt>
      <trkpt lat="31.403577066957950592041015625" lon="119.49292668141424655914306640625">
        <ele>9</ele>
        <time>2025-01-27T23:19:17.000Z</time>
        <extensions>
          <ns3:TrackPointExtension>
            <ns3:hr>141</ns3:hr>
            <ns3:cad>82</ns3:cad>
          </ns3:TrackPointExtension>
        </extensions>
      </trkpt>
      <trkpt lat="31.40366767533123493194580078125" lon="119.49291243217885494232177734375">
        <ele>8.3999996185302734375</ele>
        <time>2025-01-27T23:19:21.000Z</time>
        <extensions>
          <ns3:TrackPointExtension>
            <ns3:cad>94</ns3:cad>
          </ns3:TrackPointExtension>
        </extensions>
      </trkpt>
      <trkpt lat="31.40375845134258270263671875" lon="119.49289063923060894012451171875">
        <ele>8</ele>
        <time>2025-01-27T23:19:25.000Z</time>
        <extensions>
          <ns3:TrackPointExtension>
            <ns3:cad>94</ns3:cad>
          </ns3:TrackPointExtension>
        </extensions>
      </trkpt>
      <trkpt lat="31.40385023318231105804443359375" lon="119.49286515824496746063232421875">
        <ele>7.80000019073486328125</ele>
        <time>2025-01-27T23:19:29.000Z</time>
        <extensions>
          <ns3:TrackPointExtension>
            <ns3:cad>94</ns3:cad>
          </ns3:TrackPointExtension>
        </extensions>
      </trkpt>
      <trkpt lat="31.40394109301269054412841796875" lon="119.49284319765865802764892578125">
        <ele>8</ele>
        <time>2025-01-27T23:19:33.000Z</time>
        <extensions>
          <ns3:TrackPointExtension>
            <ns3:cad>82</ns3:cad>
          </ns3:TrackPointExtension>
        </extensions>
      </trkpt>
      <trkpt lat="31.40402960591018199920654296875" lon="119.49280321598052978515625">
        <ele>8.6000003814697265625</ele>
        <time>2025-01-27T23:19:37.000Z</time>
        <extensions>
          <ns3:TrackPointExtension>
            <ns3:cad>94</ns3:cad>
          </ns3:TrackPointExtension>
        </extensions>
      </trkpt>
      <trkpt lat="31.4041351340711116790771484375" lon="119.49281863868236541748046875">
        <ele>8.80000019073486328125</ele>
        <time>2025-01-27T23:19:41.000Z</time>
        <extensions>
          <ns3:TrackPointExtension>
            <ns3:cad>94</ns3:cad>
          </ns3:TrackPointExtension>
        </extensions>
      </trkpt>
      <trkpt lat="31.40423026867210865020751953125" lon="119.4928352348506450653076171875">
        <ele>9</ele>
        <time>2025-01-27T23:19:45.000Z</time>
        <extensions>
          <ns3:TrackPointExtension>
            <ns3:cad>82</ns3:cad>
          </ns3:TrackPointExtension>
        </extensions>
      </trkpt>
      <trkpt lat="31.40433655120432376861572265625" lon="119.49284470640122890472412109375">
        <ele>9</ele>
        <time>2025-01-27T23:19:50.000Z</time>
        <extensions>
          <ns3:TrackPointExtension>
            <ns3:hr>144</ns3:hr>
            <ns3:cad>94</ns3:cad>
          </ns3:TrackPointExtension>
        </extensions>
      </trkpt>
      <trkpt lat="31.4044355414807796478271484375" lon="119.4928053952753543853759765625">
        <ele>9</ele>
        <time>2025-01-27T23:19:54.000Z</time>
        <extensions>
          <ns3:TrackPointExtension>
            <ns3:cad>94</ns3:cad>
          </ns3:TrackPointExtension>
        </extensions>
      </trkpt>
      <trkpt lat="31.4045404829084873199462890625" lon="119.4927705265581607818603515625">
        <ele>8</ele>
        <time>2025-01-27T23:19:59.000Z</time>
        <extensions>
          <ns3:TrackPointExtension>
            <ns3:cad>82</ns3:cad>
          </ns3:TrackPointExtension>
        </extensions>
      </trkpt>
      <trkpt lat="31.40462924726307392120361328125" lon="119.492748565971851348876953125">
        <ele>7.19999980926513671875</ele>
        <time>2025-01-27T23:20:03.000Z</time>
        <extensions>
          <ns3:TrackPointExtension>
            <ns3:cad>94</ns3:cad>
          </ns3:TrackPointExtension>
        </extensions>
      </trkpt>
      <trkpt lat="31.40471910126507282257080078125" lon="119.49273549020290374755859375">
        <ele>6.80000019073486328125</ele>
        <time>2025-01-27T23:20:07.000Z</time>
        <extensions>
          <ns3:TrackPointExtension>
            <ns3:hr>143</ns3:hr>
            <ns3:cad>94</ns3:cad>
          </ns3:TrackPointExtension>
        </extensions>
      </trkpt>
      <trkpt lat="31.40480392612516880035400390625" lon="119.4926967658102512359619140625">
        <ele>6.400000095367431640625</ele>
        <time>2025-01-27T23:20:11.000Z</time>
        <extensions>
          <ns3:TrackPointExtension>
            <ns3:cad>94</ns3:cad>
          </ns3:TrackPointExtension>
        </extensions>
      </trkpt>
      <trkpt lat="31.40491808764636516571044921875" lon="119.49267036281526088714599609375">
        <ele>5.80000019073486328125</ele>
        <time>2025-01-27T23:20:16.000Z</time>
        <extensions>
          <ns3:TrackPointExtension>
            <ns3:cad>94</ns3:cad>
          </ns3:TrackPointExtension>
        </extensions>
      </trkpt>
      <trkpt lat="31.40501481480896472930908203125" lon="119.4926468096673488616943359375">
        <ele>5.400000095367431640625</ele>
        <time>2025-01-27T23:20:20.000Z</time>
        <extensions>
          <ns3:TrackPointExtension>
            <ns3:cad>82</ns3:cad>
          </ns3:TrackPointExtension>
        </extensions>
      </trkpt>
      <trkpt lat="31.4051077701151371002197265625" lon="119.49261747300624847412109375">
        <ele>5</ele>
        <time>2025-01-27T23:20:24.000Z</time>
        <extensions>
          <ns3:TrackPointExtension>
            <ns3:cad>94</ns3:cad>
          </ns3:TrackPointExtension>
        </extensions>
      </trkpt>
      <trkpt lat="31.405199803411960601806640625" lon="119.4926032237708568572998046875">
        <ele>5.400000095367431640625</ele>
        <time>2025-01-27T23:20:28.000Z</time>
        <extensions>
          <ns3:TrackPointExtension>
            <ns3:hr>140</ns3:hr>
            <ns3:cad>94</ns3:cad>
          </ns3:TrackPointExtension>
        </extensions>
      </trkpt>
      <trkpt lat="31.40529443509876728057861328125" lon="119.49259542860090732574462890625">
        <ele>6</ele>
        <time>2025-01-27T23:20:32.000Z</time>
        <extensions>
          <ns3:TrackPointExtension>
            <ns3:cad>94</ns3:cad>
          </ns3:TrackPointExtension>
        </extensions>
      </trkpt>
      <trkpt lat="31.4053897373378276824951171875" lon="119.4925650022923946380615234375">
        <ele>6.400000095367431640625</ele>
        <time>2025-01-27T23:20:37.000Z</time>
        <extensions>
          <ns3:TrackPointExtension>
            <ns3:hr>141</ns3:hr>
            <ns3:cad>82</ns3:cad>
          </ns3:TrackPointExtension>
        </extensions>
      </trkpt>
      <trkpt lat="31.40547967515885829925537109375" lon="119.492548070847988128662109375">
        <ele>6.80000019073486328125</ele>
        <time>2025-01-27T23:20:41.000Z</time>
        <extensions>
          <ns3:TrackPointExtension>
            <ns3:cad>94</ns3:cad>
          </ns3:TrackPointExtension>
        </extensions>
      </trkpt>
      <trkpt lat="31.40558025799691677093505859375" lon="119.49249266646802425384521484375">
        <ele>6.80000019073486328125</ele>
        <time>2025-01-27T23:20:47.000Z</time>
        <extensions>
          <ns3:TrackPointExtension>
            <ns3:hr>140</ns3:hr>
            <ns3:cad>94</ns3:cad>
          </ns3:TrackPointExtension>
        </extensions>
      </trkpt>
      <trkpt lat="31.40567380003631114959716796875" lon="119.49247405864298343658447265625">
        <ele>6.599999904632568359375</ele>
        <time>2025-01-27T23:20:51.000Z</time>
        <extensions>
          <ns3:TrackPointExtension>
            <ns3:hr>139</ns3:hr>
            <ns3:cad>94</ns3:cad>
          </ns3:TrackPointExtension>
        </extensions>
      </trkpt>
      <trkpt lat="31.40577237121760845184326171875" lon="119.4924899004399776458740234375">
        <ele>6.19999980926513671875</ele>
        <time>2025-01-27T23:20:55.000Z</time>
        <extensions>
          <ns3:TrackPointExtension>
            <ns3:cad>94</ns3:cad>
          </ns3:TrackPointExtension>
        </extensions>
      </trkpt>
      <trkpt lat="31.40586557798087596893310546875" lon="119.49249543249607086181640625">
        <ele>5.80000019073486328125</ele>
        <time>2025-01-27T23:20:59.000Z</time>
        <extensions>
          <ns3:TrackPointExtension>
            <ns3:cad>94</ns3:cad>
          </ns3:TrackPointExtension>
        </extensions>
      </trkpt>
      <trkpt lat="31.40597973950207233428955078125" lon="119.4924848712980747222900390625">
        <ele>5.400000095367431640625</ele>
        <time>2025-01-27T23:21:04.000Z</time>
        <extensions>
          <ns3:TrackPointExtension>
            <ns3:cad>94</ns3:cad>
          </ns3:TrackPointExtension>
        </extensions>
      </trkpt>
      <trkpt lat="31.40608920715749263763427734375" lon="119.4924570433795452117919921875">
        <ele>5.19999980926513671875</ele>
        <time>2025-01-27T23:21:09.000Z</time>
        <extensions>
          <ns3:TrackPointExtension>
            <ns3:hr>141</ns3:hr>
            <ns3:cad>82</ns3:cad>
          </ns3:TrackPointExtension>
        </extensions>
      </trkpt>
      <trkpt lat="31.406194902956485748291015625" lon="119.49243240058422088623046875">
        <ele>5.19999980926513671875</ele>
        <time>2025-01-27T23:21:14.000Z</time>
        <extensions>
          <ns3:TrackPointExtension>
            <ns3:cad>94</ns3:cad>
          </ns3:TrackPointExtension>
        </extensions>
      </trkpt>
      <trkpt lat="31.40630143694579601287841796875" lon="119.492405243217945098876953125">
        <ele>5.400000095367431640625</ele>
        <time>2025-01-27T23:21:18.000Z</time>
        <extensions>
          <ns3:TrackPointExtension>
            <ns3:cad>94</ns3:cad>
          </ns3:TrackPointExtension>
        </extensions>
      </trkpt>
      <trkpt lat="31.40639380551874637603759765625" lon="119.49238001368939876556396484375">
        <ele>5.400000095367431640625</ele>
        <time>2025-01-27T23:21:23.000Z</time>
        <extensions>
          <ns3:TrackPointExtension>
            <ns3:cad>94</ns3:cad>
          </ns3:TrackPointExtension>
        </extensions>
      </trkpt>
      <trkpt lat="31.40649103559553623199462890625" lon="119.492366015911102294921875">
        <ele>5.400000095367431640625</ele>
        <time>2025-01-27T23:21:27.000Z</time>
        <extensions>
          <ns3:TrackPointExtension>
            <ns3:hr>139</ns3:hr>
            <ns3:cad>94</ns3:cad>
          </ns3:TrackPointExtension>
        </extensions>
      </trkpt>
      <trkpt lat="31.40658541582524776458740234375" lon="119.49234925210475921630859375">
        <ele>5.599999904632568359375</ele>
        <time>2025-01-27T23:21:31.000Z</time>
        <extensions>
          <ns3:TrackPointExtension>
            <ns3:cad>94</ns3:cad>
          </ns3:TrackPointExtension>
        </extensions>
      </trkpt>
      <trkpt lat="31.4066872559487819671630859375" lon="119.49231170117855072021484375">
        <ele>5.599999904632568359375</ele>
        <time>2025-01-27T23:21:36.000Z</time>
        <extensions>
          <ns3:TrackPointExtension>
            <ns3:cad>82</ns3:cad>
          </ns3:TrackPointExtension>
        </extensions>
      </trkpt>
      <trkpt lat="31.4067828096449375152587890625" lon="119.4922788441181182861328125">
        <ele>5.80000019073486328125</ele>
        <time>2025-01-27T23:21:40.000Z</time>
        <extensions>
          <ns3:TrackPointExtension>
            <ns3:cad>94</ns3:cad>
          </ns3:TrackPointExtension>
        </extensions>
      </trkpt>
      <trkpt lat="31.4068790338933467864990234375" lon="119.492257721722126007080078125">
        <ele>5.80000019073486328125</ele>
        <time>2025-01-27T23:21:44.000Z</time>
        <extensions>
          <ns3:TrackPointExtension>
            <ns3:cad>94</ns3:cad>
          </ns3:TrackPointExtension>
        </extensions>
      </trkpt>
      <trkpt lat="31.40698137693107128143310546875" lon="119.4922434724867343902587890625">
        <ele>6.19999980926513671875</ele>
        <time>2025-01-27T23:21:48.000Z</time>
        <extensions>
          <ns3:TrackPointExtension>
            <ns3:hr>140</ns3:hr>
            <ns3:cad>94</ns3:cad>
          </ns3:TrackPointExtension>
        </extensions>
      </trkpt>
      <trkpt lat="31.4070795290172100067138671875" lon="119.4922411255538463592529296875">
        <ele>6.599999904632568359375</ele>
        <time>2025-01-27T23:21:52.000Z</time>
        <extensions>
          <ns3:TrackPointExtension>
            <ns3:cad>82</ns3:cad>
          </ns3:TrackPointExtension>
        </extensions>
      </trkpt>
      <trkpt lat="31.4071770943701267242431640625" lon="119.4922230206429958343505859375">
        <ele>7</ele>
        <time>2025-01-27T23:21:56.000Z</time>
        <extensions>
          <ns3:TrackPointExtension>
            <ns3:cad>94</ns3:cad>
          </ns3:TrackPointExtension>
        </extensions>
      </trkpt>
      <trkpt lat="31.4072847180068492889404296875" lon="119.492177255451679229736328125">
        <ele>7.400000095367431640625</ele>
        <time>2025-01-27T23:22:01.000Z</time>
        <extensions>
          <ns3:TrackPointExtension>
            <ns3:cad>94</ns3:cad>
          </ns3:TrackPointExtension>
        </extensions>
      </trkpt>
      <trkpt lat="31.40737582929432392120361328125" lon="119.49216258712112903594970703125">
        <ele>7.80000019073486328125</ele>
        <time>2025-01-27T23:22:05.000Z</time>
        <extensions>
          <ns3:TrackPointExtension>
            <ns3:cad>94</ns3:cad>
          </ns3:TrackPointExtension>
        </extensions>
      </trkpt>
      <trkpt lat="31.4074932597577571868896484375" lon="119.4921415485441684722900390625">
        <ele>7.599999904632568359375</ele>
        <time>2025-01-27T23:22:10.000Z</time>
        <extensions>
          <ns3:TrackPointExtension>
            <ns3:cad>82</ns3:cad>
          </ns3:TrackPointExtension>
        </extensions>
      </trkpt>
      <trkpt lat="31.40758906491100788116455078125" lon="119.492104165256023406982421875">
        <ele>6.80000019073486328125</ele>
        <time>2025-01-27T23:22:15.000Z</time>
        <extensions>
          <ns3:TrackPointExtension>
            <ns3:hr>142</ns3:hr>
            <ns3:cad>94</ns3:cad>
          </ns3:TrackPointExtension>
        </extensions>
      </trkpt>
      <trkpt lat="31.4076803438365459442138671875" lon="119.49207994155585765838623046875">
        <ele>6.19999980926513671875</ele>
        <time>2025-01-27T23:22:19.000Z</time>
        <extensions>
          <ns3:TrackPointExtension>
            <ns3:hr>143</ns3:hr>
            <ns3:cad>94</ns3:cad>
          </ns3:TrackPointExtension>
        </extensions>
      </trkpt>
      <trkpt lat="31.4077929966151714324951171875" lon="119.4920527003705501556396484375">
        <ele>5.80000019073486328125</ele>
        <time>2025-01-27T23:22:23.000Z</time>
        <extensions>
          <ns3:TrackPointExtension>
            <ns3:cad>94</ns3:cad>
          </ns3:TrackPointExtension>
        </extensions>
      </trkpt>
      <trkpt lat="31.4078875444829463958740234375" lon="119.492046497762203216552734375">
        <ele>5.19999980926513671875</ele>
        <time>2025-01-27T23:22:27.000Z</time>
        <extensions>
          <ns3:TrackPointExtension>
            <ns3:hr>143</ns3:hr>
            <ns3:cad>94</ns3:cad>
          </ns3:TrackPointExtension>
        </extensions>
      </trkpt>
      <trkpt lat="31.4080042205750942230224609375" lon="119.4920131377875804901123046875">
        <ele>4.80000019073486328125</ele>
        <time>2025-01-27T23:22:32.000Z</time>
        <extensions>
          <ns3:TrackPointExtension>
            <ns3:cad>82</ns3:cad>
          </ns3:TrackPointExtension>
        </extensions>
      </trkpt>
      <trkpt lat="31.40809013508260250091552734375" lon="119.49197910726070404052734375">
        <ele>5.19999980926513671875</ele>
        <time>2025-01-27T23:22:37.000Z</time>
        <extensions>
          <ns3:TrackPointExtension>
            <ns3:hr>141</ns3:hr>
            <ns3:cad>82</ns3:cad>
          </ns3:TrackPointExtension>
        </extensions>
      </trkpt>
      <trkpt lat="31.40810052864253520965576171875" lon="119.49209888465702533721923828125">
        <ele>4.599999904632568359375</ele>
        <time>2025-01-27T23:22:41.000Z</time>
        <extensions>
          <ns3:TrackPointExtension>
            <ns3:cad>94</ns3:cad>
          </ns3:TrackPointExtension>
        </extensions>
      </trkpt>
      <trkpt lat="31.40810539014637470245361328125" lon="119.492209441959857940673828125">
        <ele>4.400000095367431640625</ele>
        <time>2025-01-27T23:22:45.000Z</time>
        <extensions>
          <ns3:TrackPointExtension>
            <ns3:cad>94</ns3:cad>
          </ns3:TrackPointExtension>
        </extensions>
      </trkpt>
      <trkpt lat="31.40811293385922908782958984375" lon="119.49233324266970157623291015625">
        <ele>3.599999904632568359375</ele>
        <time>2025-01-27T23:22:49.000Z</time>
        <extensions>
          <ns3:TrackPointExtension>
            <ns3:hr>142</ns3:hr>
            <ns3:cad>82</ns3:cad>
          </ns3:TrackPointExtension>
        </extensions>
      </trkpt>
      <trkpt lat="31.40809348784387111663818359375" lon="119.49245117604732513427734375">
        <ele>3.2000000476837158203125</ele>
        <time>2025-01-27T23:22:53.000Z</time>
        <extensions>
          <ns3:TrackPointExtension>
            <ns3:cad>94</ns3:cad>
          </ns3:TrackPointExtension>
        </extensions>
      </trkpt>
      <trkpt lat="31.40807957388460636138916015625" lon="119.49256273917853832244873046875">
        <ele>3</ele>
        <time>2025-01-27T23:22:57.000Z</time>
        <extensions>
          <ns3:TrackPointExtension>
            <ns3:hr>143</ns3:hr>
            <ns3:cad>94</ns3:cad>
          </ns3:TrackPointExtension>
        </extensions>
      </trkpt>
      <trkpt lat="31.40806867741048336029052734375" lon="119.492677487432956695556640625">
        <ele>3</ele>
        <time>2025-01-27T23:23:01.000Z</time>
        <extensions>
          <ns3:TrackPointExtension>
            <ns3:cad>94</ns3:cad>
          </ns3:TrackPointExtension>
        </extensions>
      </trkpt>
      <trkpt lat="31.4080548472702503204345703125" lon="119.49280296452343463897705078125">
        <ele>3</ele>
        <time>2025-01-27T23:23:06.000Z</time>
        <extensions>
          <ns3:TrackPointExtension>
            <ns3:hr>142</ns3:hr>
            <ns3:cad>82</ns3:cad>
          </ns3:TrackPointExtension>
        </extensions>
      </trkpt>
      <trkpt lat="31.40804319642484188079833984375" lon="119.49291964061558246612548828125">
        <ele>3.400000095367431640625</ele>
        <time>2025-01-27T23:23:10.000Z</time>
        <extensions>
          <ns3:TrackPointExtension>
            <ns3:cad>94</ns3:cad>
          </ns3:TrackPointExtension>
        </extensions>
      </trkpt>
      <trkpt lat="31.40802173875272274017333984375" lon="119.49302407912909984588623046875">
        <ele>4</ele>
        <time>2025-01-27T23:23:14.000Z</time>
        <extensions>
          <ns3:TrackPointExtension>
            <ns3:cad>94</ns3:cad>
          </ns3:TrackPointExtension>
        </extensions>
      </trkpt>
      <trkpt lat="31.40801603905856609344482421875" lon="119.49315014295279979705810546875">
        <ele>5.19999980926513671875</ele>
        <time>2025-01-27T23:23:18.000Z</time>
        <extensions>
          <ns3:TrackPointExtension>
            <ns3:hr>143</ns3:hr>
            <ns3:cad>94</ns3:cad>
          </ns3:TrackPointExtension>
        </extensions>
      </trkpt>
      <trkpt lat="31.40800128690898418426513671875" lon="119.4932747818529605865478515625">
        <ele>6.80000019073486328125</ele>
        <time>2025-01-27T23:23:22.000Z</time>
        <extensions>
          <ns3:TrackPointExtension>
            <ns3:cad>94</ns3:cad>
          </ns3:TrackPointExtension>
        </extensions>
      </trkpt>
      <trkpt lat="31.407971866428852081298828125" lon="119.49338701553642749786376953125">
        <ele>8.19999980926513671875</ele>
        <time>2025-01-27T23:23:26.000Z</time>
        <extensions>
          <ns3:TrackPointExtension>
            <ns3:cad>94</ns3:cad>
          </ns3:TrackPointExtension>
        </extensions>
      </trkpt>
      <trkpt lat="31.4079609699547290802001953125" lon="119.493508636951446533203125">
        <ele>9.19999980926513671875</ele>
        <time>2025-01-27T23:23:30.000Z</time>
        <extensions>
          <ns3:TrackPointExtension>
            <ns3:cad>94</ns3:cad>
          </ns3:TrackPointExtension>
        </extensions>
      </trkpt>
      <trkpt lat="31.4079458825290203094482421875" lon="119.493632353842258453369140625">
        <ele>9.6000003814697265625</ele>
        <time>2025-01-27T23:23:34.000Z</time>
        <extensions>
          <ns3:TrackPointExtension>
            <ns3:cad>94</ns3:cad>
          </ns3:TrackPointExtension>
        </extensions>
      </trkpt>
      <trkpt lat="31.40793071128427982330322265625" lon="119.49374534189701080322265625">
        <ele>8.6000003814697265625</ele>
        <time>2025-01-27T23:23:38.000Z</time>
        <extensions>
          <ns3:TrackPointExtension>
            <ns3:cad>94</ns3:cad>
          </ns3:TrackPointExtension>
        </extensions>
      </trkpt>
      <trkpt lat="31.40791730023920536041259765625" lon="119.49385573156177997589111328125">
        <ele>7.599999904632568359375</ele>
        <time>2025-01-27T23:23:42.000Z</time>
        <extensions>
          <ns3:TrackPointExtension>
            <ns3:hr>142</ns3:hr>
            <ns3:cad>94</ns3:cad>
          </ns3:TrackPointExtension>
        </extensions>
      </trkpt>
      <trkpt lat="31.4079103432595729827880859375" lon="119.493968971073627471923828125">
        <ele>6.80000019073486328125</ele>
        <time>2025-01-27T23:23:46.000Z</time>
        <extensions>
          <ns3:TrackPointExtension>
            <ns3:cad>82</ns3:cad>
          </ns3:TrackPointExtension>
        </extensions>
      </trkpt>
      <trkpt lat="31.40788905322551727294921875" lon="119.494079612195491790771484375">
        <ele>6.19999980926513671875</ele>
        <time>2025-01-27T23:23:50.000Z</time>
        <extensions>
          <ns3:TrackPointExtension>
            <ns3:cad>94</ns3:cad>
          </ns3:TrackPointExtension>
        </extensions>
      </trkpt>
      <trkpt lat="31.40788444317877292633056640625" lon="119.49420106597244739532470703125">
        <ele>5.599999904632568359375</ele>
        <time>2025-01-27T23:23:54.000Z</time>
        <extensions>
          <ns3:TrackPointExtension>
            <ns3:cad>94</ns3:cad>
          </ns3:TrackPointExtension>
        </extensions>
      </trkpt>
      <trkpt lat="31.40786759555339813232421875" lon="119.4943255372345447540283203125">
        <ele>5.599999904632568359375</ele>
        <time>2025-01-27T23:23:58.000Z</time>
        <extensions>
          <ns3:TrackPointExtension>
            <ns3:hr>143</ns3:hr>
            <ns3:cad>94</ns3:cad>
          </ns3:TrackPointExtension>
        </extensions>
      </trkpt>
      <trkpt lat="31.407849155366420745849609375" lon="119.494463838636875152587890625">
        <ele>5.400000095367431640625</ele>
        <time>2025-01-27T23:24:03.000Z</time>
        <extensions>
          <ns3:TrackPointExtension>
            <ns3:cad>82</ns3:cad>
          </ns3:TrackPointExtension>
        </extensions>
      </trkpt>
      <trkpt lat="31.40782744623720645904541015625" lon="119.4945748150348663330078125">
        <ele>6</ele>
        <time>2025-01-27T23:24:07.000Z</time>
        <extensions>
          <ns3:TrackPointExtension>
            <ns3:hr>143</ns3:hr>
            <ns3:cad>94</ns3:cad>
          </ns3:TrackPointExtension>
        </extensions>
      </trkpt>
      <trkpt lat="31.40780598856508731842041015625" lon="119.49468218721449375152587890625">
        <ele>6.400000095367431640625</ele>
        <time>2025-01-27T23:24:11.000Z</time>
        <extensions>
          <ns3:TrackPointExtension/>
        </extensions>
      </trkpt>
    </trkseg>
  </trk>
</gpx>
