<gpx xmlns:ns3="http://www.garmin.com/xmlschemas/TrackPointExtension/v1" xmlns="http://www.topografix.com/GPX/1/1" xmlns:xsi="http://www.w3.org/2001/XMLSchema-instance" xmlns:ns2="http://www.garmin.com/xmlschemas/GpxExtensions/v3" creator="Garmin Connect" version="1.1" xsi:schemaLocation="http://www.topografix.com/GPX/1/1 http://www.topografix.com/GPX/11.xsd">
  <extensions>
<distance>1831.68</distance>
<average_hr>131.0</average_hr>
<average_speed>8.583999633789062</average_speed>
<start_time>2025-01-27T22:17:06+00:00</start_time>
<end_time>2025-01-27T22:29:54+00:00</end_time>
<moving_time>758.0</moving_time>
<elapsed_time>849.0</elapsed_time>
</extensions>
<metadata>
    <link href="connect.garmin.com">
      <text>Garmin Connect</text>
    </link>
    <time>2025-01-27T22:17:06.000Z</time>
  </metadata>
  <trk>
    <name>常州市 街道路跑</name>
    <type>street_running</type>
    <trkseg>
      <trkpt lat="31.407787799835205078125" lon="119.49493766762316226959228515625">
        <ele>6.80000019073486328125</ele>
        <time>2025-01-27T22:18:15.000Z</time>
        <extensions>
          <ns3:TrackPointExtension>
            <ns3:cad>94</ns3:cad>
          </ns3:TrackPointExtension>
        </extensions>
      </trkpt>
      <trkpt lat="31.40777396969497203826904296875" lon="119.4950675033032894134521484375">
        <ele>6.599999904632568359375</ele>
        <time>2025-01-27T22:18:20.000Z</time>
        <extensions>
          <ns3:TrackPointExtension>
            <ns3:cad>94</ns3:cad>
          </ns3:TrackPointExtension>
        </extensions>
      </trkpt>
      <trkpt lat="31.4077651686966419219970703125" lon="119.495198093354701995849609375">
        <ele>6.19999980926513671875</ele>
        <time>2025-01-27T22:18:25.000Z</time>
        <extensions>
          <ns3:TrackPointExtension>
            <ns3:cad>94</ns3:cad>
          </ns3:TrackPointExtension>
        </extensions>
      </trkpt>
      <trkpt lat="31.4077460579574108123779296875" lon="119.4953011907637119293212890625">
        <ele>5.80000019073486328125</ele>
        <time>2025-01-27T22:18:29.000Z</time>
        <extensions>
          <ns3:TrackPointExtension>
            <ns3:cad>94</ns3:cad>
          </ns3:TrackPointExtension>
        </extensions>
      </trkpt>
      <trkpt lat="31.40773172490298748016357421875" lon="119.4954275898635387420654296875">
        <ele>5.400000095367431640625</ele>
        <time>2025-01-27T22:18:34.000Z</time>
        <extensions>
          <ns3:TrackPointExtension>
            <ns3:cad>94</ns3:cad>
          </ns3:TrackPointExtension>
        </extensions>
      </trkpt>
      <trkpt lat="31.40771177597343921661376953125" lon="119.49553512968122959136962890625">
        <ele>5</ele>
        <time>2025-01-27T22:18:38.000Z</time>
        <extensions>
          <ns3:TrackPointExtension>
            <ns3:hr>122</ns3:hr>
            <ns3:cad>94</ns3:cad>
          </ns3:TrackPointExtension>
        </extensions>
      </trkpt>
      <trkpt lat="31.4077014662325382232666015625" lon="119.49564032256603240966796875">
        <ele>4.599999904632568359375</ele>
        <time>2025-01-27T22:18:42.000Z</time>
        <extensions>
          <ns3:TrackPointExtension>
            <ns3:cad>94</ns3:cad>
          </ns3:TrackPointExtension>
        </extensions>
      </trkpt>
      <trkpt lat="31.4076806791126728057861328125" lon="119.49574626982212066650390625">
        <ele>4</ele>
        <time>2025-01-27T22:18:46.000Z</time>
        <extensions>
          <ns3:TrackPointExtension>
            <ns3:cad>94</ns3:cad>
          </ns3:TrackPointExtension>
        </extensions>
      </trkpt>
      <trkpt lat="31.40760985203087329864501953125" lon="119.495842494070529937744140625">
        <ele>3.400000095367431640625</ele>
        <time>2025-01-27T22:18:51.000Z</time>
        <extensions>
          <ns3:TrackPointExtension>
            <ns3:cad>94</ns3:cad>
          </ns3:TrackPointExtension>
        </extensions>
      </trkpt>
      <trkpt lat="31.40750457532703876495361328125" lon="119.4958906061947345733642578125">
        <ele>2.7999999523162841796875</ele>
        <time>2025-01-27T22:18:56.000Z</time>
        <extensions>
          <ns3:TrackPointExtension>
            <ns3:cad>94</ns3:cad>
          </ns3:TrackPointExtension>
        </extensions>
      </trkpt>
      <trkpt lat="31.407386474311351776123046875" lon="119.4959030114114284515380859375">
        <ele>2.7999999523162841796875</ele>
        <time>2025-01-27T22:19:01.000Z</time>
        <extensions>
          <ns3:TrackPointExtension>
            <ns3:hr>127</ns3:hr>
            <ns3:cad>94</ns3:cad>
          </ns3:TrackPointExtension>
        </extensions>
      </trkpt>
      <trkpt lat="31.40727826394140720367431640625" lon="119.49591382406651973724365234375">
        <ele>2.7999999523162841796875</ele>
        <time>2025-01-27T22:19:06.000Z</time>
        <extensions>
          <ns3:TrackPointExtension>
            <ns3:cad>94</ns3:cad>
          </ns3:TrackPointExtension>
        </extensions>
      </trkpt>
      <trkpt lat="31.40718874521553516387939453125" lon="119.49592773802578449249267578125">
        <ele>3.400000095367431640625</ele>
        <time>2025-01-27T22:19:10.000Z</time>
        <extensions>
          <ns3:TrackPointExtension>
            <ns3:cad>94</ns3:cad>
          </ns3:TrackPointExtension>
        </extensions>
      </trkpt>
      <trkpt lat="31.4070855639874935150146484375" lon="119.4959348626434803009033203125">
        <ele>3.7999999523162841796875</ele>
        <time>2025-01-27T22:19:15.000Z</time>
        <extensions>
          <ns3:TrackPointExtension>
            <ns3:cad>94</ns3:cad>
          </ns3:TrackPointExtension>
        </extensions>
      </trkpt>
      <trkpt lat="31.406992860138416290283203125" lon="119.4959496147930622100830078125">
        <ele>4.19999980926513671875</ele>
        <time>2025-01-27T22:19:19.000Z</time>
        <extensions>
          <ns3:TrackPointExtension>
            <ns3:cad>94</ns3:cad>
          </ns3:TrackPointExtension>
        </extensions>
      </trkpt>
      <trkpt lat="31.4068907685577869415283203125" lon="119.49595992453396320343017578125">
        <ele>4.599999904632568359375</ele>
        <time>2025-01-27T22:19:24.000Z</time>
        <extensions>
          <ns3:TrackPointExtension>
            <ns3:cad>94</ns3:cad>
          </ns3:TrackPointExtension>
        </extensions>
      </trkpt>
      <trkpt lat="31.40680016018450260162353515625" lon="119.49596579186618328094482421875">
        <ele>5.400000095367431640625</ele>
        <time>2025-01-27T22:19:28.000Z</time>
        <extensions>
          <ns3:TrackPointExtension>
            <ns3:cad>94</ns3:cad>
          </ns3:TrackPointExtension>
        </extensions>
      </trkpt>
      <trkpt lat="31.40670913271605968475341796875" lon="119.4959802925586700439453125">
        <ele>5.400000095367431640625</ele>
        <time>2025-01-27T22:19:32.000Z</time>
        <extensions>
          <ns3:TrackPointExtension>
            <ns3:cad>94</ns3:cad>
          </ns3:TrackPointExtension>
        </extensions>
      </trkpt>
      <trkpt lat="31.40661089681088924407958984375" lon="119.49598758481442928314208984375">
        <ele>5.400000095367431640625</ele>
        <time>2025-01-27T22:19:37.000Z</time>
        <extensions>
          <ns3:TrackPointExtension>
            <ns3:hr>133</ns3:hr>
            <ns3:cad>94</ns3:cad>
          </ns3:TrackPointExtension>
        </extensions>
      </trkpt>
      <trkpt lat="31.40651534311473369598388671875" lon="119.4959844835102558135986328125">
        <ele>5.400000095367431640625</ele>
        <time>2025-01-27T22:19:42.000Z</time>
        <extensions>
          <ns3:TrackPointExtension>
            <ns3:hr>133</ns3:hr>
            <ns3:cad>94</ns3:cad>
          </ns3:TrackPointExtension>
        </extensions>
      </trkpt>
      <trkpt lat="31.40640570782124996185302734375" lon="119.49600585736334323883056640625">
        <ele>5</ele>
        <time>2025-01-27T22:19:47.000Z</time>
        <extensions>
          <ns3:TrackPointExtension>
            <ns3:cad>94</ns3:cad>
          </ns3:TrackPointExtension>
        </extensions>
      </trkpt>
      <trkpt lat="31.40630445443093776702880859375" lon="119.4960151612758636474609375">
        <ele>4.400000095367431640625</ele>
        <time>2025-01-27T22:19:52.000Z</time>
        <extensions>
          <ns3:TrackPointExtension>
            <ns3:cad>94</ns3:cad>
          </ns3:TrackPointExtension>
        </extensions>
      </trkpt>
      <trkpt lat="31.40621535480022430419921875" lon="119.4960320927202701568603515625">
        <ele>4</ele>
        <time>2025-01-27T22:19:56.000Z</time>
        <extensions>
          <ns3:TrackPointExtension>
            <ns3:cad>94</ns3:cad>
          </ns3:TrackPointExtension>
        </extensions>
      </trkpt>
      <trkpt lat="31.40611653216183185577392578125" lon="119.49604106135666370391845703125">
        <ele>3.599999904632568359375</ele>
        <time>2025-01-27T22:20:01.000Z</time>
        <extensions>
          <ns3:TrackPointExtension>
            <ns3:cad>82</ns3:cad>
          </ns3:TrackPointExtension>
        </extensions>
      </trkpt>
      <trkpt lat="31.40601494349539279937744140625" lon="119.496057070791721343994140625">
        <ele>3.2000000476837158203125</ele>
        <time>2025-01-27T22:20:06.000Z</time>
        <extensions>
          <ns3:TrackPointExtension>
            <ns3:cad>94</ns3:cad>
          </ns3:TrackPointExtension>
        </extensions>
      </trkpt>
      <trkpt lat="31.40590832568705081939697265625" lon="119.4960719905793666839599609375">
        <ele>3.2000000476837158203125</ele>
        <time>2025-01-27T22:20:11.000Z</time>
        <extensions>
          <ns3:TrackPointExtension>
            <ns3:cad>94</ns3:cad>
          </ns3:TrackPointExtension>
        </extensions>
      </trkpt>
      <trkpt lat="31.4058044739067554473876953125" lon="119.49608883820474147796630859375">
        <ele>3</ele>
        <time>2025-01-27T22:20:16.000Z</time>
        <extensions>
          <ns3:TrackPointExtension>
            <ns3:cad>94</ns3:cad>
          </ns3:TrackPointExtension>
        </extensions>
      </trkpt>
      <trkpt lat="31.40570900402963161468505859375" lon="119.49609856121242046356201171875">
        <ele>3.400000095367431640625</ele>
        <time>2025-01-27T22:20:20.000Z</time>
        <extensions>
          <ns3:TrackPointExtension>
            <ns3:cad>94</ns3:cad>
          </ns3:TrackPointExtension>
        </extensions>
      </trkpt>
      <trkpt lat="31.405598111450672149658203125" lon="119.49612177908420562744140625">
        <ele>3.7999999523162841796875</ele>
        <time>2025-01-27T22:20:25.000Z</time>
        <extensions>
          <ns3:TrackPointExtension>
            <ns3:cad>70</ns3:cad>
          </ns3:TrackPointExtension>
        </extensions>
      </trkpt>
      <trkpt lat="31.40550046227872371673583984375" lon="119.49612018652260303497314453125">
        <ele>4.400000095367431640625</ele>
        <time>2025-01-27T22:20:30.000Z</time>
        <extensions>
          <ns3:TrackPointExtension>
            <ns3:cad>94</ns3:cad>
          </ns3:TrackPointExtension>
        </extensions>
      </trkpt>
      <trkpt lat="31.40541245229542255401611328125" lon="119.49608850292861461639404296875">
        <ele>5.400000095367431640625</ele>
        <time>2025-01-27T22:20:34.000Z</time>
        <extensions>
          <ns3:TrackPointExtension>
            <ns3:cad>94</ns3:cad>
          </ns3:TrackPointExtension>
        </extensions>
      </trkpt>
      <trkpt lat="31.4053639210760593414306640625" lon="119.49596914462745189666748046875">
        <ele>6.19999980926513671875</ele>
        <time>2025-01-27T22:20:39.000Z</time>
        <extensions>
          <ns3:TrackPointExtension>
            <ns3:cad>82</ns3:cad>
          </ns3:TrackPointExtension>
        </extensions>
      </trkpt>
      <trkpt lat="31.40536752529442310333251953125" lon="119.4958595931529998779296875">
        <ele>7</ele>
        <time>2025-01-27T22:20:43.000Z</time>
        <extensions>
          <ns3:TrackPointExtension>
            <ns3:hr>131</ns3:hr>
            <ns3:cad>94</ns3:cad>
          </ns3:TrackPointExtension>
        </extensions>
      </trkpt>
      <trkpt lat="31.40537322498857975006103515625" lon="119.49572858400642871856689453125">
        <ele>7.400000095367431640625</ele>
        <time>2025-01-27T22:20:48.000Z</time>
        <extensions>
          <ns3:TrackPointExtension>
            <ns3:cad>94</ns3:cad>
          </ns3:TrackPointExtension>
        </extensions>
      </trkpt>
      <trkpt lat="31.40538093633949756622314453125" lon="119.49562012217938899993896484375">
        <ele>7.599999904632568359375</ele>
        <time>2025-01-27T22:20:52.000Z</time>
        <extensions>
          <ns3:TrackPointExtension>
            <ns3:cad>94</ns3:cad>
          </ns3:TrackPointExtension>
        </extensions>
      </trkpt>
      <trkpt lat="31.4053927548229694366455078125" lon="119.495496489107608795166015625">
        <ele>7.19999980926513671875</ele>
        <time>2025-01-27T22:20:57.000Z</time>
        <extensions>
          <ns3:TrackPointExtension>
            <ns3:hr>134</ns3:hr>
            <ns3:cad>94</ns3:cad>
          </ns3:TrackPointExtension>
        </extensions>
      </trkpt>
      <trkpt lat="31.40539987944066524505615234375" lon="119.495388530194759368896484375">
        <ele>7</ele>
        <time>2025-01-27T22:21:01.000Z</time>
        <extensions>
          <ns3:TrackPointExtension>
            <ns3:cad>94</ns3:cad>
          </ns3:TrackPointExtension>
        </extensions>
      </trkpt>
      <trkpt lat="31.405414380133152008056640625" lon="119.4952629692852497100830078125">
        <ele>6.80000019073486328125</ele>
        <time>2025-01-27T22:21:06.000Z</time>
        <extensions>
          <ns3:TrackPointExtension>
            <ns3:cad>94</ns3:cad>
          </ns3:TrackPointExtension>
        </extensions>
      </trkpt>
      <trkpt lat="31.40542452223598957061767578125" lon="119.49514285661280155181884765625">
        <ele>6.400000095367431640625</ele>
        <time>2025-01-27T22:21:11.000Z</time>
        <extensions>
          <ns3:TrackPointExtension>
            <ns3:cad>94</ns3:cad>
          </ns3:TrackPointExtension>
        </extensions>
      </trkpt>
      <trkpt lat="31.40543424524366855621337890625" lon="119.49500841088593006134033203125">
        <ele>7</ele>
        <time>2025-01-27T22:21:16.000Z</time>
        <extensions>
          <ns3:TrackPointExtension>
            <ns3:hr>136</ns3:hr>
            <ns3:cad>82</ns3:cad>
          </ns3:TrackPointExtension>
        </extensions>
      </trkpt>
      <trkpt lat="31.4054463990032672882080078125" lon="119.4948886334896087646484375">
        <ele>7.19999980926513671875</ele>
        <time>2025-01-27T22:21:21.000Z</time>
        <extensions>
          <ns3:TrackPointExtension>
            <ns3:hr>136</ns3:hr>
            <ns3:cad>94</ns3:cad>
          </ns3:TrackPointExtension>
        </extensions>
      </trkpt>
      <trkpt lat="31.405449919402599334716796875" lon="119.49478201568126678466796875">
        <ele>7.19999980926513671875</ele>
        <time>2025-01-27T22:21:25.000Z</time>
        <extensions>
          <ns3:TrackPointExtension>
            <ns3:cad>94</ns3:cad>
          </ns3:TrackPointExtension>
        </extensions>
      </trkpt>
      <trkpt lat="31.405467689037322998046875" lon="119.49466911144554615020751953125">
        <ele>7</ele>
        <time>2025-01-27T22:21:30.000Z</time>
        <extensions>
          <ns3:TrackPointExtension>
            <ns3:cad>82</ns3:cad>
          </ns3:TrackPointExtension>
        </extensions>
      </trkpt>
      <trkpt lat="31.40547414310276508331298828125" lon="119.49453659355640411376953125">
        <ele>6.599999904632568359375</ele>
        <time>2025-01-27T22:21:35.000Z</time>
        <extensions>
          <ns3:TrackPointExtension>
            <ns3:cad>94</ns3:cad>
          </ns3:TrackPointExtension>
        </extensions>
      </trkpt>
      <trkpt lat="31.40548168681561946868896484375" lon="119.49441254138946533203125">
        <ele>6</ele>
        <time>2025-01-27T22:21:40.000Z</time>
        <extensions>
          <ns3:TrackPointExtension>
            <ns3:cad>82</ns3:cad>
          </ns3:TrackPointExtension>
        </extensions>
      </trkpt>
      <trkpt lat="31.405488811433315277099609375" lon="119.49429779313504695892333984375">
        <ele>6</ele>
        <time>2025-01-27T22:21:45.000Z</time>
        <extensions>
          <ns3:TrackPointExtension>
            <ns3:cad>94</ns3:cad>
          </ns3:TrackPointExtension>
        </extensions>
      </trkpt>
      <trkpt lat="31.40549794770777225494384765625" lon="119.49417290277779102325439453125">
        <ele>6</ele>
        <time>2025-01-27T22:21:50.000Z</time>
        <extensions>
          <ns3:TrackPointExtension>
            <ns3:cad>82</ns3:cad>
          </ns3:TrackPointExtension>
        </extensions>
      </trkpt>
      <trkpt lat="31.40551798045635223388671875" lon="119.4940653629601001739501953125">
        <ele>6</ele>
        <time>2025-01-27T22:21:55.000Z</time>
        <extensions>
          <ns3:TrackPointExtension>
            <ns3:cad>94</ns3:cad>
          </ns3:TrackPointExtension>
        </extensions>
      </trkpt>
      <trkpt lat="31.40551932156085968017578125" lon="119.4939466752111911773681640625">
        <ele>6</ele>
        <time>2025-01-27T22:22:00.000Z</time>
        <extensions>
          <ns3:TrackPointExtension>
            <ns3:hr>134</ns3:hr>
            <ns3:cad>82</ns3:cad>
          </ns3:TrackPointExtension>
        </extensions>
      </trkpt>
      <trkpt lat="31.4055360853672027587890625" lon="119.4938269816339015960693359375">
        <ele>6.19999980926513671875</ele>
        <time>2025-01-27T22:22:05.000Z</time>
        <extensions>
          <ns3:TrackPointExtension>
            <ns3:cad>94</ns3:cad>
          </ns3:TrackPointExtension>
        </extensions>
      </trkpt>
      <trkpt lat="31.4055406115949153900146484375" lon="119.4937005825340747833251953125">
        <ele>6.80000019073486328125</ele>
        <time>2025-01-27T22:22:10.000Z</time>
        <extensions>
          <ns3:TrackPointExtension>
            <ns3:cad>94</ns3:cad>
          </ns3:TrackPointExtension>
        </extensions>
      </trkpt>
      <trkpt lat="31.4055493287742137908935546875" lon="119.4935909472405910491943359375">
        <ele>7</ele>
        <time>2025-01-27T22:22:14.000Z</time>
        <extensions>
          <ns3:TrackPointExtension>
            <ns3:cad>94</ns3:cad>
          </ns3:TrackPointExtension>
        </extensions>
      </trkpt>
      <trkpt lat="31.40556215308606624603271484375" lon="119.4934689067304134368896484375">
        <ele>7.599999904632568359375</ele>
        <time>2025-01-27T22:22:19.000Z</time>
        <extensions>
          <ns3:TrackPointExtension>
            <ns3:cad>94</ns3:cad>
          </ns3:TrackPointExtension>
        </extensions>
      </trkpt>
      <trkpt lat="31.40557589940726757049560546875" lon="119.49336488731205463409423828125">
        <ele>7.80000019073486328125</ele>
        <time>2025-01-27T22:22:23.000Z</time>
        <extensions>
          <ns3:TrackPointExtension>
            <ns3:cad>82</ns3:cad>
          </ns3:TrackPointExtension>
        </extensions>
      </trkpt>
      <trkpt lat="31.40558780170977115631103515625" lon="119.49325609020888805389404296875">
        <ele>8</ele>
        <time>2025-01-27T22:22:27.000Z</time>
        <extensions>
          <ns3:TrackPointExtension>
            <ns3:cad>94</ns3:cad>
          </ns3:TrackPointExtension>
        </extensions>
      </trkpt>
      <trkpt lat="31.4056002907454967498779296875" lon="119.49313379824161529541015625">
        <ele>8</ele>
        <time>2025-01-27T22:22:32.000Z</time>
        <extensions>
          <ns3:TrackPointExtension>
            <ns3:hr>137</ns3:hr>
            <ns3:cad>94</ns3:cad>
          </ns3:TrackPointExtension>
        </extensions>
      </trkpt>
      <trkpt lat="31.4055986143648624420166015625" lon="119.4930243305861949920654296875">
        <ele>7.80000019073486328125</ele>
        <time>2025-01-27T22:22:36.000Z</time>
        <extensions>
          <ns3:TrackPointExtension>
            <ns3:cad>94</ns3:cad>
          </ns3:TrackPointExtension>
        </extensions>
      </trkpt>
      <trkpt lat="31.40560573898255825042724609375" lon="119.4929170422255992889404296875">
        <ele>7.599999904632568359375</ele>
        <time>2025-01-27T22:22:40.000Z</time>
        <extensions>
          <ns3:TrackPointExtension>
            <ns3:cad>82</ns3:cad>
          </ns3:TrackPointExtension>
        </extensions>
      </trkpt>
      <trkpt lat="31.4056482352316379547119140625" lon="119.4927956722676753997802734375">
        <ele>7.400000095367431640625</ele>
        <time>2025-01-27T22:23:08.000Z</time>
        <extensions>
          <ns3:TrackPointExtension>
            <ns3:cad>94</ns3:cad>
          </ns3:TrackPointExtension>
        </extensions>
      </trkpt>
      <trkpt lat="31.40564211644232273101806640625" lon="119.49267321266233921051025390625">
        <ele>7.400000095367431640625</ele>
        <time>2025-01-27T22:23:13.000Z</time>
        <extensions>
          <ns3:TrackPointExtension>
            <ns3:cad>94</ns3:cad>
          </ns3:TrackPointExtension>
        </extensions>
      </trkpt>
      <trkpt lat="31.40564194880425930023193359375" lon="119.4925643317401409149169921875">
        <ele>7</ele>
        <time>2025-01-27T22:23:17.000Z</time>
        <extensions>
          <ns3:TrackPointExtension>
            <ns3:cad>94</ns3:cad>
          </ns3:TrackPointExtension>
        </extensions>
      </trkpt>
      <trkpt lat="31.40564530156552791595458984375" lon="119.4924478232860565185546875">
        <ele>6.80000019073486328125</ele>
        <time>2025-01-27T22:23:21.000Z</time>
        <extensions>
          <ns3:TrackPointExtension>
            <ns3:hr>124</ns3:hr>
            <ns3:cad>94</ns3:cad>
          </ns3:TrackPointExtension>
        </extensions>
      </trkpt>
      <trkpt lat="31.405580677092075347900390625" lon="119.49233776889741420745849609375">
        <ele>7.400000095367431640625</ele>
        <time>2025-01-27T22:23:26.000Z</time>
        <extensions>
          <ns3:TrackPointExtension>
            <ns3:cad>94</ns3:cad>
          </ns3:TrackPointExtension>
        </extensions>
      </trkpt>
      <trkpt lat="31.4055536873638629913330078125" lon="119.492218829691410064697265625">
        <ele>8</ele>
        <time>2025-01-27T22:23:31.000Z</time>
        <extensions>
          <ns3:TrackPointExtension>
            <ns3:cad>94</ns3:cad>
          </ns3:TrackPointExtension>
        </extensions>
      </trkpt>
      <trkpt lat="31.40556533820927143096923828125" lon="119.492108188569545745849609375">
        <ele>7.80000019073486328125</ele>
        <time>2025-01-27T22:23:35.000Z</time>
        <extensions>
          <ns3:TrackPointExtension>
            <ns3:cad>94</ns3:cad>
          </ns3:TrackPointExtension>
        </extensions>
      </trkpt>
      <trkpt lat="31.40557271428406238555908203125" lon="119.4919735752046108245849609375">
        <ele>7.80000019073486328125</ele>
        <time>2025-01-27T22:23:40.000Z</time>
        <extensions>
          <ns3:TrackPointExtension>
            <ns3:cad>94</ns3:cad>
          </ns3:TrackPointExtension>
        </extensions>
      </trkpt>
      <trkpt lat="31.40559048391878604888916015625" lon="119.49186301790177822113037109375">
        <ele>7.80000019073486328125</ele>
        <time>2025-01-27T22:23:44.000Z</time>
        <extensions>
          <ns3:TrackPointExtension>
            <ns3:cad>94</ns3:cad>
          </ns3:TrackPointExtension>
        </extensions>
      </trkpt>
      <trkpt lat="31.40560188330709934234619140625" lon="119.49175556190311908721923828125">
        <ele>7.400000095367431640625</ele>
        <time>2025-01-27T22:23:48.000Z</time>
        <extensions>
          <ns3:TrackPointExtension>
            <ns3:cad>94</ns3:cad>
          </ns3:TrackPointExtension>
        </extensions>
      </trkpt>
      <trkpt lat="31.40560247004032135009765625" lon="119.49163754470646381378173828125">
        <ele>7.19999980926513671875</ele>
        <time>2025-01-27T22:23:52.000Z</time>
        <extensions>
          <ns3:TrackPointExtension>
            <ns3:cad>94</ns3:cad>
          </ns3:TrackPointExtension>
        </extensions>
      </trkpt>
      <trkpt lat="31.4056245982646942138671875" lon="119.49151567183434963226318359375">
        <ele>6.80000019073486328125</ele>
        <time>2025-01-27T22:23:57.000Z</time>
        <extensions>
          <ns3:TrackPointExtension>
            <ns3:hr>133</ns3:hr>
            <ns3:cad>94</ns3:cad>
          </ns3:TrackPointExtension>
        </extensions>
      </trkpt>
      <trkpt lat="31.40563775785267353057861328125" lon="119.491400420665740966796875">
        <ele>6.400000095367431640625</ele>
        <time>2025-01-27T22:24:01.000Z</time>
        <extensions>
          <ns3:TrackPointExtension>
            <ns3:hr>134</ns3:hr>
            <ns3:cad>94</ns3:cad>
          </ns3:TrackPointExtension>
        </extensions>
      </trkpt>
      <trkpt lat="31.405645050108432769775390625" lon="119.4912738539278507232666015625">
        <ele>6.400000095367431640625</ele>
        <time>2025-01-27T22:24:06.000Z</time>
        <extensions>
          <ns3:TrackPointExtension>
            <ns3:cad>94</ns3:cad>
          </ns3:TrackPointExtension>
        </extensions>
      </trkpt>
      <trkpt lat="31.40565334819257259368896484375" lon="119.4911658950150012969970703125">
        <ele>6.19999980926513671875</ele>
        <time>2025-01-27T22:24:10.000Z</time>
        <extensions>
          <ns3:TrackPointExtension>
            <ns3:cad>105</ns3:cad>
          </ns3:TrackPointExtension>
        </extensions>
      </trkpt>
      <trkpt lat="31.40566256828606128692626953125" lon="119.4910512305796146392822265625">
        <ele>6.19999980926513671875</ele>
        <time>2025-01-27T22:24:14.000Z</time>
        <extensions>
          <ns3:TrackPointExtension>
            <ns3:cad>94</ns3:cad>
          </ns3:TrackPointExtension>
        </extensions>
      </trkpt>
      <trkpt lat="31.4056723751127719879150390625" lon="119.49094335548579692840576171875">
        <ele>6.400000095367431640625</ele>
        <time>2025-01-27T22:24:18.000Z</time>
        <extensions>
          <ns3:TrackPointExtension>
            <ns3:cad>94</ns3:cad>
          </ns3:TrackPointExtension>
        </extensions>
      </trkpt>
      <trkpt lat="31.40567882917821407318115234375" lon="119.4908302836120128631591796875">
        <ele>6.400000095367431640625</ele>
        <time>2025-01-27T22:24:22.000Z</time>
        <extensions>
          <ns3:TrackPointExtension>
            <ns3:cad>94</ns3:cad>
          </ns3:TrackPointExtension>
        </extensions>
      </trkpt>
      <trkpt lat="31.405687630176544189453125" lon="119.49069608934223651885986328125">
        <ele>6.400000095367431640625</ele>
        <time>2025-01-27T22:24:27.000Z</time>
        <extensions>
          <ns3:TrackPointExtension>
            <ns3:cad>94</ns3:cad>
          </ns3:TrackPointExtension>
        </extensions>
      </trkpt>
      <trkpt lat="31.40569358132779598236083984375" lon="119.4905687682330608367919921875">
        <ele>6.400000095367431640625</ele>
        <time>2025-01-27T22:24:32.000Z</time>
        <extensions>
          <ns3:TrackPointExtension>
            <ns3:cad>94</ns3:cad>
          </ns3:TrackPointExtension>
        </extensions>
      </trkpt>
      <trkpt lat="31.40571017749607563018798828125" lon="119.49046525172889232635498046875">
        <ele>6</ele>
        <time>2025-01-27T22:24:36.000Z</time>
        <extensions>
          <ns3:TrackPointExtension>
            <ns3:cad>94</ns3:cad>
          </ns3:TrackPointExtension>
        </extensions>
      </trkpt>
      <trkpt lat="31.4057139493525028228759765625" lon="119.4903334043920040130615234375">
        <ele>6</ele>
        <time>2025-01-27T22:24:41.000Z</time>
        <extensions>
          <ns3:TrackPointExtension>
            <ns3:cad>94</ns3:cad>
          </ns3:TrackPointExtension>
        </extensions>
      </trkpt>
      <trkpt lat="31.405726857483386993408203125" lon="119.49020105414092540740966796875">
        <ele>6</ele>
        <time>2025-01-27T22:24:46.000Z</time>
        <extensions>
          <ns3:TrackPointExtension>
            <ns3:cad>94</ns3:cad>
          </ns3:TrackPointExtension>
        </extensions>
      </trkpt>
      <trkpt lat="31.405730880796909332275390625" lon="119.490070044994354248046875">
        <ele>6</ele>
        <time>2025-01-27T22:24:51.000Z</time>
        <extensions>
          <ns3:TrackPointExtension>
            <ns3:cad>94</ns3:cad>
          </ns3:TrackPointExtension>
        </extensions>
      </trkpt>
      <trkpt lat="31.4057471416890621185302734375" lon="119.48995211161673069000244140625">
        <ele>5.80000019073486328125</ele>
        <time>2025-01-27T22:24:56.000Z</time>
        <extensions>
          <ns3:TrackPointExtension>
            <ns3:cad>94</ns3:cad>
          </ns3:TrackPointExtension>
        </extensions>
      </trkpt>
      <trkpt lat="31.4057531766593456268310546875" lon="119.4898439012467861175537109375">
        <ele>5.400000095367431640625</ele>
        <time>2025-01-27T22:25:00.000Z</time>
        <extensions>
          <ns3:TrackPointExtension>
            <ns3:cad>94</ns3:cad>
          </ns3:TrackPointExtension>
        </extensions>
      </trkpt>
      <trkpt lat="31.40576030127704143524169921875" lon="119.48973217047750949859619140625">
        <ele>5</ele>
        <time>2025-01-27T22:25:04.000Z</time>
        <extensions>
          <ns3:TrackPointExtension>
            <ns3:cad>94</ns3:cad>
          </ns3:TrackPointExtension>
        </extensions>
      </trkpt>
      <trkpt lat="31.40577689744532108306884765625" lon="119.4896189309656620025634765625">
        <ele>5.19999980926513671875</ele>
        <time>2025-01-27T22:25:09.000Z</time>
        <extensions>
          <ns3:TrackPointExtension>
            <ns3:cad>94</ns3:cad>
          </ns3:TrackPointExtension>
        </extensions>
      </trkpt>
      <trkpt lat="31.40578008256852626800537109375" lon="119.48951038531959056854248046875">
        <ele>5.599999904632568359375</ele>
        <time>2025-01-27T22:25:13.000Z</time>
        <extensions>
          <ns3:TrackPointExtension>
            <ns3:cad>94</ns3:cad>
          </ns3:TrackPointExtension>
        </extensions>
      </trkpt>
      <trkpt lat="31.40579232014715671539306640625" lon="119.4893805496394634246826171875">
        <ele>6.19999980926513671875</ele>
        <time>2025-01-27T22:25:18.000Z</time>
        <extensions>
          <ns3:TrackPointExtension>
            <ns3:hr>138</ns3:hr>
            <ns3:cad>94</ns3:cad>
          </ns3:TrackPointExtension>
        </extensions>
      </trkpt>
      <trkpt lat="31.40579801984131336212158203125" lon="119.4892692379653453826904296875">
        <ele>6.599999904632568359375</ele>
        <time>2025-01-27T22:25:22.000Z</time>
        <extensions>
          <ns3:TrackPointExtension>
            <ns3:cad>94</ns3:cad>
          </ns3:TrackPointExtension>
        </extensions>
      </trkpt>
      <trkpt lat="31.4058091677725315093994140625" lon="119.4891629554331302642822265625">
        <ele>7</ele>
        <time>2025-01-27T22:25:26.000Z</time>
        <extensions>
          <ns3:TrackPointExtension>
            <ns3:hr>137</ns3:hr>
            <ns3:cad>94</ns3:cad>
          </ns3:TrackPointExtension>
        </extensions>
      </trkpt>
      <trkpt lat="31.40581570565700531005859375" lon="119.4890338741242885589599609375">
        <ele>7.599999904632568359375</ele>
        <time>2025-01-27T22:25:31.000Z</time>
        <extensions>
          <ns3:TrackPointExtension>
            <ns3:cad>82</ns3:cad>
          </ns3:TrackPointExtension>
        </extensions>
      </trkpt>
      <trkpt lat="31.4058266021311283111572265625" lon="119.48889859020709991455078125">
        <ele>8</ele>
        <time>2025-01-27T22:25:36.000Z</time>
        <extensions>
          <ns3:TrackPointExtension>
            <ns3:hr>137</ns3:hr>
            <ns3:cad>94</ns3:cad>
          </ns3:TrackPointExtension>
        </extensions>
      </trkpt>
      <trkpt lat="31.40583984553813934326171875" lon="119.488781578838825225830078125">
        <ele>8.19999980926513671875</ele>
        <time>2025-01-27T22:25:41.000Z</time>
        <extensions>
          <ns3:TrackPointExtension>
            <ns3:cad>94</ns3:cad>
          </ns3:TrackPointExtension>
        </extensions>
      </trkpt>
      <trkpt lat="31.4058537594974040985107421875" lon="119.4886657409369945526123046875">
        <ele>8.3999996185302734375</ele>
        <time>2025-01-27T22:25:45.000Z</time>
        <extensions>
          <ns3:TrackPointExtension>
            <ns3:cad>94</ns3:cad>
          </ns3:TrackPointExtension>
        </extensions>
      </trkpt>
      <trkpt lat="31.40585904009640216827392578125" lon="119.48854847811162471771240234375">
        <ele>8</ele>
        <time>2025-01-27T22:25:50.000Z</time>
        <extensions>
          <ns3:TrackPointExtension>
            <ns3:cad>94</ns3:cad>
          </ns3:TrackPointExtension>
        </extensions>
      </trkpt>
      <trkpt lat="31.4058678410947322845458984375" lon="119.4884283654391765594482421875">
        <ele>8</ele>
        <time>2025-01-27T22:25:54.000Z</time>
        <extensions>
          <ns3:TrackPointExtension>
            <ns3:hr>136</ns3:hr>
            <ns3:cad>94</ns3:cad>
          </ns3:TrackPointExtension>
        </extensions>
      </trkpt>
      <trkpt lat="31.4058755524456501007080078125" lon="119.4883059896528720855712890625">
        <ele>8</ele>
        <time>2025-01-27T22:25:59.000Z</time>
        <extensions>
          <ns3:TrackPointExtension>
            <ns3:cad>94</ns3:cad>
          </ns3:TrackPointExtension>
        </extensions>
      </trkpt>
      <trkpt lat="31.40588410198688507080078125" lon="119.48819995857775211334228515625">
        <ele>8.3999996185302734375</ele>
        <time>2025-01-27T22:26:03.000Z</time>
        <extensions>
          <ns3:TrackPointExtension>
            <ns3:cad>82</ns3:cad>
          </ns3:TrackPointExtension>
        </extensions>
      </trkpt>
      <trkpt lat="31.40589273534715175628662109375" lon="119.48808713816106319427490234375">
        <ele>9</ele>
        <time>2025-01-27T22:26:07.000Z</time>
        <extensions>
          <ns3:TrackPointExtension>
            <ns3:hr>138</ns3:hr>
            <ns3:cad>94</ns3:cad>
          </ns3:TrackPointExtension>
        </extensions>
      </trkpt>
      <trkpt lat="31.4058990217745304107666015625" lon="119.48797046206891536712646484375">
        <ele>9</ele>
        <time>2025-01-27T22:26:12.000Z</time>
        <extensions>
          <ns3:TrackPointExtension>
            <ns3:cad>94</ns3:cad>
          </ns3:TrackPointExtension>
        </extensions>
      </trkpt>
      <trkpt lat="31.40591134317219257354736328125" lon="119.4878644309937953948974609375">
        <ele>8.80000019073486328125</ele>
        <time>2025-01-27T22:26:16.000Z</time>
        <extensions>
          <ns3:TrackPointExtension>
            <ns3:cad>94</ns3:cad>
          </ns3:TrackPointExtension>
        </extensions>
      </trkpt>
      <trkpt lat="31.40592031180858612060546875" lon="119.48774649761617183685302734375">
        <ele>9.19999980926513671875</ele>
        <time>2025-01-27T22:26:21.000Z</time>
        <extensions>
          <ns3:TrackPointExtension>
            <ns3:hr>137</ns3:hr>
            <ns3:cad>94</ns3:cad>
          </ns3:TrackPointExtension>
        </extensions>
      </trkpt>
      <trkpt lat="31.4059392549097537994384765625" lon="119.4876267202198505401611328125">
        <ele>8.80000019073486328125</ele>
        <time>2025-01-27T22:26:26.000Z</time>
        <extensions>
          <ns3:TrackPointExtension>
            <ns3:cad>94</ns3:cad>
          </ns3:TrackPointExtension>
        </extensions>
      </trkpt>
      <trkpt lat="31.40594302676618099212646484375" lon="119.4875006563961505889892578125">
        <ele>8</ele>
        <time>2025-01-27T22:26:31.000Z</time>
        <extensions>
          <ns3:TrackPointExtension>
            <ns3:cad>82</ns3:cad>
          </ns3:TrackPointExtension>
        </extensions>
      </trkpt>
      <trkpt lat="31.40587295405566692352294921875" lon="119.48740862309932708740234375">
        <ele>6.599999904632568359375</ele>
        <time>2025-01-27T22:26:36.000Z</time>
        <extensions>
          <ns3:TrackPointExtension>
            <ns3:cad>94</ns3:cad>
          </ns3:TrackPointExtension>
        </extensions>
      </trkpt>
      <trkpt lat="31.405767090618610382080078125" lon="119.48742630891501903533935546875">
        <ele>6</ele>
        <time>2025-01-27T22:26:41.000Z</time>
        <extensions>
          <ns3:TrackPointExtension>
            <ns3:cad>94</ns3:cad>
          </ns3:TrackPointExtension>
        </extensions>
      </trkpt>
      <trkpt lat="31.405659802258014678955078125" lon="119.48743167333304882049560546875">
        <ele>5.400000095367431640625</ele>
        <time>2025-01-27T22:26:46.000Z</time>
        <extensions>
          <ns3:TrackPointExtension>
            <ns3:cad>94</ns3:cad>
          </ns3:TrackPointExtension>
        </extensions>
      </trkpt>
      <trkpt lat="31.40556852333247661590576171875" lon="119.4874315895140171051025390625">
        <ele>4.80000019073486328125</ele>
        <time>2025-01-27T22:26:50.000Z</time>
        <extensions>
          <ns3:TrackPointExtension>
            <ns3:cad>82</ns3:cad>
          </ns3:TrackPointExtension>
        </extensions>
      </trkpt>
      <trkpt lat="31.40547783114016056060791015625" lon="119.4874553941190242767333984375">
        <ele>4.400000095367431640625</ele>
        <time>2025-01-27T22:26:55.000Z</time>
        <extensions>
          <ns3:TrackPointExtension>
            <ns3:hr>138</ns3:hr>
            <ns3:cad>82</ns3:cad>
          </ns3:TrackPointExtension>
        </extensions>
      </trkpt>
      <trkpt lat="31.40559216029942035675048828125" lon="119.487405605614185333251953125">
        <ele>4.80000019073486328125</ele>
        <time>2025-01-27T22:26:59.000Z</time>
        <extensions>
          <ns3:TrackPointExtension>
            <ns3:hr>137</ns3:hr>
            <ns3:cad>94</ns3:cad>
          </ns3:TrackPointExtension>
        </extensions>
      </trkpt>
      <trkpt lat="31.40569224022328853607177734375" lon="119.48740937747061252593994140625">
        <ele>5.599999904632568359375</ele>
        <time>2025-01-27T22:27:04.000Z</time>
        <extensions>
          <ns3:TrackPointExtension>
            <ns3:cad>94</ns3:cad>
          </ns3:TrackPointExtension>
        </extensions>
      </trkpt>
      <trkpt lat="31.405789889395236968994140625" lon="119.48740015737712383270263671875">
        <ele>5.80000019073486328125</ele>
        <time>2025-01-27T22:27:08.000Z</time>
        <extensions>
          <ns3:TrackPointExtension>
            <ns3:cad>94</ns3:cad>
          </ns3:TrackPointExtension>
        </extensions>
      </trkpt>
      <trkpt lat="31.40588938258588314056396484375" lon="119.48740485124289989471435546875">
        <ele>6.599999904632568359375</ele>
        <time>2025-01-27T22:27:13.000Z</time>
        <extensions>
          <ns3:TrackPointExtension>
            <ns3:cad>94</ns3:cad>
          </ns3:TrackPointExtension>
        </extensions>
      </trkpt>
      <trkpt lat="31.40596917830407619476318359375" lon="119.48748129419982433319091796875">
        <ele>8</ele>
        <time>2025-01-27T22:27:18.000Z</time>
        <extensions>
          <ns3:TrackPointExtension>
            <ns3:cad>82</ns3:cad>
          </ns3:TrackPointExtension>
        </extensions>
      </trkpt>
      <trkpt lat="31.4059566892683506011962890625" lon="119.48760987259447574615478515625">
        <ele>8.80000019073486328125</ele>
        <time>2025-01-27T22:27:23.000Z</time>
        <extensions>
          <ns3:TrackPointExtension>
            <ns3:cad>94</ns3:cad>
          </ns3:TrackPointExtension>
        </extensions>
      </trkpt>
      <trkpt lat="31.4059452898800373077392578125" lon="119.48772772215306758880615234375">
        <ele>9.3999996185302734375</ele>
        <time>2025-01-27T22:27:27.000Z</time>
        <extensions>
          <ns3:TrackPointExtension>
            <ns3:cad>82</ns3:cad>
          </ns3:TrackPointExtension>
        </extensions>
      </trkpt>
      <trkpt lat="31.40594554133713245391845703125" lon="119.48783375322818756103515625">
        <ele>9.19999980926513671875</ele>
        <time>2025-01-27T22:27:31.000Z</time>
        <extensions>
          <ns3:TrackPointExtension>
            <ns3:cad>94</ns3:cad>
          </ns3:TrackPointExtension>
        </extensions>
      </trkpt>
      <trkpt lat="31.4059452898800373077392578125" lon="119.48794104158878326416015625">
        <ele>9</ele>
        <time>2025-01-27T22:27:35.000Z</time>
        <extensions>
          <ns3:TrackPointExtension>
            <ns3:cad>94</ns3:cad>
          </ns3:TrackPointExtension>
        </extensions>
      </trkpt>
      <trkpt lat="31.40593028627336025238037109375" lon="119.48805235326290130615234375">
        <ele>9.3999996185302734375</ele>
        <time>2025-01-27T22:27:39.000Z</time>
        <extensions>
          <ns3:TrackPointExtension>
            <ns3:hr>137</ns3:hr>
            <ns3:cad>94</ns3:cad>
          </ns3:TrackPointExtension>
        </extensions>
      </trkpt>
      <trkpt lat="31.40590958297252655029296875" lon="119.4881742261350154876708984375">
        <ele>8.6000003814697265625</ele>
        <time>2025-01-27T22:27:44.000Z</time>
        <extensions>
          <ns3:TrackPointExtension>
            <ns3:cad>94</ns3:cad>
          </ns3:TrackPointExtension>
        </extensions>
      </trkpt>
      <trkpt lat="31.40589944086968898773193359375" lon="119.48830179870128631591796875">
        <ele>8.19999980926513671875</ele>
        <time>2025-01-27T22:27:49.000Z</time>
        <extensions>
          <ns3:TrackPointExtension>
            <ns3:hr>137</ns3:hr>
            <ns3:cad>94</ns3:cad>
          </ns3:TrackPointExtension>
        </extensions>
      </trkpt>
      <trkpt lat="31.405890472233295440673828125" lon="119.4884364120662212371826171875">
        <ele>8</ele>
        <time>2025-01-27T22:27:54.000Z</time>
        <extensions>
          <ns3:TrackPointExtension>
            <ns3:cad>94</ns3:cad>
          </ns3:TrackPointExtension>
        </extensions>
      </trkpt>
      <trkpt lat="31.40587999485433101654052734375" lon="119.4885675050318241119384765625">
        <ele>8</ele>
        <time>2025-01-27T22:27:59.000Z</time>
        <extensions>
          <ns3:TrackPointExtension>
            <ns3:cad>94</ns3:cad>
          </ns3:TrackPointExtension>
        </extensions>
      </trkpt>
      <trkpt lat="31.40587127767503261566162109375" lon="119.48869063518941402435302734375">
        <ele>8.3999996185302734375</ele>
        <time>2025-01-27T22:28:04.000Z</time>
        <extensions>
          <ns3:TrackPointExtension>
            <ns3:cad>94</ns3:cad>
          </ns3:TrackPointExtension>
        </extensions>
      </trkpt>
      <trkpt lat="31.4058544300496578216552734375" lon="119.488797001540660858154296875">
        <ele>8.3999996185302734375</ele>
        <time>2025-01-27T22:28:08.000Z</time>
        <extensions>
          <ns3:TrackPointExtension>
            <ns3:cad>94</ns3:cad>
          </ns3:TrackPointExtension>
        </extensions>
      </trkpt>
      <trkpt lat="31.4058423601090908050537109375" lon="119.48891066014766693115234375">
        <ele>8.19999980926513671875</ele>
        <time>2025-01-27T22:28:12.000Z</time>
        <extensions>
          <ns3:TrackPointExtension>
            <ns3:cad>82</ns3:cad>
          </ns3:TrackPointExtension>
        </extensions>
      </trkpt>
      <trkpt lat="31.40584546141326427459716796875" lon="119.48880328796803951263427734375">
        <ele>8.19999980926513671875</ele>
        <time>2025-01-27T22:28:19.000Z</time>
        <extensions>
          <ns3:TrackPointExtension>
            <ns3:cad>94</ns3:cad>
          </ns3:TrackPointExtension>
        </extensions>
      </trkpt>
      <trkpt lat="31.40584613196551799774169921875" lon="119.48869683779776096343994140625">
        <ele>8.19999980926513671875</ele>
        <time>2025-01-27T22:28:23.000Z</time>
        <extensions>
          <ns3:TrackPointExtension>
            <ns3:cad>94</ns3:cad>
          </ns3:TrackPointExtension>
        </extensions>
      </trkpt>
      <trkpt lat="31.40585551969707012176513671875" lon="119.488573372364044189453125">
        <ele>8</ele>
        <time>2025-01-27T22:28:28.000Z</time>
        <extensions>
          <ns3:TrackPointExtension>
            <ns3:cad>82</ns3:cad>
          </ns3:TrackPointExtension>
        </extensions>
      </trkpt>
      <trkpt lat="31.40586574561893939971923828125" lon="119.4884618930518627166748046875">
        <ele>8</ele>
        <time>2025-01-27T22:28:32.000Z</time>
        <extensions>
          <ns3:TrackPointExtension>
            <ns3:cad>94</ns3:cad>
          </ns3:TrackPointExtension>
        </extensions>
      </trkpt>
      <trkpt lat="31.40587094239890575408935546875" lon="119.48834873735904693603515625">
        <ele>8</ele>
        <time>2025-01-27T22:28:36.000Z</time>
        <extensions>
          <ns3:TrackPointExtension>
            <ns3:cad>82</ns3:cad>
          </ns3:TrackPointExtension>
        </extensions>
      </trkpt>
      <trkpt lat="31.40588368289172649383544921875" lon="119.48821320198476314544677734375">
        <ele>8.3999996185302734375</ele>
        <time>2025-01-27T22:28:41.000Z</time>
        <extensions>
          <ns3:TrackPointExtension>
            <ns3:cad>94</ns3:cad>
          </ns3:TrackPointExtension>
        </extensions>
      </trkpt>
      <trkpt lat="31.4058933220803737640380859375" lon="119.48808856308460235595703125">
        <ele>9</ele>
        <time>2025-01-27T22:28:46.000Z</time>
        <extensions>
          <ns3:TrackPointExtension>
            <ns3:cad>94</ns3:cad>
          </ns3:TrackPointExtension>
        </extensions>
      </trkpt>
      <trkpt lat="31.4059006981551647186279296875" lon="119.48796543292701244354248046875">
        <ele>9</ele>
        <time>2025-01-27T22:28:51.000Z</time>
        <extensions>
          <ns3:TrackPointExtension>
            <ns3:hr>135</ns3:hr>
            <ns3:cad>94</ns3:cad>
          </ns3:TrackPointExtension>
        </extensions>
      </trkpt>
      <trkpt lat="31.40590983442962169647216796875" lon="119.4878473319113254547119140625">
        <ele>8.80000019073486328125</ele>
        <time>2025-01-27T22:28:56.000Z</time>
        <extensions>
          <ns3:TrackPointExtension>
            <ns3:cad>94</ns3:cad>
          </ns3:TrackPointExtension>
        </extensions>
      </trkpt>
      <trkpt lat="31.40592559240758419036865234375" lon="119.4877202622592449188232421875">
        <ele>9</ele>
        <time>2025-01-27T22:29:01.000Z</time>
        <extensions>
          <ns3:TrackPointExtension>
            <ns3:cad>94</ns3:cad>
          </ns3:TrackPointExtension>
        </extensions>
      </trkpt>
      <trkpt lat="31.40593213029205799102783203125" lon="119.487592019140720367431640625">
        <ele>8.6000003814697265625</ele>
        <time>2025-01-27T22:29:06.000Z</time>
        <extensions>
          <ns3:TrackPointExtension>
            <ns3:cad>94</ns3:cad>
          </ns3:TrackPointExtension>
        </extensions>
      </trkpt>
      <trkpt lat="31.4059432782232761383056640625" lon="119.48747844435274600982666015625">
        <ele>7.80000019073486328125</ele>
        <time>2025-01-27T22:29:11.000Z</time>
        <extensions>
          <ns3:TrackPointExtension>
            <ns3:hr>133</ns3:hr>
            <ns3:cad>94</ns3:cad>
          </ns3:TrackPointExtension>
        </extensions>
      </trkpt>
      <trkpt lat="31.4058651588857173919677734375" lon="119.4874208606779575347900390625">
        <ele>6.599999904632568359375</ele>
        <time>2025-01-27T22:29:16.000Z</time>
        <extensions>
          <ns3:TrackPointExtension>
            <ns3:cad>94</ns3:cad>
          </ns3:TrackPointExtension>
        </extensions>
      </trkpt>
      <trkpt lat="31.405757367610931396484375" lon="119.487426392734050750732421875">
        <ele>6</ele>
        <time>2025-01-27T22:29:21.000Z</time>
        <extensions>
          <ns3:TrackPointExtension>
            <ns3:hr>132</ns3:hr>
            <ns3:cad>94</ns3:cad>
          </ns3:TrackPointExtension>
        </extensions>
      </trkpt>
      <trkpt lat="31.40565703622996807098388671875" lon="119.48743586428463459014892578125">
        <ele>5.400000095367431640625</ele>
        <time>2025-01-27T22:29:26.000Z</time>
        <extensions>
          <ns3:TrackPointExtension>
            <ns3:cad>94</ns3:cad>
          </ns3:TrackPointExtension>
        </extensions>
      </trkpt>
      <trkpt lat="31.40555963851511478424072265625" lon="119.4874342717230319976806640625">
        <ele>4.80000019073486328125</ele>
        <time>2025-01-27T22:29:30.000Z</time>
        <extensions>
          <ns3:TrackPointExtension>
            <ns3:cad>94</ns3:cad>
          </ns3:TrackPointExtension>
        </extensions>
      </trkpt>
      <trkpt lat="31.4056629873812198638916015625" lon="119.4874133169651031494140625">
        <ele>5.400000095367431640625</ele>
        <time>2025-01-27T22:29:41.000Z</time>
        <extensions>
          <ns3:TrackPointExtension>
            <ns3:cad>94</ns3:cad>
          </ns3:TrackPointExtension>
        </extensions>
      </trkpt>
      <trkpt lat="31.40575426630675792694091796875" lon="119.48740250431001186370849609375">
        <ele>5.80000019073486328125</ele>
        <time>2025-01-27T22:29:45.000Z</time>
        <extensions>
          <ns3:TrackPointExtension>
            <ns3:hr>136</ns3:hr>
            <ns3:cad>94</ns3:cad>
          </ns3:TrackPointExtension>
        </extensions>
      </trkpt>
      <trkpt lat="31.405867673456668853759765625" lon="119.48740317486226558685302734375">
        <ele>6.400000095367431640625</ele>
        <time>2025-01-27T22:29:50.000Z</time>
        <extensions>
          <ns3:TrackPointExtension>
            <ns3:cad>94</ns3:cad>
          </ns3:TrackPointExtension>
        </extensions>
      </trkpt>
      <trkpt lat="31.4059613831341266632080078125" lon="119.48744793422520160675048828125">
        <ele>7.599999904632568359375</ele>
        <time>2025-01-27T22:29:55.000Z</time>
        <extensions>
          <ns3:TrackPointExtension>
            <ns3:cad>94</ns3:cad>
          </ns3:TrackPointExtension>
        </extensions>
      </trkpt>
      <trkpt lat="31.4059644006192684173583984375" lon="119.48755346238613128662109375">
        <ele>8.6000003814697265625</ele>
        <time>2025-01-27T22:29:59.000Z</time>
        <extensions>
          <ns3:TrackPointExtension>
            <ns3:cad>94</ns3:cad>
          </ns3:TrackPointExtension>
        </extensions>
      </trkpt>
      <trkpt lat="31.4059580303728580474853515625" lon="119.4876587390899658203125">
        <ele>9.19999980926513671875</ele>
        <time>2025-01-27T22:30:03.000Z</time>
        <extensions>
          <ns3:TrackPointExtension>
            <ns3:cad>94</ns3:cad>
          </ns3:TrackPointExtension>
        </extensions>
      </trkpt>
      <trkpt lat="31.40594637952744960784912109375" lon="119.48776577599346637725830078125">
        <ele>9.3999996185302734375</ele>
        <time>2025-01-27T22:30:07.000Z</time>
        <extensions>
          <ns3:TrackPointExtension>
            <ns3:cad>94</ns3:cad>
          </ns3:TrackPointExtension>
        </extensions>
      </trkpt>
      <trkpt lat="31.40594319440424442291259765625" lon="119.4878719747066497802734375">
        <ele>9.19999980926513671875</ele>
        <time>2025-01-27T22:30:11.000Z</time>
        <extensions>
          <ns3:TrackPointExtension>
            <ns3:cad>94</ns3:cad>
          </ns3:TrackPointExtension>
        </extensions>
      </trkpt>
      <trkpt lat="31.405939757823944091796875" lon="119.4879794307053089141845703125">
        <ele>9.19999980926513671875</ele>
        <time>2025-01-27T22:30:15.000Z</time>
        <extensions>
          <ns3:TrackPointExtension>
            <ns3:cad>105</ns3:cad>
          </ns3:TrackPointExtension>
        </extensions>
      </trkpt>
      <trkpt lat="31.40592626295983791351318359375" lon="119.48810105212032794952392578125">
        <ele>9</ele>
        <time>2025-01-27T22:30:20.000Z</time>
        <extensions>
          <ns3:TrackPointExtension>
            <ns3:cad>94</ns3:cad>
          </ns3:TrackPointExtension>
        </extensions>
      </trkpt>
      <trkpt lat="31.40591134317219257354736328125" lon="119.48822141624987125396728515625">
        <ele>8.3999996185302734375</ele>
        <time>2025-01-27T22:30:24.000Z</time>
        <extensions>
          <ns3:TrackPointExtension>
            <ns3:cad>94</ns3:cad>
          </ns3:TrackPointExtension>
        </extensions>
      </trkpt>
      <trkpt lat="31.40590564347803592681884765625" lon="119.48835544288158416748046875">
        <ele>8</ele>
        <time>2025-01-27T22:30:29.000Z</time>
        <extensions>
          <ns3:TrackPointExtension>
            <ns3:cad>94</ns3:cad>
          </ns3:TrackPointExtension>
        </extensions>
      </trkpt>
      <trkpt lat="31.4058887958526611328125" lon="119.488484524190425872802734375">
        <ele>8</ele>
        <time>2025-01-27T22:30:34.000Z</time>
        <extensions>
          <ns3:TrackPointExtension>
            <ns3:hr>137</ns3:hr>
            <ns3:cad>94</ns3:cad>
          </ns3:TrackPointExtension>
        </extensions>
      </trkpt>
      <trkpt lat="31.4058758877217769622802734375" lon="119.48859206400811672210693359375">
        <ele>8</ele>
        <time>2025-01-27T22:30:38.000Z</time>
        <extensions>
          <ns3:TrackPointExtension>
            <ns3:cad>94</ns3:cad>
          </ns3:TrackPointExtension>
        </extensions>
      </trkpt>
      <trkpt lat="31.405865661799907684326171875" lon="119.4884808361530303955078125">
        <ele>8</ele>
        <time>2025-01-27T22:30:47.000Z</time>
        <extensions>
          <ns3:TrackPointExtension>
            <ns3:cad>94</ns3:cad>
          </ns3:TrackPointExtension>
        </extensions>
      </trkpt>
      <trkpt lat="31.405876390635967254638671875" lon="119.4883680157363414764404296875">
        <ele>8</ele>
        <time>2025-01-27T22:30:52.000Z</time>
        <extensions>
          <ns3:TrackPointExtension>
            <ns3:cad>94</ns3:cad>
          </ns3:TrackPointExtension>
        </extensions>
      </trkpt>
      <trkpt lat="31.40587848611176013946533203125" lon="119.48824413120746612548828125">
        <ele>8.3999996185302734375</ele>
        <time>2025-01-27T22:30:57.000Z</time>
        <extensions>
          <ns3:TrackPointExtension>
            <ns3:hr>136</ns3:hr>
            <ns3:cad>94</ns3:cad>
          </ns3:TrackPointExtension>
        </extensions>
      </trkpt>
      <trkpt lat="31.4058916456997394561767578125" lon="119.48813592083752155303955078125">
        <ele>8.80000019073486328125</ele>
        <time>2025-01-27T22:31:01.000Z</time>
        <extensions>
          <ns3:TrackPointExtension>
            <ns3:cad>94</ns3:cad>
          </ns3:TrackPointExtension>
        </extensions>
      </trkpt>
      <trkpt lat="31.40590731985867023468017578125" lon="119.488015137612819671630859375">
        <ele>9.19999980926513671875</ele>
        <time>2025-01-27T22:31:06.000Z</time>
        <extensions>
          <ns3:TrackPointExtension>
            <ns3:cad>94</ns3:cad>
          </ns3:TrackPointExtension>
        </extensions>
      </trkpt>
      <trkpt lat="31.405915282666683197021484375" lon="119.48789653368294239044189453125">
        <ele>8.80000019073486328125</ele>
        <time>2025-01-27T22:31:13.000Z</time>
        <extensions>
          <ns3:TrackPointExtension/>
        </extensions>
      </trkpt>
    </trkseg>
  </trk>
</gpx>
