<gpx xmlns:ns3="http://www.garmin.com/xmlschemas/TrackPointExtension/v1" xmlns="http://www.topografix.com/GPX/1/1" xmlns:xsi="http://www.w3.org/2001/XMLSchema-instance" xmlns:ns2="http://www.garmin.com/xmlschemas/GpxExtensions/v3" creator="Garmin Connect" version="1.1" xsi:schemaLocation="http://www.topografix.com/GPX/1/1 http://www.topografix.com/GPX/11.xsd">
  <extensions>
<distance>3791.2</distance>
<average_hr>57.0</average_hr>
<average_speed>7.138999938964844</average_speed>
<start_time>2022-07-06T21:00:14+00:00</start_time>
<end_time>2022-07-06T21:09:05.078000+00:00</end_time>
<moving_time>516.0</moving_time>
<elapsed_time>562.078</elapsed_time>
</extensions>
<metadata>
    <link href="connect.garmin.com">
      <text>Garmin Connect</text>
    </link>
    <time>2022-07-06T21:00:14.000Z</time>
  </metadata>
  <trk>
    <name>常州市 电子自行车骑行</name>
    <type>e_bike_fitness</type>
    <trkseg>
      <trkpt lat="31.43566072918474674224853515625" lon="119.483936838805675506591796875">
        <ele>0.4000000059604644775390625</ele>
        <time>2022-07-06T21:00:14.000Z</time>
        <extensions>
          <ns3:TrackPointExtension>
            <ns3:atemp>32.0</ns3:atemp>
            <ns3:hr>58</ns3:hr>
          </ns3:TrackPointExtension>
        </extensions>
      </trkpt>
      <trkpt lat="31.43565989099442958831787109375" lon="119.48400012217462062835693359375">
        <ele>0.4000000059604644775390625</ele>
        <time>2022-07-06T21:00:15.000Z</time>
        <extensions>
          <ns3:TrackPointExtension>
            <ns3:atemp>32.0</ns3:atemp>
            <ns3:hr>58</ns3:hr>
          </ns3:TrackPointExtension>
        </extensions>
      </trkpt>
      <trkpt lat="31.43565519712865352630615234375" lon="119.48407958261668682098388671875">
        <ele>0.4000000059604644775390625</ele>
        <time>2022-07-06T21:00:16.000Z</time>
        <extensions>
          <ns3:TrackPointExtension>
            <ns3:atemp>32.0</ns3:atemp>
            <ns3:hr>57</ns3:hr>
          </ns3:TrackPointExtension>
        </extensions>
      </trkpt>
      <trkpt lat="31.435705237090587615966796875" lon="119.4841938279569149017333984375">
        <ele>0.4000000059604644775390625</ele>
        <time>2022-07-06T21:00:18.000Z</time>
        <extensions>
          <ns3:TrackPointExtension>
            <ns3:atemp>32.0</ns3:atemp>
            <ns3:hr>56</ns3:hr>
          </ns3:TrackPointExtension>
        </extensions>
      </trkpt>
      <trkpt lat="31.43565595149993896484375" lon="119.4842377491295337677001953125">
        <ele>0.60000002384185791015625</ele>
        <time>2022-07-06T21:00:19.000Z</time>
        <extensions>
          <ns3:TrackPointExtension>
            <ns3:atemp>32.0</ns3:atemp>
            <ns3:hr>56</ns3:hr>
          </ns3:TrackPointExtension>
        </extensions>
      </trkpt>
      <trkpt lat="31.43564346246421337127685546875" lon="119.4842898845672607421875">
        <ele>0.60000002384185791015625</ele>
        <time>2022-07-06T21:00:20.000Z</time>
        <extensions>
          <ns3:TrackPointExtension>
            <ns3:atemp>32.0</ns3:atemp>
            <ns3:hr>56</ns3:hr>
          </ns3:TrackPointExtension>
        </extensions>
      </trkpt>
      <trkpt lat="31.435530222952365875244140625" lon="119.484331794083118438720703125">
        <ele>0.60000002384185791015625</ele>
        <time>2022-07-06T21:00:22.000Z</time>
        <extensions>
          <ns3:TrackPointExtension>
            <ns3:atemp>32.0</ns3:atemp>
            <ns3:hr>56</ns3:hr>
          </ns3:TrackPointExtension>
        </extensions>
      </trkpt>
      <trkpt lat="31.4354921691119670867919921875" lon="119.48434822261333465576171875">
        <ele>0.60000002384185791015625</ele>
        <time>2022-07-06T21:00:23.000Z</time>
        <extensions>
          <ns3:TrackPointExtension>
            <ns3:atemp>32.0</ns3:atemp>
            <ns3:hr>56</ns3:hr>
          </ns3:TrackPointExtension>
        </extensions>
      </trkpt>
      <trkpt lat="31.43543131649494171142578125" lon="119.48434461839497089385986328125">
        <ele>0.60000002384185791015625</ele>
        <time>2022-07-06T21:00:24.000Z</time>
        <extensions>
          <ns3:TrackPointExtension>
            <ns3:atemp>32.0</ns3:atemp>
            <ns3:hr>56</ns3:hr>
          </ns3:TrackPointExtension>
        </extensions>
      </trkpt>
      <trkpt lat="31.4352524466812610626220703125" lon="119.48441703803837299346923828125">
        <ele>0.4000000059604644775390625</ele>
        <time>2022-07-06T21:00:28.000Z</time>
        <extensions>
          <ns3:TrackPointExtension>
            <ns3:atemp>32.0</ns3:atemp>
            <ns3:hr>57</ns3:hr>
          </ns3:TrackPointExtension>
        </extensions>
      </trkpt>
      <trkpt lat="31.4351545460522174835205078125" lon="119.48439692147076129913330078125">
        <ele>0.4000000059604644775390625</ele>
        <time>2022-07-06T21:00:30.000Z</time>
        <extensions>
          <ns3:TrackPointExtension>
            <ns3:atemp>32.0</ns3:atemp>
            <ns3:hr>60</ns3:hr>
          </ns3:TrackPointExtension>
        </extensions>
      </trkpt>
      <trkpt lat="31.4349563978612422943115234375" lon="119.484424330294132232666015625">
        <ele>0.4000000059604644775390625</ele>
        <time>2022-07-06T21:00:33.000Z</time>
        <extensions>
          <ns3:TrackPointExtension>
            <ns3:atemp>32.0</ns3:atemp>
            <ns3:hr>63</ns3:hr>
          </ns3:TrackPointExtension>
        </extensions>
      </trkpt>
      <trkpt lat="31.4347813837230205535888671875" lon="119.4844147749245166778564453125">
        <ele>0.60000002384185791015625</ele>
        <time>2022-07-06T21:00:36.000Z</time>
        <extensions>
          <ns3:TrackPointExtension>
            <ns3:atemp>32.0</ns3:atemp>
            <ns3:hr>64</ns3:hr>
          </ns3:TrackPointExtension>
        </extensions>
      </trkpt>
      <trkpt lat="31.43471122719347476959228515625" lon="119.48441837914288043975830078125">
        <ele>0.60000002384185791015625</ele>
        <time>2022-07-06T21:00:37.000Z</time>
        <extensions>
          <ns3:TrackPointExtension>
            <ns3:atemp>32.0</ns3:atemp>
            <ns3:hr>63</ns3:hr>
          </ns3:TrackPointExtension>
        </extensions>
      </trkpt>
      <trkpt lat="31.434438228607177734375" lon="119.48437177576124668121337890625">
        <ele>0.60000002384185791015625</ele>
        <time>2022-07-06T21:00:41.000Z</time>
        <extensions>
          <ns3:TrackPointExtension>
            <ns3:atemp>32.0</ns3:atemp>
            <ns3:hr>61</ns3:hr>
          </ns3:TrackPointExtension>
        </extensions>
      </trkpt>
      <trkpt lat="31.4342464506626129150390625" lon="119.4843363203108310699462890625">
        <ele>0.800000011920928955078125</ele>
        <time>2022-07-06T21:00:44.000Z</time>
        <extensions>
          <ns3:TrackPointExtension>
            <ns3:atemp>32.0</ns3:atemp>
            <ns3:hr>58</ns3:hr>
          </ns3:TrackPointExtension>
        </extensions>
      </trkpt>
      <trkpt lat="31.43401603214442729949951171875" lon="119.48417999781668186187744140625">
        <ele>1</ele>
        <time>2022-07-06T21:00:48.000Z</time>
        <extensions>
          <ns3:TrackPointExtension>
            <ns3:atemp>32.0</ns3:atemp>
            <ns3:hr>57</ns3:hr>
          </ns3:TrackPointExtension>
        </extensions>
      </trkpt>
      <trkpt lat="31.43356156535446643829345703125" lon="119.4842348992824554443359375">
        <ele>1</ele>
        <time>2022-07-06T21:00:53.000Z</time>
        <extensions>
          <ns3:TrackPointExtension>
            <ns3:atemp>32.0</ns3:atemp>
            <ns3:hr>57</ns3:hr>
          </ns3:TrackPointExtension>
        </extensions>
      </trkpt>
      <trkpt lat="31.43338269554078578948974609375" lon="119.48408528231084346771240234375">
        <ele>0.800000011920928955078125</ele>
        <time>2022-07-06T21:00:56.000Z</time>
        <extensions>
          <ns3:TrackPointExtension>
            <ns3:atemp>32.0</ns3:atemp>
            <ns3:hr>55</ns3:hr>
          </ns3:TrackPointExtension>
        </extensions>
      </trkpt>
      <trkpt lat="31.43325738608837127685546875" lon="119.48407907970249652862548828125">
        <ele>0.800000011920928955078125</ele>
        <time>2022-07-06T21:00:58.000Z</time>
        <extensions>
          <ns3:TrackPointExtension>
            <ns3:atemp>32.0</ns3:atemp>
            <ns3:hr>53</ns3:hr>
          </ns3:TrackPointExtension>
        </extensions>
      </trkpt>
      <trkpt lat="31.4330563880503177642822265625" lon="119.48407472111284732818603515625">
        <ele>1</ele>
        <time>2022-07-06T21:01:01.000Z</time>
        <extensions>
          <ns3:TrackPointExtension>
            <ns3:atemp>32.0</ns3:atemp>
            <ns3:hr>53</ns3:hr>
          </ns3:TrackPointExtension>
        </extensions>
      </trkpt>
      <trkpt lat="31.43294549547135829925537109375" lon="119.48412115685641765594482421875">
        <ele>1</ele>
        <time>2022-07-06T21:01:03.000Z</time>
        <extensions>
          <ns3:TrackPointExtension>
            <ns3:atemp>32.0</ns3:atemp>
            <ns3:hr>54</ns3:hr>
          </ns3:TrackPointExtension>
        </extensions>
      </trkpt>
      <trkpt lat="31.4328652806580066680908203125" lon="119.48424805887043476104736328125">
        <ele>1.39999997615814208984375</ele>
        <time>2022-07-06T21:01:05.000Z</time>
        <extensions>
          <ns3:TrackPointExtension>
            <ns3:atemp>32.0</ns3:atemp>
            <ns3:hr>54</ns3:hr>
          </ns3:TrackPointExtension>
        </extensions>
      </trkpt>
      <trkpt lat="31.432821191847324371337890625" lon="119.48430773802101612091064453125">
        <ele>1.60000002384185791015625</ele>
        <time>2022-07-06T21:01:06.000Z</time>
        <extensions>
          <ns3:TrackPointExtension>
            <ns3:atemp>32.0</ns3:atemp>
            <ns3:hr>54</ns3:hr>
          </ns3:TrackPointExtension>
        </extensions>
      </trkpt>
      <trkpt lat="31.43277567811310291290283203125" lon="119.48436808772385120391845703125">
        <ele>1.60000002384185791015625</ele>
        <time>2022-07-06T21:01:07.000Z</time>
        <extensions>
          <ns3:TrackPointExtension>
            <ns3:atemp>32.0</ns3:atemp>
            <ns3:hr>54</ns3:hr>
          </ns3:TrackPointExtension>
        </extensions>
      </trkpt>
      <trkpt lat="31.432567723095417022705078125" lon="119.48471275158226490020751953125">
        <ele>2.599999904632568359375</ele>
        <time>2022-07-06T21:01:13.000Z</time>
        <extensions>
          <ns3:TrackPointExtension>
            <ns3:atemp>32.0</ns3:atemp>
            <ns3:hr>54</ns3:hr>
          </ns3:TrackPointExtension>
        </extensions>
      </trkpt>
      <trkpt lat="31.432526148855686187744140625" lon="119.48478148318827152252197265625">
        <ele>2.7999999523162841796875</ele>
        <time>2022-07-06T21:01:15.000Z</time>
        <extensions>
          <ns3:TrackPointExtension>
            <ns3:atemp>32.0</ns3:atemp>
            <ns3:hr>55</ns3:hr>
          </ns3:TrackPointExtension>
        </extensions>
      </trkpt>
      <trkpt lat="31.4324820600450038909912109375" lon="119.48485038243234157562255859375">
        <ele>3</ele>
        <time>2022-07-06T21:01:17.000Z</time>
        <extensions>
          <ns3:TrackPointExtension>
            <ns3:atemp>32.0</ns3:atemp>
            <ns3:hr>56</ns3:hr>
          </ns3:TrackPointExtension>
        </extensions>
      </trkpt>
      <trkpt lat="31.4323858357965946197509765625" lon="119.4849884323775768280029296875">
        <ele>3</ele>
        <time>2022-07-06T21:01:20.000Z</time>
        <extensions>
          <ns3:TrackPointExtension>
            <ns3:atemp>32.0</ns3:atemp>
            <ns3:hr>56</ns3:hr>
          </ns3:TrackPointExtension>
        </extensions>
      </trkpt>
      <trkpt lat="31.43201393075287342071533203125" lon="119.4854068569839000701904296875">
        <ele>2.7999999523162841796875</ele>
        <time>2022-07-06T21:01:26.000Z</time>
        <extensions>
          <ns3:TrackPointExtension>
            <ns3:atemp>32.0</ns3:atemp>
            <ns3:hr>56</ns3:hr>
          </ns3:TrackPointExtension>
        </extensions>
      </trkpt>
      <trkpt lat="31.43175409175455570220947265625" lon="119.4857320748269557952880859375">
        <ele>1.60000002384185791015625</ele>
        <time>2022-07-06T21:01:31.000Z</time>
        <extensions>
          <ns3:TrackPointExtension>
            <ns3:atemp>32.0</ns3:atemp>
            <ns3:hr>56</ns3:hr>
          </ns3:TrackPointExtension>
        </extensions>
      </trkpt>
      <trkpt lat="31.43170312978327274322509765625" lon="119.48579686693847179412841796875">
        <ele>1.60000002384185791015625</ele>
        <time>2022-07-06T21:01:32.000Z</time>
        <extensions>
          <ns3:TrackPointExtension>
            <ns3:atemp>32.0</ns3:atemp>
            <ns3:hr>56</ns3:hr>
          </ns3:TrackPointExtension>
        </extensions>
      </trkpt>
      <trkpt lat="31.43131488002836704254150390625" lon="119.48631453327834606170654296875">
        <ele>0.800000011920928955078125</ele>
        <time>2022-07-06T21:01:40.000Z</time>
        <extensions>
          <ns3:TrackPointExtension>
            <ns3:atemp>32.0</ns3:atemp>
            <ns3:hr>58</ns3:hr>
          </ns3:TrackPointExtension>
        </extensions>
      </trkpt>
      <trkpt lat="31.4311201684176921844482421875" lon="119.4865876995027065277099609375">
        <ele>1.2000000476837158203125</ele>
        <time>2022-07-06T21:01:44.000Z</time>
        <extensions>
          <ns3:TrackPointExtension>
            <ns3:atemp>32.0</ns3:atemp>
            <ns3:hr>60</ns3:hr>
          </ns3:TrackPointExtension>
        </extensions>
      </trkpt>
      <trkpt lat="31.430749855935573577880859375" lon="119.487111233174800872802734375">
        <ele>1.39999997615814208984375</ele>
        <time>2022-07-06T21:01:52.000Z</time>
        <extensions>
          <ns3:TrackPointExtension>
            <ns3:atemp>32.0</ns3:atemp>
            <ns3:hr>59</ns3:hr>
          </ns3:TrackPointExtension>
        </extensions>
      </trkpt>
      <trkpt lat="31.43068657256662845611572265625" lon="119.4872076250612735748291015625">
        <ele>1.7999999523162841796875</ele>
        <time>2022-07-06T21:01:54.000Z</time>
        <extensions>
          <ns3:TrackPointExtension>
            <ns3:atemp>31.0</ns3:atemp>
            <ns3:hr>58</ns3:hr>
          </ns3:TrackPointExtension>
        </extensions>
      </trkpt>
      <trkpt lat="31.4305270649492740631103515625" lon="119.48744206689298152923583984375">
        <ele>2.2000000476837158203125</ele>
        <time>2022-07-06T21:01:59.000Z</time>
        <extensions>
          <ns3:TrackPointExtension>
            <ns3:atemp>31.0</ns3:atemp>
            <ns3:hr>58</ns3:hr>
          </ns3:TrackPointExtension>
        </extensions>
      </trkpt>
      <trkpt lat="31.43024551682174205780029296875" lon="119.4877812825143337249755859375">
        <ele>1.7999999523162841796875</ele>
        <time>2022-07-06T21:02:05.000Z</time>
        <extensions>
          <ns3:TrackPointExtension>
            <ns3:atemp>32.0</ns3:atemp>
            <ns3:hr>57</ns3:hr>
          </ns3:TrackPointExtension>
        </extensions>
      </trkpt>
      <trkpt lat="31.42992608249187469482421875" lon="119.4882131181657314300537109375">
        <ele>1.60000002384185791015625</ele>
        <time>2022-07-06T21:02:12.000Z</time>
        <extensions>
          <ns3:TrackPointExtension>
            <ns3:atemp>31.0</ns3:atemp>
            <ns3:hr>60</ns3:hr>
          </ns3:TrackPointExtension>
        </extensions>
      </trkpt>
      <trkpt lat="31.4296576939523220062255859375" lon="119.4885773956775665283203125">
        <ele>1.60000002384185791015625</ele>
        <time>2022-07-06T21:02:18.000Z</time>
        <extensions>
          <ns3:TrackPointExtension>
            <ns3:atemp>31.0</ns3:atemp>
            <ns3:hr>62</ns3:hr>
          </ns3:TrackPointExtension>
        </extensions>
      </trkpt>
      <trkpt lat="31.42938318662345409393310546875" lon="119.48893002234399318695068359375">
        <ele>2.599999904632568359375</ele>
        <time>2022-07-06T21:02:25.000Z</time>
        <extensions>
          <ns3:TrackPointExtension>
            <ns3:atemp>31.0</ns3:atemp>
            <ns3:hr>62</ns3:hr>
          </ns3:TrackPointExtension>
        </extensions>
      </trkpt>
      <trkpt lat="31.42933524213731288909912109375" lon="119.48899204842746257781982421875">
        <ele>2.599999904632568359375</ele>
        <time>2022-07-06T21:02:26.000Z</time>
        <extensions>
          <ns3:TrackPointExtension>
            <ns3:atemp>31.0</ns3:atemp>
            <ns3:hr>62</ns3:hr>
          </ns3:TrackPointExtension>
        </extensions>
      </trkpt>
      <trkpt lat="31.4290082640945911407470703125" lon="119.48945187963545322418212890625">
        <ele>2</ele>
        <time>2022-07-06T21:02:33.000Z</time>
        <extensions>
          <ns3:TrackPointExtension>
            <ns3:atemp>31.0</ns3:atemp>
            <ns3:hr>64</ns3:hr>
          </ns3:TrackPointExtension>
        </extensions>
      </trkpt>
      <trkpt lat="31.4286119677126407623291015625" lon="119.48997809551656246185302734375">
        <ele>1.60000002384185791015625</ele>
        <time>2022-07-06T21:02:41.000Z</time>
        <extensions>
          <ns3:TrackPointExtension>
            <ns3:atemp>31.0</ns3:atemp>
            <ns3:hr>61</ns3:hr>
          </ns3:TrackPointExtension>
        </extensions>
      </trkpt>
      <trkpt lat="31.42856125719845294952392578125" lon="119.4900443963706493377685546875">
        <ele>1.39999997615814208984375</ele>
        <time>2022-07-06T21:02:42.000Z</time>
        <extensions>
          <ns3:TrackPointExtension>
            <ns3:atemp>31.0</ns3:atemp>
            <ns3:hr>59</ns3:hr>
          </ns3:TrackPointExtension>
        </extensions>
      </trkpt>
      <trkpt lat="31.42836277373135089874267578125" lon="119.49030272662639617919921875">
        <ele>1</ele>
        <time>2022-07-06T21:02:46.000Z</time>
        <extensions>
          <ns3:TrackPointExtension>
            <ns3:atemp>31.0</ns3:atemp>
            <ns3:hr>56</ns3:hr>
          </ns3:TrackPointExtension>
        </extensions>
      </trkpt>
      <trkpt lat="31.42822765745222568511962890625" lon="119.49049978516995906829833984375">
        <ele>0.800000011920928955078125</ele>
        <time>2022-07-06T21:02:49.000Z</time>
        <extensions>
          <ns3:TrackPointExtension>
            <ns3:atemp>31.0</ns3:atemp>
            <ns3:hr>56</ns3:hr>
          </ns3:TrackPointExtension>
        </extensions>
      </trkpt>
      <trkpt lat="31.42785985954105854034423828125" lon="119.49103337712585926055908203125">
        <ele>0.60000002384185791015625</ele>
        <time>2022-07-06T21:02:57.000Z</time>
        <extensions>
          <ns3:TrackPointExtension>
            <ns3:atemp>31.0</ns3:atemp>
            <ns3:hr>56</ns3:hr>
          </ns3:TrackPointExtension>
        </extensions>
      </trkpt>
      <trkpt lat="31.42755358479917049407958984375" lon="119.49161122553050518035888671875">
        <ele>0.60000002384185791015625</ele>
        <time>2022-07-06T21:03:05.000Z</time>
        <extensions>
          <ns3:TrackPointExtension>
            <ns3:atemp>31.0</ns3:atemp>
            <ns3:hr>54</ns3:hr>
          </ns3:TrackPointExtension>
        </extensions>
      </trkpt>
      <trkpt lat="31.42734789289534091949462890625" lon="119.491971395909786224365234375">
        <ele>0.4000000059604644775390625</ele>
        <time>2022-07-06T21:03:10.000Z</time>
        <extensions>
          <ns3:TrackPointExtension>
            <ns3:atemp>31.0</ns3:atemp>
            <ns3:hr>54</ns3:hr>
          </ns3:TrackPointExtension>
        </extensions>
      </trkpt>
      <trkpt lat="31.427254267036914825439453125" lon="119.4921039976179599761962890625">
        <ele>0.4000000059604644775390625</ele>
        <time>2022-07-06T21:03:12.000Z</time>
        <extensions>
          <ns3:TrackPointExtension>
            <ns3:atemp>31.0</ns3:atemp>
            <ns3:hr>54</ns3:hr>
          </ns3:TrackPointExtension>
        </extensions>
      </trkpt>
      <trkpt lat="31.42686459235846996307373046875" lon="119.49263163842260837554931640625">
        <ele>0.20000000298023223876953125</ele>
        <time>2022-07-06T21:03:20.000Z</time>
        <extensions>
          <ns3:TrackPointExtension>
            <ns3:atemp>31.0</ns3:atemp>
            <ns3:hr>53</ns3:hr>
          </ns3:TrackPointExtension>
        </extensions>
      </trkpt>
      <trkpt lat="31.4267136342823505401611328125" lon="119.4928204827010631561279296875">
        <ele>0.20000000298023223876953125</ele>
        <time>2022-07-06T21:03:23.000Z</time>
        <extensions>
          <ns3:TrackPointExtension>
            <ns3:atemp>31.0</ns3:atemp>
            <ns3:hr>54</ns3:hr>
          </ns3:TrackPointExtension>
        </extensions>
      </trkpt>
      <trkpt lat="31.4263220317661762237548828125" lon="119.49322038330137729644775390625">
        <ele>0.60000002384185791015625</ele>
        <time>2022-07-06T21:03:30.000Z</time>
        <extensions>
          <ns3:TrackPointExtension>
            <ns3:atemp>31.0</ns3:atemp>
            <ns3:hr>57</ns3:hr>
          </ns3:TrackPointExtension>
        </extensions>
      </trkpt>
      <trkpt lat="31.42626218497753143310546875" lon="119.49327419511973857879638671875">
        <ele>0.60000002384185791015625</ele>
        <time>2022-07-06T21:03:31.000Z</time>
        <extensions>
          <ns3:TrackPointExtension>
            <ns3:atemp>31.0</ns3:atemp>
            <ns3:hr>57</ns3:hr>
          </ns3:TrackPointExtension>
        </extensions>
      </trkpt>
      <trkpt lat="31.42596714198589324951171875" lon="119.4935560785233974456787109375">
        <ele>0.4000000059604644775390625</ele>
        <time>2022-07-06T21:03:36.000Z</time>
        <extensions>
          <ns3:TrackPointExtension>
            <ns3:atemp>31.0</ns3:atemp>
            <ns3:hr>57</ns3:hr>
          </ns3:TrackPointExtension>
        </extensions>
      </trkpt>
      <trkpt lat="31.42584568820893764495849609375" lon="119.4936512969434261322021484375">
        <ele>0.4000000059604644775390625</ele>
        <time>2022-07-06T21:03:38.000Z</time>
        <extensions>
          <ns3:TrackPointExtension>
            <ns3:atemp>31.0</ns3:atemp>
            <ns3:hr>57</ns3:hr>
          </ns3:TrackPointExtension>
        </extensions>
      </trkpt>
      <trkpt lat="31.4253785647451877593994140625" lon="119.4940878264605998992919921875">
        <ele>0.800000011920928955078125</ele>
        <time>2022-07-06T21:03:46.000Z</time>
        <extensions>
          <ns3:TrackPointExtension>
            <ns3:atemp>31.0</ns3:atemp>
            <ns3:hr>57</ns3:hr>
          </ns3:TrackPointExtension>
        </extensions>
      </trkpt>
      <trkpt lat="31.42532366327941417694091796875" lon="119.49414633214473724365234375">
        <ele>0.800000011920928955078125</ele>
        <time>2022-07-06T21:03:47.000Z</time>
        <extensions>
          <ns3:TrackPointExtension>
            <ns3:atemp>31.0</ns3:atemp>
            <ns3:hr>57</ns3:hr>
          </ns3:TrackPointExtension>
        </extensions>
      </trkpt>
      <trkpt lat="31.42527957446873188018798828125" lon="119.4942118786275386810302734375">
        <ele>0.800000011920928955078125</ele>
        <time>2022-07-06T21:03:48.000Z</time>
        <extensions>
          <ns3:TrackPointExtension>
            <ns3:atemp>31.0</ns3:atemp>
            <ns3:hr>56</ns3:hr>
          </ns3:TrackPointExtension>
        </extensions>
      </trkpt>
      <trkpt lat="31.42525099217891693115234375" lon="119.49436719529330730438232421875">
        <ele>0.800000011920928955078125</ele>
        <time>2022-07-06T21:03:50.000Z</time>
        <extensions>
          <ns3:TrackPointExtension>
            <ns3:atemp>31.0</ns3:atemp>
            <ns3:hr>57</ns3:hr>
          </ns3:TrackPointExtension>
        </extensions>
      </trkpt>
      <trkpt lat="31.42529466189444065093994140625" lon="119.494530223309993743896484375">
        <ele>0.800000011920928955078125</ele>
        <time>2022-07-06T21:03:52.000Z</time>
        <extensions>
          <ns3:TrackPointExtension>
            <ns3:atemp>31.0</ns3:atemp>
            <ns3:hr>57</ns3:hr>
          </ns3:TrackPointExtension>
        </extensions>
      </trkpt>
      <trkpt lat="31.42531938850879669189453125" lon="119.4946011342108249664306640625">
        <ele>0.800000011920928955078125</ele>
        <time>2022-07-06T21:03:53.000Z</time>
        <extensions>
          <ns3:TrackPointExtension>
            <ns3:atemp>31.0</ns3:atemp>
            <ns3:hr>57</ns3:hr>
          </ns3:TrackPointExtension>
        </extensions>
      </trkpt>
      <trkpt lat="31.42534076236188411712646484375" lon="119.49467229656875133514404296875">
        <ele>0.800000011920928955078125</ele>
        <time>2022-07-06T21:03:54.000Z</time>
        <extensions>
          <ns3:TrackPointExtension>
            <ns3:atemp>31.0</ns3:atemp>
            <ns3:hr>57</ns3:hr>
          </ns3:TrackPointExtension>
        </extensions>
      </trkpt>
      <trkpt lat="31.42534009180963039398193359375" lon="119.4947942532598972320556640625">
        <ele>1</ele>
        <time>2022-07-06T21:03:56.000Z</time>
        <extensions>
          <ns3:TrackPointExtension>
            <ns3:atemp>31.0</ns3:atemp>
            <ns3:hr>57</ns3:hr>
          </ns3:TrackPointExtension>
        </extensions>
      </trkpt>
      <trkpt lat="31.42528812400996685028076171875" lon="119.4948586262762546539306640625">
        <ele>1.39999997615814208984375</ele>
        <time>2022-07-06T21:03:58.000Z</time>
        <extensions>
          <ns3:TrackPointExtension>
            <ns3:atemp>31.0</ns3:atemp>
            <ns3:hr>57</ns3:hr>
          </ns3:TrackPointExtension>
        </extensions>
      </trkpt>
      <trkpt lat="31.4252541773021221160888671875" lon="119.4948510825634002685546875">
        <ele>1.60000002384185791015625</ele>
        <time>2022-07-06T21:03:59.000Z</time>
        <extensions>
          <ns3:TrackPointExtension>
            <ns3:atemp>31.0</ns3:atemp>
            <ns3:hr>57</ns3:hr>
          </ns3:TrackPointExtension>
        </extensions>
      </trkpt>
      <trkpt lat="31.42521603964269161224365234375" lon="119.494814537465572357177734375">
        <ele>1.7999999523162841796875</ele>
        <time>2022-07-06T21:04:00.000Z</time>
        <extensions>
          <ns3:TrackPointExtension>
            <ns3:atemp>31.0</ns3:atemp>
            <ns3:hr>57</ns3:hr>
          </ns3:TrackPointExtension>
        </extensions>
      </trkpt>
      <trkpt lat="31.42517614178359508514404296875" lon="119.49476516805589199066162109375">
        <ele>1.7999999523162841796875</ele>
        <time>2022-07-06T21:04:01.000Z</time>
        <extensions>
          <ns3:TrackPointExtension>
            <ns3:atemp>31.0</ns3:atemp>
            <ns3:hr>57</ns3:hr>
          </ns3:TrackPointExtension>
        </extensions>
      </trkpt>
      <trkpt lat="31.424978077411651611328125" lon="119.4945310615003108978271484375">
        <ele>2.400000095367431640625</ele>
        <time>2022-07-06T21:04:05.000Z</time>
        <extensions>
          <ns3:TrackPointExtension>
            <ns3:atemp>31.0</ns3:atemp>
            <ns3:hr>58</ns3:hr>
          </ns3:TrackPointExtension>
        </extensions>
      </trkpt>
      <trkpt lat="31.42486902885138988494873046875" lon="119.4943929277360439300537109375">
        <ele>2.7999999523162841796875</ele>
        <time>2022-07-06T21:04:07.000Z</time>
        <extensions>
          <ns3:TrackPointExtension>
            <ns3:atemp>31.0</ns3:atemp>
            <ns3:hr>59</ns3:hr>
          </ns3:TrackPointExtension>
        </extensions>
      </trkpt>
      <trkpt lat="31.4248122833669185638427734375" lon="119.4943238608539104461669921875">
        <ele>3</ele>
        <time>2022-07-06T21:04:08.000Z</time>
        <extensions>
          <ns3:TrackPointExtension>
            <ns3:atemp>31.0</ns3:atemp>
            <ns3:hr>60</ns3:hr>
          </ns3:TrackPointExtension>
        </extensions>
      </trkpt>
      <trkpt lat="31.424693763256072998046875" lon="119.49418262578547000885009765625">
        <ele>3.2000000476837158203125</ele>
        <time>2022-07-06T21:04:10.000Z</time>
        <extensions>
          <ns3:TrackPointExtension>
            <ns3:atemp>31.0</ns3:atemp>
            <ns3:hr>60</ns3:hr>
          </ns3:TrackPointExtension>
        </extensions>
      </trkpt>
      <trkpt lat="31.4243921823799610137939453125" lon="119.49382186867296695709228515625">
        <ele>3.2000000476837158203125</ele>
        <time>2022-07-06T21:04:15.000Z</time>
        <extensions>
          <ns3:TrackPointExtension>
            <ns3:atemp>31.0</ns3:atemp>
            <ns3:hr>63</ns3:hr>
          </ns3:TrackPointExtension>
        </extensions>
      </trkpt>
      <trkpt lat="31.4243318326771259307861328125" lon="119.49375028721988201141357421875">
        <ele>3</ele>
        <time>2022-07-06T21:04:16.000Z</time>
        <extensions>
          <ns3:TrackPointExtension>
            <ns3:atemp>31.0</ns3:atemp>
            <ns3:hr>62</ns3:hr>
          </ns3:TrackPointExtension>
        </extensions>
      </trkpt>
      <trkpt lat="31.4239616878330707550048828125" lon="119.49332666583359241485595703125">
        <ele>1.7999999523162841796875</ele>
        <time>2022-07-06T21:04:22.000Z</time>
        <extensions>
          <ns3:TrackPointExtension>
            <ns3:atemp>31.0</ns3:atemp>
            <ns3:hr>59</ns3:hr>
          </ns3:TrackPointExtension>
        </extensions>
      </trkpt>
      <trkpt lat="31.42390158958733081817626953125" lon="119.4932551681995391845703125">
        <ele>1.7999999523162841796875</ele>
        <time>2022-07-06T21:04:23.000Z</time>
        <extensions>
          <ns3:TrackPointExtension>
            <ns3:atemp>31.0</ns3:atemp>
            <ns3:hr>59</ns3:hr>
          </ns3:TrackPointExtension>
        </extensions>
      </trkpt>
      <trkpt lat="31.42378323711454868316650390625" lon="119.49311577714979648590087890625">
        <ele>1.7999999523162841796875</ele>
        <time>2022-07-06T21:04:25.000Z</time>
        <extensions>
          <ns3:TrackPointExtension>
            <ns3:atemp>31.0</ns3:atemp>
            <ns3:hr>59</ns3:hr>
          </ns3:TrackPointExtension>
        </extensions>
      </trkpt>
      <trkpt lat="31.42341007478535175323486328125" lon="119.49260649271309375762939453125">
        <ele>1.7999999523162841796875</ele>
        <time>2022-07-06T21:04:32.000Z</time>
        <extensions>
          <ns3:TrackPointExtension>
            <ns3:atemp>31.0</ns3:atemp>
            <ns3:hr>59</ns3:hr>
          </ns3:TrackPointExtension>
        </extensions>
      </trkpt>
      <trkpt lat="31.42335995100438594818115234375" lon="119.4925462268292903900146484375">
        <ele>1.7999999523162841796875</ele>
        <time>2022-07-06T21:04:33.000Z</time>
        <extensions>
          <ns3:TrackPointExtension>
            <ns3:atemp>31.0</ns3:atemp>
            <ns3:hr>58</ns3:hr>
          </ns3:TrackPointExtension>
        </extensions>
      </trkpt>
      <trkpt lat="31.42316758632659912109375" lon="119.492347575724124908447265625">
        <ele>2</ele>
        <time>2022-07-06T21:04:37.000Z</time>
        <extensions>
          <ns3:TrackPointExtension>
            <ns3:atemp>31.0</ns3:atemp>
            <ns3:hr>58</ns3:hr>
          </ns3:TrackPointExtension>
        </extensions>
      </trkpt>
      <trkpt lat="31.42295829020440578460693359375" lon="119.4920964539051055908203125">
        <ele>2.2000000476837158203125</ele>
        <time>2022-07-06T21:04:43.000Z</time>
        <extensions>
          <ns3:TrackPointExtension>
            <ns3:atemp>31.0</ns3:atemp>
            <ns3:hr>57</ns3:hr>
          </ns3:TrackPointExtension>
        </extensions>
      </trkpt>
      <trkpt lat="31.4228505827486515045166015625" lon="119.4919665344059467315673828125">
        <ele>2.2000000476837158203125</ele>
        <time>2022-07-06T21:04:47.000Z</time>
        <extensions>
          <ns3:TrackPointExtension>
            <ns3:atemp>31.0</ns3:atemp>
            <ns3:hr>58</ns3:hr>
          </ns3:TrackPointExtension>
        </extensions>
      </trkpt>
      <trkpt lat="31.4228282868862152099609375" lon="119.491928480565547943115234375">
        <ele>2.2000000476837158203125</ele>
        <time>2022-07-06T21:04:49.000Z</time>
        <extensions>
          <ns3:TrackPointExtension>
            <ns3:atemp>31.0</ns3:atemp>
            <ns3:hr>58</ns3:hr>
          </ns3:TrackPointExtension>
        </extensions>
      </trkpt>
      <trkpt lat="31.422829292714595794677734375" lon="119.491926468908786773681640625">
        <ele>2.2000000476837158203125</ele>
        <time>2022-07-06T21:04:50.000Z</time>
        <extensions>
          <ns3:TrackPointExtension>
            <ns3:atemp>31.0</ns3:atemp>
            <ns3:hr>58</ns3:hr>
          </ns3:TrackPointExtension>
        </extensions>
      </trkpt>
      <trkpt lat="31.42283298075199127197265625" lon="119.49192705564200878143310546875">
        <ele>2.2000000476837158203125</ele>
        <time>2022-07-06T21:04:51.000Z</time>
        <extensions>
          <ns3:TrackPointExtension>
            <ns3:atemp>31.0</ns3:atemp>
            <ns3:hr>59</ns3:hr>
          </ns3:TrackPointExtension>
        </extensions>
      </trkpt>
      <trkpt lat="31.42283457331359386444091796875" lon="119.49192772619426250457763671875">
        <ele>2.2000000476837158203125</ele>
        <time>2022-07-06T21:04:52.000Z</time>
        <extensions>
          <ns3:TrackPointExtension>
            <ns3:atemp>31.0</ns3:atemp>
            <ns3:hr>59</ns3:hr>
          </ns3:TrackPointExtension>
        </extensions>
      </trkpt>
      <trkpt lat="31.42283407039940357208251953125" lon="119.49193158186972141265869140625">
        <ele>2.2000000476837158203125</ele>
        <time>2022-07-06T21:04:54.000Z</time>
        <extensions>
          <ns3:TrackPointExtension>
            <ns3:atemp>31.0</ns3:atemp>
            <ns3:hr>59</ns3:hr>
          </ns3:TrackPointExtension>
        </extensions>
      </trkpt>
      <trkpt lat="31.42283272929489612579345703125" lon="119.49193418025970458984375">
        <ele>2</ele>
        <time>2022-07-06T21:04:58.000Z</time>
        <extensions>
          <ns3:TrackPointExtension>
            <ns3:atemp>31.0</ns3:atemp>
            <ns3:hr>60</ns3:hr>
          </ns3:TrackPointExtension>
        </extensions>
      </trkpt>
      <trkpt lat="31.42283298075199127197265625" lon="119.4919355213642120361328125">
        <ele>2</ele>
        <time>2022-07-06T21:05:00.000Z</time>
        <extensions>
          <ns3:TrackPointExtension>
            <ns3:atemp>31.0</ns3:atemp>
            <ns3:hr>61</ns3:hr>
          </ns3:TrackPointExtension>
        </extensions>
      </trkpt>
      <trkpt lat="31.422752179205417633056640625" lon="119.49185413308441638946533203125">
        <ele>2</ele>
        <time>2022-07-06T21:05:11.000Z</time>
        <extensions>
          <ns3:TrackPointExtension>
            <ns3:atemp>31.0</ns3:atemp>
            <ns3:hr>57</ns3:hr>
          </ns3:TrackPointExtension>
        </extensions>
      </trkpt>
      <trkpt lat="31.422718651592731475830078125" lon="119.49181842617690563201904296875">
        <ele>2</ele>
        <time>2022-07-06T21:05:12.000Z</time>
        <extensions>
          <ns3:TrackPointExtension>
            <ns3:atemp>31.0</ns3:atemp>
            <ns3:hr>57</ns3:hr>
          </ns3:TrackPointExtension>
        </extensions>
      </trkpt>
      <trkpt lat="31.4225847087800502777099609375" lon="119.491709880530834197998046875">
        <ele>2</ele>
        <time>2022-07-06T21:05:15.000Z</time>
        <extensions>
          <ns3:TrackPointExtension>
            <ns3:atemp>31.0</ns3:atemp>
            <ns3:hr>57</ns3:hr>
          </ns3:TrackPointExtension>
        </extensions>
      </trkpt>
      <trkpt lat="31.42252746038138866424560546875" lon="119.49167911894619464874267578125">
        <ele>2</ele>
        <time>2022-07-06T21:05:16.000Z</time>
        <extensions>
          <ns3:TrackPointExtension>
            <ns3:atemp>31.0</ns3:atemp>
            <ns3:hr>56</ns3:hr>
          </ns3:TrackPointExtension>
        </extensions>
      </trkpt>
      <trkpt lat="31.42219327390193939208984375" lon="119.4915306754410266876220703125">
        <ele>2</ele>
        <time>2022-07-06T21:05:21.000Z</time>
        <extensions>
          <ns3:TrackPointExtension>
            <ns3:atemp>31.0</ns3:atemp>
            <ns3:hr>54</ns3:hr>
          </ns3:TrackPointExtension>
        </extensions>
      </trkpt>
      <trkpt lat="31.42177208326756954193115234375" lon="119.4913526438176631927490234375">
        <ele>2.2000000476837158203125</ele>
        <time>2022-07-06T21:05:27.000Z</time>
        <extensions>
          <ns3:TrackPointExtension>
            <ns3:atemp>31.0</ns3:atemp>
            <ns3:hr>54</ns3:hr>
          </ns3:TrackPointExtension>
        </extensions>
      </trkpt>
      <trkpt lat="31.4212214760482311248779296875" lon="119.49111786670982837677001953125">
        <ele>2.400000095367431640625</ele>
        <time>2022-07-06T21:05:35.000Z</time>
        <extensions>
          <ns3:TrackPointExtension>
            <ns3:atemp>31.0</ns3:atemp>
            <ns3:hr>56</ns3:hr>
          </ns3:TrackPointExtension>
        </extensions>
      </trkpt>
      <trkpt lat="31.42094244249165058135986328125" lon="119.49101208709180355072021484375">
        <ele>2.400000095367431640625</ele>
        <time>2022-07-06T21:05:39.000Z</time>
        <extensions>
          <ns3:TrackPointExtension>
            <ns3:atemp>31.0</ns3:atemp>
            <ns3:hr>57</ns3:hr>
          </ns3:TrackPointExtension>
        </extensions>
      </trkpt>
      <trkpt lat="31.4204007200896739959716796875" lon="119.490793235599994659423828125">
        <ele>2.400000095367431640625</ele>
        <time>2022-07-06T21:05:47.000Z</time>
        <extensions>
          <ns3:TrackPointExtension>
            <ns3:atemp>31.0</ns3:atemp>
            <ns3:hr>53</ns3:hr>
          </ns3:TrackPointExtension>
        </extensions>
      </trkpt>
      <trkpt lat="31.42026753164827823638916015625" lon="119.49074327945709228515625">
        <ele>2.2000000476837158203125</ele>
        <time>2022-07-06T21:05:49.000Z</time>
        <extensions>
          <ns3:TrackPointExtension>
            <ns3:atemp>31.0</ns3:atemp>
            <ns3:hr>51</ns3:hr>
          </ns3:TrackPointExtension>
        </extensions>
      </trkpt>
      <trkpt lat="31.419725976884365081787109375" lon="119.4905543513596057891845703125">
        <ele>2.2000000476837158203125</ele>
        <time>2022-07-06T21:05:57.000Z</time>
        <extensions>
          <ns3:TrackPointExtension>
            <ns3:atemp>31.0</ns3:atemp>
            <ns3:hr>50</ns3:hr>
          </ns3:TrackPointExtension>
        </extensions>
      </trkpt>
      <trkpt lat="31.4191804826259613037109375" lon="119.49039769358932971954345703125">
        <ele>2.2000000476837158203125</ele>
        <time>2022-07-06T21:06:05.000Z</time>
        <extensions>
          <ns3:TrackPointExtension>
            <ns3:atemp>31.0</ns3:atemp>
            <ns3:hr>51</ns3:hr>
          </ns3:TrackPointExtension>
        </extensions>
      </trkpt>
      <trkpt lat="31.4191082306206226348876953125" lon="119.49038176797330379486083984375">
        <ele>2.2000000476837158203125</ele>
        <time>2022-07-06T21:06:06.000Z</time>
        <extensions>
          <ns3:TrackPointExtension>
            <ns3:atemp>31.0</ns3:atemp>
            <ns3:hr>51</ns3:hr>
          </ns3:TrackPointExtension>
        </extensions>
      </trkpt>
      <trkpt lat="31.4186130277812480926513671875" lon="119.49029912240803241729736328125">
        <ele>0.20000000298023223876953125</ele>
        <time>2022-07-06T21:06:13.000Z</time>
        <extensions>
          <ns3:TrackPointExtension>
            <ns3:atemp>31.0</ns3:atemp>
            <ns3:hr>51</ns3:hr>
          </ns3:TrackPointExtension>
        </extensions>
      </trkpt>
      <trkpt lat="31.4184698648750782012939453125" lon="119.4902780838310718536376953125">
        <ele>-0.4000000059604644775390625</ele>
        <time>2022-07-06T21:06:15.000Z</time>
        <extensions>
          <ns3:TrackPointExtension>
            <ns3:atemp>31.0</ns3:atemp>
            <ns3:hr>51</ns3:hr>
          </ns3:TrackPointExtension>
        </extensions>
      </trkpt>
      <trkpt lat="31.4182690344750881195068359375" lon="119.49027079157531261444091796875">
        <ele>0.4000000059604644775390625</ele>
        <time>2022-07-06T21:06:18.000Z</time>
        <extensions>
          <ns3:TrackPointExtension>
            <ns3:atemp>31.0</ns3:atemp>
            <ns3:hr>52</ns3:hr>
          </ns3:TrackPointExtension>
        </extensions>
      </trkpt>
      <trkpt lat="31.41819686628878116607666015625" lon="119.49026995338499546051025390625">
        <ele>1.39999997615814208984375</ele>
        <time>2022-07-06T21:06:20.000Z</time>
        <extensions>
          <ns3:TrackPointExtension>
            <ns3:atemp>31.0</ns3:atemp>
            <ns3:hr>53</ns3:hr>
          </ns3:TrackPointExtension>
        </extensions>
      </trkpt>
      <trkpt lat="31.41817322932183742523193359375" lon="119.490268528461456298828125">
        <ele>1.60000002384185791015625</ele>
        <time>2022-07-06T21:06:21.000Z</time>
        <extensions>
          <ns3:TrackPointExtension>
            <ns3:atemp>31.0</ns3:atemp>
            <ns3:hr>54</ns3:hr>
          </ns3:TrackPointExtension>
        </extensions>
      </trkpt>
      <trkpt lat="31.4181084372103214263916015625" lon="119.49027364142239093780517578125">
        <ele>2</ele>
        <time>2022-07-06T21:06:26.000Z</time>
        <extensions>
          <ns3:TrackPointExtension>
            <ns3:atemp>31.0</ns3:atemp>
            <ns3:hr>57</ns3:hr>
          </ns3:TrackPointExtension>
        </extensions>
      </trkpt>
      <trkpt lat="31.41801263205707073211669921875" lon="119.49027749709784984588623046875">
        <ele>1.60000002384185791015625</ele>
        <time>2022-07-06T21:06:46.000Z</time>
        <extensions>
          <ns3:TrackPointExtension>
            <ns3:atemp>31.0</ns3:atemp>
            <ns3:hr>60</ns3:hr>
          </ns3:TrackPointExtension>
        </extensions>
      </trkpt>
      <trkpt lat="31.4179619215428829193115234375" lon="119.4902832806110382080078125">
        <ele>1.60000002384185791015625</ele>
        <time>2022-07-06T21:06:47.000Z</time>
        <extensions>
          <ns3:TrackPointExtension>
            <ns3:atemp>31.0</ns3:atemp>
            <ns3:hr>59</ns3:hr>
          </ns3:TrackPointExtension>
        </extensions>
      </trkpt>
      <trkpt lat="31.417645923793315887451171875" lon="119.49030063115060329437255859375">
        <ele>1.60000002384185791015625</ele>
        <time>2022-07-06T21:06:52.000Z</time>
        <extensions>
          <ns3:TrackPointExtension>
            <ns3:atemp>31.0</ns3:atemp>
            <ns3:hr>57</ns3:hr>
          </ns3:TrackPointExtension>
        </extensions>
      </trkpt>
      <trkpt lat="31.41750343143939971923828125" lon="119.4903042353689670562744140625">
        <ele>1.60000002384185791015625</ele>
        <time>2022-07-06T21:06:54.000Z</time>
        <extensions>
          <ns3:TrackPointExtension>
            <ns3:atemp>31.0</ns3:atemp>
            <ns3:hr>54</ns3:hr>
          </ns3:TrackPointExtension>
        </extensions>
      </trkpt>
      <trkpt lat="31.417216770350933074951171875" lon="119.49030498974025249481201171875">
        <ele>1.7999999523162841796875</ele>
        <time>2022-07-06T21:06:58.000Z</time>
        <extensions>
          <ns3:TrackPointExtension>
            <ns3:atemp>31.0</ns3:atemp>
            <ns3:hr>52</ns3:hr>
          </ns3:TrackPointExtension>
        </extensions>
      </trkpt>
      <trkpt lat="31.416862048208713531494140625" lon="119.49029778130352497100830078125">
        <ele>1.7999999523162841796875</ele>
        <time>2022-07-06T21:07:03.000Z</time>
        <extensions>
          <ns3:TrackPointExtension>
            <ns3:atemp>31.0</ns3:atemp>
            <ns3:hr>55</ns3:hr>
          </ns3:TrackPointExtension>
        </extensions>
      </trkpt>
      <trkpt lat="31.416511349380016326904296875" lon="119.49030381627380847930908203125">
        <ele>1.7999999523162841796875</ele>
        <time>2022-07-06T21:07:08.000Z</time>
        <extensions>
          <ns3:TrackPointExtension>
            <ns3:atemp>31.0</ns3:atemp>
            <ns3:hr>55</ns3:hr>
          </ns3:TrackPointExtension>
        </extensions>
      </trkpt>
      <trkpt lat="31.41596317291259765625" lon="119.4903005473315715789794921875">
        <ele>2</ele>
        <time>2022-07-06T21:07:16.000Z</time>
        <extensions>
          <ns3:TrackPointExtension>
            <ns3:atemp>31.0</ns3:atemp>
            <ns3:hr>56</ns3:hr>
          </ns3:TrackPointExtension>
        </extensions>
      </trkpt>
      <trkpt lat="31.41589603386819362640380859375" lon="119.49029929004609584808349609375">
        <ele>2</ele>
        <time>2022-07-06T21:07:17.000Z</time>
        <extensions>
          <ns3:TrackPointExtension>
            <ns3:atemp>31.0</ns3:atemp>
            <ns3:hr>56</ns3:hr>
          </ns3:TrackPointExtension>
        </extensions>
      </trkpt>
      <trkpt lat="31.4153467677533626556396484375" lon="119.49030985124409198760986328125">
        <ele>1.7999999523162841796875</ele>
        <time>2022-07-06T21:07:25.000Z</time>
        <extensions>
          <ns3:TrackPointExtension>
            <ns3:atemp>31.0</ns3:atemp>
            <ns3:hr>57</ns3:hr>
          </ns3:TrackPointExtension>
        </extensions>
      </trkpt>
      <trkpt lat="31.41514635644853115081787109375" lon="119.49032728560268878936767578125">
        <ele>2</ele>
        <time>2022-07-06T21:07:28.000Z</time>
        <extensions>
          <ns3:TrackPointExtension>
            <ns3:atemp>31.0</ns3:atemp>
            <ns3:hr>58</ns3:hr>
          </ns3:TrackPointExtension>
        </extensions>
      </trkpt>
      <trkpt lat="31.41459901817142963409423828125" lon="119.4903890602290630340576171875">
        <ele>2.2000000476837158203125</ele>
        <time>2022-07-06T21:07:36.000Z</time>
        <extensions>
          <ns3:TrackPointExtension>
            <ns3:atemp>31.0</ns3:atemp>
            <ns3:hr>60</ns3:hr>
          </ns3:TrackPointExtension>
        </extensions>
      </trkpt>
      <trkpt lat="31.41453087329864501953125" lon="119.49039802886545658111572265625">
        <ele>2.2000000476837158203125</ele>
        <time>2022-07-06T21:07:37.000Z</time>
        <extensions>
          <ns3:TrackPointExtension>
            <ns3:atemp>30.0</ns3:atemp>
            <ns3:hr>63</ns3:hr>
          </ns3:TrackPointExtension>
        </extensions>
      </trkpt>
      <trkpt lat="31.41439416445791721343994140625" lon="119.4904252700507640838623046875">
        <ele>2.2000000476837158203125</ele>
        <time>2022-07-06T21:07:39.000Z</time>
        <extensions>
          <ns3:TrackPointExtension>
            <ns3:atemp>30.0</ns3:atemp>
            <ns3:hr>66</ns3:hr>
          </ns3:TrackPointExtension>
        </extensions>
      </trkpt>
      <trkpt lat="31.41399049200117588043212890625" lon="119.49052945710718631744384765625">
        <ele>2</ele>
        <time>2022-07-06T21:07:45.000Z</time>
        <extensions>
          <ns3:TrackPointExtension>
            <ns3:atemp>31.0</ns3:atemp>
            <ns3:hr>65</ns3:hr>
          </ns3:TrackPointExtension>
        </extensions>
      </trkpt>
      <trkpt lat="31.41340157948434352874755859375" lon="119.49067463167011737823486328125">
        <ele>2.400000095367431640625</ele>
        <time>2022-07-06T21:07:54.000Z</time>
        <extensions>
          <ns3:TrackPointExtension>
            <ns3:atemp>31.0</ns3:atemp>
            <ns3:hr>65</ns3:hr>
          </ns3:TrackPointExtension>
        </extensions>
      </trkpt>
      <trkpt lat="31.41320728696882724761962890625" lon="119.4907166250050067901611328125">
        <ele>2.400000095367431640625</ele>
        <time>2022-07-06T21:07:57.000Z</time>
        <extensions>
          <ns3:TrackPointExtension>
            <ns3:atemp>31.0</ns3:atemp>
            <ns3:hr>64</ns3:hr>
          </ns3:TrackPointExtension>
        </extensions>
      </trkpt>
      <trkpt lat="31.41261854209005832672119140625" lon="119.4908547587692737579345703125">
        <ele>2.400000095367431640625</ele>
        <time>2022-07-06T21:08:06.000Z</time>
        <extensions>
          <ns3:TrackPointExtension>
            <ns3:atemp>30.0</ns3:atemp>
            <ns3:hr>65</ns3:hr>
          </ns3:TrackPointExtension>
        </extensions>
      </trkpt>
      <trkpt lat="31.41221822239458560943603515625" lon="119.49094553478062152862548828125">
        <ele>2.599999904632568359375</ele>
        <time>2022-07-06T21:08:12.000Z</time>
        <extensions>
          <ns3:TrackPointExtension>
            <ns3:atemp>30.0</ns3:atemp>
            <ns3:hr>62</ns3:hr>
          </ns3:TrackPointExtension>
        </extensions>
      </trkpt>
      <trkpt lat="31.4120221696794033050537109375" lon="119.49099607765674591064453125">
        <ele>2.599999904632568359375</ele>
        <time>2022-07-06T21:08:15.000Z</time>
        <extensions>
          <ns3:TrackPointExtension>
            <ns3:atemp>30.0</ns3:atemp>
            <ns3:hr>59</ns3:hr>
          </ns3:TrackPointExtension>
        </extensions>
      </trkpt>
      <trkpt lat="31.41196559183299541473388671875" lon="119.49100948870182037353515625">
        <ele>2.599999904632568359375</ele>
        <time>2022-07-06T21:08:16.000Z</time>
        <extensions>
          <ns3:TrackPointExtension>
            <ns3:atemp>30.0</ns3:atemp>
            <ns3:hr>58</ns3:hr>
          </ns3:TrackPointExtension>
        </extensions>
      </trkpt>
      <trkpt lat="31.41191697679460048675537109375" lon="119.49102155864238739013671875">
        <ele>2.400000095367431640625</ele>
        <time>2022-07-06T21:08:17.000Z</time>
        <extensions>
          <ns3:TrackPointExtension>
            <ns3:atemp>30.0</ns3:atemp>
            <ns3:hr>57</ns3:hr>
          </ns3:TrackPointExtension>
        </extensions>
      </trkpt>
      <trkpt lat="31.41176509670913219451904296875" lon="119.49106003157794475555419921875">
        <ele>2.2000000476837158203125</ele>
        <time>2022-07-06T21:08:22.000Z</time>
        <extensions>
          <ns3:TrackPointExtension>
            <ns3:atemp>30.0</ns3:atemp>
            <ns3:hr>57</ns3:hr>
          </ns3:TrackPointExtension>
        </extensions>
      </trkpt>
      <trkpt lat="31.41153744421899318695068359375" lon="119.49114066548645496368408203125">
        <ele>2.400000095367431640625</ele>
        <time>2022-07-06T21:08:27.000Z</time>
        <extensions>
          <ns3:TrackPointExtension>
            <ns3:atemp>31.0</ns3:atemp>
            <ns3:hr>56</ns3:hr>
          </ns3:TrackPointExtension>
        </extensions>
      </trkpt>
      <trkpt lat="31.41115724109113216400146484375" lon="119.49123403988778591156005859375">
        <ele>2.400000095367431640625</ele>
        <time>2022-07-06T21:08:32.000Z</time>
        <extensions>
          <ns3:TrackPointExtension>
            <ns3:atemp>30.0</ns3:atemp>
            <ns3:hr>55</ns3:hr>
          </ns3:TrackPointExtension>
        </extensions>
      </trkpt>
      <trkpt lat="31.41074418090283870697021484375" lon="119.49133395217359066009521484375">
        <ele>2.599999904632568359375</ele>
        <time>2022-07-06T21:08:37.000Z</time>
        <extensions>
          <ns3:TrackPointExtension>
            <ns3:atemp>30.0</ns3:atemp>
            <ns3:hr>56</ns3:hr>
          </ns3:TrackPointExtension>
        </extensions>
      </trkpt>
      <trkpt lat="31.410164572298526763916015625" lon="119.4914646260440349578857421875">
        <ele>2.400000095367431640625</ele>
        <time>2022-07-06T21:08:44.000Z</time>
        <extensions>
          <ns3:TrackPointExtension>
            <ns3:atemp>30.0</ns3:atemp>
            <ns3:hr>56</ns3:hr>
          </ns3:TrackPointExtension>
        </extensions>
      </trkpt>
      <trkpt lat="31.41008368693292140960693359375" lon="119.4914857484400272369384765625">
        <ele>2.400000095367431640625</ele>
        <time>2022-07-06T21:08:45.000Z</time>
        <extensions>
          <ns3:TrackPointExtension>
            <ns3:atemp>30.0</ns3:atemp>
            <ns3:hr>56</ns3:hr>
          </ns3:TrackPointExtension>
        </extensions>
      </trkpt>
      <trkpt lat="31.40951639972627162933349609375" lon="119.49161239899694919586181640625">
        <ele>2.2000000476837158203125</ele>
        <time>2022-07-06T21:08:52.000Z</time>
        <extensions>
          <ns3:TrackPointExtension>
            <ns3:atemp>30.0</ns3:atemp>
            <ns3:hr>57</ns3:hr>
          </ns3:TrackPointExtension>
        </extensions>
      </trkpt>
      <trkpt lat="31.40935312025249004364013671875" lon="119.49164743535220623016357421875">
        <ele>2.2000000476837158203125</ele>
        <time>2022-07-06T21:08:54.000Z</time>
        <extensions>
          <ns3:TrackPointExtension>
            <ns3:atemp>30.0</ns3:atemp>
            <ns3:hr>57</ns3:hr>
          </ns3:TrackPointExtension>
        </extensions>
      </trkpt>
      <trkpt lat="31.40910183079540729522705078125" lon="119.49168515391647815704345703125">
        <ele>2.400000095367431640625</ele>
        <time>2022-07-06T21:08:57.000Z</time>
        <extensions>
          <ns3:TrackPointExtension>
            <ns3:atemp>30.0</ns3:atemp>
            <ns3:hr>54</ns3:hr>
          </ns3:TrackPointExtension>
        </extensions>
      </trkpt>
      <trkpt lat="31.408856324851512908935546875" lon="119.491748772561550140380859375">
        <ele>2.400000095367431640625</ele>
        <time>2022-07-06T21:09:00.000Z</time>
        <extensions>
          <ns3:TrackPointExtension>
            <ns3:atemp>30.0</ns3:atemp>
            <ns3:hr>53</ns3:hr>
          </ns3:TrackPointExtension>
        </extensions>
      </trkpt>
      <trkpt lat="31.4083953201770782470703125" lon="119.49187978170812129974365234375">
        <ele>2.400000095367431640625</ele>
        <time>2022-07-06T21:09:07.000Z</time>
        <extensions>
          <ns3:TrackPointExtension>
            <ns3:atemp>30.0</ns3:atemp>
            <ns3:hr>53</ns3:hr>
          </ns3:TrackPointExtension>
        </extensions>
      </trkpt>
      <trkpt lat="31.4082335494458675384521484375" lon="119.49189537204802036285400390625">
        <ele>2.2000000476837158203125</ele>
        <time>2022-07-06T21:09:11.000Z</time>
        <extensions>
          <ns3:TrackPointExtension>
            <ns3:atemp>30.0</ns3:atemp>
            <ns3:hr>54</ns3:hr>
          </ns3:TrackPointExtension>
        </extensions>
      </trkpt>
      <trkpt lat="31.40813254751265048980712890625" lon="119.49189352802932262420654296875">
        <ele>2.2000000476837158203125</ele>
        <time>2022-07-06T21:09:14.000Z</time>
        <extensions>
          <ns3:TrackPointExtension>
            <ns3:atemp>30.0</ns3:atemp>
            <ns3:hr>55</ns3:hr>
          </ns3:TrackPointExtension>
        </extensions>
      </trkpt>
      <trkpt lat="31.4080841839313507080078125" lon="119.4918669573962688446044921875">
        <ele>2.2000000476837158203125</ele>
        <time>2022-07-06T21:09:16.000Z</time>
        <extensions>
          <ns3:TrackPointExtension>
            <ns3:atemp>30.0</ns3:atemp>
            <ns3:hr>55</ns3:hr>
          </ns3:TrackPointExtension>
        </extensions>
      </trkpt>
      <trkpt lat="31.4080712758004665374755859375" lon="119.49181792326271533966064453125">
        <ele>2.2000000476837158203125</ele>
        <time>2022-07-06T21:09:18.000Z</time>
        <extensions>
          <ns3:TrackPointExtension>
            <ns3:atemp>30.0</ns3:atemp>
            <ns3:hr>54</ns3:hr>
          </ns3:TrackPointExtension>
        </extensions>
      </trkpt>
      <trkpt lat="31.40807278454303741455078125" lon="119.4917888380587100982666015625">
        <ele>2.2000000476837158203125</ele>
        <time>2022-07-06T21:09:19.000Z</time>
        <extensions>
          <ns3:TrackPointExtension>
            <ns3:atemp>30.0</ns3:atemp>
            <ns3:hr>54</ns3:hr>
          </ns3:TrackPointExtension>
        </extensions>
      </trkpt>
      <trkpt lat="31.408083848655223846435546875" lon="119.4915913604199886322021484375">
        <ele>2</ele>
        <time>2022-07-06T21:09:25.000Z</time>
        <extensions>
          <ns3:TrackPointExtension>
            <ns3:atemp>30.0</ns3:atemp>
            <ns3:hr>54</ns3:hr>
          </ns3:TrackPointExtension>
        </extensions>
      </trkpt>
      <trkpt lat="31.40806549228727817535400390625" lon="119.4915853254497051239013671875">
        <ele>2</ele>
        <time>2022-07-06T21:09:29.000Z</time>
        <extensions>
          <ns3:TrackPointExtension>
            <ns3:atemp>30.0</ns3:atemp>
            <ns3:hr>55</ns3:hr>
          </ns3:TrackPointExtension>
        </extensions>
      </trkpt>
      <trkpt lat="31.408065073192119598388671875" lon="119.49158557690680027008056640625">
        <ele>2</ele>
        <time>2022-07-06T21:09:32.000Z</time>
        <extensions>
          <ns3:TrackPointExtension>
            <ns3:atemp>30.0</ns3:atemp>
            <ns3:hr>58</ns3:hr>
          </ns3:TrackPointExtension>
        </extensions>
      </trkpt>
      <trkpt lat="31.40806431882083415985107421875" lon="119.49158616364002227783203125">
        <ele>2</ele>
        <time>2022-07-06T21:09:34.000Z</time>
        <extensions>
          <ns3:TrackPointExtension>
            <ns3:atemp>30.0</ns3:atemp>
            <ns3:hr>58</ns3:hr>
          </ns3:TrackPointExtension>
        </extensions>
      </trkpt>
      <trkpt lat="31.4080638997256755828857421875" lon="119.49158675037324428558349609375">
        <ele>2</ele>
        <time>2022-07-06T21:09:35.000Z</time>
        <extensions>
          <ns3:TrackPointExtension>
            <ns3:atemp>30.0</ns3:atemp>
            <ns3:hr>59</ns3:hr>
          </ns3:TrackPointExtension>
        </extensions>
      </trkpt>
    </trkseg>
  </trk>
</gpx>
