<gpx xmlns:ns3="http://www.garmin.com/xmlschemas/TrackPointExtension/v1" xmlns="http://www.topografix.com/GPX/1/1" xmlns:xsi="http://www.w3.org/2001/XMLSchema-instance" xmlns:ns2="http://www.garmin.com/xmlschemas/GpxExtensions/v3" creator="Garmin Connect" version="1.1" xsi:schemaLocation="http://www.topografix.com/GPX/1/1 http://www.topografix.com/GPX/11.xsd">
  <extensions>
<distance>45.23</distance>
<average_hr></average_hr>
<average_speed>0.6922146804291901</average_speed>
<start_time>2022-09-08T09:40:06+00:00</start_time>
<end_time>2022-09-08T09:41:11.341000+00:00</end_time>
<moving_time></moving_time>
<elapsed_time>102.466</elapsed_time>
</extensions>
<metadata>
    <link href="connect.garmin.com">
      <text>Garmin Connect</text>
    </link>
    <time>2022-09-08T09:40:06.000Z</time>
  </metadata>
  <trk>
    <name>常州市 复合运动</name>
    <type>multi_sport</type>
    <trkseg>
      <trkpt lat="31.42372808419167995452880859375" lon="119.48420606553554534912109375">
        <ele>-3.2000000476837158203125</ele>
        <time>2022-09-08T09:40:06.000Z</time>
        <extensions>
          <ns3:TrackPointExtension>
            <ns3:atemp>33.0</ns3:atemp>
            <ns3:hr>72</ns3:hr>
          </ns3:TrackPointExtension>
        </extensions>
      </trkpt>
      <trkpt lat="31.42373043112456798553466796875" lon="119.484201036393642425537109375">
        <ele>-3.2000000476837158203125</ele>
        <time>2022-09-08T09:40:08.000Z</time>
        <extensions>
          <ns3:TrackPointExtension>
            <ns3:atemp>33.0</ns3:atemp>
            <ns3:hr>67</ns3:hr>
          </ns3:TrackPointExtension>
        </extensions>
      </trkpt>
    </trkseg>
  </trk>
</gpx>
