<gpx xmlns:ns3="http://www.garmin.com/xmlschemas/TrackPointExtension/v1" xmlns="http://www.topografix.com/GPX/1/1" xmlns:xsi="http://www.w3.org/2001/XMLSchema-instance" xmlns:ns2="http://www.garmin.com/xmlschemas/GpxExtensions/v3" creator="Garmin Connect" version="1.1" xsi:schemaLocation="http://www.topografix.com/GPX/1/1 http://www.topografix.com/GPX/11.xsd">
  <extensions>
<distance>1000.0</distance>
<average_hr></average_hr>
<average_speed>0.5849999785423279</average_speed>
<start_time>2018-01-15T11:29:53+00:00</start_time>
<end_time>2018-01-15T12:04:19.672000+00:00</end_time>
<moving_time>1710.183</moving_time>
<elapsed_time>2096.896</elapsed_time>
</extensions>
<metadata>
    <link href="connect.garmin.com">
      <text>Garmin Connect</text>
    </link>
    <time>2018-01-15T11:29:53.000Z</time>
  </metadata>
  <trk>
    <name>泳道游泳</name>
    <type>lap_swimming</type>
    <trkseg/>
  </trk>
</gpx>
