<gpx xmlns:ns3="http://www.garmin.com/xmlschemas/TrackPointExtension/v1" xmlns="http://www.topografix.com/GPX/1/1" xmlns:xsi="http://www.w3.org/2001/XMLSchema-instance" xmlns:ns2="http://www.garmin.com/xmlschemas/GpxExtensions/v3" creator="Garmin Connect" version="1.1" xsi:schemaLocation="http://www.topografix.com/GPX/1/1 http://www.topografix.com/GPX/11.xsd">
  <extensions>
<distance>143.13</distance>
<average_hr>103.0</average_hr>
<average_speed>0.0989999994635582</average_speed>
<start_time>2018-01-20T06:12:06+00:00</start_time>
<end_time>2018-01-20T06:36:09.442000+00:00</end_time>
<moving_time>566.0</moving_time>
<elapsed_time>1634.788</elapsed_time>
</extensions>
<metadata>
    <link href="connect.garmin.com">
      <text>Garmin Connect</text>
    </link>
    <time>2018-01-20T06:12:06.000Z</time>
  </metadata>
  <trk>
    <name>Preah Sihanouk 公开水域游泳</name>
    <type>open_water_swimming</type>
    <trkseg>
      <trkpt lat="10.6882956437766551971435546875" lon="103.305556811392307281494140625">
        <time>2018-01-20T06:12:06.000Z</time>
        <extensions>
          <ns3:TrackPointExtension>
            <ns3:atemp>32.0</ns3:atemp>
            <ns3:hr>103</ns3:hr>
            <ns3:cad>0</ns3:cad>
          </ns3:TrackPointExtension>
        </extensions>
      </trkpt>
      <trkpt lat="10.68829405121505260467529296875" lon="103.30555622465908527374267578125">
        <time>2018-01-20T06:12:07.000Z</time>
        <extensions>
          <ns3:TrackPointExtension>
            <ns3:atemp>32.0</ns3:atemp>
            <ns3:hr>103</ns3:hr>
            <ns3:cad>0</ns3:cad>
          </ns3:TrackPointExtension>
        </extensions>
      </trkpt>
      <trkpt lat="10.687392912805080413818359375" lon="103.30444226972758769989013671875">
        <time>2018-01-20T06:16:52.000Z</time>
        <extensions>
          <ns3:TrackPointExtension>
            <ns3:atemp>30.0</ns3:atemp>
            <ns3:cad>16</ns3:cad>
          </ns3:TrackPointExtension>
        </extensions>
      </trkpt>
      <trkpt lat="10.68740406073629856109619140625" lon="103.3044539205729961395263671875">
        <time>2018-01-20T06:16:56.000Z</time>
        <extensions>
          <ns3:TrackPointExtension>
            <ns3:atemp>30.0</ns3:atemp>
            <ns3:cad>0</ns3:cad>
          </ns3:TrackPointExtension>
        </extensions>
      </trkpt>
      <trkpt lat="10.687392912805080413818359375" lon="103.30448065884411334991455078125">
        <time>2018-01-20T06:17:27.000Z</time>
        <extensions>
          <ns3:TrackPointExtension>
            <ns3:atemp>30.0</ns3:atemp>
            <ns3:cad>0</ns3:cad>
          </ns3:TrackPointExtension>
        </extensions>
      </trkpt>
      <trkpt lat="10.6885769404470920562744140625" lon="103.30610842444002628326416015625">
        <time>2018-01-20T06:25:57.000Z</time>
        <extensions>
          <ns3:TrackPointExtension>
            <ns3:atemp>30.0</ns3:atemp>
            <ns3:cad>0</ns3:cad>
          </ns3:TrackPointExtension>
        </extensions>
      </trkpt>
      <trkpt lat="10.68830444477498531341552734375" lon="103.30527291633188724517822265625">
        <time>2018-01-20T06:32:30.000Z</time>
        <extensions>
          <ns3:TrackPointExtension>
            <ns3:atemp>30.0</ns3:atemp>
            <ns3:cad>0</ns3:cad>
          </ns3:TrackPointExtension>
        </extensions>
      </trkpt>
      <trkpt lat="10.6882368028163909912109375" lon="103.3053259737789630889892578125">
        <time>2018-01-20T06:34:01.000Z</time>
        <extensions>
          <ns3:TrackPointExtension>
            <ns3:atemp>30.0</ns3:atemp>
            <ns3:cad>0</ns3:cad>
          </ns3:TrackPointExtension>
        </extensions>
      </trkpt>
    </trkseg>
  </trk>
</gpx>
