<gpx xmlns:ns3="http://www.garmin.com/xmlschemas/TrackPointExtension/v1" xmlns="http://www.topografix.com/GPX/1/1" xmlns:xsi="http://www.w3.org/2001/XMLSchema-instance" xmlns:ns2="http://www.garmin.com/xmlschemas/GpxExtensions/v3" creator="Garmin Connect" version="1.1" xsi:schemaLocation="http://www.topografix.com/GPX/1/1 http://www.topografix.com/GPX/11.xsd">
  <extensions>
<distance>3167.78</distance>
<average_hr>84.0</average_hr>
<average_speed>2.7170000076293945</average_speed>
<start_time>2018-04-17T09:03:01+00:00</start_time>
<end_time>2018-04-17T09:22:26.698000+00:00</end_time>
<moving_time>1045.0</moving_time>
<elapsed_time>1165.698</elapsed_time>
</extensions>
<metadata>
    <link href="connect.garmin.com">
      <text>Garmin Connect</text>
    </link>
    <time>2018-04-17T09:03:01.000Z</time>
  </metadata>
  <trk>
    <name>常州市 骑车</name>
    <type>cycling</type>
    <trkseg>
      <trkpt lat="31.41169250942766666412353515625" lon="119.49229569174349308013916015625">
        <ele>6.19999980926513671875</ele>
        <time>2018-04-17T09:03:01.000Z</time>
        <extensions>
          <ns3:TrackPointExtension>
            <ns3:atemp>29.0</ns3:atemp>
            <ns3:hr>56</ns3:hr>
          </ns3:TrackPointExtension>
        </extensions>
      </trkpt>
      <trkpt lat="31.41169150359928607940673828125" lon="119.49228596873581409454345703125">
        <ele>6.400000095367431640625</ele>
        <time>2018-04-17T09:03:02.000Z</time>
        <extensions>
          <ns3:TrackPointExtension>
            <ns3:atemp>29.0</ns3:atemp>
            <ns3:hr>56</ns3:hr>
          </ns3:TrackPointExtension>
        </extensions>
      </trkpt>
      <trkpt lat="31.41165353357791900634765625" lon="119.49226677417755126953125">
        <ele>6.400000095367431640625</ele>
        <time>2018-04-17T09:03:07.000Z</time>
        <extensions>
          <ns3:TrackPointExtension>
            <ns3:atemp>29.0</ns3:atemp>
            <ns3:hr>56</ns3:hr>
          </ns3:TrackPointExtension>
        </extensions>
      </trkpt>
      <trkpt lat="31.41164305619895458221435546875" lon="119.49222377501428127288818359375">
        <ele>6.400000095367431640625</ele>
        <time>2018-04-17T09:03:10.000Z</time>
        <extensions>
          <ns3:TrackPointExtension>
            <ns3:atemp>29.0</ns3:atemp>
            <ns3:hr>56</ns3:hr>
          </ns3:TrackPointExtension>
        </extensions>
      </trkpt>
      <trkpt lat="31.41159075312316417694091796875" lon="119.49210651218891143798828125">
        <ele>6.599999904632568359375</ele>
        <time>2018-04-17T09:03:16.000Z</time>
        <extensions>
          <ns3:TrackPointExtension>
            <ns3:atemp>29.0</ns3:atemp>
            <ns3:hr>60</ns3:hr>
          </ns3:TrackPointExtension>
        </extensions>
      </trkpt>
      <trkpt lat="31.411593519151210784912109375" lon="119.49208262376487255096435546875">
        <ele>6.599999904632568359375</ele>
        <time>2018-04-17T09:03:17.000Z</time>
        <extensions>
          <ns3:TrackPointExtension>
            <ns3:atemp>29.0</ns3:atemp>
            <ns3:hr>63</ns3:hr>
          </ns3:TrackPointExtension>
        </extensions>
      </trkpt>
      <trkpt lat="31.41159586608409881591796875" lon="119.49205932207405567169189453125">
        <ele>6.80000019073486328125</ele>
        <time>2018-04-17T09:03:18.000Z</time>
        <extensions>
          <ns3:TrackPointExtension>
            <ns3:atemp>29.0</ns3:atemp>
            <ns3:hr>66</ns3:hr>
          </ns3:TrackPointExtension>
        </extensions>
      </trkpt>
      <trkpt lat="31.41159796155989170074462890625" lon="119.492029063403606414794921875">
        <ele>6.80000019073486328125</ele>
        <time>2018-04-17T09:03:19.000Z</time>
        <extensions>
          <ns3:TrackPointExtension>
            <ns3:atemp>29.0</ns3:atemp>
            <ns3:hr>66</ns3:hr>
          </ns3:TrackPointExtension>
        </extensions>
      </trkpt>
      <trkpt lat="31.41160391271114349365234375" lon="119.4919725693762302398681640625">
        <ele>7</ele>
        <time>2018-04-17T09:03:21.000Z</time>
        <extensions>
          <ns3:TrackPointExtension>
            <ns3:atemp>29.0</ns3:atemp>
            <ns3:hr>70</ns3:hr>
          </ns3:TrackPointExtension>
        </extensions>
      </trkpt>
      <trkpt lat="31.41160525381565093994140625" lon="119.4919189251959323883056640625">
        <ele>7.19999980926513671875</ele>
        <time>2018-04-17T09:03:23.000Z</time>
        <extensions>
          <ns3:TrackPointExtension>
            <ns3:atemp>29.0</ns3:atemp>
            <ns3:hr>70</ns3:hr>
          </ns3:TrackPointExtension>
        </extensions>
      </trkpt>
      <trkpt lat="31.41160014085471630096435546875" lon="119.49183703400194644927978515625">
        <ele>7</ele>
        <time>2018-04-17T09:03:26.000Z</time>
        <extensions>
          <ns3:TrackPointExtension>
            <ns3:atemp>29.0</ns3:atemp>
            <ns3:hr>74</ns3:hr>
          </ns3:TrackPointExtension>
        </extensions>
      </trkpt>
      <trkpt lat="31.411625035107135772705078125" lon="119.49162363074719905853271484375">
        <ele>7</ele>
        <time>2018-04-17T09:03:34.000Z</time>
        <extensions>
          <ns3:TrackPointExtension>
            <ns3:atemp>29.0</ns3:atemp>
            <ns3:hr>77</ns3:hr>
          </ns3:TrackPointExtension>
        </extensions>
      </trkpt>
      <trkpt lat="31.4116493426263332366943359375" lon="119.49153922498226165771484375">
        <ele>6.599999904632568359375</ele>
        <time>2018-04-17T09:03:37.000Z</time>
        <extensions>
          <ns3:TrackPointExtension>
            <ns3:atemp>29.0</ns3:atemp>
            <ns3:hr>80</ns3:hr>
          </ns3:TrackPointExtension>
        </extensions>
      </trkpt>
      <trkpt lat="31.41168932430446147918701171875" lon="119.49138374067842960357666015625">
        <ele>6.599999904632568359375</ele>
        <time>2018-04-17T09:03:42.000Z</time>
        <extensions>
          <ns3:TrackPointExtension>
            <ns3:atemp>29.0</ns3:atemp>
            <ns3:hr>85</ns3:hr>
          </ns3:TrackPointExtension>
        </extensions>
      </trkpt>
      <trkpt lat="31.4116998016834259033203125" lon="119.49133143760263919830322265625">
        <ele>6.80000019073486328125</ele>
        <time>2018-04-17T09:03:44.000Z</time>
        <extensions>
          <ns3:TrackPointExtension>
            <ns3:atemp>29.0</ns3:atemp>
            <ns3:hr>88</ns3:hr>
          </ns3:TrackPointExtension>
        </extensions>
      </trkpt>
      <trkpt lat="31.41171044670045375823974609375" lon="119.49128215201199054718017578125">
        <ele>7.19999980926513671875</ele>
        <time>2018-04-17T09:03:46.000Z</time>
        <extensions>
          <ns3:TrackPointExtension>
            <ns3:atemp>29.0</ns3:atemp>
            <ns3:hr>91</ns3:hr>
          </ns3:TrackPointExtension>
        </extensions>
      </trkpt>
      <trkpt lat="31.41173609532415866851806640625" lon="119.49104703962802886962890625">
        <ele>7.19999980926513671875</ele>
        <time>2018-04-17T09:03:55.000Z</time>
        <extensions>
          <ns3:TrackPointExtension>
            <ns3:atemp>29.0</ns3:atemp>
            <ns3:hr>88</ns3:hr>
          </ns3:TrackPointExtension>
        </extensions>
      </trkpt>
      <trkpt lat="31.41172838397324085235595703125" lon="119.4908926449716091156005859375">
        <ele>7.19999980926513671875</ele>
        <time>2018-04-17T09:04:00.000Z</time>
        <extensions>
          <ns3:TrackPointExtension>
            <ns3:atemp>29.0</ns3:atemp>
            <ns3:hr>92</ns3:hr>
          </ns3:TrackPointExtension>
        </extensions>
      </trkpt>
      <trkpt lat="31.41172754578292369842529296875" lon="119.49085936881601810455322265625">
        <ele>7</ele>
        <time>2018-04-17T09:04:01.000Z</time>
        <extensions>
          <ns3:TrackPointExtension>
            <ns3:atemp>29.0</ns3:atemp>
            <ns3:hr>92</ns3:hr>
          </ns3:TrackPointExtension>
        </extensions>
      </trkpt>
      <trkpt lat="31.41177046112716197967529296875" lon="119.49057723395526409149169921875">
        <ele>6.80000019073486328125</ele>
        <time>2018-04-17T09:04:09.000Z</time>
        <extensions>
          <ns3:TrackPointExtension>
            <ns3:atemp>29.0</ns3:atemp>
            <ns3:hr>89</ns3:hr>
          </ns3:TrackPointExtension>
        </extensions>
      </trkpt>
      <trkpt lat="31.4118635840713977813720703125" lon="119.48995227925479412078857421875">
        <ele>6.599999904632568359375</ele>
        <time>2018-04-17T09:04:26.000Z</time>
        <extensions>
          <ns3:TrackPointExtension>
            <ns3:atemp>29.0</ns3:atemp>
            <ns3:hr>89</ns3:hr>
          </ns3:TrackPointExtension>
        </extensions>
      </trkpt>
      <trkpt lat="31.4119195751845836639404296875" lon="119.48954659514129161834716796875">
        <ele>6.599999904632568359375</ele>
        <time>2018-04-17T09:04:38.000Z</time>
        <extensions>
          <ns3:TrackPointExtension>
            <ns3:atemp>29.0</ns3:atemp>
            <ns3:hr>86</ns3:hr>
          </ns3:TrackPointExtension>
        </extensions>
      </trkpt>
      <trkpt lat="31.41201018355786800384521484375" lon="119.4890308566391468048095703125">
        <ele>6.19999980926513671875</ele>
        <time>2018-04-17T09:04:54.000Z</time>
        <extensions>
          <ns3:TrackPointExtension>
            <ns3:atemp>29.0</ns3:atemp>
            <ns3:hr>84</ns3:hr>
          </ns3:TrackPointExtension>
        </extensions>
      </trkpt>
      <trkpt lat="31.41203566454350948333740234375" lon="119.4883831031620502471923828125">
        <ele>6.19999980926513671875</ele>
        <time>2018-04-17T09:05:18.000Z</time>
        <extensions>
          <ns3:TrackPointExtension>
            <ns3:atemp>29.0</ns3:atemp>
            <ns3:hr>81</ns3:hr>
          </ns3:TrackPointExtension>
        </extensions>
      </trkpt>
      <trkpt lat="31.4120516739785671234130859375" lon="119.4882436282932758331298828125">
        <ele>6</ele>
        <time>2018-04-17T09:05:23.000Z</time>
        <extensions>
          <ns3:TrackPointExtension>
            <ns3:atemp>29.0</ns3:atemp>
            <ns3:hr>78</ns3:hr>
          </ns3:TrackPointExtension>
        </extensions>
      </trkpt>
      <trkpt lat="31.41205946914851665496826171875" lon="119.48821865022182464599609375">
        <ele>6</ele>
        <time>2018-04-17T09:05:24.000Z</time>
        <extensions>
          <ns3:TrackPointExtension>
            <ns3:atemp>29.0</ns3:atemp>
            <ns3:hr>75</ns3:hr>
          </ns3:TrackPointExtension>
        </extensions>
      </trkpt>
      <trkpt lat="31.41209316439926624298095703125" lon="119.48809350840747356414794921875">
        <ele>5.80000019073486328125</ele>
        <time>2018-04-17T09:05:29.000Z</time>
        <extensions>
          <ns3:TrackPointExtension>
            <ns3:atemp>29.0</ns3:atemp>
            <ns3:hr>80</ns3:hr>
          </ns3:TrackPointExtension>
        </extensions>
      </trkpt>
      <trkpt lat="31.412092745304107666015625" lon="119.48807808570563793182373046875">
        <ele>5.80000019073486328125</ele>
        <time>2018-04-17T09:05:30.000Z</time>
        <extensions>
          <ns3:TrackPointExtension>
            <ns3:atemp>29.0</ns3:atemp>
            <ns3:hr>85</ns3:hr>
          </ns3:TrackPointExtension>
        </extensions>
      </trkpt>
      <trkpt lat="31.4120915718376636505126953125" lon="119.48807054199278354644775390625">
        <ele>5.80000019073486328125</ele>
        <time>2018-04-17T09:05:31.000Z</time>
        <extensions>
          <ns3:TrackPointExtension>
            <ns3:atemp>29.0</ns3:atemp>
            <ns3:hr>88</ns3:hr>
          </ns3:TrackPointExtension>
        </extensions>
      </trkpt>
      <trkpt lat="31.4120922423899173736572265625" lon="119.48806182481348514556884765625">
        <ele>5.599999904632568359375</ele>
        <time>2018-04-17T09:05:32.000Z</time>
        <extensions>
          <ns3:TrackPointExtension>
            <ns3:atemp>29.0</ns3:atemp>
            <ns3:hr>94</ns3:hr>
          </ns3:TrackPointExtension>
        </extensions>
      </trkpt>
      <trkpt lat="31.41209316439926624298095703125" lon="119.4880511797964572906494140625">
        <ele>5.599999904632568359375</ele>
        <time>2018-04-17T09:05:33.000Z</time>
        <extensions>
          <ns3:TrackPointExtension>
            <ns3:atemp>29.0</ns3:atemp>
            <ns3:hr>99</ns3:hr>
          </ns3:TrackPointExtension>
        </extensions>
      </trkpt>
      <trkpt lat="31.41209618188440799713134765625" lon="119.48801974765956401824951171875">
        <ele>5.400000095367431640625</ele>
        <time>2018-04-17T09:05:35.000Z</time>
        <extensions>
          <ns3:TrackPointExtension>
            <ns3:atemp>29.0</ns3:atemp>
            <ns3:hr>100</ns3:hr>
          </ns3:TrackPointExtension>
        </extensions>
      </trkpt>
      <trkpt lat="31.41211428679525852203369140625" lon="119.48796040378510951995849609375">
        <ele>5.19999980926513671875</ele>
        <time>2018-04-17T09:05:38.000Z</time>
        <extensions>
          <ns3:TrackPointExtension>
            <ns3:atemp>29.0</ns3:atemp>
            <ns3:hr>96</ns3:hr>
          </ns3:TrackPointExtension>
        </extensions>
      </trkpt>
      <trkpt lat="31.41211881302297115325927734375" lon="119.4879371859133243560791015625">
        <ele>5.19999980926513671875</ele>
        <time>2018-04-17T09:05:39.000Z</time>
        <extensions>
          <ns3:TrackPointExtension>
            <ns3:atemp>29.0</ns3:atemp>
            <ns3:hr>96</ns3:hr>
          </ns3:TrackPointExtension>
        </extensions>
      </trkpt>
      <trkpt lat="31.412122249603271484375" lon="119.4879122078418731689453125">
        <ele>5.19999980926513671875</ele>
        <time>2018-04-17T09:05:40.000Z</time>
        <extensions>
          <ns3:TrackPointExtension>
            <ns3:atemp>29.0</ns3:atemp>
            <ns3:hr>93</ns3:hr>
          </ns3:TrackPointExtension>
        </extensions>
      </trkpt>
      <trkpt lat="31.4121475629508495330810546875" lon="119.487721435725688934326171875">
        <ele>5.400000095367431640625</ele>
        <time>2018-04-17T09:05:47.000Z</time>
        <extensions>
          <ns3:TrackPointExtension>
            <ns3:atemp>29.0</ns3:atemp>
            <ns3:hr>90</ns3:hr>
          </ns3:TrackPointExtension>
        </extensions>
      </trkpt>
      <trkpt lat="31.412222497165203094482421875" lon="119.4873360358178615570068359375">
        <ele>5.80000019073486328125</ele>
        <time>2018-04-17T09:06:00.000Z</time>
        <extensions>
          <ns3:TrackPointExtension>
            <ns3:atemp>29.0</ns3:atemp>
            <ns3:hr>87</ns3:hr>
          </ns3:TrackPointExtension>
        </extensions>
      </trkpt>
      <trkpt lat="31.41229198314249515533447265625" lon="119.48709120042622089385986328125">
        <ele>5.80000019073486328125</ele>
        <time>2018-04-17T09:06:09.000Z</time>
        <extensions>
          <ns3:TrackPointExtension>
            <ns3:atemp>29.0</ns3:atemp>
            <ns3:hr>84</ns3:hr>
          </ns3:TrackPointExtension>
        </extensions>
      </trkpt>
      <trkpt lat="31.41238871030509471893310546875" lon="119.4870788790285587310791015625">
        <ele>6</ele>
        <time>2018-04-17T09:06:13.000Z</time>
        <extensions>
          <ns3:TrackPointExtension>
            <ns3:atemp>29.0</ns3:atemp>
            <ns3:hr>78</ns3:hr>
          </ns3:TrackPointExtension>
        </extensions>
      </trkpt>
      <trkpt lat="31.4124114252626895904541015625" lon="119.48707577772438526153564453125">
        <ele>6</ele>
        <time>2018-04-17T09:06:14.000Z</time>
        <extensions>
          <ns3:TrackPointExtension>
            <ns3:atemp>29.0</ns3:atemp>
            <ns3:hr>75</ns3:hr>
          </ns3:TrackPointExtension>
        </extensions>
      </trkpt>
      <trkpt lat="31.4124335534870624542236328125" lon="119.4870715029537677764892578125">
        <ele>6</ele>
        <time>2018-04-17T09:06:15.000Z</time>
        <extensions>
          <ns3:TrackPointExtension>
            <ns3:atemp>29.0</ns3:atemp>
            <ns3:hr>75</ns3:hr>
          </ns3:TrackPointExtension>
        </extensions>
      </trkpt>
      <trkpt lat="31.412498764693737030029296875" lon="119.4870698265731334686279296875">
        <ele>6</ele>
        <time>2018-04-17T09:06:18.000Z</time>
        <extensions>
          <ns3:TrackPointExtension>
            <ns3:atemp>29.0</ns3:atemp>
            <ns3:hr>79</ns3:hr>
          </ns3:TrackPointExtension>
        </extensions>
      </trkpt>
      <trkpt lat="31.41254394315183162689208984375" lon="119.48707711882889270782470703125">
        <ele>6</ele>
        <time>2018-04-17T09:06:20.000Z</time>
        <extensions>
          <ns3:TrackPointExtension>
            <ns3:atemp>29.0</ns3:atemp>
            <ns3:hr>82</ns3:hr>
          </ns3:TrackPointExtension>
        </extensions>
      </trkpt>
      <trkpt lat="31.41260898672044277191162109375" lon="119.48707829229533672332763671875">
        <ele>6</ele>
        <time>2018-04-17T09:06:23.000Z</time>
        <extensions>
          <ns3:TrackPointExtension>
            <ns3:atemp>29.0</ns3:atemp>
            <ns3:hr>87</ns3:hr>
          </ns3:TrackPointExtension>
        </extensions>
      </trkpt>
      <trkpt lat="31.41263128258287906646728515625" lon="119.48707980103790760040283203125">
        <ele>6.19999980926513671875</ele>
        <time>2018-04-17T09:06:24.000Z</time>
        <extensions>
          <ns3:TrackPointExtension>
            <ns3:atemp>29.0</ns3:atemp>
            <ns3:hr>90</ns3:hr>
          </ns3:TrackPointExtension>
        </extensions>
      </trkpt>
      <trkpt lat="31.41265424899756908416748046875" lon="119.4870818965137004852294921875">
        <ele>6.19999980926513671875</ele>
        <time>2018-04-17T09:06:25.000Z</time>
        <extensions>
          <ns3:TrackPointExtension>
            <ns3:atemp>29.0</ns3:atemp>
            <ns3:hr>90</ns3:hr>
          </ns3:TrackPointExtension>
        </extensions>
      </trkpt>
      <trkpt lat="31.41272298060357570648193359375" lon="119.487073682248592376708984375">
        <ele>6.19999980926513671875</ele>
        <time>2018-04-17T09:06:28.000Z</time>
        <extensions>
          <ns3:TrackPointExtension>
            <ns3:atemp>29.0</ns3:atemp>
            <ns3:hr>87</ns3:hr>
          </ns3:TrackPointExtension>
        </extensions>
      </trkpt>
      <trkpt lat="31.41285725869238376617431640625" lon="119.4870664738118648529052734375">
        <ele>6.400000095367431640625</ele>
        <time>2018-04-17T09:06:34.000Z</time>
        <extensions>
          <ns3:TrackPointExtension>
            <ns3:atemp>29.0</ns3:atemp>
            <ns3:hr>90</ns3:hr>
          </ns3:TrackPointExtension>
        </extensions>
      </trkpt>
      <trkpt lat="31.4128777943551540374755859375" lon="119.48706722818315029144287109375">
        <ele>6.400000095367431640625</ele>
        <time>2018-04-17T09:06:35.000Z</time>
        <extensions>
          <ns3:TrackPointExtension>
            <ns3:atemp>29.0</ns3:atemp>
            <ns3:hr>96</ns3:hr>
          </ns3:TrackPointExtension>
        </extensions>
      </trkpt>
      <trkpt lat="31.41291760839521884918212890625" lon="119.48707125149667263031005859375">
        <ele>6.400000095367431640625</ele>
        <time>2018-04-17T09:06:37.000Z</time>
        <extensions>
          <ns3:TrackPointExtension>
            <ns3:atemp>29.0</ns3:atemp>
            <ns3:hr>100</ns3:hr>
          </ns3:TrackPointExtension>
        </extensions>
      </trkpt>
      <trkpt lat="31.413009725511074066162109375" lon="119.4870592653751373291015625">
        <ele>6.400000095367431640625</ele>
        <time>2018-04-17T09:06:41.000Z</time>
        <extensions>
          <ns3:TrackPointExtension>
            <ns3:atemp>29.0</ns3:atemp>
            <ns3:hr>97</ns3:hr>
          </ns3:TrackPointExtension>
        </extensions>
      </trkpt>
      <trkpt lat="31.4130752719938755035400390625" lon="119.48705725371837615966796875">
        <ele>6.400000095367431640625</ele>
        <time>2018-04-17T09:06:44.000Z</time>
        <extensions>
          <ns3:TrackPointExtension>
            <ns3:atemp>29.0</ns3:atemp>
            <ns3:hr>94</ns3:hr>
          </ns3:TrackPointExtension>
        </extensions>
      </trkpt>
      <trkpt lat="31.4136288128793239593505859375" lon="119.48701928369700908660888671875">
        <ele>6.80000019073486328125</ele>
        <time>2018-04-17T09:07:09.000Z</time>
        <extensions>
          <ns3:TrackPointExtension>
            <ns3:atemp>29.0</ns3:atemp>
            <ns3:hr>92</ns3:hr>
          </ns3:TrackPointExtension>
        </extensions>
      </trkpt>
      <trkpt lat="31.4137226901948451995849609375" lon="119.48701526038348674774169921875">
        <ele>6.599999904632568359375</ele>
        <time>2018-04-17T09:07:13.000Z</time>
        <extensions>
          <ns3:TrackPointExtension>
            <ns3:atemp>29.0</ns3:atemp>
            <ns3:hr>89</ns3:hr>
          </ns3:TrackPointExtension>
        </extensions>
      </trkpt>
      <trkpt lat="31.4140787534415721893310546875" lon="119.48699095286428928375244140625">
        <ele>7</ele>
        <time>2018-04-17T09:07:29.000Z</time>
        <extensions>
          <ns3:TrackPointExtension>
            <ns3:atemp>29.0</ns3:atemp>
            <ns3:hr>86</ns3:hr>
          </ns3:TrackPointExtension>
        </extensions>
      </trkpt>
      <trkpt lat="31.41430263407528400421142578125" lon="119.48697519488632678985595703125">
        <ele>7.19999980926513671875</ele>
        <time>2018-04-17T09:07:39.000Z</time>
        <extensions>
          <ns3:TrackPointExtension>
            <ns3:atemp>29.0</ns3:atemp>
            <ns3:hr>83</ns3:hr>
          </ns3:TrackPointExtension>
        </extensions>
      </trkpt>
      <trkpt lat="31.414324678480625152587890625" lon="119.48697469197213649749755859375">
        <ele>7.19999980926513671875</ele>
        <time>2018-04-17T09:07:40.000Z</time>
        <extensions>
          <ns3:TrackPointExtension>
            <ns3:atemp>29.0</ns3:atemp>
            <ns3:hr>83</ns3:hr>
          </ns3:TrackPointExtension>
        </extensions>
      </trkpt>
      <trkpt lat="31.41439131461083889007568359375" lon="119.48697469197213649749755859375">
        <ele>7.19999980926513671875</ele>
        <time>2018-04-17T09:07:43.000Z</time>
        <extensions>
          <ns3:TrackPointExtension>
            <ns3:atemp>29.0</ns3:atemp>
            <ns3:hr>79</ns3:hr>
          </ns3:TrackPointExtension>
        </extensions>
      </trkpt>
      <trkpt lat="31.41445887275040149688720703125" lon="119.486968405544757843017578125">
        <ele>7</ele>
        <time>2018-04-17T09:07:46.000Z</time>
        <extensions>
          <ns3:TrackPointExtension>
            <ns3:atemp>28.0</ns3:atemp>
            <ns3:hr>75</ns3:hr>
          </ns3:TrackPointExtension>
        </extensions>
      </trkpt>
      <trkpt lat="31.41448016278445720672607421875" lon="119.48696337640285491943359375">
        <ele>7</ele>
        <time>2018-04-17T09:07:47.000Z</time>
        <extensions>
          <ns3:TrackPointExtension>
            <ns3:atemp>28.0</ns3:atemp>
            <ns3:hr>72</ns3:hr>
          </ns3:TrackPointExtension>
        </extensions>
      </trkpt>
      <trkpt lat="31.41450111754238605499267578125" lon="119.48696027509868144989013671875">
        <ele>7</ele>
        <time>2018-04-17T09:07:48.000Z</time>
        <extensions>
          <ns3:TrackPointExtension>
            <ns3:atemp>28.0</ns3:atemp>
            <ns3:hr>72</ns3:hr>
          </ns3:TrackPointExtension>
        </extensions>
      </trkpt>
      <trkpt lat="31.4145957492291927337646484375" lon="119.48695667088031768798828125">
        <ele>7.19999980926513671875</ele>
        <time>2018-04-17T09:07:52.000Z</time>
        <extensions>
          <ns3:TrackPointExtension>
            <ns3:atemp>28.0</ns3:atemp>
            <ns3:hr>68</ns3:hr>
          </ns3:TrackPointExtension>
        </extensions>
      </trkpt>
      <trkpt lat="31.41472273506224155426025390625" lon="119.48695608414709568023681640625">
        <ele>7.400000095367431640625</ele>
        <time>2018-04-17T09:07:57.000Z</time>
        <extensions>
          <ns3:TrackPointExtension>
            <ns3:atemp>28.0</ns3:atemp>
            <ns3:hr>74</ns3:hr>
          </ns3:TrackPointExtension>
        </extensions>
      </trkpt>
      <trkpt lat="31.41477721743285655975341796875" lon="119.48695742525160312652587890625">
        <ele>7.599999904632568359375</ele>
        <time>2018-04-17T09:07:59.000Z</time>
        <extensions>
          <ns3:TrackPointExtension>
            <ns3:atemp>28.0</ns3:atemp>
            <ns3:hr>81</ns3:hr>
          </ns3:TrackPointExtension>
        </extensions>
      </trkpt>
      <trkpt lat="31.41486455686390399932861328125" lon="119.4869554974138736724853515625">
        <ele>7.599999904632568359375</ele>
        <time>2018-04-17T09:08:02.000Z</time>
        <extensions>
          <ns3:TrackPointExtension>
            <ns3:atemp>28.0</ns3:atemp>
            <ns3:hr>84</ns3:hr>
          </ns3:TrackPointExtension>
        </extensions>
      </trkpt>
      <trkpt lat="31.41540032811462879180908203125" lon="119.48692582547664642333984375">
        <ele>8</ele>
        <time>2018-04-17T09:08:22.000Z</time>
        <extensions>
          <ns3:TrackPointExtension>
            <ns3:atemp>28.0</ns3:atemp>
            <ns3:hr>81</ns3:hr>
          </ns3:TrackPointExtension>
        </extensions>
      </trkpt>
      <trkpt lat="31.41554298810660839080810546875" lon="119.48694367893040180206298828125">
        <ele>8.19999980926513671875</ele>
        <time>2018-04-17T09:08:29.000Z</time>
        <extensions>
          <ns3:TrackPointExtension>
            <ns3:atemp>28.0</ns3:atemp>
            <ns3:hr>80</ns3:hr>
          </ns3:TrackPointExtension>
        </extensions>
      </trkpt>
      <trkpt lat="31.415541730821132659912109375" lon="119.486944936215877532958984375">
        <ele>8.19999980926513671875</ele>
        <time>2018-04-17T09:08:31.000Z</time>
        <extensions>
          <ns3:TrackPointExtension>
            <ns3:atemp>28.0</ns3:atemp>
            <ns3:hr>83</ns3:hr>
          </ns3:TrackPointExtension>
        </extensions>
      </trkpt>
      <trkpt lat="31.41554164700210094451904296875" lon="119.48694728314876556396484375">
        <ele>8.19999980926513671875</ele>
        <time>2018-04-17T09:08:32.000Z</time>
        <extensions>
          <ns3:TrackPointExtension>
            <ns3:atemp>28.0</ns3:atemp>
            <ns3:hr>87</ns3:hr>
          </ns3:TrackPointExtension>
        </extensions>
      </trkpt>
      <trkpt lat="31.4155405573546886444091796875" lon="119.4869481213390827178955078125">
        <ele>8</ele>
        <time>2018-04-17T09:08:33.000Z</time>
        <extensions>
          <ns3:TrackPointExtension>
            <ns3:atemp>28.0</ns3:atemp>
            <ns3:hr>87</ns3:hr>
          </ns3:TrackPointExtension>
        </extensions>
      </trkpt>
      <trkpt lat="31.41553628258407115936279296875" lon="119.486945606768131256103515625">
        <ele>8</ele>
        <time>2018-04-17T09:08:36.000Z</time>
        <extensions>
          <ns3:TrackPointExtension>
            <ns3:atemp>28.0</ns3:atemp>
            <ns3:hr>91</ns3:hr>
          </ns3:TrackPointExtension>
        </extensions>
      </trkpt>
      <trkpt lat="31.41553427092730998992919921875" lon="119.486939907073974609375">
        <ele>7.80000019073486328125</ele>
        <time>2018-04-17T09:08:42.000Z</time>
        <extensions>
          <ns3:TrackPointExtension>
            <ns3:atemp>28.0</ns3:atemp>
            <ns3:hr>87</ns3:hr>
          </ns3:TrackPointExtension>
        </extensions>
      </trkpt>
      <trkpt lat="31.415550448000431060791015625" lon="119.48691585101187229156494140625">
        <ele>7.19999980926513671875</ele>
        <time>2018-04-17T09:08:51.000Z</time>
        <extensions>
          <ns3:TrackPointExtension>
            <ns3:atemp>28.0</ns3:atemp>
            <ns3:hr>85</ns3:hr>
          </ns3:TrackPointExtension>
        </extensions>
      </trkpt>
      <trkpt lat="31.41560518182814121246337890625" lon="119.48693345300853252410888671875">
        <ele>7.19999980926513671875</ele>
        <time>2018-04-17T09:08:55.000Z</time>
        <extensions>
          <ns3:TrackPointExtension>
            <ns3:atemp>28.0</ns3:atemp>
            <ns3:hr>83</ns3:hr>
          </ns3:TrackPointExtension>
        </extensions>
      </trkpt>
      <trkpt lat="31.4159284718334674835205078125" lon="119.4868837483227252960205078125">
        <ele>8.19999980926513671875</ele>
        <time>2018-04-17T09:09:09.000Z</time>
        <extensions>
          <ns3:TrackPointExtension>
            <ns3:atemp>28.0</ns3:atemp>
            <ns3:hr>82</ns3:hr>
          </ns3:TrackPointExtension>
        </extensions>
      </trkpt>
      <trkpt lat="31.41610893420875072479248046875" lon="119.48684611357748508453369140625">
        <ele>7.80000019073486328125</ele>
        <time>2018-04-17T09:09:15.000Z</time>
        <extensions>
          <ns3:TrackPointExtension>
            <ns3:atemp>28.0</ns3:atemp>
            <ns3:hr>79</ns3:hr>
          </ns3:TrackPointExtension>
        </extensions>
      </trkpt>
      <trkpt lat="31.41643784008920192718505859375" lon="119.4867942295968532562255859375">
        <ele>7.80000019073486328125</ele>
        <time>2018-04-17T09:09:26.000Z</time>
        <extensions>
          <ns3:TrackPointExtension>
            <ns3:atemp>28.0</ns3:atemp>
            <ns3:hr>76</ns3:hr>
          </ns3:TrackPointExtension>
        </extensions>
      </trkpt>
      <trkpt lat="31.4164870418608188629150390625" lon="119.4867774657905101776123046875">
        <ele>7.80000019073486328125</ele>
        <time>2018-04-17T09:09:28.000Z</time>
        <extensions>
          <ns3:TrackPointExtension>
            <ns3:atemp>28.0</ns3:atemp>
            <ns3:hr>68</ns3:hr>
          </ns3:TrackPointExtension>
        </extensions>
      </trkpt>
      <trkpt lat="31.41651512123644351959228515625" lon="119.486769251525402069091796875">
        <ele>7.80000019073486328125</ele>
        <time>2018-04-17T09:09:29.000Z</time>
        <extensions>
          <ns3:TrackPointExtension>
            <ns3:atemp>28.0</ns3:atemp>
            <ns3:hr>65</ns3:hr>
          </ns3:TrackPointExtension>
        </extensions>
      </trkpt>
      <trkpt lat="31.41654361970722675323486328125" lon="119.4867727719247341156005859375">
        <ele>7.80000019073486328125</ele>
        <time>2018-04-17T09:09:30.000Z</time>
        <extensions>
          <ns3:TrackPointExtension>
            <ns3:atemp>28.0</ns3:atemp>
            <ns3:hr>65</ns3:hr>
          </ns3:TrackPointExtension>
        </extensions>
      </trkpt>
      <trkpt lat="31.4165986888110637664794921875" lon="119.48679246939718723297119140625">
        <ele>7.599999904632568359375</ele>
        <time>2018-04-17T09:09:32.000Z</time>
        <extensions>
          <ns3:TrackPointExtension>
            <ns3:atemp>28.0</ns3:atemp>
            <ns3:hr>68</ns3:hr>
          </ns3:TrackPointExtension>
        </extensions>
      </trkpt>
      <trkpt lat="31.4166597090661525726318359375" lon="119.4867989234626293182373046875">
        <ele>7.599999904632568359375</ele>
        <time>2018-04-17T09:09:34.000Z</time>
        <extensions>
          <ns3:TrackPointExtension>
            <ns3:atemp>28.0</ns3:atemp>
            <ns3:hr>77</ns3:hr>
          </ns3:TrackPointExtension>
        </extensions>
      </trkpt>
      <trkpt lat="31.41668829135596752166748046875" lon="119.48679917491972446441650390625">
        <ele>7.599999904632568359375</ele>
        <time>2018-04-17T09:09:35.000Z</time>
        <extensions>
          <ns3:TrackPointExtension>
            <ns3:atemp>28.0</ns3:atemp>
            <ns3:hr>80</ns3:hr>
          </ns3:TrackPointExtension>
        </extensions>
      </trkpt>
      <trkpt lat="31.41671729274094104766845703125" lon="119.4867990911006927490234375">
        <ele>7.599999904632568359375</ele>
        <time>2018-04-17T09:09:36.000Z</time>
        <extensions>
          <ns3:TrackPointExtension>
            <ns3:atemp>28.0</ns3:atemp>
            <ns3:hr>85</ns3:hr>
          </ns3:TrackPointExtension>
        </extensions>
      </trkpt>
      <trkpt lat="31.4172125793993473052978515625" lon="119.486794732511043548583984375">
        <ele>8</ele>
        <time>2018-04-17T09:09:53.000Z</time>
        <extensions>
          <ns3:TrackPointExtension>
            <ns3:atemp>28.0</ns3:atemp>
            <ns3:hr>89</ns3:hr>
          </ns3:TrackPointExtension>
        </extensions>
      </trkpt>
      <trkpt lat="31.41727410256862640380859375" lon="119.486792050302028656005859375">
        <ele>8</ele>
        <time>2018-04-17T09:09:55.000Z</time>
        <extensions>
          <ns3:TrackPointExtension>
            <ns3:atemp>28.0</ns3:atemp>
            <ns3:hr>93</ns3:hr>
          </ns3:TrackPointExtension>
        </extensions>
      </trkpt>
      <trkpt lat="31.41742874868214130401611328125" lon="119.48678190819919109344482421875">
        <ele>8.19999980926513671875</ele>
        <time>2018-04-17T09:10:00.000Z</time>
        <extensions>
          <ns3:TrackPointExtension>
            <ns3:atemp>28.0</ns3:atemp>
            <ns3:hr>98</ns3:hr>
          </ns3:TrackPointExtension>
        </extensions>
      </trkpt>
      <trkpt lat="31.41748867928981781005859375" lon="119.48678433895111083984375">
        <ele>8.19999980926513671875</ele>
        <time>2018-04-17T09:10:02.000Z</time>
        <extensions>
          <ns3:TrackPointExtension>
            <ns3:atemp>28.0</ns3:atemp>
            <ns3:hr>95</ns3:hr>
          </ns3:TrackPointExtension>
        </extensions>
      </trkpt>
      <trkpt lat="31.41757057048380374908447265625" lon="119.486781656742095947265625">
        <ele>8.19999980926513671875</ele>
        <time>2018-04-17T09:10:05.000Z</time>
        <extensions>
          <ns3:TrackPointExtension>
            <ns3:atemp>28.0</ns3:atemp>
            <ns3:hr>91</ns3:hr>
          </ns3:TrackPointExtension>
        </extensions>
      </trkpt>
      <trkpt lat="31.4178794436156749725341796875" lon="119.4867588579654693603515625">
        <ele>8.6000003814697265625</ele>
        <time>2018-04-17T09:10:15.000Z</time>
        <extensions>
          <ns3:TrackPointExtension>
            <ns3:atemp>28.0</ns3:atemp>
            <ns3:hr>94</ns3:hr>
          </ns3:TrackPointExtension>
        </extensions>
      </trkpt>
      <trkpt lat="31.418020427227020263671875" lon="119.48676950298249721527099609375">
        <ele>8.6000003814697265625</ele>
        <time>2018-04-17T09:10:20.000Z</time>
        <extensions>
          <ns3:TrackPointExtension>
            <ns3:atemp>28.0</ns3:atemp>
            <ns3:hr>91</ns3:hr>
          </ns3:TrackPointExtension>
        </extensions>
      </trkpt>
      <trkpt lat="31.41824514605104923248291015625" lon="119.4867757894098758697509765625">
        <ele>8.80000019073486328125</ele>
        <time>2018-04-17T09:10:27.000Z</time>
        <extensions>
          <ns3:TrackPointExtension>
            <ns3:atemp>28.0</ns3:atemp>
            <ns3:hr>92</ns3:hr>
          </ns3:TrackPointExtension>
        </extensions>
      </trkpt>
      <trkpt lat="31.418789215385913848876953125" lon="119.48672910220921039581298828125">
        <ele>9.19999980926513671875</ele>
        <time>2018-04-17T09:10:44.000Z</time>
        <extensions>
          <ns3:TrackPointExtension>
            <ns3:atemp>27.0</ns3:atemp>
            <ns3:hr>92</ns3:hr>
          </ns3:TrackPointExtension>
        </extensions>
      </trkpt>
      <trkpt lat="31.4193492941558361053466796875" lon="119.48670982383191585540771484375">
        <ele>9.3999996185302734375</ele>
        <time>2018-04-17T09:11:01.000Z</time>
        <extensions>
          <ns3:TrackPointExtension>
            <ns3:atemp>27.0</ns3:atemp>
            <ns3:hr>90</ns3:hr>
          </ns3:TrackPointExtension>
        </extensions>
      </trkpt>
      <trkpt lat="31.41945029608905315399169921875" lon="119.48670454323291778564453125">
        <ele>9.3999996185302734375</ele>
        <time>2018-04-17T09:11:04.000Z</time>
        <extensions>
          <ns3:TrackPointExtension>
            <ns3:atemp>27.0</ns3:atemp>
            <ns3:hr>87</ns3:hr>
          </ns3:TrackPointExtension>
        </extensions>
      </trkpt>
      <trkpt lat="31.420016326010227203369140625" lon="119.4866837561130523681640625">
        <ele>9.19999980926513671875</ele>
        <time>2018-04-17T09:11:21.000Z</time>
        <extensions>
          <ns3:TrackPointExtension>
            <ns3:atemp>27.0</ns3:atemp>
            <ns3:hr>86</ns3:hr>
          </ns3:TrackPointExtension>
        </extensions>
      </trkpt>
      <trkpt lat="31.4205599762499332427978515625" lon="119.48668484576046466827392578125">
        <ele>9.80000019073486328125</ele>
        <time>2018-04-17T09:11:39.000Z</time>
        <extensions>
          <ns3:TrackPointExtension>
            <ns3:atemp>27.0</ns3:atemp>
            <ns3:hr>88</ns3:hr>
          </ns3:TrackPointExtension>
        </extensions>
      </trkpt>
      <trkpt lat="31.4206216670572757720947265625" lon="119.48668668977916240692138671875">
        <ele>9.80000019073486328125</ele>
        <time>2018-04-17T09:11:46.000Z</time>
        <extensions>
          <ns3:TrackPointExtension>
            <ns3:atemp>27.0</ns3:atemp>
            <ns3:hr>83</ns3:hr>
          </ns3:TrackPointExtension>
        </extensions>
      </trkpt>
      <trkpt lat="31.42062091268599033355712890625" lon="119.4866859354078769683837890625">
        <ele>9.3999996185302734375</ele>
        <time>2018-04-17T09:11:49.000Z</time>
        <extensions>
          <ns3:TrackPointExtension>
            <ns3:atemp>27.0</ns3:atemp>
            <ns3:hr>80</ns3:hr>
          </ns3:TrackPointExtension>
        </extensions>
      </trkpt>
      <trkpt lat="31.42068277113139629364013671875" lon="119.48668300174176692962646484375">
        <ele>8.80000019073486328125</ele>
        <time>2018-04-17T09:12:00.000Z</time>
        <extensions>
          <ns3:TrackPointExtension>
            <ns3:atemp>27.0</ns3:atemp>
            <ns3:hr>79</ns3:hr>
          </ns3:TrackPointExtension>
        </extensions>
      </trkpt>
      <trkpt lat="31.42105760984122753143310546875" lon="119.48663589544594287872314453125">
        <ele>9.3999996185302734375</ele>
        <time>2018-04-17T09:12:14.000Z</time>
        <extensions>
          <ns3:TrackPointExtension>
            <ns3:atemp>27.0</ns3:atemp>
            <ns3:hr>82</ns3:hr>
          </ns3:TrackPointExtension>
        </extensions>
      </trkpt>
      <trkpt lat="31.42125391401350498199462890625" lon="119.48662181384861469268798828125">
        <ele>9.6000003814697265625</ele>
        <time>2018-04-17T09:12:20.000Z</time>
        <extensions>
          <ns3:TrackPointExtension>
            <ns3:atemp>27.0</ns3:atemp>
            <ns3:hr>85</ns3:hr>
          </ns3:TrackPointExtension>
        </extensions>
      </trkpt>
      <trkpt lat="31.421677283942699432373046875" lon="119.48661443777382373809814453125">
        <ele>9.19999980926513671875</ele>
        <time>2018-04-17T09:12:33.000Z</time>
        <extensions>
          <ns3:TrackPointExtension>
            <ns3:atemp>27.0</ns3:atemp>
            <ns3:hr>82</ns3:hr>
          </ns3:TrackPointExtension>
        </extensions>
      </trkpt>
      <trkpt lat="31.4219044335186481475830078125" lon="119.48661326430737972259521484375">
        <ele>9.19999980926513671875</ele>
        <time>2018-04-17T09:12:40.000Z</time>
        <extensions>
          <ns3:TrackPointExtension>
            <ns3:atemp>27.0</ns3:atemp>
            <ns3:hr>85</ns3:hr>
          </ns3:TrackPointExtension>
        </extensions>
      </trkpt>
      <trkpt lat="31.42246006987988948822021484375" lon="119.48658996261656284332275390625">
        <ele>9.6000003814697265625</ele>
        <time>2018-04-17T09:12:59.000Z</time>
        <extensions>
          <ns3:TrackPointExtension>
            <ns3:atemp>27.0</ns3:atemp>
            <ns3:hr>85</ns3:hr>
          </ns3:TrackPointExtension>
        </extensions>
      </trkpt>
      <trkpt lat="31.4229025505483150482177734375" lon="119.48657051660120487213134765625">
        <ele>9.3999996185302734375</ele>
        <time>2018-04-17T09:13:16.000Z</time>
        <extensions>
          <ns3:TrackPointExtension>
            <ns3:atemp>27.0</ns3:atemp>
            <ns3:hr>82</ns3:hr>
          </ns3:TrackPointExtension>
        </extensions>
      </trkpt>
      <trkpt lat="31.42346195876598358154296875" lon="119.48653363622725009918212890625">
        <ele>10</ele>
        <time>2018-04-17T09:13:38.000Z</time>
        <extensions>
          <ns3:TrackPointExtension>
            <ns3:atemp>27.0</ns3:atemp>
            <ns3:hr>80</ns3:hr>
          </ns3:TrackPointExtension>
        </extensions>
      </trkpt>
      <trkpt lat="31.423767395317554473876953125" lon="119.48652240447700023651123046875">
        <ele>10</ele>
        <time>2018-04-17T09:13:50.000Z</time>
        <extensions>
          <ns3:TrackPointExtension>
            <ns3:atemp>27.0</ns3:atemp>
            <ns3:hr>83</ns3:hr>
          </ns3:TrackPointExtension>
        </extensions>
      </trkpt>
      <trkpt lat="31.42404508776962757110595703125" lon="119.48652927763760089874267578125">
        <ele>10.19999980926513671875</ele>
        <time>2018-04-17T09:14:00.000Z</time>
        <extensions>
          <ns3:TrackPointExtension>
            <ns3:atemp>27.0</ns3:atemp>
            <ns3:hr>86</ns3:hr>
          </ns3:TrackPointExtension>
        </extensions>
      </trkpt>
      <trkpt lat="31.42410141415894031524658203125" lon="119.48653028346598148345947265625">
        <ele>10.3999996185302734375</ele>
        <time>2018-04-17T09:14:02.000Z</time>
        <extensions>
          <ns3:TrackPointExtension>
            <ns3:atemp>27.0</ns3:atemp>
            <ns3:hr>88</ns3:hr>
          </ns3:TrackPointExtension>
        </extensions>
      </trkpt>
      <trkpt lat="31.42418506555259227752685546875" lon="119.486525170505046844482421875">
        <ele>10.6000003814697265625</ele>
        <time>2018-04-17T09:14:05.000Z</time>
        <extensions>
          <ns3:TrackPointExtension>
            <ns3:atemp>27.0</ns3:atemp>
            <ns3:hr>83</ns3:hr>
          </ns3:TrackPointExtension>
        </extensions>
      </trkpt>
      <trkpt lat="31.424383632838726043701171875" lon="119.48647865094244480133056640625">
        <ele>10.3999996185302734375</ele>
        <time>2018-04-17T09:14:33.000Z</time>
        <extensions>
          <ns3:TrackPointExtension>
            <ns3:atemp>26.0</ns3:atemp>
            <ns3:hr>79</ns3:hr>
          </ns3:TrackPointExtension>
        </extensions>
      </trkpt>
      <trkpt lat="31.42437952570617198944091796875" lon="119.48646624572575092315673828125">
        <ele>10.3999996185302734375</ele>
        <time>2018-04-17T09:14:35.000Z</time>
        <extensions>
          <ns3:TrackPointExtension>
            <ns3:atemp>26.0</ns3:atemp>
            <ns3:hr>76</ns3:hr>
          </ns3:TrackPointExtension>
        </extensions>
      </trkpt>
      <trkpt lat="31.42437927424907684326171875" lon="119.4865147769451141357421875">
        <ele>10.3999996185302734375</ele>
        <time>2018-04-17T09:14:42.000Z</time>
        <extensions>
          <ns3:TrackPointExtension>
            <ns3:atemp>26.0</ns3:atemp>
            <ns3:hr>74</ns3:hr>
          </ns3:TrackPointExtension>
        </extensions>
      </trkpt>
      <trkpt lat="31.4244183339178562164306640625" lon="119.4865129329264163970947265625">
        <ele>10.3999996185302734375</ele>
        <time>2018-04-17T09:14:45.000Z</time>
        <extensions>
          <ns3:TrackPointExtension>
            <ns3:atemp>26.0</ns3:atemp>
            <ns3:hr>73</ns3:hr>
          </ns3:TrackPointExtension>
        </extensions>
      </trkpt>
      <trkpt lat="31.424464769661426544189453125" lon="119.4865048862993717193603515625">
        <ele>10.6000003814697265625</ele>
        <time>2018-04-17T09:14:47.000Z</time>
        <extensions>
          <ns3:TrackPointExtension>
            <ns3:atemp>26.0</ns3:atemp>
            <ns3:hr>68</ns3:hr>
          </ns3:TrackPointExtension>
        </extensions>
      </trkpt>
      <trkpt lat="31.4244870655238628387451171875" lon="119.48650446720421314239501953125">
        <ele>10.6000003814697265625</ele>
        <time>2018-04-17T09:14:48.000Z</time>
        <extensions>
          <ns3:TrackPointExtension>
            <ns3:atemp>26.0</ns3:atemp>
            <ns3:hr>68</ns3:hr>
          </ns3:TrackPointExtension>
        </extensions>
      </trkpt>
      <trkpt lat="31.4247874729335308074951171875" lon="119.4864522479474544525146484375">
        <ele>11.19999980926513671875</ele>
        <time>2018-04-17T09:14:59.000Z</time>
        <extensions>
          <ns3:TrackPointExtension>
            <ns3:atemp>26.0</ns3:atemp>
            <ns3:hr>65</ns3:hr>
          </ns3:TrackPointExtension>
        </extensions>
      </trkpt>
      <trkpt lat="31.4248474873602390289306640625" lon="119.4864374957978725433349609375">
        <ele>11.19999980926513671875</ele>
        <time>2018-04-17T09:15:01.000Z</time>
        <extensions>
          <ns3:TrackPointExtension>
            <ns3:atemp>26.0</ns3:atemp>
            <ns3:hr>68</ns3:hr>
          </ns3:TrackPointExtension>
        </extensions>
      </trkpt>
      <trkpt lat="31.42487858422100543975830078125" lon="119.4864244200289249420166015625">
        <ele>11.19999980926513671875</ele>
        <time>2018-04-17T09:15:02.000Z</time>
        <extensions>
          <ns3:TrackPointExtension>
            <ns3:atemp>26.0</ns3:atemp>
            <ns3:hr>71</ns3:hr>
          </ns3:TrackPointExtension>
        </extensions>
      </trkpt>
      <trkpt lat="31.42491043545305728912353515625" lon="119.48641427792608737945556640625">
        <ele>11.19999980926513671875</ele>
        <time>2018-04-17T09:15:03.000Z</time>
        <extensions>
          <ns3:TrackPointExtension>
            <ns3:atemp>26.0</ns3:atemp>
            <ns3:hr>76</ns3:hr>
          </ns3:TrackPointExtension>
        </extensions>
      </trkpt>
      <trkpt lat="31.42494262196123600006103515625" lon="119.4864073209464550018310546875">
        <ele>11.19999980926513671875</ele>
        <time>2018-04-17T09:15:04.000Z</time>
        <extensions>
          <ns3:TrackPointExtension>
            <ns3:atemp>26.0</ns3:atemp>
            <ns3:hr>76</ns3:hr>
          </ns3:TrackPointExtension>
        </extensions>
      </trkpt>
      <trkpt lat="31.4250035583972930908203125" lon="119.48640271089971065521240234375">
        <ele>11</ele>
        <time>2018-04-17T09:15:06.000Z</time>
        <extensions>
          <ns3:TrackPointExtension>
            <ns3:atemp>26.0</ns3:atemp>
            <ns3:hr>81</ns3:hr>
          </ns3:TrackPointExtension>
        </extensions>
      </trkpt>
      <trkpt lat="31.42503331415355205535888671875" lon="119.4864016212522983551025390625">
        <ele>11</ele>
        <time>2018-04-17T09:15:07.000Z</time>
        <extensions>
          <ns3:TrackPointExtension>
            <ns3:atemp>26.0</ns3:atemp>
            <ns3:hr>88</ns3:hr>
          </ns3:TrackPointExtension>
        </extensions>
      </trkpt>
      <trkpt lat="31.42521536909043788909912109375" lon="119.4863962568342685699462890625">
        <ele>11.19999980926513671875</ele>
        <time>2018-04-17T09:15:13.000Z</time>
        <extensions>
          <ns3:TrackPointExtension>
            <ns3:atemp>26.0</ns3:atemp>
            <ns3:hr>83</ns3:hr>
          </ns3:TrackPointExtension>
        </extensions>
      </trkpt>
      <trkpt lat="31.4253638125956058502197265625" lon="119.48637102730572223663330078125">
        <ele>11.3999996185302734375</ele>
        <time>2018-04-17T09:15:18.000Z</time>
        <extensions>
          <ns3:TrackPointExtension>
            <ns3:atemp>26.0</ns3:atemp>
            <ns3:hr>82</ns3:hr>
          </ns3:TrackPointExtension>
        </extensions>
      </trkpt>
      <trkpt lat="31.4257108233869075775146484375" lon="119.48633397929370403289794921875">
        <ele>11.3999996185302734375</ele>
        <time>2018-04-17T09:15:30.000Z</time>
        <extensions>
          <ns3:TrackPointExtension>
            <ns3:atemp>26.0</ns3:atemp>
            <ns3:hr>85</ns3:hr>
          </ns3:TrackPointExtension>
        </extensions>
      </trkpt>
      <trkpt lat="31.42589799128472805023193359375" lon="119.48631654493510723114013671875">
        <ele>11.3999996185302734375</ele>
        <time>2018-04-17T09:15:36.000Z</time>
        <extensions>
          <ns3:TrackPointExtension>
            <ns3:atemp>26.0</ns3:atemp>
            <ns3:hr>88</ns3:hr>
          </ns3:TrackPointExtension>
        </extensions>
      </trkpt>
      <trkpt lat="31.42609630711376667022705078125" lon="119.486242197453975677490234375">
        <ele>11.80000019073486328125</ele>
        <time>2018-04-17T09:15:43.000Z</time>
        <extensions>
          <ns3:TrackPointExtension>
            <ns3:atemp>26.0</ns3:atemp>
            <ns3:hr>92</ns3:hr>
          </ns3:TrackPointExtension>
        </extensions>
      </trkpt>
      <trkpt lat="31.42615757882595062255859375" lon="119.4862465560436248779296875">
        <ele>12</ele>
        <time>2018-04-17T09:15:45.000Z</time>
        <extensions>
          <ns3:TrackPointExtension>
            <ns3:atemp>26.0</ns3:atemp>
            <ns3:hr>88</ns3:hr>
          </ns3:TrackPointExtension>
        </extensions>
      </trkpt>
      <trkpt lat="31.42621583305299282073974609375" lon="119.48623842559754848480224609375">
        <ele>11.80000019073486328125</ele>
        <time>2018-04-17T09:15:47.000Z</time>
        <extensions>
          <ns3:TrackPointExtension>
            <ns3:atemp>26.0</ns3:atemp>
            <ns3:hr>85</ns3:hr>
          </ns3:TrackPointExtension>
        </extensions>
      </trkpt>
      <trkpt lat="31.42668102867901325225830078125" lon="119.4862250983715057373046875">
        <ele>12.19999980926513671875</ele>
        <time>2018-04-17T09:16:10.000Z</time>
        <extensions>
          <ns3:TrackPointExtension>
            <ns3:atemp>26.0</ns3:atemp>
            <ns3:hr>80</ns3:hr>
          </ns3:TrackPointExtension>
        </extensions>
      </trkpt>
      <trkpt lat="31.4266804419457912445068359375" lon="119.4862262718379497528076171875">
        <ele>12.3999996185302734375</ele>
        <time>2018-04-17T09:16:12.000Z</time>
        <extensions>
          <ns3:TrackPointExtension>
            <ns3:atemp>26.0</ns3:atemp>
            <ns3:hr>81</ns3:hr>
          </ns3:TrackPointExtension>
        </extensions>
      </trkpt>
      <trkpt lat="31.42667784355580806732177734375" lon="119.4862279482185840606689453125">
        <ele>12.19999980926513671875</ele>
        <time>2018-04-17T09:16:29.000Z</time>
        <extensions>
          <ns3:TrackPointExtension>
            <ns3:atemp>26.0</ns3:atemp>
            <ns3:hr>84</ns3:hr>
          </ns3:TrackPointExtension>
        </extensions>
      </trkpt>
      <trkpt lat="31.42673425376415252685546875" lon="119.486218728125095367431640625">
        <ele>11.80000019073486328125</ele>
        <time>2018-04-17T09:16:40.000Z</time>
        <extensions>
          <ns3:TrackPointExtension>
            <ns3:atemp>26.0</ns3:atemp>
            <ns3:hr>82</ns3:hr>
          </ns3:TrackPointExtension>
        </extensions>
      </trkpt>
      <trkpt lat="31.4267542026937007904052734375" lon="119.4862155430018901824951171875">
        <ele>11.80000019073486328125</ele>
        <time>2018-04-17T09:16:41.000Z</time>
        <extensions>
          <ns3:TrackPointExtension>
            <ns3:atemp>26.0</ns3:atemp>
            <ns3:hr>77</ns3:hr>
          </ns3:TrackPointExtension>
        </extensions>
      </trkpt>
      <trkpt lat="31.42690029926598072052001953125" lon="119.48618411086499691009521484375">
        <ele>12.19999980926513671875</ele>
        <time>2018-04-17T09:16:47.000Z</time>
        <extensions>
          <ns3:TrackPointExtension>
            <ns3:atemp>26.0</ns3:atemp>
            <ns3:hr>74</ns3:hr>
          </ns3:TrackPointExtension>
        </extensions>
      </trkpt>
      <trkpt lat="31.42705486156046390533447265625" lon="119.48614597320556640625">
        <ele>12</ele>
        <time>2018-04-17T09:16:53.000Z</time>
        <extensions>
          <ns3:TrackPointExtension>
            <ns3:atemp>26.0</ns3:atemp>
            <ns3:hr>67</ns3:hr>
          </ns3:TrackPointExtension>
        </extensions>
      </trkpt>
      <trkpt lat="31.4270807616412639617919921875" lon="119.486144296824932098388671875">
        <ele>11.80000019073486328125</ele>
        <time>2018-04-17T09:16:54.000Z</time>
        <extensions>
          <ns3:TrackPointExtension>
            <ns3:atemp>26.0</ns3:atemp>
            <ns3:hr>64</ns3:hr>
          </ns3:TrackPointExtension>
        </extensions>
      </trkpt>
      <trkpt lat="31.427153684198856353759765625" lon="119.486142955720424652099609375">
        <ele>11.80000019073486328125</ele>
        <time>2018-04-17T09:16:57.000Z</time>
        <extensions>
          <ns3:TrackPointExtension>
            <ns3:atemp>26.0</ns3:atemp>
            <ns3:hr>67</ns3:hr>
          </ns3:TrackPointExtension>
        </extensions>
      </trkpt>
      <trkpt lat="31.427244208753108978271484375" lon="119.4861374236643314361572265625">
        <ele>11.80000019073486328125</ele>
        <time>2018-04-17T09:17:01.000Z</time>
        <extensions>
          <ns3:TrackPointExtension>
            <ns3:atemp>26.0</ns3:atemp>
            <ns3:hr>70</ns3:hr>
          </ns3:TrackPointExtension>
        </extensions>
      </trkpt>
      <trkpt lat="31.4273464679718017578125" lon="119.4861283712089061737060546875">
        <ele>11.80000019073486328125</ele>
        <time>2018-04-17T09:17:05.000Z</time>
        <extensions>
          <ns3:TrackPointExtension>
            <ns3:atemp>26.0</ns3:atemp>
            <ns3:hr>73</ns3:hr>
          </ns3:TrackPointExtension>
        </extensions>
      </trkpt>
      <trkpt lat="31.42750044353306293487548828125" lon="119.48614639230072498321533203125">
        <ele>11.80000019073486328125</ele>
        <time>2018-04-17T09:17:11.000Z</time>
        <extensions>
          <ns3:TrackPointExtension>
            <ns3:atemp>26.0</ns3:atemp>
            <ns3:hr>76</ns3:hr>
          </ns3:TrackPointExtension>
        </extensions>
      </trkpt>
      <trkpt lat="31.4279135875403881072998046875" lon="119.48612007312476634979248046875">
        <ele>11.6000003814697265625</ele>
        <time>2018-04-17T09:17:25.000Z</time>
        <extensions>
          <ns3:TrackPointExtension>
            <ns3:atemp>26.0</ns3:atemp>
            <ns3:hr>79</ns3:hr>
          </ns3:TrackPointExtension>
        </extensions>
      </trkpt>
      <trkpt lat="31.4279776252806186676025390625" lon="119.48612124659121036529541015625">
        <ele>11.6000003814697265625</ele>
        <time>2018-04-17T09:17:27.000Z</time>
        <extensions>
          <ns3:TrackPointExtension>
            <ns3:atemp>26.0</ns3:atemp>
            <ns3:hr>83</ns3:hr>
          </ns3:TrackPointExtension>
        </extensions>
      </trkpt>
      <trkpt lat="31.428099833428859710693359375" lon="119.48610129766166210174560546875">
        <ele>11.3999996185302734375</ele>
        <time>2018-04-17T09:17:31.000Z</time>
        <extensions>
          <ns3:TrackPointExtension>
            <ns3:atemp>26.0</ns3:atemp>
            <ns3:hr>82</ns3:hr>
          </ns3:TrackPointExtension>
        </extensions>
      </trkpt>
      <trkpt lat="31.428494788706302642822265625" lon="119.48610163293778896331787109375">
        <ele>10.6000003814697265625</ele>
        <time>2018-04-17T09:17:43.000Z</time>
        <extensions>
          <ns3:TrackPointExtension>
            <ns3:atemp>26.0</ns3:atemp>
            <ns3:hr>79</ns3:hr>
          </ns3:TrackPointExtension>
        </extensions>
      </trkpt>
      <trkpt lat="31.4285261370241641998291015625" lon="119.486098028719425201416015625">
        <ele>10.3999996185302734375</ele>
        <time>2018-04-17T09:17:44.000Z</time>
        <extensions>
          <ns3:TrackPointExtension>
            <ns3:atemp>26.0</ns3:atemp>
            <ns3:hr>75</ns3:hr>
          </ns3:TrackPointExtension>
        </extensions>
      </trkpt>
      <trkpt lat="31.428557150065898895263671875" lon="119.48609375394880771636962890625">
        <ele>10.3999996185302734375</ele>
        <time>2018-04-17T09:17:45.000Z</time>
        <extensions>
          <ns3:TrackPointExtension>
            <ns3:atemp>26.0</ns3:atemp>
            <ns3:hr>71</ns3:hr>
          </ns3:TrackPointExtension>
        </extensions>
      </trkpt>
      <trkpt lat="31.42893768846988677978515625" lon="119.485969282686710357666015625">
        <ele>10.80000019073486328125</ele>
        <time>2018-04-17T09:17:59.000Z</time>
        <extensions>
          <ns3:TrackPointExtension>
            <ns3:atemp>26.0</ns3:atemp>
            <ns3:hr>74</ns3:hr>
          </ns3:TrackPointExtension>
        </extensions>
      </trkpt>
      <trkpt lat="31.429363153874874114990234375" lon="119.4858390279114246368408203125">
        <ele>11</ele>
        <time>2018-04-17T09:18:16.000Z</time>
        <extensions>
          <ns3:TrackPointExtension>
            <ns3:atemp>26.0</ns3:atemp>
            <ns3:hr>78</ns3:hr>
          </ns3:TrackPointExtension>
        </extensions>
      </trkpt>
      <trkpt lat="31.42938838340342044830322265625" lon="119.485830478370189666748046875">
        <ele>11</ele>
        <time>2018-04-17T09:18:17.000Z</time>
        <extensions>
          <ns3:TrackPointExtension>
            <ns3:atemp>26.0</ns3:atemp>
            <ns3:hr>79</ns3:hr>
          </ns3:TrackPointExtension>
        </extensions>
      </trkpt>
      <trkpt lat="31.429461054503917694091796875" lon="119.48580055497586727142333984375">
        <ele>11.3999996185302734375</ele>
        <time>2018-04-17T09:18:21.000Z</time>
        <extensions>
          <ns3:TrackPointExtension>
            <ns3:atemp>26.0</ns3:atemp>
            <ns3:hr>82</ns3:hr>
          </ns3:TrackPointExtension>
        </extensions>
      </trkpt>
      <trkpt lat="31.42990185879170894622802734375" lon="119.48562453500926494598388671875">
        <ele>12.19999980926513671875</ele>
        <time>2018-04-17T09:18:41.000Z</time>
        <extensions>
          <ns3:TrackPointExtension>
            <ns3:atemp>25.0</ns3:atemp>
            <ns3:hr>80</ns3:hr>
          </ns3:TrackPointExtension>
        </extensions>
      </trkpt>
      <trkpt lat="31.43024182878434658050537109375" lon="119.4855808652937412261962890625">
        <ele>11.80000019073486328125</ele>
        <time>2018-04-17T09:18:56.000Z</time>
        <extensions>
          <ns3:TrackPointExtension>
            <ns3:atemp>25.0</ns3:atemp>
            <ns3:hr>84</ns3:hr>
          </ns3:TrackPointExtension>
        </extensions>
      </trkpt>
      <trkpt lat="31.43031240440905094146728515625" lon="119.4853936135768890380859375">
        <ele>11.3999996185302734375</ele>
        <time>2018-04-17T09:19:08.000Z</time>
        <extensions>
          <ns3:TrackPointExtension>
            <ns3:atemp>25.0</ns3:atemp>
            <ns3:hr>81</ns3:hr>
          </ns3:TrackPointExtension>
        </extensions>
      </trkpt>
      <trkpt lat="31.430347859859466552734375" lon="119.48532563634216785430908203125">
        <ele>11.3999996185302734375</ele>
        <time>2018-04-17T09:19:13.000Z</time>
        <extensions>
          <ns3:TrackPointExtension>
            <ns3:atemp>25.0</ns3:atemp>
            <ns3:hr>77</ns3:hr>
          </ns3:TrackPointExtension>
        </extensions>
      </trkpt>
      <trkpt lat="31.43036034889519214630126953125" lon="119.4853196851909160614013671875">
        <ele>11.3999996185302734375</ele>
        <time>2018-04-17T09:19:14.000Z</time>
        <extensions>
          <ns3:TrackPointExtension>
            <ns3:atemp>25.0</ns3:atemp>
            <ns3:hr>77</ns3:hr>
          </ns3:TrackPointExtension>
        </extensions>
      </trkpt>
      <trkpt lat="31.4304351992905139923095703125" lon="119.485339634120464324951171875">
        <ele>11.3999996185302734375</ele>
        <time>2018-04-17T09:19:18.000Z</time>
        <extensions>
          <ns3:TrackPointExtension>
            <ns3:atemp>25.0</ns3:atemp>
            <ns3:hr>80</ns3:hr>
          </ns3:TrackPointExtension>
        </extensions>
      </trkpt>
      <trkpt lat="31.43047903664410114288330078125" lon="119.48535270988941192626953125">
        <ele>11.6000003814697265625</ele>
        <time>2018-04-17T09:19:20.000Z</time>
        <extensions>
          <ns3:TrackPointExtension>
            <ns3:atemp>25.0</ns3:atemp>
            <ns3:hr>85</ns3:hr>
          </ns3:TrackPointExtension>
        </extensions>
      </trkpt>
      <trkpt lat="31.4305012486875057220458984375" lon="119.485361091792583465576171875">
        <ele>11.6000003814697265625</ele>
        <time>2018-04-17T09:19:21.000Z</time>
        <extensions>
          <ns3:TrackPointExtension>
            <ns3:atemp>25.0</ns3:atemp>
            <ns3:hr>85</ns3:hr>
          </ns3:TrackPointExtension>
        </extensions>
      </trkpt>
      <trkpt lat="31.4307191781699657440185546875" lon="119.4854048453271389007568359375">
        <ele>11.6000003814697265625</ele>
        <time>2018-04-17T09:19:30.000Z</time>
        <extensions>
          <ns3:TrackPointExtension>
            <ns3:atemp>25.0</ns3:atemp>
            <ns3:hr>82</ns3:hr>
          </ns3:TrackPointExtension>
        </extensions>
      </trkpt>
      <trkpt lat="31.4309391193091869354248046875" lon="119.48530116118490695953369140625">
        <ele>11.80000019073486328125</ele>
        <time>2018-04-17T09:19:41.000Z</time>
        <extensions>
          <ns3:TrackPointExtension>
            <ns3:atemp>25.0</ns3:atemp>
            <ns3:hr>85</ns3:hr>
          </ns3:TrackPointExtension>
        </extensions>
      </trkpt>
      <trkpt lat="31.43099854700267314910888671875" lon="119.48526428081095218658447265625">
        <ele>11.80000019073486328125</ele>
        <time>2018-04-17T09:19:44.000Z</time>
        <extensions>
          <ns3:TrackPointExtension>
            <ns3:atemp>25.0</ns3:atemp>
            <ns3:hr>82</ns3:hr>
          </ns3:TrackPointExtension>
        </extensions>
      </trkpt>
      <trkpt lat="31.4313578791916370391845703125" lon="119.48507702909409999847412109375">
        <ele>12.3999996185302734375</ele>
        <time>2018-04-17T09:20:00.000Z</time>
        <extensions>
          <ns3:TrackPointExtension>
            <ns3:atemp>25.0</ns3:atemp>
            <ns3:hr>82</ns3:hr>
          </ns3:TrackPointExtension>
        </extensions>
      </trkpt>
      <trkpt lat="31.43157337792217731475830078125" lon="119.484964124858379364013671875">
        <ele>12.3999996185302734375</ele>
        <time>2018-04-17T09:20:10.000Z</time>
        <extensions>
          <ns3:TrackPointExtension>
            <ns3:atemp>25.0</ns3:atemp>
            <ns3:hr>88</ns3:hr>
          </ns3:TrackPointExtension>
        </extensions>
      </trkpt>
      <trkpt lat="31.43163599073886871337890625" lon="119.4849347881972789764404296875">
        <ele>12.3999996185302734375</ele>
        <time>2018-04-17T09:20:13.000Z</time>
        <extensions>
          <ns3:TrackPointExtension>
            <ns3:atemp>25.0</ns3:atemp>
            <ns3:hr>91</ns3:hr>
          </ns3:TrackPointExtension>
        </extensions>
      </trkpt>
      <trkpt lat="31.43176850862801074981689453125" lon="119.48487519286572933197021484375">
        <ele>12.6000003814697265625</ele>
        <time>2018-04-17T09:20:18.000Z</time>
        <extensions>
          <ns3:TrackPointExtension>
            <ns3:atemp>25.0</ns3:atemp>
            <ns3:hr>95</ns3:hr>
          </ns3:TrackPointExtension>
        </extensions>
      </trkpt>
      <trkpt lat="31.43214426934719085693359375" lon="119.4844221509993076324462890625">
        <ele>12</ele>
        <time>2018-04-17T09:20:36.000Z</time>
        <extensions>
          <ns3:TrackPointExtension>
            <ns3:atemp>25.0</ns3:atemp>
            <ns3:hr>94</ns3:hr>
          </ns3:TrackPointExtension>
        </extensions>
      </trkpt>
      <trkpt lat="31.43252908252179622650146484375" lon="119.4839390181005001068115234375">
        <ele>11.80000019073486328125</ele>
        <time>2018-04-17T09:20:56.000Z</time>
        <extensions>
          <ns3:TrackPointExtension>
            <ns3:atemp>25.0</ns3:atemp>
            <ns3:hr>92</ns3:hr>
          </ns3:TrackPointExtension>
        </extensions>
      </trkpt>
      <trkpt lat="31.43265782855451107025146484375" lon="119.48376618325710296630859375">
        <ele>11.6000003814697265625</ele>
        <time>2018-04-17T09:21:02.000Z</time>
        <extensions>
          <ns3:TrackPointExtension>
            <ns3:atemp>25.0</ns3:atemp>
            <ns3:hr>87</ns3:hr>
          </ns3:TrackPointExtension>
        </extensions>
      </trkpt>
      <trkpt lat="31.4329370297491550445556640625" lon="119.48345093987882137298583984375">
        <ele>11.80000019073486328125</ele>
        <time>2018-04-17T09:21:16.000Z</time>
        <extensions>
          <ns3:TrackPointExtension>
            <ns3:atemp>25.0</ns3:atemp>
            <ns3:hr>88</ns3:hr>
          </ns3:TrackPointExtension>
        </extensions>
      </trkpt>
      <trkpt lat="31.43339694477617740631103515625" lon="119.48384472168982028961181640625">
        <ele>12.19999980926513671875</ele>
        <time>2018-04-17T09:21:40.000Z</time>
        <extensions>
          <ns3:TrackPointExtension>
            <ns3:atemp>25.0</ns3:atemp>
            <ns3:hr>89</ns3:hr>
          </ns3:TrackPointExtension>
        </extensions>
      </trkpt>
      <trkpt lat="31.43356441520154476165771484375" lon="119.48398319073021411895751953125">
        <ele>11.3999996185302734375</ele>
        <time>2018-04-17T09:21:45.000Z</time>
        <extensions>
          <ns3:TrackPointExtension>
            <ns3:atemp>25.0</ns3:atemp>
            <ns3:hr>88</ns3:hr>
          </ns3:TrackPointExtension>
        </extensions>
      </trkpt>
      <trkpt lat="31.43378552980720996856689453125" lon="119.4841435365378856658935546875">
        <ele>10.3999996185302734375</ele>
        <time>2018-04-17T09:21:51.000Z</time>
        <extensions>
          <ns3:TrackPointExtension>
            <ns3:atemp>25.0</ns3:atemp>
            <ns3:hr>87</ns3:hr>
          </ns3:TrackPointExtension>
        </extensions>
      </trkpt>
      <trkpt lat="31.4341983385384082794189453125" lon="119.48440144769847393035888671875">
        <ele>10.3999996185302734375</ele>
        <time>2018-04-17T09:22:04.000Z</time>
        <extensions>
          <ns3:TrackPointExtension>
            <ns3:atemp>25.0</ns3:atemp>
            <ns3:hr>88</ns3:hr>
          </ns3:TrackPointExtension>
        </extensions>
      </trkpt>
      <trkpt lat="31.4347253926098346710205078125" lon="119.48454209603369235992431640625">
        <ele>10.19999980926513671875</ele>
        <time>2018-04-17T09:22:21.000Z</time>
        <extensions>
          <ns3:TrackPointExtension>
            <ns3:atemp>25.0</ns3:atemp>
            <ns3:hr>88</ns3:hr>
          </ns3:TrackPointExtension>
        </extensions>
      </trkpt>
      <trkpt lat="31.4348812960088253021240234375" lon="119.48458501137793064117431640625">
        <ele>10.19999980926513671875</ele>
        <time>2018-04-17T09:22:27.000Z</time>
        <extensions>
          <ns3:TrackPointExtension>
            <ns3:atemp>25.0</ns3:atemp>
            <ns3:hr>88</ns3:hr>
          </ns3:TrackPointExtension>
        </extensions>
      </trkpt>
    </trkseg>
  </trk>
</gpx>
