<gpx xmlns:ns3="http://www.garmin.com/xmlschemas/TrackPointExtension/v1" xmlns="http://www.topografix.com/GPX/1/1" xmlns:xsi="http://www.w3.org/2001/XMLSchema-instance" xmlns:ns2="http://www.garmin.com/xmlschemas/GpxExtensions/v3" creator="Garmin Connect" version="1.1" xsi:schemaLocation="http://www.topografix.com/GPX/1/1 http://www.topografix.com/GPX/11.xsd">
  <extensions>
<distance>1841.38</distance>
<average_hr>66.0</average_hr>
<average_speed>7.77299976348877</average_speed>
<start_time>2018-08-20T12:15:34+00:00</start_time>
<end_time>2018-08-20T12:19:30.880000+00:00</end_time>
<moving_time>224.0</moving_time>
<elapsed_time>236.88</elapsed_time>
</extensions>
<metadata>
    <link href="connect.garmin.com">
      <text>Garmin Connect</text>
    </link>
    <time>2018-08-20T12:15:34.000Z</time>
  </metadata>
  <trk>
    <name>常州市 骑车</name>
    <type>cycling</type>
    <trkseg>
      <trkpt lat="31.4221565611660480499267578125" lon="119.49158540926873683929443359375">
        <ele>1.7999999523162841796875</ele>
        <time>2018-08-20T12:15:41.000Z</time>
        <extensions>
          <ns3:TrackPointExtension>
            <ns3:atemp>30.0</ns3:atemp>
            <ns3:hr>67</ns3:hr>
          </ns3:TrackPointExtension>
        </extensions>
      </trkpt>
      <trkpt lat="31.4221354387700557708740234375" lon="119.49169420637190341949462890625">
        <ele>1.7999999523162841796875</ele>
        <time>2018-08-20T12:15:42.000Z</time>
        <extensions>
          <ns3:TrackPointExtension>
            <ns3:atemp>30.0</ns3:atemp>
            <ns3:hr>67</ns3:hr>
          </ns3:TrackPointExtension>
        </extensions>
      </trkpt>
      <trkpt lat="31.422239206731319427490234375" lon="119.49175606481730937957763671875">
        <ele>1.7999999523162841796875</ele>
        <time>2018-08-20T12:15:43.000Z</time>
        <extensions>
          <ns3:TrackPointExtension>
            <ns3:atemp>30.0</ns3:atemp>
            <ns3:hr>71</ns3:hr>
          </ns3:TrackPointExtension>
        </extensions>
      </trkpt>
      <trkpt lat="31.42231623642146587371826171875" lon="119.49178154580295085906982421875">
        <ele>1.7999999523162841796875</ele>
        <time>2018-08-20T12:15:44.000Z</time>
        <extensions>
          <ns3:TrackPointExtension>
            <ns3:atemp>30.0</ns3:atemp>
            <ns3:hr>67</ns3:hr>
          </ns3:TrackPointExtension>
        </extensions>
      </trkpt>
      <trkpt lat="31.4223956130445003509521484375" lon="119.49180853553116321563720703125">
        <ele>1.7999999523162841796875</ele>
        <time>2018-08-20T12:15:45.000Z</time>
        <extensions>
          <ns3:TrackPointExtension>
            <ns3:atemp>30.0</ns3:atemp>
            <ns3:hr>67</ns3:hr>
          </ns3:TrackPointExtension>
        </extensions>
      </trkpt>
      <trkpt lat="31.4224715530872344970703125" lon="119.49184139259159564971923828125">
        <ele>1.7999999523162841796875</ele>
        <time>2018-08-20T12:15:46.000Z</time>
        <extensions>
          <ns3:TrackPointExtension>
            <ns3:atemp>30.0</ns3:atemp>
            <ns3:hr>66</ns3:hr>
          </ns3:TrackPointExtension>
        </extensions>
      </trkpt>
      <trkpt lat="31.422505080699920654296875" lon="119.491900987923145294189453125">
        <ele>1.7999999523162841796875</ele>
        <time>2018-08-20T12:15:47.000Z</time>
        <extensions>
          <ns3:TrackPointExtension>
            <ns3:atemp>30.0</ns3:atemp>
            <ns3:hr>66</ns3:hr>
          </ns3:TrackPointExtension>
        </extensions>
      </trkpt>
      <trkpt lat="31.42256685532629489898681640625" lon="119.4919501058757305145263671875">
        <ele>1.7999999523162841796875</ele>
        <time>2018-08-20T12:15:48.000Z</time>
        <extensions>
          <ns3:TrackPointExtension>
            <ns3:atemp>30.0</ns3:atemp>
            <ns3:hr>65</ns3:hr>
          </ns3:TrackPointExtension>
        </extensions>
      </trkpt>
      <trkpt lat="31.4226246066391468048095703125" lon="119.49199855327606201171875">
        <ele>1.7999999523162841796875</ele>
        <time>2018-08-20T12:15:49.000Z</time>
        <extensions>
          <ns3:TrackPointExtension>
            <ns3:atemp>30.0</ns3:atemp>
            <ns3:hr>64</ns3:hr>
          </ns3:TrackPointExtension>
        </extensions>
      </trkpt>
      <trkpt lat="31.42267607152462005615234375" lon="119.49204725213348865509033203125">
        <ele>1.60000002384185791015625</ele>
        <time>2018-08-20T12:15:50.000Z</time>
        <extensions>
          <ns3:TrackPointExtension>
            <ns3:atemp>30.0</ns3:atemp>
            <ns3:hr>64</ns3:hr>
          </ns3:TrackPointExtension>
        </extensions>
      </trkpt>
      <trkpt lat="31.4227315597236156463623046875" lon="119.49209905229508876800537109375">
        <ele>1.60000002384185791015625</ele>
        <time>2018-08-20T12:15:51.000Z</time>
        <extensions>
          <ns3:TrackPointExtension>
            <ns3:atemp>30.0</ns3:atemp>
            <ns3:hr>63</ns3:hr>
          </ns3:TrackPointExtension>
        </extensions>
      </trkpt>
      <trkpt lat="31.4227885566651821136474609375" lon="119.4921554625034332275390625">
        <ele>1.60000002384185791015625</ele>
        <time>2018-08-20T12:15:52.000Z</time>
        <extensions>
          <ns3:TrackPointExtension>
            <ns3:atemp>30.0</ns3:atemp>
            <ns3:hr>63</ns3:hr>
          </ns3:TrackPointExtension>
        </extensions>
      </trkpt>
      <trkpt lat="31.42284831963479518890380859375" lon="119.49221321381628513336181640625">
        <ele>1.60000002384185791015625</ele>
        <time>2018-08-20T12:15:53.000Z</time>
        <extensions>
          <ns3:TrackPointExtension>
            <ns3:atemp>30.0</ns3:atemp>
            <ns3:hr>64</ns3:hr>
          </ns3:TrackPointExtension>
        </extensions>
      </trkpt>
      <trkpt lat="31.4229105971753597259521484375" lon="119.4922723062336444854736328125">
        <ele>1.60000002384185791015625</ele>
        <time>2018-08-20T12:15:54.000Z</time>
        <extensions>
          <ns3:TrackPointExtension>
            <ns3:atemp>30.0</ns3:atemp>
            <ns3:hr>65</ns3:hr>
          </ns3:TrackPointExtension>
        </extensions>
      </trkpt>
      <trkpt lat="31.42297455109655857086181640625" lon="119.49233374558389186859130859375">
        <ele>1.60000002384185791015625</ele>
        <time>2018-08-20T12:15:55.000Z</time>
        <extensions>
          <ns3:TrackPointExtension>
            <ns3:atemp>30.0</ns3:atemp>
            <ns3:hr>66</ns3:hr>
          </ns3:TrackPointExtension>
        </extensions>
      </trkpt>
      <trkpt lat="31.4230380021035671234130859375" lon="119.49239753186702728271484375">
        <ele>1.60000002384185791015625</ele>
        <time>2018-08-20T12:15:56.000Z</time>
        <extensions>
          <ns3:TrackPointExtension>
            <ns3:atemp>30.0</ns3:atemp>
            <ns3:hr>66</ns3:hr>
          </ns3:TrackPointExtension>
        </extensions>
      </trkpt>
      <trkpt lat="31.4230943284928798675537109375" lon="119.49245712719857692718505859375">
        <ele>1.60000002384185791015625</ele>
        <time>2018-08-20T12:15:57.000Z</time>
        <extensions>
          <ns3:TrackPointExtension>
            <ns3:atemp>30.0</ns3:atemp>
            <ns3:hr>67</ns3:hr>
          </ns3:TrackPointExtension>
        </extensions>
      </trkpt>
      <trkpt lat="31.42315258271992206573486328125" lon="119.49252099730074405670166015625">
        <ele>1.60000002384185791015625</ele>
        <time>2018-08-20T12:15:58.000Z</time>
        <extensions>
          <ns3:TrackPointExtension>
            <ns3:atemp>30.0</ns3:atemp>
            <ns3:hr>67</ns3:hr>
          </ns3:TrackPointExtension>
        </extensions>
      </trkpt>
      <trkpt lat="31.4232133515179157257080078125" lon="119.49258930981159210205078125">
        <ele>1.60000002384185791015625</ele>
        <time>2018-08-20T12:15:59.000Z</time>
        <extensions>
          <ns3:TrackPointExtension>
            <ns3:atemp>30.0</ns3:atemp>
            <ns3:hr>67</ns3:hr>
          </ns3:TrackPointExtension>
        </extensions>
      </trkpt>
      <trkpt lat="31.42327747307717800140380859375" lon="119.4926583766937255859375">
        <ele>1.60000002384185791015625</ele>
        <time>2018-08-20T12:16:00.000Z</time>
        <extensions>
          <ns3:TrackPointExtension>
            <ns3:atemp>30.0</ns3:atemp>
            <ns3:hr>68</ns3:hr>
          </ns3:TrackPointExtension>
        </extensions>
      </trkpt>
      <trkpt lat="31.42334100790321826934814453125" lon="119.4927272759377956390380859375">
        <ele>1.60000002384185791015625</ele>
        <time>2018-08-20T12:16:01.000Z</time>
        <extensions>
          <ns3:TrackPointExtension>
            <ns3:atemp>30.0</ns3:atemp>
            <ns3:hr>69</ns3:hr>
          </ns3:TrackPointExtension>
        </extensions>
      </trkpt>
      <trkpt lat="31.423375122249126434326171875" lon="119.4927996955811977386474609375">
        <ele>1.60000002384185791015625</ele>
        <time>2018-08-20T12:16:02.000Z</time>
        <extensions>
          <ns3:TrackPointExtension>
            <ns3:atemp>30.0</ns3:atemp>
            <ns3:hr>69</ns3:hr>
          </ns3:TrackPointExtension>
        </extensions>
      </trkpt>
      <trkpt lat="31.42342583276331424713134765625" lon="119.49287722818553447723388671875">
        <ele>1.60000002384185791015625</ele>
        <time>2018-08-20T12:16:03.000Z</time>
        <extensions>
          <ns3:TrackPointExtension>
            <ns3:atemp>30.0</ns3:atemp>
            <ns3:hr>68</ns3:hr>
          </ns3:TrackPointExtension>
        </extensions>
      </trkpt>
      <trkpt lat="31.4234805665910243988037109375" lon="119.49295367114245891571044921875">
        <ele>1.60000002384185791015625</ele>
        <time>2018-08-20T12:16:04.000Z</time>
        <extensions>
          <ns3:TrackPointExtension>
            <ns3:atemp>30.0</ns3:atemp>
            <ns3:hr>66</ns3:hr>
          </ns3:TrackPointExtension>
        </extensions>
      </trkpt>
      <trkpt lat="31.4235382340848445892333984375" lon="119.49303044937551021575927734375">
        <ele>1.60000002384185791015625</ele>
        <time>2018-08-20T12:16:05.000Z</time>
        <extensions>
          <ns3:TrackPointExtension>
            <ns3:atemp>30.0</ns3:atemp>
            <ns3:hr>65</ns3:hr>
          </ns3:TrackPointExtension>
        </extensions>
      </trkpt>
      <trkpt lat="31.423597745597362518310546875" lon="119.4931037910282611846923828125">
        <ele>1.60000002384185791015625</ele>
        <time>2018-08-20T12:16:06.000Z</time>
        <extensions>
          <ns3:TrackPointExtension>
            <ns3:atemp>30.0</ns3:atemp>
            <ns3:hr>66</ns3:hr>
          </ns3:TrackPointExtension>
        </extensions>
      </trkpt>
      <trkpt lat="31.42365532927215099334716796875" lon="119.493177719414234161376953125">
        <ele>1.60000002384185791015625</ele>
        <time>2018-08-20T12:16:07.000Z</time>
        <extensions>
          <ns3:TrackPointExtension>
            <ns3:atemp>30.0</ns3:atemp>
            <ns3:hr>66</ns3:hr>
          </ns3:TrackPointExtension>
        </extensions>
      </trkpt>
      <trkpt lat="31.4237075485289096832275390625" lon="119.49325525201857089996337890625">
        <ele>1.60000002384185791015625</ele>
        <time>2018-08-20T12:16:08.000Z</time>
        <extensions>
          <ns3:TrackPointExtension>
            <ns3:atemp>30.0</ns3:atemp>
            <ns3:hr>64</ns3:hr>
          </ns3:TrackPointExtension>
        </extensions>
      </trkpt>
      <trkpt lat="31.42375825904309749603271484375" lon="119.49333370663225650787353515625">
        <ele>1.60000002384185791015625</ele>
        <time>2018-08-20T12:16:09.000Z</time>
        <extensions>
          <ns3:TrackPointExtension>
            <ns3:atemp>30.0</ns3:atemp>
            <ns3:hr>66</ns3:hr>
          </ns3:TrackPointExtension>
        </extensions>
      </trkpt>
      <trkpt lat="31.42381106503307819366455078125" lon="119.4934080541133880615234375">
        <ele>1.60000002384185791015625</ele>
        <time>2018-08-20T12:16:10.000Z</time>
        <extensions>
          <ns3:TrackPointExtension>
            <ns3:atemp>30.0</ns3:atemp>
            <ns3:hr>66</ns3:hr>
          </ns3:TrackPointExtension>
        </extensions>
      </trkpt>
      <trkpt lat="31.42387426458299160003662109375" lon="119.49347267858684062957763671875">
        <ele>1.60000002384185791015625</ele>
        <time>2018-08-20T12:16:11.000Z</time>
        <extensions>
          <ns3:TrackPointExtension>
            <ns3:atemp>30.0</ns3:atemp>
            <ns3:hr>66</ns3:hr>
          </ns3:TrackPointExtension>
        </extensions>
      </trkpt>
      <trkpt lat="31.4239362068474292755126953125" lon="119.49353688396513462066650390625">
        <ele>1.60000002384185791015625</ele>
        <time>2018-08-20T12:16:12.000Z</time>
        <extensions>
          <ns3:TrackPointExtension>
            <ns3:atemp>30.0</ns3:atemp>
            <ns3:hr>66</ns3:hr>
          </ns3:TrackPointExtension>
        </extensions>
      </trkpt>
      <trkpt lat="31.4240042679011821746826171875" lon="119.4935973174870014190673828125">
        <ele>1.60000002384185791015625</ele>
        <time>2018-08-20T12:16:13.000Z</time>
        <extensions>
          <ns3:TrackPointExtension>
            <ns3:atemp>30.0</ns3:atemp>
            <ns3:hr>66</ns3:hr>
          </ns3:TrackPointExtension>
        </extensions>
      </trkpt>
      <trkpt lat="31.42406268976628780364990234375" lon="119.49366596527397632598876953125">
        <ele>1.60000002384185791015625</ele>
        <time>2018-08-20T12:16:14.000Z</time>
        <extensions>
          <ns3:TrackPointExtension>
            <ns3:atemp>30.0</ns3:atemp>
            <ns3:hr>65</ns3:hr>
          </ns3:TrackPointExtension>
        </extensions>
      </trkpt>
      <trkpt lat="31.424121446907520294189453125" lon="119.49373461306095123291015625">
        <ele>1.60000002384185791015625</ele>
        <time>2018-08-20T12:16:15.000Z</time>
        <extensions>
          <ns3:TrackPointExtension>
            <ns3:atemp>30.0</ns3:atemp>
            <ns3:hr>65</ns3:hr>
          </ns3:TrackPointExtension>
        </extensions>
      </trkpt>
      <trkpt lat="31.42418213188648223876953125" lon="119.49380124919116497039794921875">
        <ele>1.60000002384185791015625</ele>
        <time>2018-08-20T12:16:16.000Z</time>
        <extensions>
          <ns3:TrackPointExtension>
            <ns3:atemp>30.0</ns3:atemp>
            <ns3:hr>64</ns3:hr>
          </ns3:TrackPointExtension>
        </extensions>
      </trkpt>
      <trkpt lat="31.42424323596060276031494140625" lon="119.493867717683315277099609375">
        <ele>1.60000002384185791015625</ele>
        <time>2018-08-20T12:16:17.000Z</time>
        <extensions>
          <ns3:TrackPointExtension>
            <ns3:atemp>30.0</ns3:atemp>
            <ns3:hr>64</ns3:hr>
          </ns3:TrackPointExtension>
        </extensions>
      </trkpt>
      <trkpt lat="31.42430283129215240478515625" lon="119.493935443460941314697265625">
        <ele>1.60000002384185791015625</ele>
        <time>2018-08-20T12:16:18.000Z</time>
        <extensions>
          <ns3:TrackPointExtension>
            <ns3:atemp>30.0</ns3:atemp>
            <ns3:hr>65</ns3:hr>
          </ns3:TrackPointExtension>
        </extensions>
      </trkpt>
      <trkpt lat="31.42436360009014606475830078125" lon="119.49400174431502819061279296875">
        <ele>1.60000002384185791015625</ele>
        <time>2018-08-20T12:16:19.000Z</time>
        <extensions>
          <ns3:TrackPointExtension>
            <ns3:atemp>30.0</ns3:atemp>
            <ns3:hr>66</ns3:hr>
          </ns3:TrackPointExtension>
        </extensions>
      </trkpt>
      <trkpt lat="31.42442495562136173248291015625" lon="119.49406863190233707427978515625">
        <ele>1.60000002384185791015625</ele>
        <time>2018-08-20T12:16:20.000Z</time>
        <extensions>
          <ns3:TrackPointExtension>
            <ns3:atemp>30.0</ns3:atemp>
            <ns3:hr>67</ns3:hr>
          </ns3:TrackPointExtension>
        </extensions>
      </trkpt>
      <trkpt lat="31.4244843833148479461669921875" lon="119.4941367767751216888427734375">
        <ele>1.60000002384185791015625</ele>
        <time>2018-08-20T12:16:21.000Z</time>
        <extensions>
          <ns3:TrackPointExtension>
            <ns3:atemp>30.0</ns3:atemp>
            <ns3:hr>67</ns3:hr>
          </ns3:TrackPointExtension>
        </extensions>
      </trkpt>
      <trkpt lat="31.42454020678997039794921875" lon="119.4942061789333820343017578125">
        <ele>1.60000002384185791015625</ele>
        <time>2018-08-20T12:16:22.000Z</time>
        <extensions>
          <ns3:TrackPointExtension>
            <ns3:atemp>30.0</ns3:atemp>
            <ns3:hr>68</ns3:hr>
          </ns3:TrackPointExtension>
        </extensions>
      </trkpt>
      <trkpt lat="31.42459385097026824951171875" lon="119.49427641928195953369140625">
        <ele>1.60000002384185791015625</ele>
        <time>2018-08-20T12:16:23.000Z</time>
        <extensions>
          <ns3:TrackPointExtension>
            <ns3:atemp>30.0</ns3:atemp>
            <ns3:hr>68</ns3:hr>
          </ns3:TrackPointExtension>
        </extensions>
      </trkpt>
      <trkpt lat="31.42464556731283664703369140625" lon="119.494347162544727325439453125">
        <ele>1.60000002384185791015625</ele>
        <time>2018-08-20T12:16:24.000Z</time>
        <extensions>
          <ns3:TrackPointExtension>
            <ns3:atemp>30.0</ns3:atemp>
            <ns3:hr>68</ns3:hr>
          </ns3:TrackPointExtension>
        </extensions>
      </trkpt>
      <trkpt lat="31.42470088787376880645751953125" lon="119.494417570531368255615234375">
        <ele>1.60000002384185791015625</ele>
        <time>2018-08-20T12:16:25.000Z</time>
        <extensions>
          <ns3:TrackPointExtension>
            <ns3:atemp>30.0</ns3:atemp>
            <ns3:hr>68</ns3:hr>
          </ns3:TrackPointExtension>
        </extensions>
      </trkpt>
      <trkpt lat="31.42475687898695468902587890625" lon="119.49448873288929462432861328125">
        <ele>1.60000002384185791015625</ele>
        <time>2018-08-20T12:16:26.000Z</time>
        <extensions>
          <ns3:TrackPointExtension>
            <ns3:atemp>30.0</ns3:atemp>
            <ns3:hr>67</ns3:hr>
          </ns3:TrackPointExtension>
        </extensions>
      </trkpt>
      <trkpt lat="31.4248149655759334564208984375" lon="119.4945615716278553009033203125">
        <ele>1.60000002384185791015625</ele>
        <time>2018-08-20T12:16:27.000Z</time>
        <extensions>
          <ns3:TrackPointExtension>
            <ns3:atemp>30.0</ns3:atemp>
            <ns3:hr>67</ns3:hr>
          </ns3:TrackPointExtension>
        </extensions>
      </trkpt>
      <trkpt lat="31.42487405799329280853271484375" lon="119.49463692493736743927001953125">
        <ele>1.60000002384185791015625</ele>
        <time>2018-08-20T12:16:28.000Z</time>
        <extensions>
          <ns3:TrackPointExtension>
            <ns3:atemp>30.0</ns3:atemp>
            <ns3:hr>67</ns3:hr>
          </ns3:TrackPointExtension>
        </extensions>
      </trkpt>
      <trkpt lat="31.42493172548711299896240234375" lon="119.49471219442784786224365234375">
        <ele>1.60000002384185791015625</ele>
        <time>2018-08-20T12:16:29.000Z</time>
        <extensions>
          <ns3:TrackPointExtension>
            <ns3:atemp>30.0</ns3:atemp>
            <ns3:hr>67</ns3:hr>
          </ns3:TrackPointExtension>
        </extensions>
      </trkpt>
      <trkpt lat="31.42499207518994808197021484375" lon="119.49478880502283573150634765625">
        <ele>1.60000002384185791015625</ele>
        <time>2018-08-20T12:16:30.000Z</time>
        <extensions>
          <ns3:TrackPointExtension>
            <ns3:atemp>30.0</ns3:atemp>
            <ns3:hr>66</ns3:hr>
          </ns3:TrackPointExtension>
        </extensions>
      </trkpt>
      <trkpt lat="31.425051502883434295654296875" lon="119.494866169989109039306640625">
        <ele>1.60000002384185791015625</ele>
        <time>2018-08-20T12:16:31.000Z</time>
        <extensions>
          <ns3:TrackPointExtension>
            <ns3:atemp>30.0</ns3:atemp>
            <ns3:hr>67</ns3:hr>
          </ns3:TrackPointExtension>
        </extensions>
      </trkpt>
      <trkpt lat="31.42512132413685321807861328125" lon="119.49492911808192729949951171875">
        <ele>1.60000002384185791015625</ele>
        <time>2018-08-20T12:16:32.000Z</time>
        <extensions>
          <ns3:TrackPointExtension>
            <ns3:atemp>30.0</ns3:atemp>
            <ns3:hr>69</ns3:hr>
          </ns3:TrackPointExtension>
        </extensions>
      </trkpt>
      <trkpt lat="31.42518703825771808624267578125" lon="119.49498452246189117431640625">
        <ele>1.60000002384185791015625</ele>
        <time>2018-08-20T12:16:33.000Z</time>
        <extensions>
          <ns3:TrackPointExtension>
            <ns3:atemp>30.0</ns3:atemp>
            <ns3:hr>70</ns3:hr>
          </ns3:TrackPointExtension>
        </extensions>
      </trkpt>
      <trkpt lat="31.4252568595111370086669921875" lon="119.495029114186763763427734375">
        <ele>1.60000002384185791015625</ele>
        <time>2018-08-20T12:16:34.000Z</time>
        <extensions>
          <ns3:TrackPointExtension>
            <ns3:atemp>30.0</ns3:atemp>
            <ns3:hr>72</ns3:hr>
          </ns3:TrackPointExtension>
        </extensions>
      </trkpt>
      <trkpt lat="31.42532601021230220794677734375" lon="119.49507093988358974456787109375">
        <ele>1.60000002384185791015625</ele>
        <time>2018-08-20T12:16:35.000Z</time>
        <extensions>
          <ns3:TrackPointExtension>
            <ns3:atemp>30.0</ns3:atemp>
            <ns3:hr>73</ns3:hr>
          </ns3:TrackPointExtension>
        </extensions>
      </trkpt>
      <trkpt lat="31.42539390362799167633056640625" lon="119.49511435814201831817626953125">
        <ele>1.60000002384185791015625</ele>
        <time>2018-08-20T12:16:36.000Z</time>
        <extensions>
          <ns3:TrackPointExtension>
            <ns3:atemp>30.0</ns3:atemp>
            <ns3:hr>74</ns3:hr>
          </ns3:TrackPointExtension>
        </extensions>
      </trkpt>
      <trkpt lat="31.42546280287206172943115234375" lon="119.4951622188091278076171875">
        <ele>1.60000002384185791015625</ele>
        <time>2018-08-20T12:16:37.000Z</time>
        <extensions>
          <ns3:TrackPointExtension>
            <ns3:atemp>30.0</ns3:atemp>
            <ns3:hr>74</ns3:hr>
          </ns3:TrackPointExtension>
        </extensions>
      </trkpt>
      <trkpt lat="31.42553119920194149017333984375" lon="119.4952126778662204742431640625">
        <ele>1.60000002384185791015625</ele>
        <time>2018-08-20T12:16:38.000Z</time>
        <extensions>
          <ns3:TrackPointExtension>
            <ns3:atemp>30.0</ns3:atemp>
            <ns3:hr>74</ns3:hr>
          </ns3:TrackPointExtension>
        </extensions>
      </trkpt>
      <trkpt lat="31.42560026608407497406005859375" lon="119.4952656514942646026611328125">
        <ele>1.60000002384185791015625</ele>
        <time>2018-08-20T12:16:39.000Z</time>
        <extensions>
          <ns3:TrackPointExtension>
            <ns3:atemp>30.0</ns3:atemp>
            <ns3:hr>73</ns3:hr>
          </ns3:TrackPointExtension>
        </extensions>
      </trkpt>
      <trkpt lat="31.42567402683198451995849609375" lon="119.4953172840178012847900390625">
        <ele>1.60000002384185791015625</ele>
        <time>2018-08-20T12:16:40.000Z</time>
        <extensions>
          <ns3:TrackPointExtension>
            <ns3:atemp>30.0</ns3:atemp>
            <ns3:hr>73</ns3:hr>
          </ns3:TrackPointExtension>
        </extensions>
      </trkpt>
      <trkpt lat="31.42574443481862545013427734375" lon="119.495370090007781982421875">
        <ele>1.60000002384185791015625</ele>
        <time>2018-08-20T12:16:41.000Z</time>
        <extensions>
          <ns3:TrackPointExtension>
            <ns3:atemp>30.0</ns3:atemp>
            <ns3:hr>73</ns3:hr>
          </ns3:TrackPointExtension>
        </extensions>
      </trkpt>
      <trkpt lat="31.42581283114850521087646484375" lon="119.49542063288390636444091796875">
        <ele>1.60000002384185791015625</ele>
        <time>2018-08-20T12:16:42.000Z</time>
        <extensions>
          <ns3:TrackPointExtension>
            <ns3:atemp>30.0</ns3:atemp>
            <ns3:hr>72</ns3:hr>
          </ns3:TrackPointExtension>
        </extensions>
      </trkpt>
      <trkpt lat="31.4258834905922412872314453125" lon="119.495469667017459869384765625">
        <ele>1.60000002384185791015625</ele>
        <time>2018-08-20T12:16:43.000Z</time>
        <extensions>
          <ns3:TrackPointExtension>
            <ns3:atemp>30.0</ns3:atemp>
            <ns3:hr>71</ns3:hr>
          </ns3:TrackPointExtension>
        </extensions>
      </trkpt>
      <trkpt lat="31.4259557425975799560546875" lon="119.49551937170326709747314453125">
        <ele>1.60000002384185791015625</ele>
        <time>2018-08-20T12:16:44.000Z</time>
        <extensions>
          <ns3:TrackPointExtension>
            <ns3:atemp>30.0</ns3:atemp>
            <ns3:hr>70</ns3:hr>
          </ns3:TrackPointExtension>
        </extensions>
      </trkpt>
      <trkpt lat="31.42602824606001377105712890625" lon="119.49556781910359859466552734375">
        <ele>1.39999997615814208984375</ele>
        <time>2018-08-20T12:16:45.000Z</time>
        <extensions>
          <ns3:TrackPointExtension>
            <ns3:atemp>30.0</ns3:atemp>
            <ns3:hr>70</ns3:hr>
          </ns3:TrackPointExtension>
        </extensions>
      </trkpt>
      <trkpt lat="31.42610334791243076324462890625" lon="119.4956109859049320220947265625">
        <ele>1.39999997615814208984375</ele>
        <time>2018-08-20T12:16:46.000Z</time>
        <extensions>
          <ns3:TrackPointExtension>
            <ns3:atemp>30.0</ns3:atemp>
            <ns3:hr>70</ns3:hr>
          </ns3:TrackPointExtension>
        </extensions>
      </trkpt>
      <trkpt lat="31.426182053983211517333984375" lon="119.49565029703080654144287109375">
        <ele>1.39999997615814208984375</ele>
        <time>2018-08-20T12:16:47.000Z</time>
        <extensions>
          <ns3:TrackPointExtension>
            <ns3:atemp>30.0</ns3:atemp>
            <ns3:hr>70</ns3:hr>
          </ns3:TrackPointExtension>
        </extensions>
      </trkpt>
      <trkpt lat="31.4262630231678485870361328125" lon="119.49568483047187328338623046875">
        <ele>1.39999997615814208984375</ele>
        <time>2018-08-20T12:16:48.000Z</time>
        <extensions>
          <ns3:TrackPointExtension>
            <ns3:atemp>30.0</ns3:atemp>
            <ns3:hr>70</ns3:hr>
          </ns3:TrackPointExtension>
        </extensions>
      </trkpt>
      <trkpt lat="31.42634508199989795684814453125" lon="119.49571634642779827117919921875">
        <ele>1.39999997615814208984375</ele>
        <time>2018-08-20T12:16:49.000Z</time>
        <extensions>
          <ns3:TrackPointExtension>
            <ns3:atemp>30.0</ns3:atemp>
            <ns3:hr>70</ns3:hr>
          </ns3:TrackPointExtension>
        </extensions>
      </trkpt>
      <trkpt lat="31.4264266379177570343017578125" lon="119.49574652127921581268310546875">
        <ele>1.39999997615814208984375</ele>
        <time>2018-08-20T12:16:50.000Z</time>
        <extensions>
          <ns3:TrackPointExtension>
            <ns3:atemp>30.0</ns3:atemp>
            <ns3:hr>70</ns3:hr>
          </ns3:TrackPointExtension>
        </extensions>
      </trkpt>
      <trkpt lat="31.42650836147367954254150390625" lon="119.49577401392161846160888671875">
        <ele>1.39999997615814208984375</ele>
        <time>2018-08-20T12:16:51.000Z</time>
        <extensions>
          <ns3:TrackPointExtension>
            <ns3:atemp>30.0</ns3:atemp>
            <ns3:hr>70</ns3:hr>
          </ns3:TrackPointExtension>
        </extensions>
      </trkpt>
      <trkpt lat="31.42659008502960205078125" lon="119.49580259621143341064453125">
        <ele>1.39999997615814208984375</ele>
        <time>2018-08-20T12:16:52.000Z</time>
        <extensions>
          <ns3:TrackPointExtension>
            <ns3:atemp>30.0</ns3:atemp>
            <ns3:hr>70</ns3:hr>
          </ns3:TrackPointExtension>
        </extensions>
      </trkpt>
      <trkpt lat="31.4266727305948734283447265625" lon="119.49582916684448719024658203125">
        <ele>1.39999997615814208984375</ele>
        <time>2018-08-20T12:16:53.000Z</time>
        <extensions>
          <ns3:TrackPointExtension>
            <ns3:atemp>30.0</ns3:atemp>
            <ns3:hr>70</ns3:hr>
          </ns3:TrackPointExtension>
        </extensions>
      </trkpt>
      <trkpt lat="31.42675361596047878265380859375" lon="119.4958560727536678314208984375">
        <ele>1.39999997615814208984375</ele>
        <time>2018-08-20T12:16:54.000Z</time>
        <extensions>
          <ns3:TrackPointExtension>
            <ns3:atemp>30.0</ns3:atemp>
            <ns3:hr>70</ns3:hr>
          </ns3:TrackPointExtension>
        </extensions>
      </trkpt>
      <trkpt lat="31.4268333278596401214599609375" lon="119.4958862476050853729248046875">
        <ele>1.39999997615814208984375</ele>
        <time>2018-08-20T12:16:55.000Z</time>
        <extensions>
          <ns3:TrackPointExtension>
            <ns3:atemp>30.0</ns3:atemp>
            <ns3:hr>71</ns3:hr>
          </ns3:TrackPointExtension>
        </extensions>
      </trkpt>
      <trkpt lat="31.42691404558718204498291015625" lon="119.49592052958905696868896484375">
        <ele>1.39999997615814208984375</ele>
        <time>2018-08-20T12:16:56.000Z</time>
        <extensions>
          <ns3:TrackPointExtension>
            <ns3:atemp>30.0</ns3:atemp>
            <ns3:hr>71</ns3:hr>
          </ns3:TrackPointExtension>
        </extensions>
      </trkpt>
      <trkpt lat="31.42699585296213626861572265625" lon="119.49595539830625057220458984375">
        <ele>1.39999997615814208984375</ele>
        <time>2018-08-20T12:16:57.000Z</time>
        <extensions>
          <ns3:TrackPointExtension>
            <ns3:atemp>30.0</ns3:atemp>
            <ns3:hr>71</ns3:hr>
          </ns3:TrackPointExtension>
        </extensions>
      </trkpt>
      <trkpt lat="31.42707816325128078460693359375" lon="119.49598691426217555999755859375">
        <ele>1.39999997615814208984375</ele>
        <time>2018-08-20T12:16:58.000Z</time>
        <extensions>
          <ns3:TrackPointExtension>
            <ns3:atemp>30.0</ns3:atemp>
            <ns3:hr>71</ns3:hr>
          </ns3:TrackPointExtension>
        </extensions>
      </trkpt>
      <trkpt lat="31.4271612279117107391357421875" lon="119.49601650238037109375">
        <ele>1.39999997615814208984375</ele>
        <time>2018-08-20T12:16:59.000Z</time>
        <extensions>
          <ns3:TrackPointExtension>
            <ns3:atemp>30.0</ns3:atemp>
            <ns3:hr>71</ns3:hr>
          </ns3:TrackPointExtension>
        </extensions>
      </trkpt>
      <trkpt lat="31.42724496312439441680908203125" lon="119.49604525230824947357177734375">
        <ele>1.39999997615814208984375</ele>
        <time>2018-08-20T12:17:00.000Z</time>
        <extensions>
          <ns3:TrackPointExtension>
            <ns3:atemp>30.0</ns3:atemp>
            <ns3:hr>71</ns3:hr>
          </ns3:TrackPointExtension>
        </extensions>
      </trkpt>
      <trkpt lat="31.427327692508697509765625" lon="119.4960743375122547149658203125">
        <ele>1.39999997615814208984375</ele>
        <time>2018-08-20T12:17:01.000Z</time>
        <extensions>
          <ns3:TrackPointExtension>
            <ns3:atemp>30.0</ns3:atemp>
            <ns3:hr>68</ns3:hr>
          </ns3:TrackPointExtension>
        </extensions>
      </trkpt>
      <trkpt lat="31.4274106733500957489013671875" lon="119.4961021654307842254638671875">
        <ele>1.39999997615814208984375</ele>
        <time>2018-08-20T12:17:02.000Z</time>
        <extensions>
          <ns3:TrackPointExtension>
            <ns3:atemp>30.0</ns3:atemp>
            <ns3:hr>68</ns3:hr>
          </ns3:TrackPointExtension>
        </extensions>
      </trkpt>
      <trkpt lat="31.42749507911503314971923828125" lon="119.49612856842577457427978515625">
        <ele>1.2000000476837158203125</ele>
        <time>2018-08-20T12:17:03.000Z</time>
        <extensions>
          <ns3:TrackPointExtension>
            <ns3:atemp>30.0</ns3:atemp>
            <ns3:hr>68</ns3:hr>
          </ns3:TrackPointExtension>
        </extensions>
      </trkpt>
      <trkpt lat="31.42757956869900226593017578125" lon="119.49615455232560634613037109375">
        <ele>1.2000000476837158203125</ele>
        <time>2018-08-20T12:17:04.000Z</time>
        <extensions>
          <ns3:TrackPointExtension>
            <ns3:atemp>30.0</ns3:atemp>
            <ns3:hr>68</ns3:hr>
          </ns3:TrackPointExtension>
        </extensions>
      </trkpt>
      <trkpt lat="31.4276644773781299591064453125" lon="119.49617810547351837158203125">
        <ele>1.2000000476837158203125</ele>
        <time>2018-08-20T12:17:05.000Z</time>
        <extensions>
          <ns3:TrackPointExtension>
            <ns3:atemp>30.0</ns3:atemp>
            <ns3:hr>68</ns3:hr>
          </ns3:TrackPointExtension>
        </extensions>
      </trkpt>
      <trkpt lat="31.42774854786694049835205078125" lon="119.496201239526271820068359375">
        <ele>1.2000000476837158203125</ele>
        <time>2018-08-20T12:17:06.000Z</time>
        <extensions>
          <ns3:TrackPointExtension>
            <ns3:atemp>30.0</ns3:atemp>
            <ns3:hr>68</ns3:hr>
          </ns3:TrackPointExtension>
        </extensions>
      </trkpt>
      <trkpt lat="31.42783119343221187591552734375" lon="119.49622638523578643798828125">
        <ele>1.2000000476837158203125</ele>
        <time>2018-08-20T12:17:07.000Z</time>
        <extensions>
          <ns3:TrackPointExtension>
            <ns3:atemp>30.0</ns3:atemp>
            <ns3:hr>68</ns3:hr>
          </ns3:TrackPointExtension>
        </extensions>
      </trkpt>
      <trkpt lat="31.42791635356843471527099609375" lon="119.4962470047175884246826171875">
        <ele>1.2000000476837158203125</ele>
        <time>2018-08-20T12:17:08.000Z</time>
        <extensions>
          <ns3:TrackPointExtension>
            <ns3:atemp>30.0</ns3:atemp>
            <ns3:hr>68</ns3:hr>
          </ns3:TrackPointExtension>
        </extensions>
      </trkpt>
      <trkpt lat="31.42800117842853069305419921875" lon="119.496265947818756103515625">
        <ele>1.2000000476837158203125</ele>
        <time>2018-08-20T12:17:09.000Z</time>
        <extensions>
          <ns3:TrackPointExtension>
            <ns3:atemp>30.0</ns3:atemp>
            <ns3:hr>69</ns3:hr>
          </ns3:TrackPointExtension>
        </extensions>
      </trkpt>
      <trkpt lat="31.428084410727024078369140625" lon="119.496288411319255828857421875">
        <ele>1.2000000476837158203125</ele>
        <time>2018-08-20T12:17:10.000Z</time>
        <extensions>
          <ns3:TrackPointExtension>
            <ns3:atemp>30.0</ns3:atemp>
            <ns3:hr>69</ns3:hr>
          </ns3:TrackPointExtension>
        </extensions>
      </trkpt>
      <trkpt lat="31.4281680621206760406494140625" lon="119.49631565250456333160400390625">
        <ele>1.2000000476837158203125</ele>
        <time>2018-08-20T12:17:11.000Z</time>
        <extensions>
          <ns3:TrackPointExtension>
            <ns3:atemp>30.0</ns3:atemp>
            <ns3:hr>69</ns3:hr>
          </ns3:TrackPointExtension>
        </extensions>
      </trkpt>
      <trkpt lat="31.4282522164285182952880859375" lon="119.49634381569921970367431640625">
        <ele>1.2000000476837158203125</ele>
        <time>2018-08-20T12:17:12.000Z</time>
        <extensions>
          <ns3:TrackPointExtension>
            <ns3:atemp>30.0</ns3:atemp>
            <ns3:hr>69</ns3:hr>
          </ns3:TrackPointExtension>
        </extensions>
      </trkpt>
      <trkpt lat="31.428335867822170257568359375" lon="119.49637097306549549102783203125">
        <ele>1</ele>
        <time>2018-08-20T12:17:13.000Z</time>
        <extensions>
          <ns3:TrackPointExtension>
            <ns3:atemp>30.0</ns3:atemp>
            <ns3:hr>69</ns3:hr>
          </ns3:TrackPointExtension>
        </extensions>
      </trkpt>
      <trkpt lat="31.42842027358710765838623046875" lon="119.49639938771724700927734375">
        <ele>1</ele>
        <time>2018-08-20T12:17:14.000Z</time>
        <extensions>
          <ns3:TrackPointExtension>
            <ns3:atemp>30.0</ns3:atemp>
            <ns3:hr>69</ns3:hr>
          </ns3:TrackPointExtension>
        </extensions>
      </trkpt>
      <trkpt lat="31.42850291915237903594970703125" lon="119.49642956256866455078125">
        <ele>1</ele>
        <time>2018-08-20T12:17:15.000Z</time>
        <extensions>
          <ns3:TrackPointExtension>
            <ns3:atemp>30.0</ns3:atemp>
            <ns3:hr>67</ns3:hr>
          </ns3:TrackPointExtension>
        </extensions>
      </trkpt>
      <trkpt lat="31.42853158526122570037841796875" lon="119.49645227752625942230224609375">
        <ele>1</ele>
        <time>2018-08-20T12:17:16.000Z</time>
        <extensions>
          <ns3:TrackPointExtension>
            <ns3:atemp>30.0</ns3:atemp>
            <ns3:hr>66</ns3:hr>
          </ns3:TrackPointExtension>
        </extensions>
      </trkpt>
      <trkpt lat="31.4286334253847599029541015625" lon="119.4964887388050556182861328125">
        <ele>1</ele>
        <time>2018-08-20T12:17:17.000Z</time>
        <extensions>
          <ns3:TrackPointExtension>
            <ns3:atemp>30.0</ns3:atemp>
            <ns3:hr>65</ns3:hr>
          </ns3:TrackPointExtension>
        </extensions>
      </trkpt>
      <trkpt lat="31.4287269674241542816162109375" lon="119.4965194165706634521484375">
        <ele>1</ele>
        <time>2018-08-20T12:17:18.000Z</time>
        <extensions>
          <ns3:TrackPointExtension>
            <ns3:atemp>30.0</ns3:atemp>
            <ns3:hr>64</ns3:hr>
          </ns3:TrackPointExtension>
        </extensions>
      </trkpt>
      <trkpt lat="31.42881623469293117523193359375" lon="119.49654900468885898590087890625">
        <ele>1</ele>
        <time>2018-08-20T12:17:19.000Z</time>
        <extensions>
          <ns3:TrackPointExtension>
            <ns3:atemp>30.0</ns3:atemp>
            <ns3:hr>64</ns3:hr>
          </ns3:TrackPointExtension>
        </extensions>
      </trkpt>
      <trkpt lat="31.4289013110101222991943359375" lon="119.49657683260738849639892578125">
        <ele>1</ele>
        <time>2018-08-20T12:17:20.000Z</time>
        <extensions>
          <ns3:TrackPointExtension>
            <ns3:atemp>30.0</ns3:atemp>
            <ns3:hr>63</ns3:hr>
          </ns3:TrackPointExtension>
        </extensions>
      </trkpt>
      <trkpt lat="31.428982950747013092041015625" lon="119.49660013429820537567138671875">
        <ele>1</ele>
        <time>2018-08-20T12:17:21.000Z</time>
        <extensions>
          <ns3:TrackPointExtension>
            <ns3:atemp>30.0</ns3:atemp>
            <ns3:hr>63</ns3:hr>
          </ns3:TrackPointExtension>
        </extensions>
      </trkpt>
      <trkpt lat="31.42905746586620807647705078125" lon="119.4966211728751659393310546875">
        <ele>1</ele>
        <time>2018-08-20T12:17:22.000Z</time>
        <extensions>
          <ns3:TrackPointExtension>
            <ns3:atemp>30.0</ns3:atemp>
            <ns3:hr>63</ns3:hr>
          </ns3:TrackPointExtension>
        </extensions>
      </trkpt>
      <trkpt lat="31.4291195757687091827392578125" lon="119.49664288200438022613525390625">
        <ele>1</ele>
        <time>2018-08-20T12:17:23.000Z</time>
        <extensions>
          <ns3:TrackPointExtension>
            <ns3:atemp>30.0</ns3:atemp>
            <ns3:hr>63</ns3:hr>
          </ns3:TrackPointExtension>
        </extensions>
      </trkpt>
      <trkpt lat="31.4291718788444995880126953125" lon="119.4966694526374340057373046875">
        <ele>0.800000011920928955078125</ele>
        <time>2018-08-20T12:17:24.000Z</time>
        <extensions>
          <ns3:TrackPointExtension>
            <ns3:atemp>30.0</ns3:atemp>
            <ns3:hr>63</ns3:hr>
          </ns3:TrackPointExtension>
        </extensions>
      </trkpt>
      <trkpt lat="31.42920968122780323028564453125" lon="119.4967096857726573944091796875">
        <ele>0.800000011920928955078125</ele>
        <time>2018-08-20T12:17:25.000Z</time>
        <extensions>
          <ns3:TrackPointExtension>
            <ns3:atemp>30.0</ns3:atemp>
            <ns3:hr>63</ns3:hr>
          </ns3:TrackPointExtension>
        </extensions>
      </trkpt>
      <trkpt lat="31.429241783916950225830078125" lon="119.49676224030554294586181640625">
        <ele>0.800000011920928955078125</ele>
        <time>2018-08-20T12:17:26.000Z</time>
        <extensions>
          <ns3:TrackPointExtension>
            <ns3:atemp>30.0</ns3:atemp>
            <ns3:hr>63</ns3:hr>
          </ns3:TrackPointExtension>
        </extensions>
      </trkpt>
      <trkpt lat="31.4292580448091030120849609375" lon="119.49683281593024730682373046875">
        <ele>0.800000011920928955078125</ele>
        <time>2018-08-20T12:17:27.000Z</time>
        <extensions>
          <ns3:TrackPointExtension>
            <ns3:atemp>30.0</ns3:atemp>
            <ns3:hr>63</ns3:hr>
          </ns3:TrackPointExtension>
        </extensions>
      </trkpt>
      <trkpt lat="31.42926164902746677398681640625" lon="119.4969172216951847076416015625">
        <ele>0.800000011920928955078125</ele>
        <time>2018-08-20T12:17:28.000Z</time>
        <extensions>
          <ns3:TrackPointExtension>
            <ns3:atemp>30.0</ns3:atemp>
            <ns3:hr>63</ns3:hr>
          </ns3:TrackPointExtension>
        </extensions>
      </trkpt>
      <trkpt lat="31.4292620681226253509521484375" lon="119.4970084168016910552978515625">
        <ele>0.800000011920928955078125</ele>
        <time>2018-08-20T12:17:29.000Z</time>
        <extensions>
          <ns3:TrackPointExtension>
            <ns3:atemp>30.0</ns3:atemp>
            <ns3:hr>63</ns3:hr>
          </ns3:TrackPointExtension>
        </extensions>
      </trkpt>
      <trkpt lat="31.42926533706486225128173828125" lon="119.49710304848849773406982421875">
        <ele>0.800000011920928955078125</ele>
        <time>2018-08-20T12:17:30.000Z</time>
        <extensions>
          <ns3:TrackPointExtension>
            <ns3:atemp>30.0</ns3:atemp>
            <ns3:hr>62</ns3:hr>
          </ns3:TrackPointExtension>
        </extensions>
      </trkpt>
      <trkpt lat="31.42927288077771663665771484375" lon="119.49719591997563838958740234375">
        <ele>0.800000011920928955078125</ele>
        <time>2018-08-20T12:17:31.000Z</time>
        <extensions>
          <ns3:TrackPointExtension>
            <ns3:atemp>30.0</ns3:atemp>
            <ns3:hr>64</ns3:hr>
          </ns3:TrackPointExtension>
        </extensions>
      </trkpt>
      <trkpt lat="31.42928444780409336090087890625" lon="119.49728024192154407501220703125">
        <ele>0.800000011920928955078125</ele>
        <time>2018-08-20T12:17:32.000Z</time>
        <extensions>
          <ns3:TrackPointExtension>
            <ns3:atemp>30.0</ns3:atemp>
            <ns3:hr>65</ns3:hr>
          </ns3:TrackPointExtension>
        </extensions>
      </trkpt>
      <trkpt lat="31.42929735593497753143310546875" lon="119.49734696187078952789306640625">
        <ele>0.800000011920928955078125</ele>
        <time>2018-08-20T12:17:33.000Z</time>
        <extensions>
          <ns3:TrackPointExtension>
            <ns3:atemp>30.0</ns3:atemp>
            <ns3:hr>65</ns3:hr>
          </ns3:TrackPointExtension>
        </extensions>
      </trkpt>
      <trkpt lat="31.429314874112606048583984375" lon="119.497394151985645294189453125">
        <ele>0.800000011920928955078125</ele>
        <time>2018-08-20T12:17:34.000Z</time>
        <extensions>
          <ns3:TrackPointExtension>
            <ns3:atemp>30.0</ns3:atemp>
            <ns3:hr>66</ns3:hr>
          </ns3:TrackPointExtension>
        </extensions>
      </trkpt>
      <trkpt lat="31.4293433725833892822265625" lon="119.497420974075794219970703125">
        <ele>0.800000011920928955078125</ele>
        <time>2018-08-20T12:17:35.000Z</time>
        <extensions>
          <ns3:TrackPointExtension>
            <ns3:atemp>30.0</ns3:atemp>
            <ns3:hr>67</ns3:hr>
          </ns3:TrackPointExtension>
        </extensions>
      </trkpt>
      <trkpt lat="31.4293888024985790252685546875" lon="119.4974275119602680206298828125">
        <ele>0.800000011920928955078125</ele>
        <time>2018-08-20T12:17:36.000Z</time>
        <extensions>
          <ns3:TrackPointExtension>
            <ns3:atemp>30.0</ns3:atemp>
            <ns3:hr>69</ns3:hr>
          </ns3:TrackPointExtension>
        </extensions>
      </trkpt>
      <trkpt lat="31.429441273212432861328125" lon="119.49742474593222141265869140625">
        <ele>0.800000011920928955078125</ele>
        <time>2018-08-20T12:17:37.000Z</time>
        <extensions>
          <ns3:TrackPointExtension>
            <ns3:atemp>30.0</ns3:atemp>
            <ns3:hr>67</ns3:hr>
          </ns3:TrackPointExtension>
        </extensions>
      </trkpt>
      <trkpt lat="31.429500281810760498046875" lon="119.497418291866779327392578125">
        <ele>0.800000011920928955078125</ele>
        <time>2018-08-20T12:17:38.000Z</time>
        <extensions>
          <ns3:TrackPointExtension>
            <ns3:atemp>30.0</ns3:atemp>
            <ns3:hr>66</ns3:hr>
          </ns3:TrackPointExtension>
        </extensions>
      </trkpt>
      <trkpt lat="31.42956574447453022003173828125" lon="119.497411251068115234375">
        <ele>0.800000011920928955078125</ele>
        <time>2018-08-20T12:17:39.000Z</time>
        <extensions>
          <ns3:TrackPointExtension>
            <ns3:atemp>30.0</ns3:atemp>
            <ns3:hr>64</ns3:hr>
          </ns3:TrackPointExtension>
        </extensions>
      </trkpt>
      <trkpt lat="31.429637409746646881103515625" lon="119.497402869164943695068359375">
        <ele>0.800000011920928955078125</ele>
        <time>2018-08-20T12:17:40.000Z</time>
        <extensions>
          <ns3:TrackPointExtension>
            <ns3:atemp>30.0</ns3:atemp>
            <ns3:hr>66</ns3:hr>
          </ns3:TrackPointExtension>
        </extensions>
      </trkpt>
      <trkpt lat="31.42971024848520755767822265625" lon="119.4974023662507534027099609375">
        <ele>0.800000011920928955078125</ele>
        <time>2018-08-20T12:17:41.000Z</time>
        <extensions>
          <ns3:TrackPointExtension>
            <ns3:atemp>30.0</ns3:atemp>
            <ns3:hr>66</ns3:hr>
          </ns3:TrackPointExtension>
        </extensions>
      </trkpt>
      <trkpt lat="31.42978970892727375030517578125" lon="119.49739725328981876373291015625">
        <ele>0.800000011920928955078125</ele>
        <time>2018-08-20T12:17:42.000Z</time>
        <extensions>
          <ns3:TrackPointExtension>
            <ns3:atemp>30.0</ns3:atemp>
            <ns3:hr>67</ns3:hr>
          </ns3:TrackPointExtension>
        </extensions>
      </trkpt>
      <trkpt lat="31.429874114692211151123046875" lon="119.49738979339599609375">
        <ele>0.800000011920928955078125</ele>
        <time>2018-08-20T12:17:43.000Z</time>
        <extensions>
          <ns3:TrackPointExtension>
            <ns3:atemp>30.0</ns3:atemp>
            <ns3:hr>67</ns3:hr>
          </ns3:TrackPointExtension>
        </extensions>
      </trkpt>
      <trkpt lat="31.4299517311155796051025390625" lon="119.49738870374858379364013671875">
        <ele>0.800000011920928955078125</ele>
        <time>2018-08-20T12:17:44.000Z</time>
        <extensions>
          <ns3:TrackPointExtension>
            <ns3:atemp>30.0</ns3:atemp>
            <ns3:hr>68</ns3:hr>
          </ns3:TrackPointExtension>
        </extensions>
      </trkpt>
      <trkpt lat="31.43002792261540889739990234375" lon="119.4973919726908206939697265625">
        <ele>0.800000011920928955078125</ele>
        <time>2018-08-20T12:17:45.000Z</time>
        <extensions>
          <ns3:TrackPointExtension>
            <ns3:atemp>30.0</ns3:atemp>
            <ns3:hr>68</ns3:hr>
          </ns3:TrackPointExtension>
        </extensions>
      </trkpt>
      <trkpt lat="31.43009933643043041229248046875" lon="119.49739574454724788665771484375">
        <ele>0.800000011920928955078125</ele>
        <time>2018-08-20T12:17:46.000Z</time>
        <extensions>
          <ns3:TrackPointExtension>
            <ns3:atemp>30.0</ns3:atemp>
            <ns3:hr>69</ns3:hr>
          </ns3:TrackPointExtension>
        </extensions>
      </trkpt>
      <trkpt lat="31.43017427064478397369384765625" lon="119.4973884522914886474609375">
        <ele>0.800000011920928955078125</ele>
        <time>2018-08-20T12:17:47.000Z</time>
        <extensions>
          <ns3:TrackPointExtension>
            <ns3:atemp>30.0</ns3:atemp>
            <ns3:hr>69</ns3:hr>
          </ns3:TrackPointExtension>
        </extensions>
      </trkpt>
      <trkpt lat="31.4302445948123931884765625" lon="119.4973829202353954315185546875">
        <ele>0.800000011920928955078125</ele>
        <time>2018-08-20T12:17:48.000Z</time>
        <extensions>
          <ns3:TrackPointExtension>
            <ns3:atemp>30.0</ns3:atemp>
            <ns3:hr>70</ns3:hr>
          </ns3:TrackPointExtension>
        </extensions>
      </trkpt>
      <trkpt lat="31.43030653707683086395263671875" lon="119.4973790645599365234375">
        <ele>0.800000011920928955078125</ele>
        <time>2018-08-20T12:17:49.000Z</time>
        <extensions>
          <ns3:TrackPointExtension>
            <ns3:atemp>30.0</ns3:atemp>
            <ns3:hr>71</ns3:hr>
          </ns3:TrackPointExtension>
        </extensions>
      </trkpt>
      <trkpt lat="31.43036839552223682403564453125" lon="119.497372023761272430419921875">
        <ele>0.800000011920928955078125</ele>
        <time>2018-08-20T12:17:50.000Z</time>
        <extensions>
          <ns3:TrackPointExtension>
            <ns3:atemp>30.0</ns3:atemp>
            <ns3:hr>72</ns3:hr>
          </ns3:TrackPointExtension>
        </extensions>
      </trkpt>
      <trkpt lat="31.43042522482573986053466796875" lon="119.49736104346811771392822265625">
        <ele>0.800000011920928955078125</ele>
        <time>2018-08-20T12:17:51.000Z</time>
        <extensions>
          <ns3:TrackPointExtension>
            <ns3:atemp>30.0</ns3:atemp>
            <ns3:hr>75</ns3:hr>
          </ns3:TrackPointExtension>
        </extensions>
      </trkpt>
      <trkpt lat="31.43047736026346683502197265625" lon="119.49734696187078952789306640625">
        <ele>0.800000011920928955078125</ele>
        <time>2018-08-20T12:17:52.000Z</time>
        <extensions>
          <ns3:TrackPointExtension>
            <ns3:atemp>30.0</ns3:atemp>
            <ns3:hr>74</ns3:hr>
          </ns3:TrackPointExtension>
        </extensions>
      </trkpt>
      <trkpt lat="31.43054273910820484161376953125" lon="119.49733656831085681915283203125">
        <ele>0.800000011920928955078125</ele>
        <time>2018-08-20T12:17:53.000Z</time>
        <extensions>
          <ns3:TrackPointExtension>
            <ns3:atemp>30.0</ns3:atemp>
            <ns3:hr>75</ns3:hr>
          </ns3:TrackPointExtension>
        </extensions>
      </trkpt>
      <trkpt lat="31.430614404380321502685546875" lon="119.49732366017997264862060546875">
        <ele>0.800000011920928955078125</ele>
        <time>2018-08-20T12:17:54.000Z</time>
        <extensions>
          <ns3:TrackPointExtension>
            <ns3:atemp>30.0</ns3:atemp>
            <ns3:hr>74</ns3:hr>
          </ns3:TrackPointExtension>
        </extensions>
      </trkpt>
      <trkpt lat="31.4306873269379138946533203125" lon="119.49731695465743541717529296875">
        <ele>0.800000011920928955078125</ele>
        <time>2018-08-20T12:17:55.000Z</time>
        <extensions>
          <ns3:TrackPointExtension>
            <ns3:atemp>30.0</ns3:atemp>
            <ns3:hr>73</ns3:hr>
          </ns3:TrackPointExtension>
        </extensions>
      </trkpt>
      <trkpt lat="31.43074306659400463104248046875" lon="119.49730823747813701629638671875">
        <ele>0.800000011920928955078125</ele>
        <time>2018-08-20T12:17:56.000Z</time>
        <extensions>
          <ns3:TrackPointExtension>
            <ns3:atemp>30.0</ns3:atemp>
            <ns3:hr>74</ns3:hr>
          </ns3:TrackPointExtension>
        </extensions>
      </trkpt>
      <trkpt lat="31.43081783317029476165771484375" lon="119.49729884974658489227294921875">
        <ele>0.800000011920928955078125</ele>
        <time>2018-08-20T12:17:57.000Z</time>
        <extensions>
          <ns3:TrackPointExtension>
            <ns3:atemp>30.0</ns3:atemp>
            <ns3:hr>71</ns3:hr>
          </ns3:TrackPointExtension>
        </extensions>
      </trkpt>
      <trkpt lat="31.430900059640407562255859375" lon="119.497291557490825653076171875">
        <ele>0.800000011920928955078125</ele>
        <time>2018-08-20T12:17:58.000Z</time>
        <extensions>
          <ns3:TrackPointExtension>
            <ns3:atemp>30.0</ns3:atemp>
            <ns3:hr>71</ns3:hr>
          </ns3:TrackPointExtension>
        </extensions>
      </trkpt>
      <trkpt lat="31.43098865635693073272705078125" lon="119.49727839790284633636474609375">
        <ele>0.800000011920928955078125</ele>
        <time>2018-08-20T12:17:59.000Z</time>
        <extensions>
          <ns3:TrackPointExtension>
            <ns3:atemp>30.0</ns3:atemp>
            <ns3:hr>71</ns3:hr>
          </ns3:TrackPointExtension>
        </extensions>
      </trkpt>
      <trkpt lat="31.4310614950954914093017578125" lon="119.4972736202180385589599609375">
        <ele>0.800000011920928955078125</ele>
        <time>2018-08-20T12:18:00.000Z</time>
        <extensions>
          <ns3:TrackPointExtension>
            <ns3:atemp>30.0</ns3:atemp>
            <ns3:hr>70</ns3:hr>
          </ns3:TrackPointExtension>
        </extensions>
      </trkpt>
      <trkpt lat="31.431145481765270233154296875" lon="119.49726398102939128875732421875">
        <ele>0.800000011920928955078125</ele>
        <time>2018-08-20T12:18:01.000Z</time>
        <extensions>
          <ns3:TrackPointExtension>
            <ns3:atemp>30.0</ns3:atemp>
            <ns3:hr>71</ns3:hr>
          </ns3:TrackPointExtension>
        </extensions>
      </trkpt>
      <trkpt lat="31.43122427165508270263671875" lon="119.497260712087154388427734375">
        <ele>0.60000002384185791015625</ele>
        <time>2018-08-20T12:18:02.000Z</time>
        <extensions>
          <ns3:TrackPointExtension>
            <ns3:atemp>30.0</ns3:atemp>
            <ns3:hr>68</ns3:hr>
          </ns3:TrackPointExtension>
        </extensions>
      </trkpt>
      <trkpt lat="31.431308090686798095703125" lon="119.49725392274558544158935546875">
        <ele>0.60000002384185791015625</ele>
        <time>2018-08-20T12:18:03.000Z</time>
        <extensions>
          <ns3:TrackPointExtension>
            <ns3:atemp>30.0</ns3:atemp>
            <ns3:hr>67</ns3:hr>
          </ns3:TrackPointExtension>
        </extensions>
      </trkpt>
      <trkpt lat="31.4313957653939723968505859375" lon="119.4972441159188747406005859375">
        <ele>0.60000002384185791015625</ele>
        <time>2018-08-20T12:18:04.000Z</time>
        <extensions>
          <ns3:TrackPointExtension>
            <ns3:atemp>30.0</ns3:atemp>
            <ns3:hr>66</ns3:hr>
          </ns3:TrackPointExtension>
        </extensions>
      </trkpt>
      <trkpt lat="31.4314829371869564056396484375" lon="119.49723078869283199310302734375">
        <ele>0.60000002384185791015625</ele>
        <time>2018-08-20T12:18:05.000Z</time>
        <extensions>
          <ns3:TrackPointExtension>
            <ns3:atemp>30.0</ns3:atemp>
            <ns3:hr>66</ns3:hr>
          </ns3:TrackPointExtension>
        </extensions>
      </trkpt>
      <trkpt lat="31.43156893551349639892578125" lon="119.49722492136061191558837890625">
        <ele>0.60000002384185791015625</ele>
        <time>2018-08-20T12:18:06.000Z</time>
        <extensions>
          <ns3:TrackPointExtension>
            <ns3:atemp>30.0</ns3:atemp>
            <ns3:hr>65</ns3:hr>
          </ns3:TrackPointExtension>
        </extensions>
      </trkpt>
      <trkpt lat="31.43164613284170627593994140625" lon="119.497225172817707061767578125">
        <ele>0.60000002384185791015625</ele>
        <time>2018-08-20T12:18:07.000Z</time>
        <extensions>
          <ns3:TrackPointExtension>
            <ns3:atemp>30.0</ns3:atemp>
            <ns3:hr>65</ns3:hr>
          </ns3:TrackPointExtension>
        </extensions>
      </trkpt>
      <trkpt lat="31.431706734001636505126953125" lon="119.4972169585525989532470703125">
        <ele>0.60000002384185791015625</ele>
        <time>2018-08-20T12:18:08.000Z</time>
        <extensions>
          <ns3:TrackPointExtension>
            <ns3:atemp>30.0</ns3:atemp>
            <ns3:hr>64</ns3:hr>
          </ns3:TrackPointExtension>
        </extensions>
      </trkpt>
      <trkpt lat="31.43175073899328708648681640625" lon="119.49721737764775753021240234375">
        <ele>0.60000002384185791015625</ele>
        <time>2018-08-20T12:18:09.000Z</time>
        <extensions>
          <ns3:TrackPointExtension>
            <ns3:atemp>30.0</ns3:atemp>
            <ns3:hr>64</ns3:hr>
          </ns3:TrackPointExtension>
        </extensions>
      </trkpt>
      <trkpt lat="31.43178711645305156707763671875" lon="119.49721318669617176055908203125">
        <ele>0.60000002384185791015625</ele>
        <time>2018-08-20T12:18:10.000Z</time>
        <extensions>
          <ns3:TrackPointExtension>
            <ns3:atemp>30.0</ns3:atemp>
            <ns3:hr>63</ns3:hr>
          </ns3:TrackPointExtension>
        </extensions>
      </trkpt>
      <trkpt lat="31.43183522857725620269775390625" lon="119.49720715172588825225830078125">
        <ele>0.60000002384185791015625</ele>
        <time>2018-08-20T12:18:11.000Z</time>
        <extensions>
          <ns3:TrackPointExtension>
            <ns3:atemp>30.0</ns3:atemp>
            <ns3:hr>63</ns3:hr>
          </ns3:TrackPointExtension>
        </extensions>
      </trkpt>
      <trkpt lat="31.43188216723501682281494140625" lon="119.4972136057913303375244140625">
        <ele>0.60000002384185791015625</ele>
        <time>2018-08-20T12:18:12.000Z</time>
        <extensions>
          <ns3:TrackPointExtension>
            <ns3:atemp>30.0</ns3:atemp>
            <ns3:hr>63</ns3:hr>
          </ns3:TrackPointExtension>
        </extensions>
      </trkpt>
      <trkpt lat="31.4319161139428615570068359375" lon="119.497243948280811309814453125">
        <ele>0.60000002384185791015625</ele>
        <time>2018-08-20T12:18:13.000Z</time>
        <extensions>
          <ns3:TrackPointExtension>
            <ns3:atemp>30.0</ns3:atemp>
            <ns3:hr>63</ns3:hr>
          </ns3:TrackPointExtension>
        </extensions>
      </trkpt>
      <trkpt lat="31.4319412596523761749267578125" lon="119.49729792773723602294921875">
        <ele>0.60000002384185791015625</ele>
        <time>2018-08-20T12:18:14.000Z</time>
        <extensions>
          <ns3:TrackPointExtension>
            <ns3:atemp>30.0</ns3:atemp>
            <ns3:hr>63</ns3:hr>
          </ns3:TrackPointExtension>
        </extensions>
      </trkpt>
      <trkpt lat="31.4319566823542118072509765625" lon="119.49736271984875202178955078125">
        <ele>0.60000002384185791015625</ele>
        <time>2018-08-20T12:18:15.000Z</time>
        <extensions>
          <ns3:TrackPointExtension>
            <ns3:atemp>30.0</ns3:atemp>
            <ns3:hr>63</ns3:hr>
          </ns3:TrackPointExtension>
        </extensions>
      </trkpt>
      <trkpt lat="31.43196984194219112396240234375" lon="119.49743631295859813690185546875">
        <ele>0.60000002384185791015625</ele>
        <time>2018-08-20T12:18:16.000Z</time>
        <extensions>
          <ns3:TrackPointExtension>
            <ns3:atemp>30.0</ns3:atemp>
            <ns3:hr>64</ns3:hr>
          </ns3:TrackPointExtension>
        </extensions>
      </trkpt>
      <trkpt lat="31.43198224715888500213623046875" lon="119.49751845560967922210693359375">
        <ele>0.60000002384185791015625</ele>
        <time>2018-08-20T12:18:17.000Z</time>
        <extensions>
          <ns3:TrackPointExtension>
            <ns3:atemp>30.0</ns3:atemp>
            <ns3:hr>64</ns3:hr>
          </ns3:TrackPointExtension>
        </extensions>
      </trkpt>
      <trkpt lat="31.4319949038326740264892578125" lon="119.49760747142136096954345703125">
        <ele>0.60000002384185791015625</ele>
        <time>2018-08-20T12:18:18.000Z</time>
        <extensions>
          <ns3:TrackPointExtension>
            <ns3:atemp>30.0</ns3:atemp>
            <ns3:hr>65</ns3:hr>
          </ns3:TrackPointExtension>
        </extensions>
      </trkpt>
      <trkpt lat="31.43201007507741451263427734375" lon="119.4977010972797870635986328125">
        <ele>0.60000002384185791015625</ele>
        <time>2018-08-20T12:18:19.000Z</time>
        <extensions>
          <ns3:TrackPointExtension>
            <ns3:atemp>30.0</ns3:atemp>
            <ns3:hr>65</ns3:hr>
          </ns3:TrackPointExtension>
        </extensions>
      </trkpt>
      <trkpt lat="31.432027928531169891357421875" lon="119.4977979920804500579833984375">
        <ele>0.60000002384185791015625</ele>
        <time>2018-08-20T12:18:20.000Z</time>
        <extensions>
          <ns3:TrackPointExtension>
            <ns3:atemp>30.0</ns3:atemp>
            <ns3:hr>65</ns3:hr>
          </ns3:TrackPointExtension>
        </extensions>
      </trkpt>
      <trkpt lat="31.4320458658039569854736328125" lon="119.4978989101946353912353515625">
        <ele>0.60000002384185791015625</ele>
        <time>2018-08-20T12:18:21.000Z</time>
        <extensions>
          <ns3:TrackPointExtension>
            <ns3:atemp>30.0</ns3:atemp>
            <ns3:hr>65</ns3:hr>
          </ns3:TrackPointExtension>
        </extensions>
      </trkpt>
      <trkpt lat="31.4320663176476955413818359375" lon="119.4980008341372013092041015625">
        <ele>0.60000002384185791015625</ele>
        <time>2018-08-20T12:18:22.000Z</time>
        <extensions>
          <ns3:TrackPointExtension>
            <ns3:atemp>30.0</ns3:atemp>
            <ns3:hr>65</ns3:hr>
          </ns3:TrackPointExtension>
        </extensions>
      </trkpt>
      <trkpt lat="31.4320894517004489898681640625" lon="119.498102255165576934814453125">
        <ele>0.60000002384185791015625</ele>
        <time>2018-08-20T12:18:23.000Z</time>
        <extensions>
          <ns3:TrackPointExtension>
            <ns3:atemp>30.0</ns3:atemp>
            <ns3:hr>65</ns3:hr>
          </ns3:TrackPointExtension>
        </extensions>
      </trkpt>
      <trkpt lat="31.4321139268577098846435546875" lon="119.4982033409178256988525390625">
        <ele>0.60000002384185791015625</ele>
        <time>2018-08-20T12:18:24.000Z</time>
        <extensions>
          <ns3:TrackPointExtension>
            <ns3:atemp>30.0</ns3:atemp>
            <ns3:hr>66</ns3:hr>
          </ns3:TrackPointExtension>
        </extensions>
      </trkpt>
      <trkpt lat="31.43213932402431964874267578125" lon="119.49830551631748676300048828125">
        <ele>0.60000002384185791015625</ele>
        <time>2018-08-20T12:18:25.000Z</time>
        <extensions>
          <ns3:TrackPointExtension>
            <ns3:atemp>30.0</ns3:atemp>
            <ns3:hr>66</ns3:hr>
          </ns3:TrackPointExtension>
        </extensions>
      </trkpt>
      <trkpt lat="31.4321642182767391204833984375" lon="119.49840727262198925018310546875">
        <ele>0.60000002384185791015625</ele>
        <time>2018-08-20T12:18:26.000Z</time>
        <extensions>
          <ns3:TrackPointExtension>
            <ns3:atemp>30.0</ns3:atemp>
            <ns3:hr>66</ns3:hr>
          </ns3:TrackPointExtension>
        </extensions>
      </trkpt>
      <trkpt lat="31.43218718469142913818359375" lon="119.498509950935840606689453125">
        <ele>0.60000002384185791015625</ele>
        <time>2018-08-20T12:18:27.000Z</time>
        <extensions>
          <ns3:TrackPointExtension>
            <ns3:atemp>30.0</ns3:atemp>
            <ns3:hr>66</ns3:hr>
          </ns3:TrackPointExtension>
        </extensions>
      </trkpt>
      <trkpt lat="31.432206630706787109375" lon="119.49861279688775539398193359375">
        <ele>0.60000002384185791015625</ele>
        <time>2018-08-20T12:18:28.000Z</time>
        <extensions>
          <ns3:TrackPointExtension>
            <ns3:atemp>30.0</ns3:atemp>
            <ns3:hr>66</ns3:hr>
          </ns3:TrackPointExtension>
        </extensions>
      </trkpt>
      <trkpt lat="31.4322242327034473419189453125" lon="119.49871522374451160430908203125">
        <ele>0.60000002384185791015625</ele>
        <time>2018-08-20T12:18:29.000Z</time>
        <extensions>
          <ns3:TrackPointExtension>
            <ns3:atemp>30.0</ns3:atemp>
            <ns3:hr>66</ns3:hr>
          </ns3:TrackPointExtension>
        </extensions>
      </trkpt>
      <trkpt lat="31.432241834700107574462890625" lon="119.49881630949676036834716796875">
        <ele>0.60000002384185791015625</ele>
        <time>2018-08-20T12:18:30.000Z</time>
        <extensions>
          <ns3:TrackPointExtension>
            <ns3:atemp>30.0</ns3:atemp>
            <ns3:hr>66</ns3:hr>
          </ns3:TrackPointExtension>
        </extensions>
      </trkpt>
      <trkpt lat="31.43225423991680145263671875" lon="119.498914293944835662841796875">
        <ele>0.60000002384185791015625</ele>
        <time>2018-08-20T12:18:31.000Z</time>
        <extensions>
          <ns3:TrackPointExtension>
            <ns3:atemp>30.0</ns3:atemp>
            <ns3:hr>66</ns3:hr>
          </ns3:TrackPointExtension>
        </extensions>
      </trkpt>
      <trkpt lat="31.43227041698992252349853515625" lon="119.4990083388984203338623046875">
        <ele>0.60000002384185791015625</ele>
        <time>2018-08-20T12:18:32.000Z</time>
        <extensions>
          <ns3:TrackPointExtension>
            <ns3:atemp>30.0</ns3:atemp>
            <ns3:hr>66</ns3:hr>
          </ns3:TrackPointExtension>
        </extensions>
      </trkpt>
      <trkpt lat="31.4322825707495212554931640625" lon="119.4991028867661952972412109375">
        <ele>0.60000002384185791015625</ele>
        <time>2018-08-20T12:18:33.000Z</time>
        <extensions>
          <ns3:TrackPointExtension>
            <ns3:atemp>30.0</ns3:atemp>
            <ns3:hr>65</ns3:hr>
          </ns3:TrackPointExtension>
        </extensions>
      </trkpt>
      <trkpt lat="31.43229556269943714141845703125" lon="119.49919936247169971466064453125">
        <ele>0.60000002384185791015625</ele>
        <time>2018-08-20T12:18:34.000Z</time>
        <extensions>
          <ns3:TrackPointExtension>
            <ns3:atemp>30.0</ns3:atemp>
            <ns3:hr>65</ns3:hr>
          </ns3:TrackPointExtension>
        </extensions>
      </trkpt>
      <trkpt lat="31.4322956465184688568115234375" lon="119.49929759837687015533447265625">
        <ele>0.60000002384185791015625</ele>
        <time>2018-08-20T12:18:35.000Z</time>
        <extensions>
          <ns3:TrackPointExtension>
            <ns3:atemp>30.0</ns3:atemp>
            <ns3:hr>65</ns3:hr>
          </ns3:TrackPointExtension>
        </extensions>
      </trkpt>
      <trkpt lat="31.4322963170707225799560546875" lon="119.49939751066267490386962890625">
        <ele>0.60000002384185791015625</ele>
        <time>2018-08-20T12:18:36.000Z</time>
        <extensions>
          <ns3:TrackPointExtension>
            <ns3:atemp>30.0</ns3:atemp>
            <ns3:hr>65</ns3:hr>
          </ns3:TrackPointExtension>
        </extensions>
      </trkpt>
      <trkpt lat="31.43229992128908634185791015625" lon="119.49949624948203563690185546875">
        <ele>0.60000002384185791015625</ele>
        <time>2018-08-20T12:18:37.000Z</time>
        <extensions>
          <ns3:TrackPointExtension>
            <ns3:atemp>30.0</ns3:atemp>
            <ns3:hr>64</ns3:hr>
          </ns3:TrackPointExtension>
        </extensions>
      </trkpt>
      <trkpt lat="31.43230444751679897308349609375" lon="119.49959482066333293914794921875">
        <ele>0.60000002384185791015625</ele>
        <time>2018-08-20T12:18:38.000Z</time>
        <extensions>
          <ns3:TrackPointExtension>
            <ns3:atemp>30.0</ns3:atemp>
            <ns3:hr>64</ns3:hr>
          </ns3:TrackPointExtension>
        </extensions>
      </trkpt>
      <trkpt lat="31.4323097281157970428466796875" lon="119.49969339184463024139404296875">
        <ele>0.60000002384185791015625</ele>
        <time>2018-08-20T12:18:39.000Z</time>
        <extensions>
          <ns3:TrackPointExtension>
            <ns3:atemp>30.0</ns3:atemp>
            <ns3:hr>64</ns3:hr>
          </ns3:TrackPointExtension>
        </extensions>
      </trkpt>
      <trkpt lat="31.432316266000270843505859375" lon="119.49979179538786411285400390625">
        <ele>0.60000002384185791015625</ele>
        <time>2018-08-20T12:18:40.000Z</time>
        <extensions>
          <ns3:TrackPointExtension>
            <ns3:atemp>30.0</ns3:atemp>
            <ns3:hr>63</ns3:hr>
          </ns3:TrackPointExtension>
        </extensions>
      </trkpt>
      <trkpt lat="31.4323259890079498291015625" lon="119.4998894445598125457763671875">
        <ele>0.4000000059604644775390625</ele>
        <time>2018-08-20T12:18:41.000Z</time>
        <extensions>
          <ns3:TrackPointExtension>
            <ns3:atemp>30.0</ns3:atemp>
            <ns3:hr>63</ns3:hr>
          </ns3:TrackPointExtension>
        </extensions>
      </trkpt>
      <trkpt lat="31.4323375560343265533447265625" lon="119.499986506998538970947265625">
        <ele>0.4000000059604644775390625</ele>
        <time>2018-08-20T12:18:42.000Z</time>
        <extensions>
          <ns3:TrackPointExtension>
            <ns3:atemp>30.0</ns3:atemp>
            <ns3:hr>63</ns3:hr>
          </ns3:TrackPointExtension>
        </extensions>
      </trkpt>
      <trkpt lat="31.43235021270811557769775390625" lon="119.50008365325629711151123046875">
        <ele>0.4000000059604644775390625</ele>
        <time>2018-08-20T12:18:43.000Z</time>
        <extensions>
          <ns3:TrackPointExtension>
            <ns3:atemp>30.0</ns3:atemp>
            <ns3:hr>63</ns3:hr>
          </ns3:TrackPointExtension>
        </extensions>
      </trkpt>
      <trkpt lat="31.4323586784303188323974609375" lon="119.500182308256626129150390625">
        <ele>0.4000000059604644775390625</ele>
        <time>2018-08-20T12:18:44.000Z</time>
        <extensions>
          <ns3:TrackPointExtension>
            <ns3:atemp>30.0</ns3:atemp>
            <ns3:hr>63</ns3:hr>
          </ns3:TrackPointExtension>
        </extensions>
      </trkpt>
      <trkpt lat="31.43236362375319004058837890625" lon="119.5002817176282405853271484375">
        <ele>0.4000000059604644775390625</ele>
        <time>2018-08-20T12:18:45.000Z</time>
        <extensions>
          <ns3:TrackPointExtension>
            <ns3:atemp>30.0</ns3:atemp>
            <ns3:hr>64</ns3:hr>
          </ns3:TrackPointExtension>
        </extensions>
      </trkpt>
      <trkpt lat="31.4323596842586994171142578125" lon="119.50038204900920391082763671875">
        <ele>0.4000000059604644775390625</ele>
        <time>2018-08-20T12:18:46.000Z</time>
        <extensions>
          <ns3:TrackPointExtension>
            <ns3:atemp>30.0</ns3:atemp>
            <ns3:hr>66</ns3:hr>
          </ns3:TrackPointExtension>
        </extensions>
      </trkpt>
      <trkpt lat="31.4323502965271472930908203125" lon="119.50048078782856464385986328125">
        <ele>0.4000000059604644775390625</ele>
        <time>2018-08-20T12:18:47.000Z</time>
        <extensions>
          <ns3:TrackPointExtension>
            <ns3:atemp>30.0</ns3:atemp>
            <ns3:hr>68</ns3:hr>
          </ns3:TrackPointExtension>
        </extensions>
      </trkpt>
      <trkpt lat="31.43234350718557834625244140625" lon="119.50057961046695709228515625">
        <ele>0.4000000059604644775390625</ele>
        <time>2018-08-20T12:18:48.000Z</time>
        <extensions>
          <ns3:TrackPointExtension>
            <ns3:atemp>30.0</ns3:atemp>
            <ns3:hr>69</ns3:hr>
          </ns3:TrackPointExtension>
        </extensions>
      </trkpt>
      <trkpt lat="31.43234468065202236175537109375" lon="119.50067885220050811767578125">
        <ele>0.60000002384185791015625</ele>
        <time>2018-08-20T12:18:49.000Z</time>
        <extensions>
          <ns3:TrackPointExtension>
            <ns3:atemp>30.0</ns3:atemp>
            <ns3:hr>69</ns3:hr>
          </ns3:TrackPointExtension>
        </extensions>
      </trkpt>
      <trkpt lat="31.4323528110980987548828125" lon="119.5007782615721225738525390625">
        <ele>0.60000002384185791015625</ele>
        <time>2018-08-20T12:18:50.000Z</time>
        <extensions>
          <ns3:TrackPointExtension>
            <ns3:atemp>30.0</ns3:atemp>
            <ns3:hr>70</ns3:hr>
          </ns3:TrackPointExtension>
        </extensions>
      </trkpt>
      <trkpt lat="31.4323690719902515411376953125" lon="119.5008764974772930145263671875">
        <ele>0.60000002384185791015625</ele>
        <time>2018-08-20T12:18:51.000Z</time>
        <extensions>
          <ns3:TrackPointExtension>
            <ns3:atemp>30.0</ns3:atemp>
            <ns3:hr>70</ns3:hr>
          </ns3:TrackPointExtension>
        </extensions>
      </trkpt>
      <trkpt lat="31.43239463679492473602294921875" lon="119.50097314082086086273193359375">
        <ele>0.60000002384185791015625</ele>
        <time>2018-08-20T12:18:52.000Z</time>
        <extensions>
          <ns3:TrackPointExtension>
            <ns3:atemp>30.0</ns3:atemp>
            <ns3:hr>69</ns3:hr>
          </ns3:TrackPointExtension>
        </extensions>
      </trkpt>
      <trkpt lat="31.43243319354951381683349609375" lon="119.501062743365764617919921875">
        <ele>0.60000002384185791015625</ele>
        <time>2018-08-20T12:18:53.000Z</time>
        <extensions>
          <ns3:TrackPointExtension>
            <ns3:atemp>30.0</ns3:atemp>
            <ns3:hr>71</ns3:hr>
          </ns3:TrackPointExtension>
        </extensions>
      </trkpt>
      <trkpt lat="31.43248449079692363739013671875" lon="119.50113859958946704864501953125">
        <ele>0.60000002384185791015625</ele>
        <time>2018-08-20T12:18:54.000Z</time>
        <extensions>
          <ns3:TrackPointExtension>
            <ns3:atemp>30.0</ns3:atemp>
            <ns3:hr>70</ns3:hr>
          </ns3:TrackPointExtension>
        </extensions>
      </trkpt>
      <trkpt lat="31.43255389295518398284912109375" lon="119.50119375251233577728271484375">
        <ele>0.60000002384185791015625</ele>
        <time>2018-08-20T12:18:55.000Z</time>
        <extensions>
          <ns3:TrackPointExtension>
            <ns3:atemp>30.0</ns3:atemp>
            <ns3:hr>68</ns3:hr>
          </ns3:TrackPointExtension>
        </extensions>
      </trkpt>
      <trkpt lat="31.432633437216281890869140625" lon="119.50122828595340251922607421875">
        <ele>0.60000002384185791015625</ele>
        <time>2018-08-20T12:18:56.000Z</time>
        <extensions>
          <ns3:TrackPointExtension>
            <ns3:atemp>30.0</ns3:atemp>
            <ns3:hr>67</ns3:hr>
          </ns3:TrackPointExtension>
        </extensions>
      </trkpt>
      <trkpt lat="31.4327175915241241455078125" lon="119.50124479830265045166015625">
        <ele>0.60000002384185791015625</ele>
        <time>2018-08-20T12:18:57.000Z</time>
        <extensions>
          <ns3:TrackPointExtension>
            <ns3:atemp>30.0</ns3:atemp>
            <ns3:hr>66</ns3:hr>
          </ns3:TrackPointExtension>
        </extensions>
      </trkpt>
      <trkpt lat="31.432804428040981292724609375" lon="119.50124882161617279052734375">
        <ele>0.60000002384185791015625</ele>
        <time>2018-08-20T12:18:58.000Z</time>
        <extensions>
          <ns3:TrackPointExtension>
            <ns3:atemp>30.0</ns3:atemp>
            <ns3:hr>66</ns3:hr>
          </ns3:TrackPointExtension>
        </extensions>
      </trkpt>
      <trkpt lat="31.432891599833965301513671875" lon="119.5012473128736019134521484375">
        <ele>0.4000000059604644775390625</ele>
        <time>2018-08-20T12:18:59.000Z</time>
        <extensions>
          <ns3:TrackPointExtension>
            <ns3:atemp>30.0</ns3:atemp>
            <ns3:hr>65</ns3:hr>
          </ns3:TrackPointExtension>
        </extensions>
      </trkpt>
      <trkpt lat="31.432974077761173248291015625" lon="119.5012442953884601593017578125">
        <ele>0.4000000059604644775390625</ele>
        <time>2018-08-20T12:19:00.000Z</time>
        <extensions>
          <ns3:TrackPointExtension>
            <ns3:atemp>30.0</ns3:atemp>
            <ns3:hr>64</ns3:hr>
          </ns3:TrackPointExtension>
        </extensions>
      </trkpt>
      <trkpt lat="31.43304339610040187835693359375" lon="119.50124018825590610504150390625">
        <ele>0.4000000059604644775390625</ele>
        <time>2018-08-20T12:19:01.000Z</time>
        <extensions>
          <ns3:TrackPointExtension>
            <ns3:atemp>30.0</ns3:atemp>
            <ns3:hr>64</ns3:hr>
          </ns3:TrackPointExtension>
        </extensions>
      </trkpt>
      <trkpt lat="31.433102153241634368896484375" lon="119.5012335665524005889892578125">
        <ele>0.4000000059604644775390625</ele>
        <time>2018-08-20T12:19:02.000Z</time>
        <extensions>
          <ns3:TrackPointExtension>
            <ns3:atemp>30.0</ns3:atemp>
            <ns3:hr>61</ns3:hr>
          </ns3:TrackPointExtension>
        </extensions>
      </trkpt>
      <trkpt lat="31.4331495948135852813720703125" lon="119.50123004615306854248046875">
        <ele>0.4000000059604644775390625</ele>
        <time>2018-08-20T12:19:03.000Z</time>
        <extensions>
          <ns3:TrackPointExtension>
            <ns3:atemp>30.0</ns3:atemp>
            <ns3:hr>63</ns3:hr>
          </ns3:TrackPointExtension>
        </extensions>
      </trkpt>
      <trkpt lat="31.43318898975849151611328125" lon="119.50123532675206661224365234375">
        <ele>0.4000000059604644775390625</ele>
        <time>2018-08-20T12:19:04.000Z</time>
        <extensions>
          <ns3:TrackPointExtension>
            <ns3:atemp>30.0</ns3:atemp>
            <ns3:hr>61</ns3:hr>
          </ns3:TrackPointExtension>
        </extensions>
      </trkpt>
      <trkpt lat="31.4332189969718456268310546875" lon="119.50125158764421939849853515625">
        <ele>0.4000000059604644775390625</ele>
        <time>2018-08-20T12:19:05.000Z</time>
        <extensions>
          <ns3:TrackPointExtension>
            <ns3:atemp>30.0</ns3:atemp>
            <ns3:hr>60</ns3:hr>
          </ns3:TrackPointExtension>
        </extensions>
      </trkpt>
      <trkpt lat="31.43324221484363079071044921875" lon="119.5012771524488925933837890625">
        <ele>0.4000000059604644775390625</ele>
        <time>2018-08-20T12:19:06.000Z</time>
        <extensions>
          <ns3:TrackPointExtension>
            <ns3:atemp>30.0</ns3:atemp>
            <ns3:hr>62</ns3:hr>
          </ns3:TrackPointExtension>
        </extensions>
      </trkpt>
      <trkpt lat="31.43325143493711948394775390625" lon="119.50132031925022602081298828125">
        <ele>0.4000000059604644775390625</ele>
        <time>2018-08-20T12:19:07.000Z</time>
        <extensions>
          <ns3:TrackPointExtension>
            <ns3:atemp>30.0</ns3:atemp>
            <ns3:hr>61</ns3:hr>
          </ns3:TrackPointExtension>
        </extensions>
      </trkpt>
      <trkpt lat="31.43325746990740299224853515625" lon="119.50137379579246044158935546875">
        <ele>0.4000000059604644775390625</ele>
        <time>2018-08-20T12:19:08.000Z</time>
        <extensions>
          <ns3:TrackPointExtension>
            <ns3:atemp>30.0</ns3:atemp>
            <ns3:hr>62</ns3:hr>
          </ns3:TrackPointExtension>
        </extensions>
      </trkpt>
      <trkpt lat="31.4332635886967182159423828125" lon="119.5014280267059803009033203125">
        <ele>0.4000000059604644775390625</ele>
        <time>2018-08-20T12:19:09.000Z</time>
        <extensions>
          <ns3:TrackPointExtension>
            <ns3:atemp>30.0</ns3:atemp>
            <ns3:hr>59</ns3:hr>
          </ns3:TrackPointExtension>
        </extensions>
      </trkpt>
      <trkpt lat="31.43326702527701854705810546875" lon="119.501483179628849029541015625">
        <ele>0.4000000059604644775390625</ele>
        <time>2018-08-20T12:19:10.000Z</time>
        <extensions>
          <ns3:TrackPointExtension>
            <ns3:atemp>30.0</ns3:atemp>
            <ns3:hr>60</ns3:hr>
          </ns3:TrackPointExtension>
        </extensions>
      </trkpt>
      <trkpt lat="31.43327021040022373199462890625" lon="119.50153472833335399627685546875">
        <ele>0.4000000059604644775390625</ele>
        <time>2018-08-20T12:19:11.000Z</time>
        <extensions>
          <ns3:TrackPointExtension>
            <ns3:atemp>30.0</ns3:atemp>
            <ns3:hr>60</ns3:hr>
          </ns3:TrackPointExtension>
        </extensions>
      </trkpt>
      <trkpt lat="31.4332754909992218017578125" lon="119.50157579965889453887939453125">
        <ele>0.4000000059604644775390625</ele>
        <time>2018-08-20T12:19:12.000Z</time>
        <extensions>
          <ns3:TrackPointExtension>
            <ns3:atemp>30.0</ns3:atemp>
            <ns3:hr>62</ns3:hr>
          </ns3:TrackPointExtension>
        </extensions>
      </trkpt>
      <trkpt lat="31.43328420817852020263671875" lon="119.5016107521951198577880859375">
        <ele>0.4000000059604644775390625</ele>
        <time>2018-08-20T12:19:13.000Z</time>
        <extensions>
          <ns3:TrackPointExtension>
            <ns3:atemp>30.0</ns3:atemp>
            <ns3:hr>60</ns3:hr>
          </ns3:TrackPointExtension>
        </extensions>
      </trkpt>
      <trkpt lat="31.43330968916416168212890625" lon="119.501635730266571044921875">
        <ele>0.4000000059604644775390625</ele>
        <time>2018-08-20T12:19:14.000Z</time>
        <extensions>
          <ns3:TrackPointExtension>
            <ns3:atemp>30.0</ns3:atemp>
            <ns3:hr>61</ns3:hr>
          </ns3:TrackPointExtension>
        </extensions>
      </trkpt>
      <trkpt lat="31.4333400316536426544189453125" lon="119.50163966976106166839599609375">
        <ele>0.4000000059604644775390625</ele>
        <time>2018-08-20T12:19:15.000Z</time>
        <extensions>
          <ns3:TrackPointExtension>
            <ns3:atemp>30.0</ns3:atemp>
            <ns3:hr>59</ns3:hr>
          </ns3:TrackPointExtension>
        </extensions>
      </trkpt>
      <trkpt lat="31.43338076770305633544921875" lon="119.5016369037330150604248046875">
        <ele>0.4000000059604644775390625</ele>
        <time>2018-08-20T12:19:16.000Z</time>
        <extensions>
          <ns3:TrackPointExtension>
            <ns3:atemp>30.0</ns3:atemp>
            <ns3:hr>59</ns3:hr>
          </ns3:TrackPointExtension>
        </extensions>
      </trkpt>
      <trkpt lat="31.4334325678646564483642578125" lon="119.50163061730563640594482421875">
        <ele>0.4000000059604644775390625</ele>
        <time>2018-08-20T12:19:17.000Z</time>
        <extensions>
          <ns3:TrackPointExtension>
            <ns3:atemp>30.0</ns3:atemp>
            <ns3:hr>59</ns3:hr>
          </ns3:TrackPointExtension>
        </extensions>
      </trkpt>
      <trkpt lat="31.43347464501857757568359375" lon="119.501625336706638336181640625">
        <ele>0.4000000059604644775390625</ele>
        <time>2018-08-20T12:19:18.000Z</time>
        <extensions>
          <ns3:TrackPointExtension>
            <ns3:atemp>30.0</ns3:atemp>
            <ns3:hr>58</ns3:hr>
          </ns3:TrackPointExtension>
        </extensions>
      </trkpt>
      <trkpt lat="31.4335173927247524261474609375" lon="119.5016157813370227813720703125">
        <ele>0.4000000059604644775390625</ele>
        <time>2018-08-20T12:19:19.000Z</time>
        <extensions>
          <ns3:TrackPointExtension>
            <ns3:atemp>30.0</ns3:atemp>
            <ns3:hr>57</ns3:hr>
          </ns3:TrackPointExtension>
        </extensions>
      </trkpt>
      <trkpt lat="31.433550417423248291015625" lon="119.50161921791732311248779296875">
        <ele>0.4000000059604644775390625</ele>
        <time>2018-08-20T12:19:20.000Z</time>
        <extensions>
          <ns3:TrackPointExtension>
            <ns3:atemp>30.0</ns3:atemp>
            <ns3:hr>56</ns3:hr>
          </ns3:TrackPointExtension>
        </extensions>
      </trkpt>
      <trkpt lat="31.43357866443693637847900390625" lon="119.5016211457550525665283203125">
        <ele>0.4000000059604644775390625</ele>
        <time>2018-08-20T12:19:21.000Z</time>
        <extensions>
          <ns3:TrackPointExtension>
            <ns3:atemp>30.0</ns3:atemp>
            <ns3:hr>55</ns3:hr>
          </ns3:TrackPointExtension>
        </extensions>
      </trkpt>
      <trkpt lat="31.43358419649302959442138671875" lon="119.50162625871598720550537109375">
        <ele>0.4000000059604644775390625</ele>
        <time>2018-08-20T12:19:22.000Z</time>
        <extensions>
          <ns3:TrackPointExtension>
            <ns3:atemp>30.0</ns3:atemp>
            <ns3:hr>55</ns3:hr>
          </ns3:TrackPointExtension>
        </extensions>
      </trkpt>
      <trkpt lat="31.4335973560810089111328125" lon="119.501625336706638336181640625">
        <ele>0.4000000059604644775390625</ele>
        <time>2018-08-20T12:19:23.000Z</time>
        <extensions>
          <ns3:TrackPointExtension>
            <ns3:atemp>30.0</ns3:atemp>
            <ns3:hr>54</ns3:hr>
          </ns3:TrackPointExtension>
        </extensions>
      </trkpt>
      <trkpt lat="31.4336000382900238037109375" lon="119.501628018915653228759765625">
        <ele>0.4000000059604644775390625</ele>
        <time>2018-08-20T12:19:24.000Z</time>
        <extensions>
          <ns3:TrackPointExtension>
            <ns3:atemp>30.0</ns3:atemp>
            <ns3:hr>53</ns3:hr>
          </ns3:TrackPointExtension>
        </extensions>
      </trkpt>
      <trkpt lat="31.43359794281423091888427734375" lon="119.5016308687627315521240234375">
        <ele>0.4000000059604644775390625</ele>
        <time>2018-08-20T12:19:25.000Z</time>
        <extensions>
          <ns3:TrackPointExtension>
            <ns3:atemp>30.0</ns3:atemp>
            <ns3:hr>54</ns3:hr>
          </ns3:TrackPointExtension>
        </extensions>
      </trkpt>
      <trkpt lat="31.43359743990004062652587890625" lon="119.50162843801081180572509765625">
        <ele>0.4000000059604644775390625</ele>
        <time>2018-08-20T12:19:26.000Z</time>
        <extensions>
          <ns3:TrackPointExtension>
            <ns3:atemp>30.0</ns3:atemp>
            <ns3:hr>56</ns3:hr>
          </ns3:TrackPointExtension>
        </extensions>
      </trkpt>
      <trkpt lat="31.43359945155680179595947265625" lon="119.50162726454436779022216796875">
        <ele>0.4000000059604644775390625</ele>
        <time>2018-08-20T12:19:27.000Z</time>
        <extensions>
          <ns3:TrackPointExtension>
            <ns3:atemp>30.0</ns3:atemp>
            <ns3:hr>55</ns3:hr>
          </ns3:TrackPointExtension>
        </extensions>
      </trkpt>
      <trkpt lat="31.43359743990004062652587890625" lon="119.50162391178309917449951171875">
        <ele>0.4000000059604644775390625</ele>
        <time>2018-08-20T12:19:28.000Z</time>
        <extensions>
          <ns3:TrackPointExtension>
            <ns3:atemp>30.0</ns3:atemp>
            <ns3:hr>54</ns3:hr>
          </ns3:TrackPointExtension>
        </extensions>
      </trkpt>
      <trkpt lat="31.43359626643359661102294921875" lon="119.5016234926879405975341796875">
        <ele>0.4000000059604644775390625</ele>
        <time>2018-08-20T12:19:29.000Z</time>
        <extensions>
          <ns3:TrackPointExtension>
            <ns3:atemp>30.0</ns3:atemp>
            <ns3:hr>55</ns3:hr>
          </ns3:TrackPointExtension>
        </extensions>
      </trkpt>
      <trkpt lat="31.4335951767861843109130859375" lon="119.50162231922149658203125">
        <ele>0.4000000059604644775390625</ele>
        <time>2018-08-20T12:19:30.000Z</time>
        <extensions>
          <ns3:TrackPointExtension>
            <ns3:atemp>30.0</ns3:atemp>
            <ns3:hr>56</ns3:hr>
          </ns3:TrackPointExtension>
        </extensions>
      </trkpt>
      <trkpt lat="31.43359341658651828765869140625" lon="119.501619637012481689453125">
        <ele>0.4000000059604644775390625</ele>
        <time>2018-08-20T12:19:31.000Z</time>
        <extensions>
          <ns3:TrackPointExtension>
            <ns3:atemp>30.0</ns3:atemp>
            <ns3:hr>59</ns3:hr>
          </ns3:TrackPointExtension>
        </extensions>
      </trkpt>
      <trkpt lat="31.4335881359875202178955078125" lon="119.5016218163073062896728515625">
        <ele>0.4000000059604644775390625</ele>
        <time>2018-08-20T12:19:32.000Z</time>
        <extensions>
          <ns3:TrackPointExtension>
            <ns3:atemp>30.0</ns3:atemp>
            <ns3:hr>60</ns3:hr>
          </ns3:TrackPointExtension>
        </extensions>
      </trkpt>
    </trkseg>
  </trk>
</gpx>
