<gpx xmlns:ns3="http://www.garmin.com/xmlschemas/TrackPointExtension/v1" xmlns="http://www.topografix.com/GPX/1/1" xmlns:xsi="http://www.w3.org/2001/XMLSchema-instance" xmlns:ns2="http://www.garmin.com/xmlschemas/GpxExtensions/v3" creator="Garmin Connect" version="1.1" xsi:schemaLocation="http://www.topografix.com/GPX/1/1 http://www.topografix.com/GPX/11.xsd">
  <extensions>
<distance>599.42</distance>
<average_hr></average_hr>
<average_speed>3.589341317365269</average_speed>
<start_time>2016-04-13T06:40:39+00:00</start_time>
<end_time>2016-04-13T06:43:26+00:00</end_time>
<moving_time>166.0</moving_time>
<elapsed_time>167.0</elapsed_time>
</extensions>
<metadata>
    <link href="connect.garmin.com">
      <text>Garmin Connect</text>
    </link>
    <time>2016-04-13T06:40:39.000Z</time>
  </metadata>
  <trk>
    <name>骑车</name>
    <type>cycling</type>
    <trkseg>
      <trkpt lat="31.40906989574432373046875" lon="119.4857146404683589935302734375">
        <ele>128.600006103515625</ele>
        <time>2016-04-13T06:40:39.000Z</time>
        <extensions>
          <ns3:TrackPointExtension>
            <ns3:atemp>29.0</ns3:atemp>
          </ns3:TrackPointExtension>
        </extensions>
      </trkpt>
      <trkpt lat="31.40906989574432373046875" lon="119.48571019805967807769775390625">
        <ele>59.200000762939453125</ele>
        <time>2016-04-13T06:40:40.000Z</time>
        <extensions>
          <ns3:TrackPointExtension>
            <ns3:atemp>31.0</ns3:atemp>
          </ns3:TrackPointExtension>
        </extensions>
      </trkpt>
      <trkpt lat="31.40907249413430690765380859375" lon="119.48570617474615573883056640625">
        <ele>59.200000762939453125</ele>
        <time>2016-04-13T06:40:41.000Z</time>
        <extensions>
          <ns3:TrackPointExtension>
            <ns3:atemp>31.0</ns3:atemp>
          </ns3:TrackPointExtension>
        </extensions>
      </trkpt>
      <trkpt lat="31.40907199122011661529541015625" lon="119.48568874038755893707275390625">
        <ele>59.200000762939453125</ele>
        <time>2016-04-13T06:40:42.000Z</time>
        <extensions>
          <ns3:TrackPointExtension>
            <ns3:atemp>32.0</ns3:atemp>
          </ns3:TrackPointExtension>
        </extensions>
      </trkpt>
      <trkpt lat="31.4090739190578460693359375" lon="119.48567834682762622833251953125">
        <ele>128.399993896484375</ele>
        <time>2016-04-13T06:40:43.000Z</time>
        <extensions>
          <ns3:TrackPointExtension>
            <ns3:atemp>32.0</ns3:atemp>
          </ns3:TrackPointExtension>
        </extensions>
      </trkpt>
      <trkpt lat="31.40907593071460723876953125" lon="119.48565445840358734130859375">
        <ele>128.399993896484375</ele>
        <time>2016-04-13T06:40:44.000Z</time>
        <extensions>
          <ns3:TrackPointExtension>
            <ns3:atemp>32.0</ns3:atemp>
          </ns3:TrackPointExtension>
        </extensions>
      </trkpt>
      <trkpt lat="31.40908020548522472381591796875" lon="119.4856304861605167388916015625">
        <ele>128.399993896484375</ele>
        <time>2016-04-13T06:40:45.000Z</time>
        <extensions>
          <ns3:TrackPointExtension>
            <ns3:atemp>32.0</ns3:atemp>
          </ns3:TrackPointExtension>
        </extensions>
      </trkpt>
      <trkpt lat="31.40908154658973217010498046875" lon="119.48559804819524288177490234375">
        <ele>128.399993896484375</ele>
        <time>2016-04-13T06:40:46.000Z</time>
        <extensions>
          <ns3:TrackPointExtension>
            <ns3:atemp>32.0</ns3:atemp>
          </ns3:TrackPointExtension>
        </extensions>
      </trkpt>
      <trkpt lat="31.40908540226519107818603515625" lon="119.4855706393718719482421875">
        <ele>128.600006103515625</ele>
        <time>2016-04-13T06:40:47.000Z</time>
        <extensions>
          <ns3:TrackPointExtension>
            <ns3:atemp>32.0</ns3:atemp>
          </ns3:TrackPointExtension>
        </extensions>
      </trkpt>
      <trkpt lat="31.40908624045550823211669921875" lon="119.48554524220526218414306640625">
        <ele>128.600006103515625</ele>
        <time>2016-04-13T06:40:48.000Z</time>
        <extensions>
          <ns3:TrackPointExtension>
            <ns3:atemp>32.0</ns3:atemp>
          </ns3:TrackPointExtension>
        </extensions>
      </trkpt>
      <trkpt lat="31.40908976085484027862548828125" lon="119.485515318810939788818359375">
        <ele>128.8000030517578125</ele>
        <time>2016-04-13T06:40:49.000Z</time>
        <extensions>
          <ns3:TrackPointExtension>
            <ns3:atemp>32.0</ns3:atemp>
          </ns3:TrackPointExtension>
        </extensions>
      </trkpt>
      <trkpt lat="31.40909336507320404052734375" lon="119.48548371903598308563232421875">
        <ele>128.8000030517578125</ele>
        <time>2016-04-13T06:40:50.000Z</time>
        <extensions>
          <ns3:TrackPointExtension>
            <ns3:atemp>32.0</ns3:atemp>
          </ns3:TrackPointExtension>
        </extensions>
      </trkpt>
      <trkpt lat="31.40909663401544094085693359375" lon="119.48545052669942378997802734375">
        <ele>128.8000030517578125</ele>
        <time>2016-04-13T06:40:51.000Z</time>
        <extensions>
          <ns3:TrackPointExtension>
            <ns3:atemp>32.0</ns3:atemp>
          </ns3:TrackPointExtension>
        </extensions>
      </trkpt>
      <trkpt lat="31.40910082496702671051025390625" lon="119.4854165799915790557861328125">
        <ele>129</ele>
        <time>2016-04-13T06:40:52.000Z</time>
        <extensions>
          <ns3:TrackPointExtension>
            <ns3:atemp>32.0</ns3:atemp>
          </ns3:TrackPointExtension>
        </extensions>
      </trkpt>
      <trkpt lat="31.40910803340375423431396484375" lon="119.48537894524633884429931640625">
        <ele>129</ele>
        <time>2016-04-13T06:40:53.000Z</time>
        <extensions>
          <ns3:TrackPointExtension>
            <ns3:atemp>32.0</ns3:atemp>
          </ns3:TrackPointExtension>
        </extensions>
      </trkpt>
      <trkpt lat="31.40911281108856201171875" lon="119.48533670045435428619384765625">
        <ele>129</ele>
        <time>2016-04-13T06:40:54.000Z</time>
        <extensions>
          <ns3:TrackPointExtension>
            <ns3:atemp>32.0</ns3:atemp>
          </ns3:TrackPointExtension>
        </extensions>
      </trkpt>
      <trkpt lat="31.4091176725924015045166015625" lon="119.4852905161678791046142578125">
        <ele>128.8000030517578125</ele>
        <time>2016-04-13T06:40:55.000Z</time>
        <extensions>
          <ns3:TrackPointExtension>
            <ns3:atemp>32.0</ns3:atemp>
          </ns3:TrackPointExtension>
        </extensions>
      </trkpt>
      <trkpt lat="31.4091203548014163970947265625" lon="119.48525053448975086212158203125">
        <ele>128.600006103515625</ele>
        <time>2016-04-13T06:40:56.000Z</time>
        <extensions>
          <ns3:TrackPointExtension>
            <ns3:atemp>32.0</ns3:atemp>
          </ns3:TrackPointExtension>
        </extensions>
      </trkpt>
      <trkpt lat="31.4091248810291290283203125" lon="119.48520309291779994964599609375">
        <ele>128.399993896484375</ele>
        <time>2016-04-13T06:40:57.000Z</time>
        <extensions>
          <ns3:TrackPointExtension>
            <ns3:atemp>32.0</ns3:atemp>
          </ns3:TrackPointExtension>
        </extensions>
      </trkpt>
      <trkpt lat="31.409129239618778228759765625" lon="119.4851537235081195831298828125">
        <ele>128.399993896484375</ele>
        <time>2016-04-13T06:40:58.000Z</time>
        <extensions>
          <ns3:TrackPointExtension>
            <ns3:atemp>32.0</ns3:atemp>
          </ns3:TrackPointExtension>
        </extensions>
      </trkpt>
      <trkpt lat="31.4091314189136028289794921875" lon="119.4851081259548664093017578125">
        <ele>128.399993896484375</ele>
        <time>2016-04-13T06:40:59.000Z</time>
        <extensions>
          <ns3:TrackPointExtension>
            <ns3:atemp>32.0</ns3:atemp>
          </ns3:TrackPointExtension>
        </extensions>
      </trkpt>
      <trkpt lat="31.4091347716748714447021484375" lon="119.4850605167448520660400390625">
        <ele>128.399993896484375</ele>
        <time>2016-04-13T06:41:00.000Z</time>
        <extensions>
          <ns3:TrackPointExtension>
            <ns3:atemp>32.0</ns3:atemp>
          </ns3:TrackPointExtension>
        </extensions>
      </trkpt>
      <trkpt lat="31.40913954935967922210693359375" lon="119.48501466773450374603271484375">
        <ele>128.600006103515625</ele>
        <time>2016-04-13T06:41:01.000Z</time>
        <extensions>
          <ns3:TrackPointExtension>
            <ns3:atemp>32.0</ns3:atemp>
          </ns3:TrackPointExtension>
        </extensions>
      </trkpt>
      <trkpt lat="31.4091463387012481689453125" lon="119.48496739380061626434326171875">
        <ele>128.600006103515625</ele>
        <time>2016-04-13T06:41:02.000Z</time>
        <extensions>
          <ns3:TrackPointExtension>
            <ns3:atemp>32.0</ns3:atemp>
          </ns3:TrackPointExtension>
        </extensions>
      </trkpt>
      <trkpt lat="31.4091532118618488311767578125" lon="119.484923891723155975341796875">
        <ele>128.399993896484375</ele>
        <time>2016-04-13T06:41:03.000Z</time>
        <extensions>
          <ns3:TrackPointExtension>
            <ns3:atemp>32.0</ns3:atemp>
          </ns3:TrackPointExtension>
        </extensions>
      </trkpt>
      <trkpt lat="31.409160755574703216552734375" lon="119.48487904854118824005126953125">
        <ele>128.399993896484375</ele>
        <time>2016-04-13T06:41:04.000Z</time>
        <extensions>
          <ns3:TrackPointExtension>
            <ns3:atemp>32.0</ns3:atemp>
          </ns3:TrackPointExtension>
        </extensions>
      </trkpt>
      <trkpt lat="31.4091693051159381866455078125" lon="119.48483278043568134307861328125">
        <ele>128.399993896484375</ele>
        <time>2016-04-13T06:41:05.000Z</time>
        <extensions>
          <ns3:TrackPointExtension>
            <ns3:atemp>32.0</ns3:atemp>
          </ns3:TrackPointExtension>
        </extensions>
      </trkpt>
      <trkpt lat="31.40917517244815826416015625" lon="119.48478248901665210723876953125">
        <ele>128.399993896484375</ele>
        <time>2016-04-13T06:41:06.000Z</time>
        <extensions>
          <ns3:TrackPointExtension>
            <ns3:atemp>32.0</ns3:atemp>
          </ns3:TrackPointExtension>
        </extensions>
      </trkpt>
      <trkpt lat="31.409183554351329803466796875" lon="119.4847336225211620330810546875">
        <ele>128.600006103515625</ele>
        <time>2016-04-13T06:41:07.000Z</time>
        <extensions>
          <ns3:TrackPointExtension>
            <ns3:atemp>32.0</ns3:atemp>
          </ns3:TrackPointExtension>
        </extensions>
      </trkpt>
      <trkpt lat="31.40919520519673824310302734375" lon="119.48468358255922794342041015625">
        <ele>128.600006103515625</ele>
        <time>2016-04-13T06:41:08.000Z</time>
        <extensions>
          <ns3:TrackPointExtension>
            <ns3:atemp>32.0</ns3:atemp>
          </ns3:TrackPointExtension>
        </extensions>
      </trkpt>
      <trkpt lat="31.4092065207660198211669921875" lon="119.4846357218921184539794921875">
        <ele>128.600006103515625</ele>
        <time>2016-04-13T06:41:09.000Z</time>
        <extensions>
          <ns3:TrackPointExtension>
            <ns3:atemp>32.0</ns3:atemp>
          </ns3:TrackPointExtension>
        </extensions>
      </trkpt>
      <trkpt lat="31.40921599231660366058349609375" lon="119.48458568193018436431884765625">
        <ele>128.600006103515625</ele>
        <time>2016-04-13T06:41:10.000Z</time>
        <extensions>
          <ns3:TrackPointExtension>
            <ns3:atemp>32.0</ns3:atemp>
          </ns3:TrackPointExtension>
        </extensions>
      </trkpt>
      <trkpt lat="31.40922303311526775360107421875" lon="119.48453304357826709747314453125">
        <ele>128.600006103515625</ele>
        <time>2016-04-13T06:41:11.000Z</time>
        <extensions>
          <ns3:TrackPointExtension>
            <ns3:atemp>32.0</ns3:atemp>
          </ns3:TrackPointExtension>
        </extensions>
      </trkpt>
      <trkpt lat="31.409227140247821807861328125" lon="119.48448233306407928466796875">
        <ele>128.600006103515625</ele>
        <time>2016-04-13T06:41:12.000Z</time>
        <extensions>
          <ns3:TrackPointExtension>
            <ns3:atemp>32.0</ns3:atemp>
          </ns3:TrackPointExtension>
        </extensions>
      </trkpt>
      <trkpt lat="31.40923007391393184661865234375" lon="119.4844318740069866180419921875">
        <ele>128.399993896484375</ele>
        <time>2016-04-13T06:41:13.000Z</time>
        <extensions>
          <ns3:TrackPointExtension>
            <ns3:atemp>32.0</ns3:atemp>
          </ns3:TrackPointExtension>
        </extensions>
      </trkpt>
      <trkpt lat="31.40923476777970790863037109375" lon="119.48438602499663829803466796875">
        <ele>128.399993896484375</ele>
        <time>2016-04-13T06:41:14.000Z</time>
        <extensions>
          <ns3:TrackPointExtension>
            <ns3:atemp>32.0</ns3:atemp>
          </ns3:TrackPointExtension>
        </extensions>
      </trkpt>
      <trkpt lat="31.409240551292896270751953125" lon="119.484340846538543701171875">
        <ele>128.399993896484375</ele>
        <time>2016-04-13T06:41:15.000Z</time>
        <extensions>
          <ns3:TrackPointExtension>
            <ns3:atemp>32.0</ns3:atemp>
          </ns3:TrackPointExtension>
        </extensions>
      </trkpt>
      <trkpt lat="31.4092460833489894866943359375" lon="119.48429348878562450408935546875">
        <ele>128.399993896484375</ele>
        <time>2016-04-13T06:41:16.000Z</time>
        <extensions>
          <ns3:TrackPointExtension>
            <ns3:atemp>32.0</ns3:atemp>
          </ns3:TrackPointExtension>
        </extensions>
      </trkpt>
      <trkpt lat="31.40925019048154354095458984375" lon="119.48424587957561016082763671875">
        <ele>128.1999969482421875</ele>
        <time>2016-04-13T06:41:17.000Z</time>
        <extensions>
          <ns3:TrackPointExtension>
            <ns3:atemp>32.0</ns3:atemp>
          </ns3:TrackPointExtension>
        </extensions>
      </trkpt>
      <trkpt lat="31.40925438143312931060791015625" lon="119.48419667780399322509765625">
        <ele>128.399993896484375</ele>
        <time>2016-04-13T06:41:18.000Z</time>
        <extensions>
          <ns3:TrackPointExtension>
            <ns3:atemp>32.0</ns3:atemp>
          </ns3:TrackPointExtension>
        </extensions>
      </trkpt>
      <trkpt lat="31.409257315099239349365234375" lon="119.4841515831649303436279296875">
        <ele>128.399993896484375</ele>
        <time>2016-04-13T06:41:19.000Z</time>
        <extensions>
          <ns3:TrackPointExtension>
            <ns3:atemp>32.0</ns3:atemp>
          </ns3:TrackPointExtension>
        </extensions>
      </trkpt>
      <trkpt lat="31.4092611707746982574462890625" lon="119.48410539887845516204833984375">
        <ele>128.600006103515625</ele>
        <time>2016-04-13T06:41:20.000Z</time>
        <extensions>
          <ns3:TrackPointExtension>
            <ns3:atemp>32.0</ns3:atemp>
          </ns3:TrackPointExtension>
        </extensions>
      </trkpt>
      <trkpt lat="31.40926661901175975799560546875" lon="119.4840553589165210723876953125">
        <ele>128.8000030517578125</ele>
        <time>2016-04-13T06:41:21.000Z</time>
        <extensions>
          <ns3:TrackPointExtension>
            <ns3:atemp>32.0</ns3:atemp>
          </ns3:TrackPointExtension>
        </extensions>
      </trkpt>
      <trkpt lat="31.40927215106785297393798828125" lon="119.48400867171585559844970703125">
        <ele>128.8000030517578125</ele>
        <time>2016-04-13T06:41:22.000Z</time>
        <extensions>
          <ns3:TrackPointExtension>
            <ns3:atemp>32.0</ns3:atemp>
          </ns3:TrackPointExtension>
        </extensions>
      </trkpt>
      <trkpt lat="31.40927533619105815887451171875" lon="119.48396240361034870147705078125">
        <ele>128.8000030517578125</ele>
        <time>2016-04-13T06:41:23.000Z</time>
        <extensions>
          <ns3:TrackPointExtension>
            <ns3:atemp>32.0</ns3:atemp>
          </ns3:TrackPointExtension>
        </extensions>
      </trkpt>
      <trkpt lat="31.40928053297102451324462890625" lon="119.4839155487716197967529296875">
        <ele>128.600006103515625</ele>
        <time>2016-04-13T06:41:24.000Z</time>
        <extensions>
          <ns3:TrackPointExtension>
            <ns3:atemp>32.0</ns3:atemp>
          </ns3:TrackPointExtension>
        </extensions>
      </trkpt>
      <trkpt lat="31.40929293818771839141845703125" lon="119.48386718519032001495361328125">
        <ele>128.600006103515625</ele>
        <time>2016-04-13T06:41:25.000Z</time>
        <extensions>
          <ns3:TrackPointExtension>
            <ns3:atemp>32.0</ns3:atemp>
          </ns3:TrackPointExtension>
        </extensions>
      </trkpt>
      <trkpt lat="31.409304924309253692626953125" lon="119.48381639085710048675537109375">
        <ele>128.600006103515625</ele>
        <time>2016-04-13T06:41:26.000Z</time>
        <extensions>
          <ns3:TrackPointExtension>
            <ns3:atemp>32.0</ns3:atemp>
          </ns3:TrackPointExtension>
        </extensions>
      </trkpt>
      <trkpt lat="31.40931623987853527069091796875" lon="119.48376660235226154327392578125">
        <ele>128.8000030517578125</ele>
        <time>2016-04-13T06:41:27.000Z</time>
        <extensions>
          <ns3:TrackPointExtension>
            <ns3:atemp>32.0</ns3:atemp>
          </ns3:TrackPointExtension>
        </extensions>
      </trkpt>
      <trkpt lat="31.409327052533626556396484375" lon="119.483718574047088623046875">
        <ele>128.8000030517578125</ele>
        <time>2016-04-13T06:41:28.000Z</time>
        <extensions>
          <ns3:TrackPointExtension>
            <ns3:atemp>32.0</ns3:atemp>
          </ns3:TrackPointExtension>
        </extensions>
      </trkpt>
      <trkpt lat="31.40933283604681491851806640625" lon="119.48367272503674030303955078125">
        <ele>128.8000030517578125</ele>
        <time>2016-04-13T06:41:29.000Z</time>
        <extensions>
          <ns3:TrackPointExtension>
            <ns3:atemp>32.0</ns3:atemp>
          </ns3:TrackPointExtension>
        </extensions>
      </trkpt>
      <trkpt lat="31.40933400951325893402099609375" lon="119.48362536728382110595703125">
        <ele>129</ele>
        <time>2016-04-13T06:41:30.000Z</time>
        <extensions>
          <ns3:TrackPointExtension>
            <ns3:atemp>32.0</ns3:atemp>
          </ns3:TrackPointExtension>
        </extensions>
      </trkpt>
      <trkpt lat="31.40933887101709842681884765625" lon="119.48358052410185337066650390625">
        <ele>129</ele>
        <time>2016-04-13T06:41:31.000Z</time>
        <extensions>
          <ns3:TrackPointExtension>
            <ns3:atemp>32.0</ns3:atemp>
          </ns3:TrackPointExtension>
        </extensions>
      </trkpt>
      <trkpt lat="31.4093423075973987579345703125" lon="119.483541212975978851318359375">
        <ele>128.8000030517578125</ele>
        <time>2016-04-13T06:41:32.000Z</time>
        <extensions>
          <ns3:TrackPointExtension>
            <ns3:atemp>32.0</ns3:atemp>
          </ns3:TrackPointExtension>
        </extensions>
      </trkpt>
      <trkpt lat="31.40934683382511138916015625" lon="119.48349486105144023895263671875">
        <ele>128.600006103515625</ele>
        <time>2016-04-13T06:41:33.000Z</time>
        <extensions>
          <ns3:TrackPointExtension>
            <ns3:atemp>32.0</ns3:atemp>
          </ns3:TrackPointExtension>
        </extensions>
      </trkpt>
      <trkpt lat="31.4093516953289508819580078125" lon="119.48345110751688480377197265625">
        <ele>128.600006103515625</ele>
        <time>2016-04-13T06:41:34.000Z</time>
        <extensions>
          <ns3:TrackPointExtension>
            <ns3:atemp>32.0</ns3:atemp>
          </ns3:TrackPointExtension>
        </extensions>
      </trkpt>
      <trkpt lat="31.40935756266117095947265625" lon="119.48340701870620250701904296875">
        <ele>128.8000030517578125</ele>
        <time>2016-04-13T06:41:35.000Z</time>
        <extensions>
          <ns3:TrackPointExtension>
            <ns3:atemp>32.0</ns3:atemp>
          </ns3:TrackPointExtension>
        </extensions>
      </trkpt>
      <trkpt lat="31.40936451964080333709716796875" lon="119.48335605673491954803466796875">
        <ele>128.8000030517578125</ele>
        <time>2016-04-13T06:41:36.000Z</time>
        <extensions>
          <ns3:TrackPointExtension>
            <ns3:atemp>32.0</ns3:atemp>
          </ns3:TrackPointExtension>
        </extensions>
      </trkpt>
      <trkpt lat="31.4093721471726894378662109375" lon="119.4833050109446048736572265625">
        <ele>128.8000030517578125</ele>
        <time>2016-04-13T06:41:37.000Z</time>
        <extensions>
          <ns3:TrackPointExtension>
            <ns3:atemp>32.0</ns3:atemp>
          </ns3:TrackPointExtension>
        </extensions>
      </trkpt>
      <trkpt lat="31.4093822054564952850341796875" lon="119.48325178585946559906005859375">
        <ele>128.8000030517578125</ele>
        <time>2016-04-13T06:41:38.000Z</time>
        <extensions>
          <ns3:TrackPointExtension>
            <ns3:atemp>32.0</ns3:atemp>
          </ns3:TrackPointExtension>
        </extensions>
      </trkpt>
      <trkpt lat="31.4093949459493160247802734375" lon="119.48319596238434314727783203125">
        <ele>128.8000030517578125</ele>
        <time>2016-04-13T06:41:39.000Z</time>
        <extensions>
          <ns3:TrackPointExtension>
            <ns3:atemp>32.0</ns3:atemp>
          </ns3:TrackPointExtension>
        </extensions>
      </trkpt>
      <trkpt lat="31.40940458513796329498291015625" lon="119.48314466513693332672119140625">
        <ele>128.8000030517578125</ele>
        <time>2016-04-13T06:41:40.000Z</time>
        <extensions>
          <ns3:TrackPointExtension>
            <ns3:atemp>32.0</ns3:atemp>
          </ns3:TrackPointExtension>
        </extensions>
      </trkpt>
      <trkpt lat="31.40941145829856395721435546875" lon="119.48309772647917270660400390625">
        <ele>129</ele>
        <time>2016-04-13T06:41:41.000Z</time>
        <extensions>
          <ns3:TrackPointExtension>
            <ns3:atemp>32.0</ns3:atemp>
          </ns3:TrackPointExtension>
        </extensions>
      </trkpt>
      <trkpt lat="31.4094190858304500579833984375" lon="119.48304693214595317840576171875">
        <ele>129</ele>
        <time>2016-04-13T06:41:42.000Z</time>
        <extensions>
          <ns3:TrackPointExtension>
            <ns3:atemp>32.0</ns3:atemp>
          </ns3:TrackPointExtension>
        </extensions>
      </trkpt>
      <trkpt lat="31.40942956320941448211669921875" lon="119.48300552554428577423095703125">
        <ele>129.1999969482421875</ele>
        <time>2016-04-13T06:41:43.000Z</time>
        <extensions>
          <ns3:TrackPointExtension>
            <ns3:atemp>32.0</ns3:atemp>
          </ns3:TrackPointExtension>
        </extensions>
      </trkpt>
      <trkpt lat="31.40944615937769412994384765625" lon="119.48295908980071544647216796875">
        <ele>129</ele>
        <time>2016-04-13T06:41:44.000Z</time>
        <extensions>
          <ns3:TrackPointExtension>
            <ns3:atemp>32.0</ns3:atemp>
          </ns3:TrackPointExtension>
        </extensions>
      </trkpt>
      <trkpt lat="31.40946677885949611663818359375" lon="119.4829191081225872039794921875">
        <ele>128.8000030517578125</ele>
        <time>2016-04-13T06:41:45.000Z</time>
        <extensions>
          <ns3:TrackPointExtension>
            <ns3:atemp>32.0</ns3:atemp>
          </ns3:TrackPointExtension>
        </extensions>
      </trkpt>
      <trkpt lat="31.409488655626773834228515625" lon="119.48288013227283954620361328125">
        <ele>128.600006103515625</ele>
        <time>2016-04-13T06:41:46.000Z</time>
        <extensions>
          <ns3:TrackPointExtension>
            <ns3:atemp>32.0</ns3:atemp>
          </ns3:TrackPointExtension>
        </extensions>
      </trkpt>
      <trkpt lat="31.409506760537624359130859375" lon="119.4828466884791851043701171875">
        <ele>128.600006103515625</ele>
        <time>2016-04-13T06:41:47.000Z</time>
        <extensions>
          <ns3:TrackPointExtension>
            <ns3:atemp>32.0</ns3:atemp>
          </ns3:TrackPointExtension>
        </extensions>
      </trkpt>
      <trkpt lat="31.4095122925937175750732421875" lon="119.4828094728291034698486328125">
        <ele>129</ele>
        <time>2016-04-13T06:41:48.000Z</time>
        <extensions>
          <ns3:TrackPointExtension>
            <ns3:atemp>32.0</ns3:atemp>
          </ns3:TrackPointExtension>
        </extensions>
      </trkpt>
      <trkpt lat="31.40950801782310009002685546875" lon="119.4827709160745143890380859375">
        <ele>129.1999969482421875</ele>
        <time>2016-04-13T06:41:49.000Z</time>
        <extensions>
          <ns3:TrackPointExtension>
            <ns3:atemp>32.0</ns3:atemp>
          </ns3:TrackPointExtension>
        </extensions>
      </trkpt>
      <trkpt lat="31.40949963591992855072021484375" lon="119.48273219168186187744140625">
        <ele>129.1999969482421875</ele>
        <time>2016-04-13T06:41:50.000Z</time>
        <extensions>
          <ns3:TrackPointExtension>
            <ns3:atemp>32.0</ns3:atemp>
          </ns3:TrackPointExtension>
        </extensions>
      </trkpt>
      <trkpt lat="31.40949812717735767364501953125" lon="119.48269623331725597381591796875">
        <ele>129</ele>
        <time>2016-04-13T06:41:51.000Z</time>
        <extensions>
          <ns3:TrackPointExtension>
            <ns3:atemp>32.0</ns3:atemp>
          </ns3:TrackPointExtension>
        </extensions>
      </trkpt>
      <trkpt lat="31.40950265340507030487060546875" lon="119.48265817947685718536376953125">
        <ele>129</ele>
        <time>2016-04-13T06:41:52.000Z</time>
        <extensions>
          <ns3:TrackPointExtension>
            <ns3:atemp>32.0</ns3:atemp>
          </ns3:TrackPointExtension>
        </extensions>
      </trkpt>
      <trkpt lat="31.40950969420373439788818359375" lon="119.4826163537800312042236328125">
        <ele>129</ele>
        <time>2016-04-13T06:41:53.000Z</time>
        <extensions>
          <ns3:TrackPointExtension>
            <ns3:atemp>32.0</ns3:atemp>
          </ns3:TrackPointExtension>
        </extensions>
      </trkpt>
      <trkpt lat="31.40951447188854217529296875" lon="119.4825761206448078155517578125">
        <ele>129.1999969482421875</ele>
        <time>2016-04-13T06:41:54.000Z</time>
        <extensions>
          <ns3:TrackPointExtension>
            <ns3:atemp>32.0</ns3:atemp>
          </ns3:TrackPointExtension>
        </extensions>
      </trkpt>
      <trkpt lat="31.40951992012560367584228515625" lon="119.48253563605248928070068359375">
        <ele>129</ele>
        <time>2016-04-13T06:41:55.000Z</time>
        <extensions>
          <ns3:TrackPointExtension>
            <ns3:atemp>32.0</ns3:atemp>
          </ns3:TrackPointExtension>
        </extensions>
      </trkpt>
      <trkpt lat="31.40952545218169689178466796875" lon="119.48248936794698238372802734375">
        <ele>129</ele>
        <time>2016-04-13T06:41:56.000Z</time>
        <extensions>
          <ns3:TrackPointExtension>
            <ns3:atemp>32.0</ns3:atemp>
          </ns3:TrackPointExtension>
        </extensions>
      </trkpt>
      <trkpt lat="31.40952612273395061492919921875" lon="119.4824855960905551910400390625">
        <ele>129</ele>
        <time>2016-04-13T06:41:57.000Z</time>
        <extensions>
          <ns3:TrackPointExtension>
            <ns3:atemp>32.0</ns3:atemp>
          </ns3:TrackPointExtension>
        </extensions>
      </trkpt>
      <trkpt lat="31.4095277152955532073974609375" lon="119.48246589861810207366943359375">
        <ele>129</ele>
        <time>2016-04-13T06:41:58.000Z</time>
        <extensions>
          <ns3:TrackPointExtension>
            <ns3:atemp>32.0</ns3:atemp>
          </ns3:TrackPointExtension>
        </extensions>
      </trkpt>
      <trkpt lat="31.4095303975045680999755859375" lon="119.48244058527052402496337890625">
        <ele>129</ele>
        <time>2016-04-13T06:41:59.000Z</time>
        <extensions>
          <ns3:TrackPointExtension>
            <ns3:atemp>32.0</ns3:atemp>
          </ns3:TrackPointExtension>
        </extensions>
      </trkpt>
      <trkpt lat="31.40953366644680500030517578125" lon="119.48241275735199451446533203125">
        <ele>129</ele>
        <time>2016-04-13T06:42:00.000Z</time>
        <extensions>
          <ns3:TrackPointExtension>
            <ns3:atemp>32.0</ns3:atemp>
          </ns3:TrackPointExtension>
        </extensions>
      </trkpt>
      <trkpt lat="31.4095377735793590545654296875" lon="119.48238124139606952667236328125">
        <ele>129</ele>
        <time>2016-04-13T06:42:01.000Z</time>
        <extensions>
          <ns3:TrackPointExtension>
            <ns3:atemp>32.0</ns3:atemp>
          </ns3:TrackPointExtension>
        </extensions>
      </trkpt>
      <trkpt lat="31.4095441438257694244384765625" lon="119.48234201408922672271728515625">
        <ele>129</ele>
        <time>2016-04-13T06:42:02.000Z</time>
        <extensions>
          <ns3:TrackPointExtension>
            <ns3:atemp>32.0</ns3:atemp>
          </ns3:TrackPointExtension>
        </extensions>
      </trkpt>
      <trkpt lat="31.409551016986370086669921875" lon="119.48230429552495479583740234375">
        <ele>129.1999969482421875</ele>
        <time>2016-04-13T06:42:03.000Z</time>
        <extensions>
          <ns3:TrackPointExtension>
            <ns3:atemp>32.0</ns3:atemp>
          </ns3:TrackPointExtension>
        </extensions>
      </trkpt>
      <trkpt lat="31.40955814160406589508056640625" lon="119.482262134552001953125">
        <ele>129.1999969482421875</ele>
        <time>2016-04-13T06:42:04.000Z</time>
        <extensions>
          <ns3:TrackPointExtension>
            <ns3:atemp>32.0</ns3:atemp>
          </ns3:TrackPointExtension>
        </extensions>
      </trkpt>
      <trkpt lat="31.40956417657434940338134765625" lon="119.4822177104651927947998046875">
        <ele>129.399993896484375</ele>
        <time>2016-04-13T06:42:05.000Z</time>
        <extensions>
          <ns3:TrackPointExtension>
            <ns3:atemp>32.0</ns3:atemp>
          </ns3:TrackPointExtension>
        </extensions>
      </trkpt>
      <trkpt lat="31.4095713011920452117919921875" lon="119.4821724481880664825439453125">
        <ele>129.399993896484375</ele>
        <time>2016-04-13T06:42:06.000Z</time>
        <extensions>
          <ns3:TrackPointExtension>
            <ns3:atemp>32.0</ns3:atemp>
          </ns3:TrackPointExtension>
        </extensions>
      </trkpt>
      <trkpt lat="31.4095766656100749969482421875" lon="119.48212693445384502410888671875">
        <ele>129.399993896484375</ele>
        <time>2016-04-13T06:42:07.000Z</time>
        <extensions>
          <ns3:TrackPointExtension>
            <ns3:atemp>32.0</ns3:atemp>
          </ns3:TrackPointExtension>
        </extensions>
      </trkpt>
      <trkpt lat="31.4095820300281047821044921875" lon="119.4820772297680377960205078125">
        <ele>129.399993896484375</ele>
        <time>2016-04-13T06:42:08.000Z</time>
        <extensions>
          <ns3:TrackPointExtension>
            <ns3:atemp>32.0</ns3:atemp>
          </ns3:TrackPointExtension>
        </extensions>
      </trkpt>
      <trkpt lat="31.4095870591700077056884765625" lon="119.48203104548156261444091796875">
        <ele>129.1999969482421875</ele>
        <time>2016-04-13T06:42:09.000Z</time>
        <extensions>
          <ns3:TrackPointExtension>
            <ns3:atemp>32.0</ns3:atemp>
          </ns3:TrackPointExtension>
        </extensions>
      </trkpt>
      <trkpt lat="31.4095934294164180755615234375" lon="119.481985531747341156005859375">
        <ele>129.1999969482421875</ele>
        <time>2016-04-13T06:42:10.000Z</time>
        <extensions>
          <ns3:TrackPointExtension>
            <ns3:atemp>32.0</ns3:atemp>
          </ns3:TrackPointExtension>
        </extensions>
      </trkpt>
      <trkpt lat="31.40960021875798702239990234375" lon="119.48193825781345367431640625">
        <ele>129.1999969482421875</ele>
        <time>2016-04-13T06:42:11.000Z</time>
        <extensions>
          <ns3:TrackPointExtension>
            <ns3:atemp>32.0</ns3:atemp>
          </ns3:TrackPointExtension>
        </extensions>
      </trkpt>
      <trkpt lat="31.4096078462898731231689453125" lon="119.48188989423215389251708984375">
        <ele>129.1999969482421875</ele>
        <time>2016-04-13T06:42:12.000Z</time>
        <extensions>
          <ns3:TrackPointExtension>
            <ns3:atemp>32.0</ns3:atemp>
          </ns3:TrackPointExtension>
        </extensions>
      </trkpt>
      <trkpt lat="31.4096155576407909393310546875" lon="119.48183742351830005645751953125">
        <ele>129.1999969482421875</ele>
        <time>2016-04-13T06:42:13.000Z</time>
        <extensions>
          <ns3:TrackPointExtension>
            <ns3:atemp>32.0</ns3:atemp>
          </ns3:TrackPointExtension>
        </extensions>
      </trkpt>
      <trkpt lat="31.409622766077518463134765625" lon="119.481785707175731658935546875">
        <ele>129.399993896484375</ele>
        <time>2016-04-13T06:42:14.000Z</time>
        <extensions>
          <ns3:TrackPointExtension>
            <ns3:atemp>32.0</ns3:atemp>
          </ns3:TrackPointExtension>
        </extensions>
      </trkpt>
      <trkpt lat="31.409630812704563140869140625" lon="119.48173047043383121490478515625">
        <ele>129.399993896484375</ele>
        <time>2016-04-13T06:42:15.000Z</time>
        <extensions>
          <ns3:TrackPointExtension>
            <ns3:atemp>32.0</ns3:atemp>
          </ns3:TrackPointExtension>
        </extensions>
      </trkpt>
      <trkpt lat="31.40963760204613208770751953125" lon="119.48167565278708934783935546875">
        <ele>129.1999969482421875</ele>
        <time>2016-04-13T06:42:16.000Z</time>
        <extensions>
          <ns3:TrackPointExtension>
            <ns3:atemp>32.0</ns3:atemp>
          </ns3:TrackPointExtension>
        </extensions>
      </trkpt>
      <trkpt lat="31.40964011661708354949951171875" lon="119.481621421873569488525390625">
        <ele>129.399993896484375</ele>
        <time>2016-04-13T06:42:17.000Z</time>
        <extensions>
          <ns3:TrackPointExtension>
            <ns3:atemp>32.0</ns3:atemp>
          </ns3:TrackPointExtension>
        </extensions>
      </trkpt>
      <trkpt lat="31.4096532762050628662109375" lon="119.48156367056071758270263671875">
        <ele>129.600006103515625</ele>
        <time>2016-04-13T06:42:18.000Z</time>
        <extensions>
          <ns3:TrackPointExtension>
            <ns3:atemp>32.0</ns3:atemp>
          </ns3:TrackPointExtension>
        </extensions>
      </trkpt>
      <trkpt lat="31.40965872444212436676025390625" lon="119.48150902055203914642333984375">
        <ele>129.600006103515625</ele>
        <time>2016-04-13T06:42:19.000Z</time>
        <extensions>
          <ns3:TrackPointExtension>
            <ns3:atemp>32.0</ns3:atemp>
          </ns3:TrackPointExtension>
        </extensions>
      </trkpt>
      <trkpt lat="31.4096658490598201751708984375" lon="119.48145319707691669464111328125">
        <ele>129.600006103515625</ele>
        <time>2016-04-13T06:42:20.000Z</time>
        <extensions>
          <ns3:TrackPointExtension>
            <ns3:atemp>32.0</ns3:atemp>
          </ns3:TrackPointExtension>
        </extensions>
      </trkpt>
      <trkpt lat="31.40967314131557941436767578125" lon="119.48139770887792110443115234375">
        <ele>129.600006103515625</ele>
        <time>2016-04-13T06:42:21.000Z</time>
        <extensions>
          <ns3:TrackPointExtension>
            <ns3:atemp>32.0</ns3:atemp>
          </ns3:TrackPointExtension>
        </extensions>
      </trkpt>
      <trkpt lat="31.40967934392392635345458984375" lon="119.4813416339457035064697265625">
        <ele>129.600006103515625</ele>
        <time>2016-04-13T06:42:22.000Z</time>
        <extensions>
          <ns3:TrackPointExtension>
            <ns3:atemp>32.0</ns3:atemp>
          </ns3:TrackPointExtension>
        </extensions>
      </trkpt>
      <trkpt lat="31.409685797989368438720703125" lon="119.48128539137542247772216796875">
        <ele>129.399993896484375</ele>
        <time>2016-04-13T06:42:23.000Z</time>
        <extensions>
          <ns3:TrackPointExtension>
            <ns3:atemp>32.0</ns3:atemp>
          </ns3:TrackPointExtension>
        </extensions>
      </trkpt>
      <trkpt lat="31.4096923358738422393798828125" lon="119.481229148805141448974609375">
        <ele>129.399993896484375</ele>
        <time>2016-04-13T06:42:24.000Z</time>
        <extensions>
          <ns3:TrackPointExtension>
            <ns3:atemp>32.0</ns3:atemp>
          </ns3:TrackPointExtension>
        </extensions>
      </trkpt>
      <trkpt lat="31.4097010530531406402587890625" lon="119.4811750017106533050537109375">
        <ele>129.399993896484375</ele>
        <time>2016-04-13T06:42:25.000Z</time>
        <extensions>
          <ns3:TrackPointExtension>
            <ns3:atemp>32.0</ns3:atemp>
          </ns3:TrackPointExtension>
        </extensions>
      </trkpt>
      <trkpt lat="31.4097097702324390411376953125" lon="119.48111892677843570709228515625">
        <ele>129.399993896484375</ele>
        <time>2016-04-13T06:42:26.000Z</time>
        <extensions>
          <ns3:TrackPointExtension>
            <ns3:atemp>32.0</ns3:atemp>
          </ns3:TrackPointExtension>
        </extensions>
      </trkpt>
      <trkpt lat="31.40972100198268890380859375" lon="119.48106385767459869384765625">
        <ele>129.1999969482421875</ele>
        <time>2016-04-13T06:42:27.000Z</time>
        <extensions>
          <ns3:TrackPointExtension>
            <ns3:atemp>32.0</ns3:atemp>
          </ns3:TrackPointExtension>
        </extensions>
      </trkpt>
      <trkpt lat="31.40973307192325592041015625" lon="119.48100996203720569610595703125">
        <ele>129.1999969482421875</ele>
        <time>2016-04-13T06:42:28.000Z</time>
        <extensions>
          <ns3:TrackPointExtension>
            <ns3:atemp>32.0</ns3:atemp>
          </ns3:TrackPointExtension>
        </extensions>
      </trkpt>
      <trkpt lat="31.40974924899637699127197265625" lon="119.4809580780565738677978515625">
        <ele>129</ele>
        <time>2016-04-13T06:42:29.000Z</time>
        <extensions>
          <ns3:TrackPointExtension>
            <ns3:atemp>32.0</ns3:atemp>
          </ns3:TrackPointExtension>
        </extensions>
      </trkpt>
      <trkpt lat="31.40976349823176860809326171875" lon="119.4809067808091640472412109375">
        <ele>129</ele>
        <time>2016-04-13T06:42:30.000Z</time>
        <extensions>
          <ns3:TrackPointExtension>
            <ns3:atemp>32.0</ns3:atemp>
          </ns3:TrackPointExtension>
        </extensions>
      </trkpt>
      <trkpt lat="31.40977204777300357818603515625" lon="119.48085305280983448028564453125">
        <ele>129</ele>
        <time>2016-04-13T06:42:31.000Z</time>
        <extensions>
          <ns3:TrackPointExtension>
            <ns3:atemp>32.0</ns3:atemp>
          </ns3:TrackPointExtension>
        </extensions>
      </trkpt>
      <trkpt lat="31.4097798429429531097412109375" lon="119.48079857043921947479248046875">
        <ele>129</ele>
        <time>2016-04-13T06:42:32.000Z</time>
        <extensions>
          <ns3:TrackPointExtension>
            <ns3:atemp>32.0</ns3:atemp>
          </ns3:TrackPointExtension>
        </extensions>
      </trkpt>
      <trkpt lat="31.40979652293026447296142578125" lon="119.48074710555374622344970703125">
        <ele>129</ele>
        <time>2016-04-13T06:42:33.000Z</time>
        <extensions>
          <ns3:TrackPointExtension>
            <ns3:atemp>32.0</ns3:atemp>
          </ns3:TrackPointExtension>
        </extensions>
      </trkpt>
      <trkpt lat="31.40982426702976226806640625" lon="119.4807046093046665191650390625">
        <ele>129</ele>
        <time>2016-04-13T06:42:34.000Z</time>
        <extensions>
          <ns3:TrackPointExtension>
            <ns3:atemp>32.0</ns3:atemp>
          </ns3:TrackPointExtension>
        </extensions>
      </trkpt>
      <trkpt lat="31.40986056067049503326416015625" lon="119.4806782901287078857421875">
        <ele>129</ele>
        <time>2016-04-13T06:42:35.000Z</time>
        <extensions>
          <ns3:TrackPointExtension>
            <ns3:atemp>32.0</ns3:atemp>
          </ns3:TrackPointExtension>
        </extensions>
      </trkpt>
      <trkpt lat="31.40990129671990871429443359375" lon="119.48066144250333309173583984375">
        <ele>129</ele>
        <time>2016-04-13T06:42:36.000Z</time>
        <extensions>
          <ns3:TrackPointExtension>
            <ns3:atemp>32.0</ns3:atemp>
          </ns3:TrackPointExtension>
        </extensions>
      </trkpt>
      <trkpt lat="31.4099401049315929412841796875" lon="119.48064006865024566650390625">
        <ele>129</ele>
        <time>2016-04-13T06:42:37.000Z</time>
        <extensions>
          <ns3:TrackPointExtension>
            <ns3:atemp>32.0</ns3:atemp>
          </ns3:TrackPointExtension>
        </extensions>
      </trkpt>
      <trkpt lat="31.4099726267158985137939453125" lon="119.48060788214206695556640625">
        <ele>129.1999969482421875</ele>
        <time>2016-04-13T06:42:38.000Z</time>
        <extensions>
          <ns3:TrackPointExtension>
            <ns3:atemp>32.0</ns3:atemp>
          </ns3:TrackPointExtension>
        </extensions>
      </trkpt>
      <trkpt lat="31.40999282710254192352294921875" lon="119.4805671460926532745361328125">
        <ele>129.1999969482421875</ele>
        <time>2016-04-13T06:42:39.000Z</time>
        <extensions>
          <ns3:TrackPointExtension>
            <ns3:atemp>32.0</ns3:atemp>
          </ns3:TrackPointExtension>
        </extensions>
      </trkpt>
      <trkpt lat="31.41000892035663127899169921875" lon="119.48052112944424152374267578125">
        <ele>129.399993896484375</ele>
        <time>2016-04-13T06:42:40.000Z</time>
        <extensions>
          <ns3:TrackPointExtension>
            <ns3:atemp>32.0</ns3:atemp>
          </ns3:TrackPointExtension>
        </extensions>
      </trkpt>
      <trkpt lat="31.410023085772991180419921875" lon="119.4804722629487514495849609375">
        <ele>129.399993896484375</ele>
        <time>2016-04-13T06:42:41.000Z</time>
        <extensions>
          <ns3:TrackPointExtension>
            <ns3:atemp>32.0</ns3:atemp>
          </ns3:TrackPointExtension>
        </extensions>
      </trkpt>
      <trkpt lat="31.410037167370319366455078125" lon="119.4804243184626102447509765625">
        <ele>129.399993896484375</ele>
        <time>2016-04-13T06:42:42.000Z</time>
        <extensions>
          <ns3:TrackPointExtension>
            <ns3:atemp>32.0</ns3:atemp>
          </ns3:TrackPointExtension>
        </extensions>
      </trkpt>
      <trkpt lat="31.410052590072154998779296875" lon="119.4803767092525959014892578125">
        <ele>129.399993896484375</ele>
        <time>2016-04-13T06:42:43.000Z</time>
        <extensions>
          <ns3:TrackPointExtension>
            <ns3:atemp>32.0</ns3:atemp>
          </ns3:TrackPointExtension>
        </extensions>
      </trkpt>
      <trkpt lat="31.41006155870854854583740234375" lon="119.48032817803323268890380859375">
        <ele>129.600006103515625</ele>
        <time>2016-04-13T06:42:44.000Z</time>
        <extensions>
          <ns3:TrackPointExtension>
            <ns3:atemp>32.0</ns3:atemp>
          </ns3:TrackPointExtension>
        </extensions>
      </trkpt>
      <trkpt lat="31.41006072051823139190673828125" lon="119.48028023354709148406982421875">
        <ele>129.600006103515625</ele>
        <time>2016-04-13T06:42:45.000Z</time>
        <extensions>
          <ns3:TrackPointExtension>
            <ns3:atemp>32.0</ns3:atemp>
          </ns3:TrackPointExtension>
        </extensions>
      </trkpt>
      <trkpt lat="31.4100594632327556610107421875" lon="119.480236060917377471923828125">
        <ele>129.8000030517578125</ele>
        <time>2016-04-13T06:42:46.000Z</time>
        <extensions>
          <ns3:TrackPointExtension>
            <ns3:atemp>32.0</ns3:atemp>
          </ns3:TrackPointExtension>
        </extensions>
      </trkpt>
      <trkpt lat="31.41005954705178737640380859375" lon="119.48020580224692821502685546875">
        <ele>130</ele>
        <time>2016-04-13T06:42:47.000Z</time>
        <extensions>
          <ns3:TrackPointExtension>
            <ns3:atemp>32.0</ns3:atemp>
          </ns3:TrackPointExtension>
        </extensions>
      </trkpt>
      <trkpt lat="31.4100597985088825225830078125" lon="119.48019306175410747528076171875">
        <ele>130</ele>
        <time>2016-04-13T06:42:48.000Z</time>
        <extensions>
          <ns3:TrackPointExtension>
            <ns3:atemp>32.0</ns3:atemp>
          </ns3:TrackPointExtension>
        </extensions>
      </trkpt>
      <trkpt lat="31.4100663363933563232421875" lon="119.480178393423557281494140625">
        <ele>130.1999969482421875</ele>
        <time>2016-04-13T06:42:49.000Z</time>
        <extensions>
          <ns3:TrackPointExtension>
            <ns3:atemp>32.0</ns3:atemp>
          </ns3:TrackPointExtension>
        </extensions>
      </trkpt>
      <trkpt lat="31.41007429920136928558349609375" lon="119.48016338981688022613525390625">
        <ele>130.1999969482421875</ele>
        <time>2016-04-13T06:42:50.000Z</time>
        <extensions>
          <ns3:TrackPointExtension>
            <ns3:atemp>32.0</ns3:atemp>
          </ns3:TrackPointExtension>
        </extensions>
      </trkpt>
      <trkpt lat="31.41008117236196994781494140625" lon="119.4801445305347442626953125">
        <ele>130.399993896484375</ele>
        <time>2016-04-13T06:42:51.000Z</time>
        <extensions>
          <ns3:TrackPointExtension>
            <ns3:atemp>32.0</ns3:atemp>
          </ns3:TrackPointExtension>
        </extensions>
      </trkpt>
      <trkpt lat="31.410088129341602325439453125" lon="119.4801222346723079681396484375">
        <ele>130.399993896484375</ele>
        <time>2016-04-13T06:42:52.000Z</time>
        <extensions>
          <ns3:TrackPointExtension>
            <ns3:atemp>32.0</ns3:atemp>
          </ns3:TrackPointExtension>
        </extensions>
      </trkpt>
      <trkpt lat="31.410091817378997802734375" lon="119.4800980947911739349365234375">
        <ele>130.600006103515625</ele>
        <time>2016-04-13T06:42:53.000Z</time>
        <extensions>
          <ns3:TrackPointExtension>
            <ns3:atemp>32.0</ns3:atemp>
          </ns3:TrackPointExtension>
        </extensions>
      </trkpt>
      <trkpt lat="31.410095505416393280029296875" lon="119.4800769723951816558837890625">
        <ele>130.399993896484375</ele>
        <time>2016-04-13T06:42:54.000Z</time>
        <extensions>
          <ns3:TrackPointExtension>
            <ns3:atemp>32.0</ns3:atemp>
          </ns3:TrackPointExtension>
        </extensions>
      </trkpt>
      <trkpt lat="31.41009676270186901092529296875" lon="119.48005274869501590728759765625">
        <ele>130.399993896484375</ele>
        <time>2016-04-13T06:42:55.000Z</time>
        <extensions>
          <ns3:TrackPointExtension>
            <ns3:atemp>32.0</ns3:atemp>
          </ns3:TrackPointExtension>
        </extensions>
      </trkpt>
      <trkpt lat="31.41009290702641010284423828125" lon="119.48002927936613559722900390625">
        <ele>130.399993896484375</ele>
        <time>2016-04-13T06:42:56.000Z</time>
        <extensions>
          <ns3:TrackPointExtension>
            <ns3:atemp>32.0</ns3:atemp>
          </ns3:TrackPointExtension>
        </extensions>
      </trkpt>
      <trkpt lat="31.41009424813091754913330078125" lon="119.48000614531338214874267578125">
        <ele>130.399993896484375</ele>
        <time>2016-04-13T06:42:57.000Z</time>
        <extensions>
          <ns3:TrackPointExtension>
            <ns3:atemp>32.0</ns3:atemp>
          </ns3:TrackPointExtension>
        </extensions>
      </trkpt>
      <trkpt lat="31.4100983552634716033935546875" lon="119.4799877889454364776611328125">
        <ele>130.1999969482421875</ele>
        <time>2016-04-13T06:42:58.000Z</time>
        <extensions>
          <ns3:TrackPointExtension>
            <ns3:atemp>32.0</ns3:atemp>
          </ns3:TrackPointExtension>
        </extensions>
      </trkpt>
      <trkpt lat="31.41009927727282047271728515625" lon="119.47996725328266620635986328125">
        <ele>130.1999969482421875</ele>
        <time>2016-04-13T06:42:59.000Z</time>
        <extensions>
          <ns3:TrackPointExtension>
            <ns3:atemp>32.0</ns3:atemp>
          </ns3:TrackPointExtension>
        </extensions>
      </trkpt>
      <trkpt lat="31.41009785234928131103515625" lon="119.47994495742022991180419921875">
        <ele>130.1999969482421875</ele>
        <time>2016-04-13T06:43:00.000Z</time>
        <extensions>
          <ns3:TrackPointExtension>
            <ns3:atemp>32.0</ns3:atemp>
          </ns3:TrackPointExtension>
        </extensions>
      </trkpt>
      <trkpt lat="31.4100950025022029876708984375" lon="119.47992199100553989410400390625">
        <ele>130.1999969482421875</ele>
        <time>2016-04-13T06:43:01.000Z</time>
        <extensions>
          <ns3:TrackPointExtension>
            <ns3:atemp>32.0</ns3:atemp>
          </ns3:TrackPointExtension>
        </extensions>
      </trkpt>
      <trkpt lat="31.4100877940654754638671875" lon="119.4799019582569599151611328125">
        <ele>130.1999969482421875</ele>
        <time>2016-04-13T06:43:02.000Z</time>
        <extensions>
          <ns3:TrackPointExtension>
            <ns3:atemp>32.0</ns3:atemp>
          </ns3:TrackPointExtension>
        </extensions>
      </trkpt>
      <trkpt lat="31.41007614322006702423095703125" lon="119.47987974621355533599853515625">
        <ele>130.1999969482421875</ele>
        <time>2016-04-13T06:43:03.000Z</time>
        <extensions>
          <ns3:TrackPointExtension>
            <ns3:atemp>32.0</ns3:atemp>
          </ns3:TrackPointExtension>
        </extensions>
      </trkpt>
      <trkpt lat="31.41006700694561004638671875" lon="119.47986315004527568817138671875">
        <ele>130.1999969482421875</ele>
        <time>2016-04-13T06:43:04.000Z</time>
        <extensions>
          <ns3:TrackPointExtension>
            <ns3:atemp>32.0</ns3:atemp>
          </ns3:TrackPointExtension>
        </extensions>
      </trkpt>
      <trkpt lat="31.41009793616831302642822265625" lon="119.4798258505761623382568359375">
        <ele>130.1999969482421875</ele>
        <time>2016-04-13T06:43:05.000Z</time>
        <extensions>
          <ns3:TrackPointExtension>
            <ns3:atemp>32.0</ns3:atemp>
          </ns3:TrackPointExtension>
        </extensions>
      </trkpt>
      <trkpt lat="31.4100986905395984649658203125" lon="119.4798146188259124755859375">
        <ele>130.1999969482421875</ele>
        <time>2016-04-13T06:43:06.000Z</time>
        <extensions>
          <ns3:TrackPointExtension>
            <ns3:atemp>32.0</ns3:atemp>
          </ns3:TrackPointExtension>
        </extensions>
      </trkpt>
      <trkpt lat="31.41011503525078296661376953125" lon="119.4798023812472820281982421875">
        <ele>130.1999969482421875</ele>
        <time>2016-04-13T06:43:08.000Z</time>
        <extensions>
          <ns3:TrackPointExtension>
            <ns3:atemp>32.0</ns3:atemp>
          </ns3:TrackPointExtension>
        </extensions>
      </trkpt>
      <trkpt lat="31.4101255126297473907470703125" lon="119.4798074103891849517822265625">
        <ele>130.1999969482421875</ele>
        <time>2016-04-13T06:43:10.000Z</time>
        <extensions>
          <ns3:TrackPointExtension>
            <ns3:atemp>32.0</ns3:atemp>
          </ns3:TrackPointExtension>
        </extensions>
      </trkpt>
      <trkpt lat="31.410129703581333160400390625" lon="119.47981017641723155975341796875">
        <ele>130.1999969482421875</ele>
        <time>2016-04-13T06:43:11.000Z</time>
        <extensions>
          <ns3:TrackPointExtension>
            <ns3:atemp>32.0</ns3:atemp>
          </ns3:TrackPointExtension>
        </extensions>
      </trkpt>
      <trkpt lat="31.41013146378099918365478515625" lon="119.479822330176830291748046875">
        <ele>130.1999969482421875</ele>
        <time>2016-04-13T06:43:12.000Z</time>
        <extensions>
          <ns3:TrackPointExtension>
            <ns3:atemp>32.0</ns3:atemp>
          </ns3:TrackPointExtension>
        </extensions>
      </trkpt>
      <trkpt lat="31.410140432417392730712890625" lon="119.47983515448868274688720703125">
        <ele>130.1999969482421875</ele>
        <time>2016-04-13T06:43:14.000Z</time>
        <extensions>
          <ns3:TrackPointExtension>
            <ns3:atemp>32.0</ns3:atemp>
          </ns3:TrackPointExtension>
        </extensions>
      </trkpt>
      <trkpt lat="31.4101442880928516387939453125" lon="119.4798416085541248321533203125">
        <ele>130.1999969482421875</ele>
        <time>2016-04-13T06:43:15.000Z</time>
        <extensions>
          <ns3:TrackPointExtension>
            <ns3:atemp>32.0</ns3:atemp>
          </ns3:TrackPointExtension>
        </extensions>
      </trkpt>
      <trkpt lat="31.41014370135962963104248046875" lon="119.47984538041055202484130859375">
        <ele>130.1999969482421875</ele>
        <time>2016-04-13T06:43:16.000Z</time>
        <extensions>
          <ns3:TrackPointExtension>
            <ns3:atemp>32.0</ns3:atemp>
          </ns3:TrackPointExtension>
        </extensions>
      </trkpt>
      <trkpt lat="31.41015258617699146270751953125" lon="119.4798580370843410491943359375">
        <ele>130</ele>
        <time>2016-04-13T06:43:18.000Z</time>
        <extensions>
          <ns3:TrackPointExtension>
            <ns3:atemp>32.0</ns3:atemp>
          </ns3:TrackPointExtension>
        </extensions>
      </trkpt>
      <trkpt lat="31.41015811823308467864990234375" lon="119.4798650778830051422119140625">
        <ele>130</ele>
        <time>2016-04-13T06:43:19.000Z</time>
        <extensions>
          <ns3:TrackPointExtension>
            <ns3:atemp>32.0</ns3:atemp>
          </ns3:TrackPointExtension>
        </extensions>
      </trkpt>
      <trkpt lat="31.41016197390854358673095703125" lon="119.4798696041107177734375">
        <ele>130</ele>
        <time>2016-04-13T06:43:20.000Z</time>
        <extensions>
          <ns3:TrackPointExtension>
            <ns3:atemp>32.0</ns3:atemp>
          </ns3:TrackPointExtension>
        </extensions>
      </trkpt>
      <trkpt lat="31.41016549430787563323974609375" lon="119.479872286319732666015625">
        <ele>130</ele>
        <time>2016-04-13T06:43:21.000Z</time>
        <extensions>
          <ns3:TrackPointExtension>
            <ns3:atemp>32.0</ns3:atemp>
          </ns3:TrackPointExtension>
        </extensions>
      </trkpt>
      <trkpt lat="31.41017152927815914154052734375" lon="119.4798788242042064666748046875">
        <ele>130</ele>
        <time>2016-04-13T06:43:22.000Z</time>
        <extensions>
          <ns3:TrackPointExtension>
            <ns3:atemp>32.0</ns3:atemp>
          </ns3:TrackPointExtension>
        </extensions>
      </trkpt>
      <trkpt lat="31.41017429530620574951171875" lon="119.4798825122416019439697265625">
        <ele>130</ele>
        <time>2016-04-13T06:43:23.000Z</time>
        <extensions>
          <ns3:TrackPointExtension>
            <ns3:atemp>32.0</ns3:atemp>
          </ns3:TrackPointExtension>
        </extensions>
      </trkpt>
      <trkpt lat="31.41017806716263294219970703125" lon="119.4798838533461093902587890625">
        <ele>130</ele>
        <time>2016-04-13T06:43:24.000Z</time>
        <extensions>
          <ns3:TrackPointExtension>
            <ns3:atemp>32.0</ns3:atemp>
          </ns3:TrackPointExtension>
        </extensions>
      </trkpt>
      <trkpt lat="31.4101808331906795501708984375" lon="119.47988041676580905914306640625">
        <ele>130.399993896484375</ele>
        <time>2016-04-13T06:43:25.000Z</time>
        <extensions>
          <ns3:TrackPointExtension>
            <ns3:atemp>32.0</ns3:atemp>
          </ns3:TrackPointExtension>
        </extensions>
      </trkpt>
      <trkpt lat="31.41018209047615528106689453125" lon="119.47987689636647701263427734375">
        <ele>130.8000030517578125</ele>
        <time>2016-04-13T06:43:26.000Z</time>
        <extensions>
          <ns3:TrackPointExtension>
            <ns3:atemp>32.0</ns3:atemp>
          </ns3:TrackPointExtension>
        </extensions>
      </trkpt>
    </trkseg>
  </trk>
</gpx>
