<gpx xmlns:ns3="http://www.garmin.com/xmlschemas/TrackPointExtension/v1" xmlns="http://www.topografix.com/GPX/1/1" xmlns:xsi="http://www.w3.org/2001/XMLSchema-instance" xmlns:ns2="http://www.garmin.com/xmlschemas/GpxExtensions/v3" creator="Garmin Connect" version="1.1" xsi:schemaLocation="http://www.topografix.com/GPX/1/1 http://www.topografix.com/GPX/11.xsd">
  <extensions>
<distance>400.0</distance>
<average_hr></average_hr>
<average_speed>0.23733013095876626</average_speed>
<start_time>2016-08-07T05:59:23+00:00</start_time>
<end_time>2016-08-07T06:27:28.416000+00:00</end_time>
<moving_time>522.416</moving_time>
<elapsed_time>1691.194</elapsed_time>
</extensions>
<metadata>
    <link href="connect.garmin.com">
      <text>Garmin Connect</text>
    </link>
    <time>2016-08-07T05:59:23.000Z</time>
  </metadata>
  <trk>
    <name>泳道游泳</name>
    <type>lap_swimming</type>
    <trkseg/>
  </trk>
</gpx>
