<gpx xmlns:ns3="http://www.garmin.com/xmlschemas/TrackPointExtension/v1" xmlns="http://www.topografix.com/GPX/1/1" xmlns:xsi="http://www.w3.org/2001/XMLSchema-instance" xmlns:ns2="http://www.garmin.com/xmlschemas/GpxExtensions/v3" creator="Garmin Connect" version="1.1" xsi:schemaLocation="http://www.topografix.com/GPX/1/1 http://www.topografix.com/GPX/11.xsd">
  <extensions>
<distance>3132.99</distance>
<average_hr></average_hr>
<average_speed>4.222358490566037</average_speed>
<start_time>2015-09-13T08:19:05+00:00</start_time>
<end_time>2015-09-13T08:31:27+00:00</end_time>
<moving_time>710.0</moving_time>
<elapsed_time>857.0</elapsed_time>
</extensions>
<metadata>
    <link href="connect.garmin.com">
      <text>Garmin Connect</text>
    </link>
    <time>2015-09-13T08:19:05.000Z</time>
  </metadata>
  <trk>
    <name>下班</name>
    <type>cycling</type>
    <trkseg>
      <trkpt lat="31.411269642412662506103515625" lon="119.48711852543056011199951171875">
        <ele>3.400000095367431640625</ele>
        <time>2015-09-13T08:19:05.000Z</time>
        <extensions>
          <ns3:TrackPointExtension>
            <ns3:atemp>29.0</ns3:atemp>
          </ns3:TrackPointExtension>
        </extensions>
      </trkpt>
      <trkpt lat="31.411310546100139617919921875" lon="119.48713830672204494476318359375">
        <ele>20</ele>
        <time>2015-09-13T08:19:06.000Z</time>
        <extensions>
          <ns3:TrackPointExtension>
            <ns3:atemp>29.0</ns3:atemp>
          </ns3:TrackPointExtension>
        </extensions>
      </trkpt>
      <trkpt lat="31.4113858155906200408935546875" lon="119.4870745204389095306396484375">
        <ele>20</ele>
        <time>2015-09-13T08:19:07.000Z</time>
        <extensions>
          <ns3:TrackPointExtension>
            <ns3:atemp>29.0</ns3:atemp>
          </ns3:TrackPointExtension>
        </extensions>
      </trkpt>
      <trkpt lat="31.41154624521732330322265625" lon="119.487068988382816314697265625">
        <ele>3.599999904632568359375</ele>
        <time>2015-09-13T08:19:10.000Z</time>
        <extensions>
          <ns3:TrackPointExtension>
            <ns3:atemp>29.0</ns3:atemp>
          </ns3:TrackPointExtension>
        </extensions>
      </trkpt>
      <trkpt lat="31.41158237121999263763427734375" lon="119.487075693905353546142578125">
        <ele>3.599999904632568359375</ele>
        <time>2015-09-13T08:19:11.000Z</time>
        <extensions>
          <ns3:TrackPointExtension>
            <ns3:atemp>29.0</ns3:atemp>
          </ns3:TrackPointExtension>
        </extensions>
      </trkpt>
      <trkpt lat="31.41187238506972789764404296875" lon="119.4869752787053585052490234375">
        <ele>3</ele>
        <time>2015-09-13T08:19:17.000Z</time>
        <extensions>
          <ns3:TrackPointExtension>
            <ns3:atemp>29.0</ns3:atemp>
          </ns3:TrackPointExtension>
        </extensions>
      </trkpt>
      <trkpt lat="31.41189149580895900726318359375" lon="119.48696765117347240447998046875">
        <ele>3</ele>
        <time>2015-09-13T08:19:18.000Z</time>
        <extensions>
          <ns3:TrackPointExtension>
            <ns3:atemp>29.0</ns3:atemp>
          </ns3:TrackPointExtension>
        </extensions>
      </trkpt>
      <trkpt lat="31.4119138754904270172119140625" lon="119.486943595111370086669921875">
        <ele>2.7999999523162841796875</ele>
        <time>2015-09-13T08:19:19.000Z</time>
        <extensions>
          <ns3:TrackPointExtension>
            <ns3:atemp>29.0</ns3:atemp>
          </ns3:TrackPointExtension>
        </extensions>
      </trkpt>
      <trkpt lat="31.41191831789910793304443359375" lon="119.4869541563093662261962890625">
        <ele>2.599999904632568359375</ele>
        <time>2015-09-13T08:19:20.000Z</time>
        <extensions>
          <ns3:TrackPointExtension>
            <ns3:atemp>29.0</ns3:atemp>
          </ns3:TrackPointExtension>
        </extensions>
      </trkpt>
      <trkpt lat="31.41191362403333187103271484375" lon="119.48698391206562519073486328125">
        <ele>2.599999904632568359375</ele>
        <time>2015-09-13T08:19:21.000Z</time>
        <extensions>
          <ns3:TrackPointExtension>
            <ns3:atemp>29.0</ns3:atemp>
          </ns3:TrackPointExtension>
        </extensions>
      </trkpt>
      <trkpt lat="31.41190976835787296295166015625" lon="119.48701224289834499359130859375">
        <ele>2.7999999523162841796875</ele>
        <time>2015-09-13T08:19:22.000Z</time>
        <extensions>
          <ns3:TrackPointExtension>
            <ns3:atemp>29.0</ns3:atemp>
          </ns3:TrackPointExtension>
        </extensions>
      </trkpt>
      <trkpt lat="31.41203113831579685211181640625" lon="119.486915767192840576171875">
        <ele>2.7999999523162841796875</ele>
        <time>2015-09-13T08:19:39.000Z</time>
        <extensions>
          <ns3:TrackPointExtension>
            <ns3:atemp>29.0</ns3:atemp>
          </ns3:TrackPointExtension>
        </extensions>
      </trkpt>
      <trkpt lat="31.41215569339692592620849609375" lon="119.48694535531103610992431640625">
        <ele>3.2000000476837158203125</ele>
        <time>2015-09-13T08:19:56.000Z</time>
        <extensions>
          <ns3:TrackPointExtension>
            <ns3:atemp>29.0</ns3:atemp>
          </ns3:TrackPointExtension>
        </extensions>
      </trkpt>
      <trkpt lat="31.41218737699091434478759765625" lon="119.48694954626262187957763671875">
        <ele>3.2000000476837158203125</ele>
        <time>2015-09-13T08:19:57.000Z</time>
        <extensions>
          <ns3:TrackPointExtension>
            <ns3:atemp>29.0</ns3:atemp>
          </ns3:TrackPointExtension>
        </extensions>
      </trkpt>
      <trkpt lat="31.412795819342136383056640625" lon="119.48693077079951763153076171875">
        <ele>4.19999980926513671875</ele>
        <time>2015-09-13T08:20:07.000Z</time>
        <extensions>
          <ns3:TrackPointExtension>
            <ns3:atemp>29.0</ns3:atemp>
          </ns3:TrackPointExtension>
        </extensions>
      </trkpt>
      <trkpt lat="31.4129877649247646331787109375" lon="119.48687997646629810333251953125">
        <ele>2.7999999523162841796875</ele>
        <time>2015-09-13T08:20:21.000Z</time>
        <extensions>
          <ns3:TrackPointExtension>
            <ns3:atemp>29.0</ns3:atemp>
          </ns3:TrackPointExtension>
        </extensions>
      </trkpt>
      <trkpt lat="31.41299597918987274169921875" lon="119.486876539885997772216796875">
        <ele>2.7999999523162841796875</ele>
        <time>2015-09-13T08:20:22.000Z</time>
        <extensions>
          <ns3:TrackPointExtension>
            <ns3:atemp>29.0</ns3:atemp>
          </ns3:TrackPointExtension>
        </extensions>
      </trkpt>
      <trkpt lat="31.41300880350172519683837890625" lon="119.4868736900389194488525390625">
        <ele>3</ele>
        <time>2015-09-13T08:20:23.000Z</time>
        <extensions>
          <ns3:TrackPointExtension>
            <ns3:atemp>29.0</ns3:atemp>
          </ns3:TrackPointExtension>
        </extensions>
      </trkpt>
      <trkpt lat="31.41303679905831813812255859375" lon="119.486867152154445648193359375">
        <ele>3.2000000476837158203125</ele>
        <time>2015-09-13T08:20:24.000Z</time>
        <extensions>
          <ns3:TrackPointExtension>
            <ns3:atemp>29.0</ns3:atemp>
          </ns3:TrackPointExtension>
        </extensions>
      </trkpt>
      <trkpt lat="31.4130648784339427947998046875" lon="119.48685985989868640899658203125">
        <ele>3.2000000476837158203125</ele>
        <time>2015-09-13T08:20:25.000Z</time>
        <extensions>
          <ns3:TrackPointExtension>
            <ns3:atemp>29.0</ns3:atemp>
          </ns3:TrackPointExtension>
        </extensions>
      </trkpt>
      <trkpt lat="31.41376309096813201904296875" lon="119.4868741929531097412109375">
        <ele>4.19999980926513671875</ele>
        <time>2015-09-13T08:20:36.000Z</time>
        <extensions>
          <ns3:TrackPointExtension>
            <ns3:atemp>29.0</ns3:atemp>
          </ns3:TrackPointExtension>
        </extensions>
      </trkpt>
      <trkpt lat="31.4138614945113658905029296875" lon="119.4868716783821582794189453125">
        <ele>4.400000095367431640625</ele>
        <time>2015-09-13T08:20:37.000Z</time>
        <extensions>
          <ns3:TrackPointExtension>
            <ns3:atemp>29.0</ns3:atemp>
          </ns3:TrackPointExtension>
        </extensions>
      </trkpt>
      <trkpt lat="31.41453967429697513580322265625" lon="119.48686455376446247100830078125">
        <ele>4.19999980926513671875</ele>
        <time>2015-09-13T08:20:45.000Z</time>
        <extensions>
          <ns3:TrackPointExtension>
            <ns3:atemp>29.0</ns3:atemp>
          </ns3:TrackPointExtension>
        </extensions>
      </trkpt>
      <trkpt lat="31.41510821878910064697265625" lon="119.486888945102691650390625">
        <ele>4.400000095367431640625</ele>
        <time>2015-09-13T08:20:53.000Z</time>
        <extensions>
          <ns3:TrackPointExtension>
            <ns3:atemp>29.0</ns3:atemp>
          </ns3:TrackPointExtension>
        </extensions>
      </trkpt>
      <trkpt lat="31.41543754376471042633056640625" lon="119.4868934713304042816162109375">
        <ele>3.400000095367431640625</ele>
        <time>2015-09-13T08:21:08.000Z</time>
        <extensions>
          <ns3:TrackPointExtension>
            <ns3:atemp>29.0</ns3:atemp>
          </ns3:TrackPointExtension>
        </extensions>
      </trkpt>
      <trkpt lat="31.4155261404812335968017578125" lon="119.48689690791070461273193359375">
        <ele>3.400000095367431640625</ele>
        <time>2015-09-13T08:21:48.000Z</time>
        <extensions>
          <ns3:TrackPointExtension>
            <ns3:atemp>29.0</ns3:atemp>
          </ns3:TrackPointExtension>
        </extensions>
      </trkpt>
      <trkpt lat="31.41610910184681415557861328125" lon="119.48686656542122364044189453125">
        <ele>4.599999904632568359375</ele>
        <time>2015-09-13T08:21:58.000Z</time>
        <extensions>
          <ns3:TrackPointExtension>
            <ns3:atemp>29.0</ns3:atemp>
          </ns3:TrackPointExtension>
        </extensions>
      </trkpt>
      <trkpt lat="31.41669298522174358367919921875" lon="119.4868036173284053802490234375">
        <ele>4.599999904632568359375</ele>
        <time>2015-09-13T08:22:07.000Z</time>
        <extensions>
          <ns3:TrackPointExtension>
            <ns3:atemp>29.0</ns3:atemp>
          </ns3:TrackPointExtension>
        </extensions>
      </trkpt>
      <trkpt lat="31.41747283749282360076904296875" lon="119.48678023181855678558349609375">
        <ele>5</ele>
        <time>2015-09-13T08:22:15.000Z</time>
        <extensions>
          <ns3:TrackPointExtension>
            <ns3:atemp>29.0</ns3:atemp>
          </ns3:TrackPointExtension>
        </extensions>
      </trkpt>
      <trkpt lat="31.41814724542200565338134765625" lon="119.486751817166805267333984375">
        <ele>5.400000095367431640625</ele>
        <time>2015-09-13T08:22:22.000Z</time>
        <extensions>
          <ns3:TrackPointExtension>
            <ns3:atemp>29.0</ns3:atemp>
          </ns3:TrackPointExtension>
        </extensions>
      </trkpt>
      <trkpt lat="31.418868005275726318359375" lon="119.48670663870871067047119140625">
        <ele>5.400000095367431640625</ele>
        <time>2015-09-13T08:22:29.000Z</time>
        <extensions>
          <ns3:TrackPointExtension>
            <ns3:atemp>29.0</ns3:atemp>
          </ns3:TrackPointExtension>
        </extensions>
      </trkpt>
      <trkpt lat="31.41955196857452392578125" lon="119.486696161329746246337890625">
        <ele>6.19999980926513671875</ele>
        <time>2015-09-13T08:22:36.000Z</time>
        <extensions>
          <ns3:TrackPointExtension>
            <ns3:atemp>29.0</ns3:atemp>
          </ns3:TrackPointExtension>
        </extensions>
      </trkpt>
      <trkpt lat="31.4200724847614765167236328125" lon="119.4866775535047054290771484375">
        <ele>5.599999904632568359375</ele>
        <time>2015-09-13T08:22:41.000Z</time>
        <extensions>
          <ns3:TrackPointExtension>
            <ns3:atemp>29.0</ns3:atemp>
          </ns3:TrackPointExtension>
        </extensions>
      </trkpt>
      <trkpt lat="31.42028664238750934600830078125" lon="119.48666833341121673583984375">
        <ele>5.599999904632568359375</ele>
        <time>2015-09-13T08:22:43.000Z</time>
        <extensions>
          <ns3:TrackPointExtension>
            <ns3:atemp>29.0</ns3:atemp>
          </ns3:TrackPointExtension>
        </extensions>
      </trkpt>
      <trkpt lat="31.42088343389332294464111328125" lon="119.48661946691572666168212890625">
        <ele>3.7999999523162841796875</ele>
        <time>2015-09-13T08:22:50.000Z</time>
        <extensions>
          <ns3:TrackPointExtension>
            <ns3:atemp>29.0</ns3:atemp>
          </ns3:TrackPointExtension>
        </extensions>
      </trkpt>
      <trkpt lat="31.42149883322417736053466796875" lon="119.48656666092574596405029296875">
        <ele>3.599999904632568359375</ele>
        <time>2015-09-13T08:23:01.000Z</time>
        <extensions>
          <ns3:TrackPointExtension>
            <ns3:atemp>29.0</ns3:atemp>
          </ns3:TrackPointExtension>
        </extensions>
      </trkpt>
      <trkpt lat="31.4221592433750629425048828125" lon="119.48649072088301181793212890625">
        <ele>4.599999904632568359375</ele>
        <time>2015-09-13T08:23:09.000Z</time>
        <extensions>
          <ns3:TrackPointExtension>
            <ns3:atemp>29.0</ns3:atemp>
          </ns3:TrackPointExtension>
        </extensions>
      </trkpt>
      <trkpt lat="31.42286877147853374481201171875" lon="119.48646582663059234619140625">
        <ele>5.19999980926513671875</ele>
        <time>2015-09-13T08:23:16.000Z</time>
        <extensions>
          <ns3:TrackPointExtension>
            <ns3:atemp>29.0</ns3:atemp>
          </ns3:TrackPointExtension>
        </extensions>
      </trkpt>
      <trkpt lat="31.4234718494117259979248046875" lon="119.48646448552608489990234375">
        <ele>4</ele>
        <time>2015-09-13T08:23:23.000Z</time>
        <extensions>
          <ns3:TrackPointExtension>
            <ns3:atemp>29.0</ns3:atemp>
          </ns3:TrackPointExtension>
        </extensions>
      </trkpt>
      <trkpt lat="31.42348743975162506103515625" lon="119.48647320270538330078125">
        <ele>3.2000000476837158203125</ele>
        <time>2015-09-13T08:23:29.000Z</time>
        <extensions>
          <ns3:TrackPointExtension>
            <ns3:atemp>29.0</ns3:atemp>
          </ns3:TrackPointExtension>
        </extensions>
      </trkpt>
      <trkpt lat="31.4235006831586360931396484375" lon="119.4864700175821781158447265625">
        <ele>3.400000095367431640625</ele>
        <time>2015-09-13T08:23:30.000Z</time>
        <extensions>
          <ns3:TrackPointExtension>
            <ns3:atemp>29.0</ns3:atemp>
          </ns3:TrackPointExtension>
        </extensions>
      </trkpt>
      <trkpt lat="31.42404106445610523223876953125" lon="119.48642668314278125762939453125">
        <ele>4.19999980926513671875</ele>
        <time>2015-09-13T08:23:44.000Z</time>
        <extensions>
          <ns3:TrackPointExtension>
            <ns3:atemp>29.0</ns3:atemp>
          </ns3:TrackPointExtension>
        </extensions>
      </trkpt>
      <trkpt lat="31.4242862351238727569580078125" lon="119.48644160293042659759521484375">
        <ele>3.599999904632568359375</ele>
        <time>2015-09-13T08:24:00.000Z</time>
        <extensions>
          <ns3:TrackPointExtension>
            <ns3:atemp>29.0</ns3:atemp>
          </ns3:TrackPointExtension>
        </extensions>
      </trkpt>
      <trkpt lat="31.42435689456760883331298828125" lon="119.48634319938719272613525390625">
        <ele>3.7999999523162841796875</ele>
        <time>2015-09-13T08:24:50.000Z</time>
        <extensions>
          <ns3:TrackPointExtension>
            <ns3:atemp>29.0</ns3:atemp>
          </ns3:TrackPointExtension>
        </extensions>
      </trkpt>
      <trkpt lat="31.42507941462099552154541015625" lon="119.4863261841237545013427734375">
        <ele>5.19999980926513671875</ele>
        <time>2015-09-13T08:25:03.000Z</time>
        <extensions>
          <ns3:TrackPointExtension>
            <ns3:atemp>29.0</ns3:atemp>
          </ns3:TrackPointExtension>
        </extensions>
      </trkpt>
      <trkpt lat="31.4256642200052738189697265625" lon="119.4862064905464649200439453125">
        <ele>5.80000019073486328125</ele>
        <time>2015-09-13T08:25:10.000Z</time>
        <extensions>
          <ns3:TrackPointExtension>
            <ns3:atemp>29.0</ns3:atemp>
          </ns3:TrackPointExtension>
        </extensions>
      </trkpt>
      <trkpt lat="31.4262239634990692138671875" lon="119.48611655272543430328369140625">
        <ele>4.80000019073486328125</ele>
        <time>2015-09-13T08:25:17.000Z</time>
        <extensions>
          <ns3:TrackPointExtension>
            <ns3:atemp>29.0</ns3:atemp>
          </ns3:TrackPointExtension>
        </extensions>
      </trkpt>
      <trkpt lat="31.4264881610870361328125" lon="119.48607196100056171417236328125">
        <ele>4</ele>
        <time>2015-09-13T08:25:32.000Z</time>
        <extensions>
          <ns3:TrackPointExtension>
            <ns3:atemp>29.0</ns3:atemp>
          </ns3:TrackPointExtension>
        </extensions>
      </trkpt>
      <trkpt lat="31.4265496842563152313232421875" lon="119.4860378466546535491943359375">
        <ele>4</ele>
        <time>2015-09-13T08:25:40.000Z</time>
        <extensions>
          <ns3:TrackPointExtension>
            <ns3:atemp>29.0</ns3:atemp>
          </ns3:TrackPointExtension>
        </extensions>
      </trkpt>
      <trkpt lat="31.42718754708766937255859375" lon="119.48615879751741886138916015625">
        <ele>5</ele>
        <time>2015-09-13T08:25:52.000Z</time>
        <extensions>
          <ns3:TrackPointExtension>
            <ns3:atemp>29.0</ns3:atemp>
          </ns3:TrackPointExtension>
        </extensions>
      </trkpt>
      <trkpt lat="31.4272691868245601654052734375" lon="119.48613465763628482818603515625">
        <ele>5</ele>
        <time>2015-09-13T08:25:53.000Z</time>
        <extensions>
          <ns3:TrackPointExtension>
            <ns3:atemp>29.0</ns3:atemp>
          </ns3:TrackPointExtension>
        </extensions>
      </trkpt>
      <trkpt lat="31.42789472825825214385986328125" lon="119.48607598431408405303955078125">
        <ele>5</ele>
        <time>2015-09-13T08:26:01.000Z</time>
        <extensions>
          <ns3:TrackPointExtension>
            <ns3:atemp>29.0</ns3:atemp>
          </ns3:TrackPointExtension>
        </extensions>
      </trkpt>
      <trkpt lat="31.42850141040980815887451171875" lon="119.485982693731784820556640625">
        <ele>3.400000095367431640625</ele>
        <time>2015-09-13T08:26:10.000Z</time>
        <extensions>
          <ns3:TrackPointExtension>
            <ns3:atemp>29.0</ns3:atemp>
          </ns3:TrackPointExtension>
        </extensions>
      </trkpt>
      <trkpt lat="31.42851666547358036041259765625" lon="119.485982358455657958984375">
        <ele>3.2000000476837158203125</ele>
        <time>2015-09-13T08:26:11.000Z</time>
        <extensions>
          <ns3:TrackPointExtension>
            <ns3:atemp>29.0</ns3:atemp>
          </ns3:TrackPointExtension>
        </extensions>
      </trkpt>
      <trkpt lat="31.428540050983428955078125" lon="119.4859836995601654052734375">
        <ele>2.7999999523162841796875</ele>
        <time>2015-09-13T08:26:19.000Z</time>
        <extensions>
          <ns3:TrackPointExtension>
            <ns3:atemp>29.0</ns3:atemp>
          </ns3:TrackPointExtension>
        </extensions>
      </trkpt>
      <trkpt lat="31.4284748397767543792724609375" lon="119.4859821908175945281982421875">
        <ele>2.7999999523162841796875</ele>
        <time>2015-09-13T08:26:26.000Z</time>
        <extensions>
          <ns3:TrackPointExtension>
            <ns3:atemp>29.0</ns3:atemp>
          </ns3:TrackPointExtension>
        </extensions>
      </trkpt>
      <trkpt lat="31.4284661225974559783935546875" lon="119.48598210699856281280517578125">
        <ele>2.7999999523162841796875</ele>
        <time>2015-09-13T08:26:27.000Z</time>
        <extensions>
          <ns3:TrackPointExtension>
            <ns3:atemp>29.0</ns3:atemp>
          </ns3:TrackPointExtension>
        </extensions>
      </trkpt>
      <trkpt lat="31.4284671284258365631103515625" lon="119.485983364284038543701171875">
        <ele>2.7999999523162841796875</ele>
        <time>2015-09-13T08:26:30.000Z</time>
        <extensions>
          <ns3:TrackPointExtension>
            <ns3:atemp>29.0</ns3:atemp>
          </ns3:TrackPointExtension>
        </extensions>
      </trkpt>
      <trkpt lat="31.42848380841314792633056640625" lon="119.4859768263995647430419921875">
        <ele>2.7999999523162841796875</ele>
        <time>2015-09-13T08:26:31.000Z</time>
        <extensions>
          <ns3:TrackPointExtension>
            <ns3:atemp>29.0</ns3:atemp>
          </ns3:TrackPointExtension>
        </extensions>
      </trkpt>
      <trkpt lat="31.42887222580611705780029296875" lon="119.48587448336184024810791015625">
        <ele>4</ele>
        <time>2015-09-13T08:26:41.000Z</time>
        <extensions>
          <ns3:TrackPointExtension>
            <ns3:atemp>29.0</ns3:atemp>
          </ns3:TrackPointExtension>
        </extensions>
      </trkpt>
      <trkpt lat="31.42913390882313251495361328125" lon="119.4858075119554996490478515625">
        <ele>4.400000095367431640625</ele>
        <time>2015-09-13T08:26:45.000Z</time>
        <extensions>
          <ns3:TrackPointExtension>
            <ns3:atemp>29.0</ns3:atemp>
          </ns3:TrackPointExtension>
        </extensions>
      </trkpt>
      <trkpt lat="31.429790295660495758056640625" lon="119.48559871874749660491943359375">
        <ele>4.80000019073486328125</ele>
        <time>2015-09-13T08:26:55.000Z</time>
        <extensions>
          <ns3:TrackPointExtension>
            <ns3:atemp>29.0</ns3:atemp>
          </ns3:TrackPointExtension>
        </extensions>
      </trkpt>
      <trkpt lat="31.43038080073893070220947265625" lon="119.48542705737054347991943359375">
        <ele>3.2000000476837158203125</ele>
        <time>2015-09-13T08:27:13.000Z</time>
        <extensions>
          <ns3:TrackPointExtension>
            <ns3:atemp>29.0</ns3:atemp>
          </ns3:TrackPointExtension>
        </extensions>
      </trkpt>
      <trkpt lat="31.430384404957294464111328125" lon="119.48541440069675445556640625">
        <ele>3</ele>
        <time>2015-09-13T08:27:24.000Z</time>
        <extensions>
          <ns3:TrackPointExtension>
            <ns3:atemp>29.0</ns3:atemp>
          </ns3:TrackPointExtension>
        </extensions>
      </trkpt>
      <trkpt lat="31.4303275756537914276123046875" lon="119.4854553043842315673828125">
        <ele>3</ele>
        <time>2015-09-13T08:27:29.000Z</time>
        <extensions>
          <ns3:TrackPointExtension>
            <ns3:atemp>29.0</ns3:atemp>
          </ns3:TrackPointExtension>
        </extensions>
      </trkpt>
      <trkpt lat="31.4303295873105525970458984375" lon="119.485494531691074371337890625">
        <ele>3</ele>
        <time>2015-09-13T08:27:30.000Z</time>
        <extensions>
          <ns3:TrackPointExtension>
            <ns3:atemp>29.0</ns3:atemp>
          </ns3:TrackPointExtension>
        </extensions>
      </trkpt>
      <trkpt lat="31.43033101223409175872802734375" lon="119.48555094189941883087158203125">
        <ele>3.2000000476837158203125</ele>
        <time>2015-09-13T08:27:31.000Z</time>
        <extensions>
          <ns3:TrackPointExtension>
            <ns3:atemp>29.0</ns3:atemp>
          </ns3:TrackPointExtension>
        </extensions>
      </trkpt>
      <trkpt lat="31.43033235333859920501708984375" lon="119.48559721000492572784423828125">
        <ele>3.2000000476837158203125</ele>
        <time>2015-09-13T08:27:32.000Z</time>
        <extensions>
          <ns3:TrackPointExtension>
            <ns3:atemp>29.0</ns3:atemp>
          </ns3:TrackPointExtension>
        </extensions>
      </trkpt>
      <trkpt lat="31.43032983876764774322509765625" lon="119.4856348447501659393310546875">
        <ele>3.2000000476837158203125</ele>
        <time>2015-09-13T08:27:33.000Z</time>
        <extensions>
          <ns3:TrackPointExtension>
            <ns3:atemp>29.0</ns3:atemp>
          </ns3:TrackPointExtension>
        </extensions>
      </trkpt>
      <trkpt lat="31.43033386208117008209228515625" lon="119.48571170680224895477294921875">
        <ele>3.2000000476837158203125</ele>
        <time>2015-09-13T08:27:36.000Z</time>
        <extensions>
          <ns3:TrackPointExtension>
            <ns3:atemp>29.0</ns3:atemp>
          </ns3:TrackPointExtension>
        </extensions>
      </trkpt>
      <trkpt lat="31.4303564094007015228271484375" lon="119.4857297278940677642822265625">
        <ele>3.2000000476837158203125</ele>
        <time>2015-09-13T08:27:37.000Z</time>
        <extensions>
          <ns3:TrackPointExtension>
            <ns3:atemp>29.0</ns3:atemp>
          </ns3:TrackPointExtension>
        </extensions>
      </trkpt>
      <trkpt lat="31.43039572052657604217529296875" lon="119.48574372567236423492431640625">
        <ele>3.2000000476837158203125</ele>
        <time>2015-09-13T08:27:38.000Z</time>
        <extensions>
          <ns3:TrackPointExtension>
            <ns3:atemp>29.0</ns3:atemp>
          </ns3:TrackPointExtension>
        </extensions>
      </trkpt>
      <trkpt lat="31.4304398931562900543212890625" lon="119.48574406094849109649658203125">
        <ele>3.400000095367431640625</ele>
        <time>2015-09-13T08:27:39.000Z</time>
        <extensions>
          <ns3:TrackPointExtension>
            <ns3:atemp>29.0</ns3:atemp>
          </ns3:TrackPointExtension>
        </extensions>
      </trkpt>
      <trkpt lat="31.4304854907095432281494140625" lon="119.4857257045805454254150390625">
        <ele>3.599999904632568359375</ele>
        <time>2015-09-13T08:27:40.000Z</time>
        <extensions>
          <ns3:TrackPointExtension>
            <ns3:atemp>29.0</ns3:atemp>
          </ns3:TrackPointExtension>
        </extensions>
      </trkpt>
      <trkpt lat="31.43052957952022552490234375" lon="119.485707767307758331298828125">
        <ele>3.599999904632568359375</ele>
        <time>2015-09-13T08:27:41.000Z</time>
        <extensions>
          <ns3:TrackPointExtension>
            <ns3:atemp>29.0</ns3:atemp>
          </ns3:TrackPointExtension>
        </extensions>
      </trkpt>
      <trkpt lat="31.43057593144476413726806640625" lon="119.48568639345467090606689453125">
        <ele>3.7999999523162841796875</ele>
        <time>2015-09-13T08:27:42.000Z</time>
        <extensions>
          <ns3:TrackPointExtension>
            <ns3:atemp>29.0</ns3:atemp>
          </ns3:TrackPointExtension>
        </extensions>
      </trkpt>
      <trkpt lat="31.43128286115825176239013671875" lon="119.48528724722564220428466796875">
        <ele>5.599999904632568359375</ele>
        <time>2015-09-13T08:27:52.000Z</time>
        <extensions>
          <ns3:TrackPointExtension>
            <ns3:atemp>29.0</ns3:atemp>
          </ns3:TrackPointExtension>
        </extensions>
      </trkpt>
      <trkpt lat="31.43160908482968807220458984375" lon="119.48496135883033275604248046875">
        <ele>5.400000095367431640625</ele>
        <time>2015-09-13T08:27:57.000Z</time>
        <extensions>
          <ns3:TrackPointExtension>
            <ns3:atemp>29.0</ns3:atemp>
          </ns3:TrackPointExtension>
        </extensions>
      </trkpt>
      <trkpt lat="31.4316807501018047332763671875" lon="119.48488709516823291778564453125">
        <ele>5.400000095367431640625</ele>
        <time>2015-09-13T08:27:58.000Z</time>
        <extensions>
          <ns3:TrackPointExtension>
            <ns3:atemp>29.0</ns3:atemp>
          </ns3:TrackPointExtension>
        </extensions>
      </trkpt>
      <trkpt lat="31.43221643753349781036376953125" lon="119.48426230810582637786865234375">
        <ele>5.19999980926513671875</ele>
        <time>2015-09-13T08:28:06.000Z</time>
        <extensions>
          <ns3:TrackPointExtension>
            <ns3:atemp>29.0</ns3:atemp>
          </ns3:TrackPointExtension>
        </extensions>
      </trkpt>
      <trkpt lat="31.4326922781765460968017578125" lon="119.4837100245058536529541015625">
        <ele>5.400000095367431640625</ele>
        <time>2015-09-13T08:28:13.000Z</time>
        <extensions>
          <ns3:TrackPointExtension>
            <ns3:atemp>29.0</ns3:atemp>
          </ns3:TrackPointExtension>
        </extensions>
      </trkpt>
      <trkpt lat="31.43308748491108417510986328125" lon="119.4832076132297515869140625">
        <ele>4.19999980926513671875</ele>
        <time>2015-09-13T08:28:22.000Z</time>
        <extensions>
          <ns3:TrackPointExtension>
            <ns3:atemp>29.0</ns3:atemp>
          </ns3:TrackPointExtension>
        </extensions>
      </trkpt>
      <trkpt lat="31.433516554534435272216796875" lon="119.48271567933261394500732421875">
        <ele>1.39999997615814208984375</ele>
        <time>2015-09-13T08:28:32.000Z</time>
        <extensions>
          <ns3:TrackPointExtension>
            <ns3:atemp>29.0</ns3:atemp>
          </ns3:TrackPointExtension>
        </extensions>
      </trkpt>
      <trkpt lat="31.43356391228735446929931640625" lon="119.48272473178803920745849609375">
        <ele>0.60000002384185791015625</ele>
        <time>2015-09-13T08:28:38.000Z</time>
        <extensions>
          <ns3:TrackPointExtension>
            <ns3:atemp>29.0</ns3:atemp>
          </ns3:TrackPointExtension>
        </extensions>
      </trkpt>
      <trkpt lat="31.43355016596615314483642578125" lon="119.482735209167003631591796875">
        <ele>0.4000000059604644775390625</ele>
        <time>2015-09-13T08:28:39.000Z</time>
        <extensions>
          <ns3:TrackPointExtension>
            <ns3:atemp>29.0</ns3:atemp>
          </ns3:TrackPointExtension>
        </extensions>
      </trkpt>
      <trkpt lat="31.4335764013230800628662109375" lon="119.482748620212078094482421875">
        <ele>0.20000000298023223876953125</ele>
        <time>2015-09-13T08:28:40.000Z</time>
        <extensions>
          <ns3:TrackPointExtension>
            <ns3:atemp>29.0</ns3:atemp>
          </ns3:TrackPointExtension>
        </extensions>
      </trkpt>
      <trkpt lat="31.43359894864261150360107421875" lon="119.48276379145681858062744140625">
        <ele>0.4000000059604644775390625</ele>
        <time>2015-09-13T08:28:41.000Z</time>
        <extensions>
          <ns3:TrackPointExtension>
            <ns3:atemp>29.0</ns3:atemp>
          </ns3:TrackPointExtension>
        </extensions>
      </trkpt>
      <trkpt lat="31.433631218969821929931640625" lon="119.4827709160745143890380859375">
        <ele>0.800000011920928955078125</ele>
        <time>2015-09-13T08:28:42.000Z</time>
        <extensions>
          <ns3:TrackPointExtension>
            <ns3:atemp>29.0</ns3:atemp>
          </ns3:TrackPointExtension>
        </extensions>
      </trkpt>
      <trkpt lat="31.43363700248301029205322265625" lon="119.4827811419963836669921875">
        <ele>0.800000011920928955078125</ele>
        <time>2015-09-13T08:28:43.000Z</time>
        <extensions>
          <ns3:TrackPointExtension>
            <ns3:atemp>29.0</ns3:atemp>
          </ns3:TrackPointExtension>
        </extensions>
      </trkpt>
      <trkpt lat="31.433651335537433624267578125" lon="119.4827953912317752838134765625">
        <ele>1</ele>
        <time>2015-09-13T08:28:47.000Z</time>
        <extensions>
          <ns3:TrackPointExtension>
            <ns3:atemp>29.0</ns3:atemp>
          </ns3:TrackPointExtension>
        </extensions>
      </trkpt>
      <trkpt lat="31.43356676213443279266357421875" lon="119.48282665573060512542724609375">
        <ele>0.4000000059604644775390625</ele>
        <time>2015-09-13T08:28:52.000Z</time>
        <extensions>
          <ns3:TrackPointExtension>
            <ns3:atemp>29.0</ns3:atemp>
          </ns3:TrackPointExtension>
        </extensions>
      </trkpt>
      <trkpt lat="31.43354572355747222900390625" lon="119.482837133109569549560546875">
        <ele>0.4000000059604644775390625</ele>
        <time>2015-09-13T08:28:53.000Z</time>
        <extensions>
          <ns3:TrackPointExtension>
            <ns3:atemp>29.0</ns3:atemp>
          </ns3:TrackPointExtension>
        </extensions>
      </trkpt>
      <trkpt lat="31.43353457562625408172607421875" lon="119.48285289108753204345703125">
        <ele>0.4000000059604644775390625</ele>
        <time>2015-09-13T08:28:54.000Z</time>
        <extensions>
          <ns3:TrackPointExtension>
            <ns3:atemp>29.0</ns3:atemp>
          </ns3:TrackPointExtension>
        </extensions>
      </trkpt>
      <trkpt lat="31.43352032639086246490478515625" lon="119.48286437429487705230712890625">
        <ele>0.60000002384185791015625</ele>
        <time>2015-09-13T08:28:55.000Z</time>
        <extensions>
          <ns3:TrackPointExtension>
            <ns3:atemp>29.0</ns3:atemp>
          </ns3:TrackPointExtension>
        </extensions>
      </trkpt>
      <trkpt lat="31.43350951373577117919921875" lon="119.482870660722255706787109375">
        <ele>0.800000011920928955078125</ele>
        <time>2015-09-13T08:28:56.000Z</time>
        <extensions>
          <ns3:TrackPointExtension>
            <ns3:atemp>29.0</ns3:atemp>
          </ns3:TrackPointExtension>
        </extensions>
      </trkpt>
      <trkpt lat="31.43315571360290050506591796875" lon="119.4831936992704868316650390625">
        <ele>1.7999999523162841796875</ele>
        <time>2015-09-13T08:29:32.000Z</time>
        <extensions>
          <ns3:TrackPointExtension>
            <ns3:atemp>29.0</ns3:atemp>
          </ns3:TrackPointExtension>
        </extensions>
      </trkpt>
      <trkpt lat="31.4331563003361225128173828125" lon="119.483211971819400787353515625">
        <ele>1.7999999523162841796875</ele>
        <time>2015-09-13T08:29:33.000Z</time>
        <extensions>
          <ns3:TrackPointExtension>
            <ns3:atemp>29.0</ns3:atemp>
          </ns3:TrackPointExtension>
        </extensions>
      </trkpt>
      <trkpt lat="31.43317197449505329132080078125" lon="119.4832346029579639434814453125">
        <ele>1.7999999523162841796875</ele>
        <time>2015-09-13T08:29:34.000Z</time>
        <extensions>
          <ns3:TrackPointExtension>
            <ns3:atemp>29.0</ns3:atemp>
          </ns3:TrackPointExtension>
        </extensions>
      </trkpt>
      <trkpt lat="31.4331868104636669158935546875" lon="119.48325430043041706085205078125">
        <ele>1.7999999523162841796875</ele>
        <time>2015-09-13T08:29:35.000Z</time>
        <extensions>
          <ns3:TrackPointExtension>
            <ns3:atemp>29.0</ns3:atemp>
          </ns3:TrackPointExtension>
        </extensions>
      </trkpt>
      <trkpt lat="31.43319661729037761688232421875" lon="119.48327676393091678619384765625">
        <ele>1.7999999523162841796875</ele>
        <time>2015-09-13T08:29:36.000Z</time>
        <extensions>
          <ns3:TrackPointExtension>
            <ns3:atemp>29.0</ns3:atemp>
          </ns3:TrackPointExtension>
        </extensions>
      </trkpt>
      <trkpt lat="31.4332200028002262115478515625" lon="119.48331288993358612060546875">
        <ele>2</ele>
        <time>2015-09-13T08:29:38.000Z</time>
        <extensions>
          <ns3:TrackPointExtension>
            <ns3:atemp>29.0</ns3:atemp>
          </ns3:TrackPointExtension>
        </extensions>
      </trkpt>
      <trkpt lat="31.43334053456783294677734375" lon="119.48341481387615203857421875">
        <ele>2.400000095367431640625</ele>
        <time>2015-09-13T08:29:46.000Z</time>
        <extensions>
          <ns3:TrackPointExtension>
            <ns3:atemp>29.0</ns3:atemp>
          </ns3:TrackPointExtension>
        </extensions>
      </trkpt>
      <trkpt lat="31.43335402943193912506103515625" lon="119.48342554271221160888671875">
        <ele>2.400000095367431640625</ele>
        <time>2015-09-13T08:29:47.000Z</time>
        <extensions>
          <ns3:TrackPointExtension>
            <ns3:atemp>29.0</ns3:atemp>
          </ns3:TrackPointExtension>
        </extensions>
      </trkpt>
      <trkpt lat="31.43336358480155467987060546875" lon="119.48343467898666858673095703125">
        <ele>2.400000095367431640625</ele>
        <time>2015-09-13T08:29:48.000Z</time>
        <extensions>
          <ns3:TrackPointExtension>
            <ns3:atemp>29.0</ns3:atemp>
          </ns3:TrackPointExtension>
        </extensions>
      </trkpt>
      <trkpt lat="31.43357849679887294769287109375" lon="119.48380432091653347015380859375">
        <ele>1.2000000476837158203125</ele>
        <time>2015-09-13T08:30:19.000Z</time>
        <extensions>
          <ns3:TrackPointExtension>
            <ns3:atemp>29.0</ns3:atemp>
          </ns3:TrackPointExtension>
        </extensions>
      </trkpt>
      <trkpt lat="31.43358889035880565643310546875" lon="119.48381446301937103271484375">
        <ele>1.2000000476837158203125</ele>
        <time>2015-09-13T08:30:20.000Z</time>
        <extensions>
          <ns3:TrackPointExtension>
            <ns3:atemp>29.0</ns3:atemp>
          </ns3:TrackPointExtension>
        </extensions>
      </trkpt>
      <trkpt lat="31.433601044118404388427734375" lon="119.4838253594934940338134765625">
        <ele>1.2000000476837158203125</ele>
        <time>2015-09-13T08:30:21.000Z</time>
        <extensions>
          <ns3:TrackPointExtension>
            <ns3:atemp>29.0</ns3:atemp>
          </ns3:TrackPointExtension>
        </extensions>
      </trkpt>
      <trkpt lat="31.43361411988735198974609375" lon="119.48383390903472900390625">
        <ele>1.39999997615814208984375</ele>
        <time>2015-09-13T08:30:22.000Z</time>
        <extensions>
          <ns3:TrackPointExtension>
            <ns3:atemp>29.0</ns3:atemp>
          </ns3:TrackPointExtension>
        </extensions>
      </trkpt>
      <trkpt lat="31.4336246810853481292724609375" lon="119.48384388349950313568115234375">
        <ele>1.2000000476837158203125</ele>
        <time>2015-09-13T08:30:23.000Z</time>
        <extensions>
          <ns3:TrackPointExtension>
            <ns3:atemp>29.0</ns3:atemp>
          </ns3:TrackPointExtension>
        </extensions>
      </trkpt>
      <trkpt lat="31.4336327277123928070068359375" lon="119.483853019773960113525390625">
        <ele>1.2000000476837158203125</ele>
        <time>2015-09-13T08:30:24.000Z</time>
        <extensions>
          <ns3:TrackPointExtension>
            <ns3:atemp>29.0</ns3:atemp>
          </ns3:TrackPointExtension>
        </extensions>
      </trkpt>
      <trkpt lat="31.4336421154439449310302734375" lon="119.48386232368648052215576171875">
        <ele>1</ele>
        <time>2015-09-13T08:30:25.000Z</time>
        <extensions>
          <ns3:TrackPointExtension>
            <ns3:atemp>29.0</ns3:atemp>
          </ns3:TrackPointExtension>
        </extensions>
      </trkpt>
      <trkpt lat="31.4336535148322582244873046875" lon="119.48387020267546176910400390625">
        <ele>1</ele>
        <time>2015-09-13T08:30:26.000Z</time>
        <extensions>
          <ns3:TrackPointExtension>
            <ns3:atemp>29.0</ns3:atemp>
          </ns3:TrackPointExtension>
        </extensions>
      </trkpt>
      <trkpt lat="31.43366533331573009490966796875" lon="119.4838781654834747314453125">
        <ele>1</ele>
        <time>2015-09-13T08:30:27.000Z</time>
        <extensions>
          <ns3:TrackPointExtension>
            <ns3:atemp>29.0</ns3:atemp>
          </ns3:TrackPointExtension>
        </extensions>
      </trkpt>
      <trkpt lat="31.43403564579784870147705078125" lon="119.48423288762569427490234375">
        <ele>0.20000000298023223876953125</ele>
        <time>2015-09-13T08:31:05.000Z</time>
        <extensions>
          <ns3:TrackPointExtension>
            <ns3:atemp>28.0</ns3:atemp>
          </ns3:TrackPointExtension>
        </extensions>
      </trkpt>
      <trkpt lat="31.43404738046228885650634765625" lon="119.48423682712018489837646484375">
        <ele>0.20000000298023223876953125</ele>
        <time>2015-09-13T08:31:06.000Z</time>
        <extensions>
          <ns3:TrackPointExtension>
            <ns3:atemp>28.0</ns3:atemp>
          </ns3:TrackPointExtension>
        </extensions>
      </trkpt>
      <trkpt lat="31.434062384068965911865234375" lon="119.4842384196817874908447265625">
        <ele>0</ele>
        <time>2015-09-13T08:31:07.000Z</time>
        <extensions>
          <ns3:TrackPointExtension>
            <ns3:atemp>28.0</ns3:atemp>
          </ns3:TrackPointExtension>
        </extensions>
      </trkpt>
      <trkpt lat="31.4344974048435688018798828125" lon="119.48434025980532169342041015625">
        <ele>0.20000000298023223876953125</ele>
        <time>2015-09-13T08:31:37.000Z</time>
        <extensions>
          <ns3:TrackPointExtension>
            <ns3:atemp>28.0</ns3:atemp>
          </ns3:TrackPointExtension>
        </extensions>
      </trkpt>
      <trkpt lat="31.434543840587139129638671875" lon="119.48433388955891132354736328125">
        <ele>1</ele>
        <time>2015-09-13T08:31:43.000Z</time>
        <extensions>
          <ns3:TrackPointExtension>
            <ns3:atemp>28.0</ns3:atemp>
          </ns3:TrackPointExtension>
        </extensions>
      </trkpt>
      <trkpt lat="31.43453814089298248291015625" lon="119.4843234121799468994140625">
        <ele>1</ele>
        <time>2015-09-13T08:31:44.000Z</time>
        <extensions>
          <ns3:TrackPointExtension>
            <ns3:atemp>28.0</ns3:atemp>
          </ns3:TrackPointExtension>
        </extensions>
      </trkpt>
      <trkpt lat="31.43452875316143035888671875" lon="119.48428309522569179534912109375">
        <ele>0.800000011920928955078125</ele>
        <time>2015-09-13T08:31:50.000Z</time>
        <extensions>
          <ns3:TrackPointExtension>
            <ns3:atemp>28.0</ns3:atemp>
          </ns3:TrackPointExtension>
        </extensions>
      </trkpt>
      <trkpt lat="31.4345409907400608062744140625" lon="119.4842749647796154022216796875">
        <ele>0.800000011920928955078125</ele>
        <time>2015-09-13T08:31:52.000Z</time>
        <extensions>
          <ns3:TrackPointExtension>
            <ns3:atemp>28.0</ns3:atemp>
          </ns3:TrackPointExtension>
        </extensions>
      </trkpt>
      <trkpt lat="31.4345530606806278228759765625" lon="119.48427203111350536346435546875">
        <ele>0.800000011920928955078125</ele>
        <time>2015-09-13T08:31:53.000Z</time>
        <extensions>
          <ns3:TrackPointExtension>
            <ns3:atemp>28.0</ns3:atemp>
          </ns3:TrackPointExtension>
        </extensions>
      </trkpt>
      <trkpt lat="31.43456337042152881622314453125" lon="119.48427421040832996368408203125">
        <ele>0.800000011920928955078125</ele>
        <time>2015-09-13T08:31:54.000Z</time>
        <extensions>
          <ns3:TrackPointExtension>
            <ns3:atemp>28.0</ns3:atemp>
          </ns3:TrackPointExtension>
        </extensions>
      </trkpt>
      <trkpt lat="31.4346469379961490631103515625" lon="119.48429784737527370452880859375">
        <ele>0.4000000059604644775390625</ele>
        <time>2015-09-13T08:32:01.000Z</time>
        <extensions>
          <ns3:TrackPointExtension>
            <ns3:atemp>28.0</ns3:atemp>
          </ns3:TrackPointExtension>
        </extensions>
      </trkpt>
      <trkpt lat="31.434663869440555572509765625" lon="119.484301619231700897216796875">
        <ele>0.20000000298023223876953125</ele>
        <time>2015-09-13T08:32:02.000Z</time>
        <extensions>
          <ns3:TrackPointExtension>
            <ns3:atemp>28.0</ns3:atemp>
          </ns3:TrackPointExtension>
        </extensions>
      </trkpt>
      <trkpt lat="31.4346754364669322967529296875" lon="119.4843061454594135284423828125">
        <ele>0.20000000298023223876953125</ele>
        <time>2015-09-13T08:32:03.000Z</time>
        <extensions>
          <ns3:TrackPointExtension>
            <ns3:atemp>28.0</ns3:atemp>
          </ns3:TrackPointExtension>
        </extensions>
      </trkpt>
      <trkpt lat="31.43482488580048084259033203125" lon="119.48433791287243366241455078125">
        <ele>-0.20000000298023223876953125</ele>
        <time>2015-09-13T08:32:18.000Z</time>
        <extensions>
          <ns3:TrackPointExtension>
            <ns3:atemp>28.0</ns3:atemp>
          </ns3:TrackPointExtension>
        </extensions>
      </trkpt>
      <trkpt lat="31.4349278993904590606689453125" lon="119.48434143327176570892333984375">
        <ele>-0.20000000298023223876953125</ele>
        <time>2015-09-13T08:32:26.000Z</time>
        <extensions>
          <ns3:TrackPointExtension>
            <ns3:atemp>28.0</ns3:atemp>
          </ns3:TrackPointExtension>
        </extensions>
      </trkpt>
      <trkpt lat="31.43503041006624698638916015625" lon="119.4843530841171741485595703125">
        <ele>0</ele>
        <time>2015-09-13T08:32:33.000Z</time>
        <extensions>
          <ns3:TrackPointExtension>
            <ns3:atemp>28.0</ns3:atemp>
          </ns3:TrackPointExtension>
        </extensions>
      </trkpt>
      <trkpt lat="31.43504080362617969512939453125" lon="119.48435300029814243316650390625">
        <ele>0.20000000298023223876953125</ele>
        <time>2015-09-13T08:32:34.000Z</time>
        <extensions>
          <ns3:TrackPointExtension>
            <ns3:atemp>28.0</ns3:atemp>
          </ns3:TrackPointExtension>
        </extensions>
      </trkpt>
      <trkpt lat="31.43510417081415653228759765625" lon="119.4843363203108310699462890625">
        <ele>-0.20000000298023223876953125</ele>
        <time>2015-09-13T08:32:40.000Z</time>
        <extensions>
          <ns3:TrackPointExtension>
            <ns3:atemp>28.0</ns3:atemp>
          </ns3:TrackPointExtension>
        </extensions>
      </trkpt>
      <trkpt lat="31.43511305563151836395263671875" lon="119.48433439247310161590576171875">
        <ele>-0.20000000298023223876953125</ele>
        <time>2015-09-13T08:32:41.000Z</time>
        <extensions>
          <ns3:TrackPointExtension>
            <ns3:atemp>28.0</ns3:atemp>
          </ns3:TrackPointExtension>
        </extensions>
      </trkpt>
      <trkpt lat="31.4351220242679119110107421875" lon="119.48433338664472103118896484375">
        <ele>-0.20000000298023223876953125</ele>
        <time>2015-09-13T08:32:42.000Z</time>
        <extensions>
          <ns3:TrackPointExtension>
            <ns3:atemp>28.0</ns3:atemp>
          </ns3:TrackPointExtension>
        </extensions>
      </trkpt>
      <trkpt lat="31.4351294003427028656005859375" lon="119.48433271609246730804443359375">
        <ele>-0.20000000298023223876953125</ele>
        <time>2015-09-13T08:32:43.000Z</time>
        <extensions>
          <ns3:TrackPointExtension>
            <ns3:atemp>28.0</ns3:atemp>
          </ns3:TrackPointExtension>
        </extensions>
      </trkpt>
      <trkpt lat="31.4351351000368595123291015625" lon="119.48432986624538898468017578125">
        <ele>-0.20000000298023223876953125</ele>
        <time>2015-09-13T08:32:44.000Z</time>
        <extensions>
          <ns3:TrackPointExtension>
            <ns3:atemp>28.0</ns3:atemp>
          </ns3:TrackPointExtension>
        </extensions>
      </trkpt>
      <trkpt lat="31.43514339812099933624267578125" lon="119.4843260943889617919921875">
        <ele>-0.20000000298023223876953125</ele>
        <time>2015-09-13T08:32:45.000Z</time>
        <extensions>
          <ns3:TrackPointExtension>
            <ns3:atemp>28.0</ns3:atemp>
          </ns3:TrackPointExtension>
        </extensions>
      </trkpt>
      <trkpt lat="31.435177512466907501220703125" lon="119.48430891148746013641357421875">
        <ele>0.4000000059604644775390625</ele>
        <time>2015-09-13T08:32:49.000Z</time>
        <extensions>
          <ns3:TrackPointExtension>
            <ns3:atemp>28.0</ns3:atemp>
          </ns3:TrackPointExtension>
        </extensions>
      </trkpt>
      <trkpt lat="31.4355521835386753082275390625" lon="119.48427018709480762481689453125">
        <ele>0.60000002384185791015625</ele>
        <time>2015-09-13T08:33:22.000Z</time>
        <extensions>
          <ns3:TrackPointExtension>
            <ns3:atemp>28.0</ns3:atemp>
          </ns3:TrackPointExtension>
        </extensions>
      </trkpt>
    </trkseg>
  </trk>
</gpx>
