<gpx xmlns:ns3="http://www.garmin.com/xmlschemas/TrackPointExtension/v1" xmlns="http://www.topografix.com/GPX/1/1" xmlns:xsi="http://www.w3.org/2001/XMLSchema-instance" xmlns:ns2="http://www.garmin.com/xmlschemas/GpxExtensions/v3" creator="Garmin Connect" version="1.1" xsi:schemaLocation="http://www.topografix.com/GPX/1/1 http://www.topografix.com/GPX/11.xsd">
  <extensions>
<distance>3283.07</distance>
<average_hr></average_hr>
<average_speed>3.7307613636363635</average_speed>
<start_time>2015-09-09T23:43:53+00:00</start_time>
<end_time>2015-09-09T23:58:33+00:00</end_time>
<moving_time>871.0</moving_time>
<elapsed_time>926.0</elapsed_time>
</extensions>
<metadata>
    <link href="connect.garmin.com">
      <text>Garmin Connect</text>
    </link>
    <time>2015-09-09T23:43:53.000Z</time>
  </metadata>
  <trk>
    <name>上班</name>
    <type>cycling</type>
    <trkseg>
      <trkpt lat="31.435658298432826995849609375" lon="119.4826416671276092529296875">
        <ele>16</ele>
        <time>2015-09-09T23:43:53.000Z</time>
        <extensions>
          <ns3:TrackPointExtension>
            <ns3:atemp>28.0</ns3:atemp>
          </ns3:TrackPointExtension>
        </extensions>
      </trkpt>
      <trkpt lat="31.43565787933766841888427734375" lon="119.4826470315456390380859375">
        <ele>29.3999996185302734375</ele>
        <time>2015-09-09T23:43:54.000Z</time>
        <extensions>
          <ns3:TrackPointExtension>
            <ns3:atemp>28.0</ns3:atemp>
          </ns3:TrackPointExtension>
        </extensions>
      </trkpt>
      <trkpt lat="31.435622759163379669189453125" lon="119.48264376260340213775634765625">
        <ele>29.3999996185302734375</ele>
        <time>2015-09-09T23:43:55.000Z</time>
        <extensions>
          <ns3:TrackPointExtension>
            <ns3:atemp>28.0</ns3:atemp>
          </ns3:TrackPointExtension>
        </extensions>
      </trkpt>
      <trkpt lat="31.43558596260845661163330078125" lon="119.4826720096170902252197265625">
        <ele>15.19999980926513671875</ele>
        <time>2015-09-09T23:43:57.000Z</time>
        <extensions>
          <ns3:TrackPointExtension>
            <ns3:atemp>28.0</ns3:atemp>
          </ns3:TrackPointExtension>
        </extensions>
      </trkpt>
      <trkpt lat="31.43557540141046047210693359375" lon="119.48268793523311614990234375">
        <ele>15.6000003814697265625</ele>
        <time>2015-09-09T23:43:58.000Z</time>
        <extensions>
          <ns3:TrackPointExtension>
            <ns3:atemp>28.0</ns3:atemp>
          </ns3:TrackPointExtension>
        </extensions>
      </trkpt>
      <trkpt lat="31.43554505892097949981689453125" lon="119.483335018157958984375">
        <ele>15.3999996185302734375</ele>
        <time>2015-09-09T23:44:19.000Z</time>
        <extensions>
          <ns3:TrackPointExtension>
            <ns3:atemp>28.0</ns3:atemp>
          </ns3:TrackPointExtension>
        </extensions>
      </trkpt>
      <trkpt lat="31.435563080012798309326171875" lon="119.48401671834290027618408203125">
        <ele>15</ele>
        <time>2015-09-09T23:44:37.000Z</time>
        <extensions>
          <ns3:TrackPointExtension>
            <ns3:atemp>28.0</ns3:atemp>
          </ns3:TrackPointExtension>
        </extensions>
      </trkpt>
      <trkpt lat="31.4355417899787425994873046875" lon="119.4842313788831233978271484375">
        <ele>14.80000019073486328125</ele>
        <time>2015-09-09T23:44:43.000Z</time>
        <extensions>
          <ns3:TrackPointExtension>
            <ns3:atemp>28.0</ns3:atemp>
          </ns3:TrackPointExtension>
        </extensions>
      </trkpt>
      <trkpt lat="31.435535252094268798828125" lon="119.48425141163170337677001953125">
        <ele>14.80000019073486328125</ele>
        <time>2015-09-09T23:44:44.000Z</time>
        <extensions>
          <ns3:TrackPointExtension>
            <ns3:atemp>28.0</ns3:atemp>
          </ns3:TrackPointExtension>
        </extensions>
      </trkpt>
      <trkpt lat="31.4355089329183101654052734375" lon="119.4842652417719364166259765625">
        <ele>14.80000019073486328125</ele>
        <time>2015-09-09T23:44:45.000Z</time>
        <extensions>
          <ns3:TrackPointExtension>
            <ns3:atemp>28.0</ns3:atemp>
          </ns3:TrackPointExtension>
        </extensions>
      </trkpt>
      <trkpt lat="31.43547691404819488525390625" lon="119.48427454568445682525634765625">
        <ele>14.80000019073486328125</ele>
        <time>2015-09-09T23:44:46.000Z</time>
        <extensions>
          <ns3:TrackPointExtension>
            <ns3:atemp>28.0</ns3:atemp>
          </ns3:TrackPointExtension>
        </extensions>
      </trkpt>
      <trkpt lat="31.43544581718742847442626953125" lon="119.48428141884505748748779296875">
        <ele>14.80000019073486328125</ele>
        <time>2015-09-09T23:44:47.000Z</time>
        <extensions>
          <ns3:TrackPointExtension>
            <ns3:atemp>28.0</ns3:atemp>
          </ns3:TrackPointExtension>
        </extensions>
      </trkpt>
      <trkpt lat="31.43488288857042789459228515625" lon="119.48435367085039615631103515625">
        <ele>14.80000019073486328125</ele>
        <time>2015-09-09T23:45:04.000Z</time>
        <extensions>
          <ns3:TrackPointExtension>
            <ns3:atemp>28.0</ns3:atemp>
          </ns3:TrackPointExtension>
        </extensions>
      </trkpt>
      <trkpt lat="31.4342804811894893646240234375" lon="119.484271444380283355712890625">
        <ele>15.6000003814697265625</ele>
        <time>2015-09-09T23:45:21.000Z</time>
        <extensions>
          <ns3:TrackPointExtension>
            <ns3:atemp>28.0</ns3:atemp>
          </ns3:TrackPointExtension>
        </extensions>
      </trkpt>
      <trkpt lat="31.43372115679085254669189453125" lon="119.48405561037361621856689453125">
        <ele>15.3999996185302734375</ele>
        <time>2015-09-09T23:45:37.000Z</time>
        <extensions>
          <ns3:TrackPointExtension>
            <ns3:atemp>28.0</ns3:atemp>
          </ns3:TrackPointExtension>
        </extensions>
      </trkpt>
      <trkpt lat="31.433130986988544464111328125" lon="119.483986794948577880859375">
        <ele>16</ele>
        <time>2015-09-09T23:45:54.000Z</time>
        <extensions>
          <ns3:TrackPointExtension>
            <ns3:atemp>28.0</ns3:atemp>
          </ns3:TrackPointExtension>
        </extensions>
      </trkpt>
      <trkpt lat="31.4327469281852245330810546875" lon="119.4844935648143291473388671875">
        <ele>17.200000762939453125</ele>
        <time>2015-09-09T23:46:14.000Z</time>
        <extensions>
          <ns3:TrackPointExtension>
            <ns3:atemp>28.0</ns3:atemp>
          </ns3:TrackPointExtension>
        </extensions>
      </trkpt>
      <trkpt lat="31.43256428651511669158935546875" lon="119.4847121648490428924560546875">
        <ele>17.799999237060546875</ele>
        <time>2015-09-09T23:46:25.000Z</time>
        <extensions>
          <ns3:TrackPointExtension>
            <ns3:atemp>28.0</ns3:atemp>
          </ns3:TrackPointExtension>
        </extensions>
      </trkpt>
      <trkpt lat="31.43254534341394901275634765625" lon="119.48470286093652248382568359375">
        <ele>17.799999237060546875</ele>
        <time>2015-09-09T23:46:26.000Z</time>
        <extensions>
          <ns3:TrackPointExtension>
            <ns3:atemp>28.0</ns3:atemp>
          </ns3:TrackPointExtension>
        </extensions>
      </trkpt>
      <trkpt lat="31.43252857960760593414306640625" lon="119.48468743823468685150146484375">
        <ele>18</ele>
        <time>2015-09-09T23:46:27.000Z</time>
        <extensions>
          <ns3:TrackPointExtension>
            <ns3:atemp>28.0</ns3:atemp>
          </ns3:TrackPointExtension>
        </extensions>
      </trkpt>
      <trkpt lat="31.43214753828942775726318359375" lon="119.484420306980609893798828125">
        <ele>17.3999996185302734375</ele>
        <time>2015-09-09T23:46:46.000Z</time>
        <extensions>
          <ns3:TrackPointExtension>
            <ns3:atemp>28.0</ns3:atemp>
          </ns3:TrackPointExtension>
        </extensions>
      </trkpt>
      <trkpt lat="31.432129181921482086181640625" lon="119.4844332151114940643310546875">
        <ele>17.200000762939453125</ele>
        <time>2015-09-09T23:46:47.000Z</time>
        <extensions>
          <ns3:TrackPointExtension>
            <ns3:atemp>28.0</ns3:atemp>
          </ns3:TrackPointExtension>
        </extensions>
      </trkpt>
      <trkpt lat="31.4316120184957981109619140625" lon="119.484795816242694854736328125">
        <ele>17.799999237060546875</ele>
        <time>2015-09-09T23:47:08.000Z</time>
        <extensions>
          <ns3:TrackPointExtension>
            <ns3:atemp>28.0</ns3:atemp>
          </ns3:TrackPointExtension>
        </extensions>
      </trkpt>
      <trkpt lat="31.4310796000063419342041015625" lon="119.48509681038558483123779296875">
        <ele>17.3999996185302734375</ele>
        <time>2015-09-09T23:47:26.000Z</time>
        <extensions>
          <ns3:TrackPointExtension>
            <ns3:atemp>28.0</ns3:atemp>
          </ns3:TrackPointExtension>
        </extensions>
      </trkpt>
      <trkpt lat="31.4305267296731472015380859375" lon="119.48536670766770839691162109375">
        <ele>16.3999996185302734375</ele>
        <time>2015-09-09T23:47:42.000Z</time>
        <extensions>
          <ns3:TrackPointExtension>
            <ns3:atemp>28.0</ns3:atemp>
          </ns3:TrackPointExtension>
        </extensions>
      </trkpt>
      <trkpt lat="31.4305129833519458770751953125" lon="119.48535539209842681884765625">
        <ele>16.6000003814697265625</ele>
        <time>2015-09-09T23:47:43.000Z</time>
        <extensions>
          <ns3:TrackPointExtension>
            <ns3:atemp>28.0</ns3:atemp>
          </ns3:TrackPointExtension>
        </extensions>
      </trkpt>
      <trkpt lat="31.4305015839636325836181640625" lon="119.48534675873816013336181640625">
        <ele>16.6000003814697265625</ele>
        <time>2015-09-09T23:47:44.000Z</time>
        <extensions>
          <ns3:TrackPointExtension>
            <ns3:atemp>28.0</ns3:atemp>
          </ns3:TrackPointExtension>
        </extensions>
      </trkpt>
      <trkpt lat="31.43048071302473545074462890625" lon="119.485347680747509002685546875">
        <ele>16.799999237060546875</ele>
        <time>2015-09-09T23:47:45.000Z</time>
        <extensions>
          <ns3:TrackPointExtension>
            <ns3:atemp>28.0</ns3:atemp>
          </ns3:TrackPointExtension>
        </extensions>
      </trkpt>
      <trkpt lat="31.43041164614260196685791015625" lon="119.48537391610443592071533203125">
        <ele>16.799999237060546875</ele>
        <time>2015-09-09T23:47:57.000Z</time>
        <extensions>
          <ns3:TrackPointExtension>
            <ns3:atemp>28.0</ns3:atemp>
          </ns3:TrackPointExtension>
        </extensions>
      </trkpt>
      <trkpt lat="31.4303047768771648406982421875" lon="119.48540476150810718536376953125">
        <ele>17</ele>
        <time>2015-09-09T23:48:30.000Z</time>
        <extensions>
          <ns3:TrackPointExtension>
            <ns3:atemp>28.0</ns3:atemp>
          </ns3:TrackPointExtension>
        </extensions>
      </trkpt>
      <trkpt lat="31.4302740991115570068359375" lon="119.48540677316486835479736328125">
        <ele>17</ele>
        <time>2015-09-09T23:48:31.000Z</time>
        <extensions>
          <ns3:TrackPointExtension>
            <ns3:atemp>28.0</ns3:atemp>
          </ns3:TrackPointExtension>
        </extensions>
      </trkpt>
      <trkpt lat="31.42963430844247341156005859375" lon="119.48550266213715076446533203125">
        <ele>16.799999237060546875</ele>
        <time>2015-09-09T23:48:48.000Z</time>
        <extensions>
          <ns3:TrackPointExtension>
            <ns3:atemp>28.0</ns3:atemp>
          </ns3:TrackPointExtension>
        </extensions>
      </trkpt>
      <trkpt lat="31.42891715280711650848388671875" lon="119.4857257045805454254150390625">
        <ele>16.6000003814697265625</ele>
        <time>2015-09-09T23:49:04.000Z</time>
        <extensions>
          <ns3:TrackPointExtension>
            <ns3:atemp>28.0</ns3:atemp>
          </ns3:TrackPointExtension>
        </extensions>
      </trkpt>
      <trkpt lat="31.42856360413134098052978515625" lon="119.4858296401798725128173828125">
        <ele>16.200000762939453125</ele>
        <time>2015-09-09T23:49:14.000Z</time>
        <extensions>
          <ns3:TrackPointExtension>
            <ns3:atemp>28.0</ns3:atemp>
          </ns3:TrackPointExtension>
        </extensions>
      </trkpt>
      <trkpt lat="31.4282109774649143218994140625" lon="119.4859412871301174163818359375">
        <ele>16.6000003814697265625</ele>
        <time>2015-09-09T23:49:23.000Z</time>
        <extensions>
          <ns3:TrackPointExtension>
            <ns3:atemp>28.0</ns3:atemp>
          </ns3:TrackPointExtension>
        </extensions>
      </trkpt>
      <trkpt lat="31.42753145657479763031005859375" lon="119.485977999866008758544921875">
        <ele>17.6000003814697265625</ele>
        <time>2015-09-09T23:49:40.000Z</time>
        <extensions>
          <ns3:TrackPointExtension>
            <ns3:atemp>28.0</ns3:atemp>
          </ns3:TrackPointExtension>
        </extensions>
      </trkpt>
      <trkpt lat="31.42696768976747989654541015625" lon="119.48602200485765933990478515625">
        <ele>17.6000003814697265625</ele>
        <time>2015-09-09T23:50:01.000Z</time>
        <extensions>
          <ns3:TrackPointExtension>
            <ns3:atemp>28.0</ns3:atemp>
          </ns3:TrackPointExtension>
        </extensions>
      </trkpt>
      <trkpt lat="31.4263766817748546600341796875" lon="119.48608101345598697662353515625">
        <ele>17.799999237060546875</ele>
        <time>2015-09-09T23:50:23.000Z</time>
        <extensions>
          <ns3:TrackPointExtension>
            <ns3:atemp>28.0</ns3:atemp>
          </ns3:TrackPointExtension>
        </extensions>
      </trkpt>
      <trkpt lat="31.4256789721548557281494140625" lon="119.48615066707134246826171875">
        <ele>17.799999237060546875</ele>
        <time>2015-09-09T23:50:47.000Z</time>
        <extensions>
          <ns3:TrackPointExtension>
            <ns3:atemp>28.0</ns3:atemp>
          </ns3:TrackPointExtension>
        </extensions>
      </trkpt>
      <trkpt lat="31.4250339008867740631103515625" lon="119.48623389936983585357666015625">
        <ele>17.799999237060546875</ele>
        <time>2015-09-09T23:51:05.000Z</time>
        <extensions>
          <ns3:TrackPointExtension>
            <ns3:atemp>28.0</ns3:atemp>
          </ns3:TrackPointExtension>
        </extensions>
      </trkpt>
      <trkpt lat="31.42435739748179912567138671875" lon="119.48626072145998477935791015625">
        <ele>17.6000003814697265625</ele>
        <time>2015-09-09T23:51:22.000Z</time>
        <extensions>
          <ns3:TrackPointExtension>
            <ns3:atemp>28.0</ns3:atemp>
          </ns3:TrackPointExtension>
        </extensions>
      </trkpt>
      <trkpt lat="31.4237685687839984893798828125" lon="119.48631151579320430755615234375">
        <ele>17.200000762939453125</ele>
        <time>2015-09-09T23:51:37.000Z</time>
        <extensions>
          <ns3:TrackPointExtension>
            <ns3:atemp>28.0</ns3:atemp>
          </ns3:TrackPointExtension>
        </extensions>
      </trkpt>
      <trkpt lat="31.423159539699554443359375" lon="119.48634219355881214141845703125">
        <ele>16.6000003814697265625</ele>
        <time>2015-09-09T23:51:52.000Z</time>
        <extensions>
          <ns3:TrackPointExtension>
            <ns3:atemp>28.0</ns3:atemp>
          </ns3:TrackPointExtension>
        </extensions>
      </trkpt>
      <trkpt lat="31.422540284693241119384765625" lon="119.4863645732402801513671875">
        <ele>16.6000003814697265625</ele>
        <time>2015-09-09T23:52:07.000Z</time>
        <extensions>
          <ns3:TrackPointExtension>
            <ns3:atemp>28.0</ns3:atemp>
          </ns3:TrackPointExtension>
        </extensions>
      </trkpt>
      <trkpt lat="31.42241187393665313720703125" lon="119.4863848574459552764892578125">
        <ele>16.6000003814697265625</ele>
        <time>2015-09-09T23:52:10.000Z</time>
        <extensions>
          <ns3:TrackPointExtension>
            <ns3:atemp>28.0</ns3:atemp>
          </ns3:TrackPointExtension>
        </extensions>
      </trkpt>
      <trkpt lat="31.422368623316287994384765625" lon="119.48638980276882648468017578125">
        <ele>16.6000003814697265625</ele>
        <time>2015-09-09T23:52:11.000Z</time>
        <extensions>
          <ns3:TrackPointExtension>
            <ns3:atemp>28.0</ns3:atemp>
          </ns3:TrackPointExtension>
        </extensions>
      </trkpt>
      <trkpt lat="31.42232646234333515167236328125" lon="119.48639466427266597747802734375">
        <ele>16.6000003814697265625</ele>
        <time>2015-09-09T23:52:12.000Z</time>
        <extensions>
          <ns3:TrackPointExtension>
            <ns3:atemp>28.0</ns3:atemp>
          </ns3:TrackPointExtension>
        </extensions>
      </trkpt>
      <trkpt lat="31.42228924669325351715087890625" lon="119.48639164678752422332763671875">
        <ele>16.6000003814697265625</ele>
        <time>2015-09-09T23:52:13.000Z</time>
        <extensions>
          <ns3:TrackPointExtension>
            <ns3:atemp>28.0</ns3:atemp>
          </ns3:TrackPointExtension>
        </extensions>
      </trkpt>
      <trkpt lat="31.422247923910617828369140625" lon="119.48638997040688991546630859375">
        <ele>16.6000003814697265625</ele>
        <time>2015-09-09T23:52:14.000Z</time>
        <extensions>
          <ns3:TrackPointExtension>
            <ns3:atemp>28.0</ns3:atemp>
          </ns3:TrackPointExtension>
        </extensions>
      </trkpt>
      <trkpt lat="31.4222065173089504241943359375" lon="119.48639147914946079254150390625">
        <ele>16.6000003814697265625</ele>
        <time>2015-09-09T23:52:15.000Z</time>
        <extensions>
          <ns3:TrackPointExtension>
            <ns3:atemp>28.0</ns3:atemp>
          </ns3:TrackPointExtension>
        </extensions>
      </trkpt>
      <trkpt lat="31.42162355594336986541748046875" lon="119.486420564353466033935546875">
        <ele>16.200000762939453125</ele>
        <time>2015-09-09T23:52:29.000Z</time>
        <extensions>
          <ns3:TrackPointExtension>
            <ns3:atemp>28.0</ns3:atemp>
          </ns3:TrackPointExtension>
        </extensions>
      </trkpt>
      <trkpt lat="31.4210417680442333221435546875" lon="119.48640941642224788665771484375">
        <ele>16.799999237060546875</ele>
        <time>2015-09-09T23:52:45.000Z</time>
        <extensions>
          <ns3:TrackPointExtension>
            <ns3:atemp>28.0</ns3:atemp>
          </ns3:TrackPointExtension>
        </extensions>
      </trkpt>
      <trkpt lat="31.42091461457312107086181640625" lon="119.4863915629684925079345703125">
        <ele>17</ele>
        <time>2015-09-09T23:52:51.000Z</time>
        <extensions>
          <ns3:TrackPointExtension>
            <ns3:atemp>28.0</ns3:atemp>
          </ns3:TrackPointExtension>
        </extensions>
      </trkpt>
      <trkpt lat="31.4209024608135223388671875" lon="119.48638259433209896087646484375">
        <ele>17</ele>
        <time>2015-09-09T23:52:52.000Z</time>
        <extensions>
          <ns3:TrackPointExtension>
            <ns3:atemp>28.0</ns3:atemp>
          </ns3:TrackPointExtension>
        </extensions>
      </trkpt>
      <trkpt lat="31.4208905585110187530517578125" lon="119.48636591434478759765625">
        <ele>17</ele>
        <time>2015-09-09T23:53:00.000Z</time>
        <extensions>
          <ns3:TrackPointExtension>
            <ns3:atemp>28.0</ns3:atemp>
          </ns3:TrackPointExtension>
        </extensions>
      </trkpt>
      <trkpt lat="31.420833058655261993408203125" lon="119.4863704405725002288818359375">
        <ele>17</ele>
        <time>2015-09-09T23:53:08.000Z</time>
        <extensions>
          <ns3:TrackPointExtension>
            <ns3:atemp>28.0</ns3:atemp>
          </ns3:TrackPointExtension>
        </extensions>
      </trkpt>
      <trkpt lat="31.42081419937312602996826171875" lon="119.4863699376583099365234375">
        <ele>17</ele>
        <time>2015-09-09T23:53:09.000Z</time>
        <extensions>
          <ns3:TrackPointExtension>
            <ns3:atemp>28.0</ns3:atemp>
          </ns3:TrackPointExtension>
        </extensions>
      </trkpt>
      <trkpt lat="31.420789472758769989013671875" lon="119.48637639172375202178955078125">
        <ele>17</ele>
        <time>2015-09-09T23:53:10.000Z</time>
        <extensions>
          <ns3:TrackPointExtension>
            <ns3:atemp>28.0</ns3:atemp>
          </ns3:TrackPointExtension>
        </extensions>
      </trkpt>
      <trkpt lat="31.420761980116367340087890625" lon="119.48639198206365108489990234375">
        <ele>17</ele>
        <time>2015-09-09T23:53:11.000Z</time>
        <extensions>
          <ns3:TrackPointExtension>
            <ns3:atemp>28.0</ns3:atemp>
          </ns3:TrackPointExtension>
        </extensions>
      </trkpt>
      <trkpt lat="31.42073440365493297576904296875" lon="119.4864086620509624481201171875">
        <ele>17</ele>
        <time>2015-09-09T23:53:12.000Z</time>
        <extensions>
          <ns3:TrackPointExtension>
            <ns3:atemp>28.0</ns3:atemp>
          </ns3:TrackPointExtension>
        </extensions>
      </trkpt>
      <trkpt lat="31.42070322297513484954833984375" lon="119.48642349801957607269287109375">
        <ele>17</ele>
        <time>2015-09-09T23:53:13.000Z</time>
        <extensions>
          <ns3:TrackPointExtension>
            <ns3:atemp>28.0</ns3:atemp>
          </ns3:TrackPointExtension>
        </extensions>
      </trkpt>
      <trkpt lat="31.42067120410501956939697265625" lon="119.4864338077604770660400390625">
        <ele>17</ele>
        <time>2015-09-09T23:53:14.000Z</time>
        <extensions>
          <ns3:TrackPointExtension>
            <ns3:atemp>28.0</ns3:atemp>
          </ns3:TrackPointExtension>
        </extensions>
      </trkpt>
      <trkpt lat="31.42063784413039684295654296875" lon="119.4864425249397754669189453125">
        <ele>17</ele>
        <time>2015-09-09T23:53:15.000Z</time>
        <extensions>
          <ns3:TrackPointExtension>
            <ns3:atemp>28.0</ns3:atemp>
          </ns3:TrackPointExtension>
        </extensions>
      </trkpt>
      <trkpt lat="31.42002194188535213470458984375" lon="119.48648435063660144805908203125">
        <ele>17</ele>
        <time>2015-09-09T23:53:32.000Z</time>
        <extensions>
          <ns3:TrackPointExtension>
            <ns3:atemp>29.0</ns3:atemp>
          </ns3:TrackPointExtension>
        </extensions>
      </trkpt>
      <trkpt lat="31.41960016451776027679443359375" lon="119.48650497011840343475341796875">
        <ele>17.200000762939453125</ele>
        <time>2015-09-09T23:53:43.000Z</time>
        <extensions>
          <ns3:TrackPointExtension>
            <ns3:atemp>29.0</ns3:atemp>
          </ns3:TrackPointExtension>
        </extensions>
      </trkpt>
      <trkpt lat="31.41940503381192684173583984375" lon="119.4865136034786701202392578125">
        <ele>17.200000762939453125</ele>
        <time>2015-09-09T23:53:48.000Z</time>
        <extensions>
          <ns3:TrackPointExtension>
            <ns3:atemp>29.0</ns3:atemp>
          </ns3:TrackPointExtension>
        </extensions>
      </trkpt>
      <trkpt lat="31.41880019567906856536865234375" lon="119.48649466037750244140625">
        <ele>17.200000762939453125</ele>
        <time>2015-09-09T23:54:05.000Z</time>
        <extensions>
          <ns3:TrackPointExtension>
            <ns3:atemp>29.0</ns3:atemp>
          </ns3:TrackPointExtension>
        </extensions>
      </trkpt>
      <trkpt lat="31.41816015355288982391357421875" lon="119.48657386936247348785400390625">
        <ele>17.6000003814697265625</ele>
        <time>2015-09-09T23:54:22.000Z</time>
        <extensions>
          <ns3:TrackPointExtension>
            <ns3:atemp>29.0</ns3:atemp>
          </ns3:TrackPointExtension>
        </extensions>
      </trkpt>
      <trkpt lat="31.4175495319068431854248046875" lon="119.486626423895359039306640625">
        <ele>17</ele>
        <time>2015-09-09T23:54:38.000Z</time>
        <extensions>
          <ns3:TrackPointExtension>
            <ns3:atemp>29.0</ns3:atemp>
          </ns3:TrackPointExtension>
        </extensions>
      </trkpt>
      <trkpt lat="31.41693907789885997772216796875" lon="119.486647211015224456787109375">
        <ele>16.799999237060546875</ele>
        <time>2015-09-09T23:54:54.000Z</time>
        <extensions>
          <ns3:TrackPointExtension>
            <ns3:atemp>29.0</ns3:atemp>
          </ns3:TrackPointExtension>
        </extensions>
      </trkpt>
      <trkpt lat="31.4163673482835292816162109375" lon="119.48665718547999858856201171875">
        <ele>16.799999237060546875</ele>
        <time>2015-09-09T23:55:09.000Z</time>
        <extensions>
          <ns3:TrackPointExtension>
            <ns3:atemp>29.0</ns3:atemp>
          </ns3:TrackPointExtension>
        </extensions>
      </trkpt>
      <trkpt lat="31.4157809503376483917236328125" lon="119.48662784881889820098876953125">
        <ele>17</ele>
        <time>2015-09-09T23:55:26.000Z</time>
        <extensions>
          <ns3:TrackPointExtension>
            <ns3:atemp>29.0</ns3:atemp>
          </ns3:TrackPointExtension>
        </extensions>
      </trkpt>
      <trkpt lat="31.415647007524967193603515625" lon="119.48660287074744701385498046875">
        <ele>17.200000762939453125</ele>
        <time>2015-09-09T23:55:30.000Z</time>
        <extensions>
          <ns3:TrackPointExtension>
            <ns3:atemp>29.0</ns3:atemp>
          </ns3:TrackPointExtension>
        </extensions>
      </trkpt>
      <trkpt lat="31.41561440192162990570068359375" lon="119.4866229034960269927978515625">
        <ele>17</ele>
        <time>2015-09-09T23:55:31.000Z</time>
        <extensions>
          <ns3:TrackPointExtension>
            <ns3:atemp>29.0</ns3:atemp>
          </ns3:TrackPointExtension>
        </extensions>
      </trkpt>
      <trkpt lat="31.41558003611862659454345703125" lon="119.486635811626911163330078125">
        <ele>17</ele>
        <time>2015-09-09T23:55:32.000Z</time>
        <extensions>
          <ns3:TrackPointExtension>
            <ns3:atemp>29.0</ns3:atemp>
          </ns3:TrackPointExtension>
        </extensions>
      </trkpt>
      <trkpt lat="31.415543071925640106201171875" lon="119.4866416789591312408447265625">
        <ele>16.799999237060546875</ele>
        <time>2015-09-09T23:55:33.000Z</time>
        <extensions>
          <ns3:TrackPointExtension>
            <ns3:atemp>29.0</ns3:atemp>
          </ns3:TrackPointExtension>
        </extensions>
      </trkpt>
      <trkpt lat="31.415505520999431610107421875" lon="119.48664478026330471038818359375">
        <ele>16.799999237060546875</ele>
        <time>2015-09-09T23:55:34.000Z</time>
        <extensions>
          <ns3:TrackPointExtension>
            <ns3:atemp>29.0</ns3:atemp>
          </ns3:TrackPointExtension>
        </extensions>
      </trkpt>
      <trkpt lat="31.4149001799523830413818359375" lon="119.4866433553397655487060546875">
        <ele>16.6000003814697265625</ele>
        <time>2015-09-09T23:55:49.000Z</time>
        <extensions>
          <ns3:TrackPointExtension>
            <ns3:atemp>29.0</ns3:atemp>
          </ns3:TrackPointExtension>
        </extensions>
      </trkpt>
      <trkpt lat="31.41430146060883998870849609375" lon="119.48664980940520763397216796875">
        <ele>17</ele>
        <time>2015-09-09T23:56:04.000Z</time>
        <extensions>
          <ns3:TrackPointExtension>
            <ns3:atemp>29.0</ns3:atemp>
          </ns3:TrackPointExtension>
        </extensions>
      </trkpt>
      <trkpt lat="31.413734592497348785400390625" lon="119.48668769560754299163818359375">
        <ele>17</ele>
        <time>2015-09-09T23:56:19.000Z</time>
        <extensions>
          <ns3:TrackPointExtension>
            <ns3:atemp>29.0</ns3:atemp>
          </ns3:TrackPointExtension>
        </extensions>
      </trkpt>
      <trkpt lat="31.41313386149704456329345703125" lon="119.48672491125762462615966796875">
        <ele>16.6000003814697265625</ele>
        <time>2015-09-09T23:56:34.000Z</time>
        <extensions>
          <ns3:TrackPointExtension>
            <ns3:atemp>29.0</ns3:atemp>
          </ns3:TrackPointExtension>
        </extensions>
      </trkpt>
      <trkpt lat="31.41252994537353515625" lon="119.48675609193742275238037109375">
        <ele>16.799999237060546875</ele>
        <time>2015-09-09T23:56:49.000Z</time>
        <extensions>
          <ns3:TrackPointExtension>
            <ns3:atemp>28.0</ns3:atemp>
          </ns3:TrackPointExtension>
        </extensions>
      </trkpt>
      <trkpt lat="31.4123329706490039825439453125" lon="119.486788026988506317138671875">
        <ele>16.3999996185302734375</ele>
        <time>2015-09-09T23:56:56.000Z</time>
        <extensions>
          <ns3:TrackPointExtension>
            <ns3:atemp>28.0</ns3:atemp>
          </ns3:TrackPointExtension>
        </extensions>
      </trkpt>
      <trkpt lat="31.41232165507972240447998046875" lon="119.4868098199367523193359375">
        <ele>16.3999996185302734375</ele>
        <time>2015-09-09T23:56:57.000Z</time>
        <extensions>
          <ns3:TrackPointExtension>
            <ns3:atemp>28.0</ns3:atemp>
          </ns3:TrackPointExtension>
        </extensions>
      </trkpt>
      <trkpt lat="31.4123158715665340423583984375" lon="119.4868404977023601531982421875">
        <ele>16.3999996185302734375</ele>
        <time>2015-09-09T23:56:58.000Z</time>
        <extensions>
          <ns3:TrackPointExtension>
            <ns3:atemp>28.0</ns3:atemp>
          </ns3:TrackPointExtension>
        </extensions>
      </trkpt>
      <trkpt lat="31.4122364111244678497314453125" lon="119.48714174330234527587890625">
        <ele>16.200000762939453125</ele>
        <time>2015-09-09T23:57:09.000Z</time>
        <extensions>
          <ns3:TrackPointExtension>
            <ns3:atemp>28.0</ns3:atemp>
          </ns3:TrackPointExtension>
        </extensions>
      </trkpt>
      <trkpt lat="31.41222241334617137908935546875" lon="119.48714937083423137664794921875">
        <ele>16.200000762939453125</ele>
        <time>2015-09-09T23:57:10.000Z</time>
        <extensions>
          <ns3:TrackPointExtension>
            <ns3:atemp>28.0</ns3:atemp>
          </ns3:TrackPointExtension>
        </extensions>
      </trkpt>
      <trkpt lat="31.4122079126536846160888671875" lon="119.48714978992938995361328125">
        <ele>16.200000762939453125</ele>
        <time>2015-09-09T23:57:11.000Z</time>
        <extensions>
          <ns3:TrackPointExtension>
            <ns3:atemp>28.0</ns3:atemp>
          </ns3:TrackPointExtension>
        </extensions>
      </trkpt>
      <trkpt lat="31.412189640104770660400390625" lon="119.4871519692242145538330078125">
        <ele>16.3999996185302734375</ele>
        <time>2015-09-09T23:57:12.000Z</time>
        <extensions>
          <ns3:TrackPointExtension>
            <ns3:atemp>28.0</ns3:atemp>
          </ns3:TrackPointExtension>
        </extensions>
      </trkpt>
      <trkpt lat="31.4121693558990955352783203125" lon="119.48715188540518283843994140625">
        <ele>16.3999996185302734375</ele>
        <time>2015-09-09T23:57:13.000Z</time>
        <extensions>
          <ns3:TrackPointExtension>
            <ns3:atemp>28.0</ns3:atemp>
          </ns3:TrackPointExtension>
        </extensions>
      </trkpt>
      <trkpt lat="31.41214907169342041015625" lon="119.4871479459106922149658203125">
        <ele>16.3999996185302734375</ele>
        <time>2015-09-09T23:57:14.000Z</time>
        <extensions>
          <ns3:TrackPointExtension>
            <ns3:atemp>28.0</ns3:atemp>
          </ns3:TrackPointExtension>
        </extensions>
      </trkpt>
      <trkpt lat="31.4121289551258087158203125" lon="119.48713914491236209869384765625">
        <ele>16.3999996185302734375</ele>
        <time>2015-09-09T23:57:15.000Z</time>
        <extensions>
          <ns3:TrackPointExtension>
            <ns3:atemp>28.0</ns3:atemp>
          </ns3:TrackPointExtension>
        </extensions>
      </trkpt>
      <trkpt lat="31.41210774891078472137451171875" lon="119.4871290028095245361328125">
        <ele>16.6000003814697265625</ele>
        <time>2015-09-09T23:57:16.000Z</time>
        <extensions>
          <ns3:TrackPointExtension>
            <ns3:atemp>28.0</ns3:atemp>
          </ns3:TrackPointExtension>
        </extensions>
      </trkpt>
      <trkpt lat="31.411524116992950439453125" lon="119.4870684854686260223388671875">
        <ele>16.200000762939453125</ele>
        <time>2015-09-09T23:57:34.000Z</time>
        <extensions>
          <ns3:TrackPointExtension>
            <ns3:atemp>28.0</ns3:atemp>
          </ns3:TrackPointExtension>
        </extensions>
      </trkpt>
      <trkpt lat="31.4109613560140132904052734375" lon="119.48712489567697048187255859375">
        <ele>16</ele>
        <time>2015-09-09T23:57:50.000Z</time>
        <extensions>
          <ns3:TrackPointExtension>
            <ns3:atemp>28.0</ns3:atemp>
          </ns3:TrackPointExtension>
        </extensions>
      </trkpt>
      <trkpt lat="31.41089446842670440673828125" lon="119.48713227175176143646240234375">
        <ele>16.799999237060546875</ele>
        <time>2015-09-09T23:57:52.000Z</time>
        <extensions>
          <ns3:TrackPointExtension>
            <ns3:atemp>28.0</ns3:atemp>
          </ns3:TrackPointExtension>
        </extensions>
      </trkpt>
      <trkpt lat="31.41036448068916797637939453125" lon="119.4871657155454158782958984375">
        <ele>16.200000762939453125</ele>
        <time>2015-09-09T23:58:08.000Z</time>
        <extensions>
          <ns3:TrackPointExtension>
            <ns3:atemp>28.0</ns3:atemp>
          </ns3:TrackPointExtension>
        </extensions>
      </trkpt>
      <trkpt lat="31.4097754843533039093017578125" lon="119.48717216961085796356201171875">
        <ele>16</ele>
        <time>2015-09-09T23:58:25.000Z</time>
        <extensions>
          <ns3:TrackPointExtension>
            <ns3:atemp>28.0</ns3:atemp>
          </ns3:TrackPointExtension>
        </extensions>
      </trkpt>
      <trkpt lat="31.40925471670925617218017578125" lon="119.48735824786126613616943359375">
        <ele>16</ele>
        <time>2015-09-09T23:58:42.000Z</time>
        <extensions>
          <ns3:TrackPointExtension>
            <ns3:atemp>28.0</ns3:atemp>
          </ns3:TrackPointExtension>
        </extensions>
      </trkpt>
      <trkpt lat="31.40898917801678180694580078125" lon="119.4874315895140171051025390625">
        <ele>15.80000019073486328125</ele>
        <time>2015-09-09T23:58:51.000Z</time>
        <extensions>
          <ns3:TrackPointExtension>
            <ns3:atemp>28.0</ns3:atemp>
          </ns3:TrackPointExtension>
        </extensions>
      </trkpt>
      <trkpt lat="31.4089805446565151214599609375" lon="119.48745480738580226898193359375">
        <ele>15.80000019073486328125</ele>
        <time>2015-09-09T23:58:52.000Z</time>
        <extensions>
          <ns3:TrackPointExtension>
            <ns3:atemp>28.0</ns3:atemp>
          </ns3:TrackPointExtension>
        </extensions>
      </trkpt>
      <trkpt lat="31.40899554826319217681884765625" lon="119.4874714873731136322021484375">
        <ele>16</ele>
        <time>2015-09-09T23:58:53.000Z</time>
        <extensions>
          <ns3:TrackPointExtension>
            <ns3:atemp>28.0</ns3:atemp>
          </ns3:TrackPointExtension>
        </extensions>
      </trkpt>
      <trkpt lat="31.4090177603065967559814453125" lon="119.48747836053371429443359375">
        <ele>16.200000762939453125</ele>
        <time>2015-09-09T23:58:54.000Z</time>
        <extensions>
          <ns3:TrackPointExtension>
            <ns3:atemp>28.0</ns3:atemp>
          </ns3:TrackPointExtension>
        </extensions>
      </trkpt>
      <trkpt lat="31.40903829596936702728271484375" lon="119.48747425340116024017333984375">
        <ele>16.200000762939453125</ele>
        <time>2015-09-09T23:58:55.000Z</time>
        <extensions>
          <ns3:TrackPointExtension>
            <ns3:atemp>28.0</ns3:atemp>
          </ns3:TrackPointExtension>
        </extensions>
      </trkpt>
      <trkpt lat="31.4090551435947418212890625" lon="119.48745648376643657684326171875">
        <ele>16.200000762939453125</ele>
        <time>2015-09-09T23:58:56.000Z</time>
        <extensions>
          <ns3:TrackPointExtension>
            <ns3:atemp>28.0</ns3:atemp>
          </ns3:TrackPointExtension>
        </extensions>
      </trkpt>
      <trkpt lat="31.4090727455914020538330078125" lon="119.4874416477978229522705078125">
        <ele>16.200000762939453125</ele>
        <time>2015-09-09T23:58:57.000Z</time>
        <extensions>
          <ns3:TrackPointExtension>
            <ns3:atemp>28.0</ns3:atemp>
          </ns3:TrackPointExtension>
        </extensions>
      </trkpt>
      <trkpt lat="31.4094801060855388641357421875" lon="119.48737937025725841522216796875">
        <ele>16.200000762939453125</ele>
        <time>2015-09-09T23:59:14.000Z</time>
        <extensions>
          <ns3:TrackPointExtension>
            <ns3:atemp>28.0</ns3:atemp>
          </ns3:TrackPointExtension>
        </extensions>
      </trkpt>
      <trkpt lat="31.4094911701977252960205078125" lon="119.487401582300662994384765625">
        <ele>16.799999237060546875</ele>
        <time>2015-09-09T23:59:17.000Z</time>
        <extensions>
          <ns3:TrackPointExtension>
            <ns3:atemp>28.0</ns3:atemp>
          </ns3:TrackPointExtension>
        </extensions>
      </trkpt>
      <trkpt lat="31.4094921760261058807373046875" lon="119.4873999059200286865234375">
        <ele>16.799999237060546875</ele>
        <time>2015-09-09T23:59:19.000Z</time>
        <extensions>
          <ns3:TrackPointExtension>
            <ns3:atemp>28.0</ns3:atemp>
          </ns3:TrackPointExtension>
        </extensions>
      </trkpt>
    </trkseg>
  </trk>
</gpx>
