<gpx xmlns:ns3="http://www.garmin.com/xmlschemas/TrackPointExtension/v1" xmlns="http://www.topografix.com/GPX/1/1" xmlns:xsi="http://www.w3.org/2001/XMLSchema-instance" xmlns:ns2="http://www.garmin.com/xmlschemas/GpxExtensions/v3" creator="Garmin Connect" version="1.1" xsi:schemaLocation="http://www.topografix.com/GPX/1/1 http://www.topografix.com/GPX/11.xsd">
  <extensions>
<distance>3286.43</distance>
<average_hr></average_hr>
<average_speed>3.1938095238095237</average_speed>
<start_time>2015-09-09T09:25:34+00:00</start_time>
<end_time>2015-09-09T09:42:43+00:00</end_time>
<moving_time>1021.0</moving_time>
<elapsed_time>1051.0</elapsed_time>
</extensions>
<metadata>
    <link href="connect.garmin.com">
      <text>Garmin Connect</text>
    </link>
    <time>2015-09-09T09:25:34.000Z</time>
  </metadata>
  <trk>
    <name>下班</name>
    <type>cycling</type>
    <trkseg>
      <trkpt lat="31.40955495648086071014404296875" lon="119.4876183383166790008544921875">
        <ele>55.200000762939453125</ele>
        <time>2015-09-09T09:25:34.000Z</time>
        <extensions>
          <ns3:TrackPointExtension>
            <ns3:atemp>30.0</ns3:atemp>
          </ns3:TrackPointExtension>
        </extensions>
      </trkpt>
      <trkpt lat="31.4095525257289409637451171875" lon="119.4876149855554103851318359375">
        <ele>-3.7999999523162841796875</ele>
        <time>2015-09-09T09:25:35.000Z</time>
        <extensions>
          <ns3:TrackPointExtension>
            <ns3:atemp>30.0</ns3:atemp>
          </ns3:TrackPointExtension>
        </extensions>
      </trkpt>
      <trkpt lat="31.40954858623445034027099609375" lon="119.48761674575507640838623046875">
        <ele>-3.7999999523162841796875</ele>
        <time>2015-09-09T09:25:36.000Z</time>
        <extensions>
          <ns3:TrackPointExtension>
            <ns3:atemp>30.0</ns3:atemp>
          </ns3:TrackPointExtension>
        </extensions>
      </trkpt>
      <trkpt lat="31.40954934060573577880859375" lon="119.48762328363955020904541015625">
        <ele>54.59999847412109375</ele>
        <time>2015-09-09T09:25:38.000Z</time>
        <extensions>
          <ns3:TrackPointExtension>
            <ns3:atemp>30.0</ns3:atemp>
          </ns3:TrackPointExtension>
        </extensions>
      </trkpt>
      <trkpt lat="31.40955328010022640228271484375" lon="119.4876173324882984161376953125">
        <ele>54.59999847412109375</ele>
        <time>2015-09-09T09:25:39.000Z</time>
        <extensions>
          <ns3:TrackPointExtension>
            <ns3:atemp>30.0</ns3:atemp>
          </ns3:TrackPointExtension>
        </extensions>
      </trkpt>
      <trkpt lat="31.40954523347318172454833984375" lon="119.487575255334377288818359375">
        <ele>54.799999237060546875</ele>
        <time>2015-09-09T09:25:42.000Z</time>
        <extensions>
          <ns3:TrackPointExtension>
            <ns3:atemp>30.0</ns3:atemp>
          </ns3:TrackPointExtension>
        </extensions>
      </trkpt>
      <trkpt lat="31.40983843244612216949462890625" lon="119.48719404637813568115234375">
        <ele>54.799999237060546875</ele>
        <time>2015-09-09T09:26:01.000Z</time>
        <extensions>
          <ns3:TrackPointExtension>
            <ns3:atemp>30.0</ns3:atemp>
          </ns3:TrackPointExtension>
        </extensions>
      </trkpt>
      <trkpt lat="31.41044125892221927642822265625" lon="119.487211816012859344482421875">
        <ele>54.59999847412109375</ele>
        <time>2015-09-09T09:26:17.000Z</time>
        <extensions>
          <ns3:TrackPointExtension>
            <ns3:atemp>30.0</ns3:atemp>
          </ns3:TrackPointExtension>
        </extensions>
      </trkpt>
      <trkpt lat="31.41100971959531307220458984375" lon="119.487154148519039154052734375">
        <ele>54.40000152587890625</ele>
        <time>2015-09-09T09:26:32.000Z</time>
        <extensions>
          <ns3:TrackPointExtension>
            <ns3:atemp>30.0</ns3:atemp>
          </ns3:TrackPointExtension>
        </extensions>
      </trkpt>
      <trkpt lat="31.4116248674690723419189453125" lon="119.48711735196411609649658203125">
        <ele>54.59999847412109375</ele>
        <time>2015-09-09T09:26:47.000Z</time>
        <extensions>
          <ns3:TrackPointExtension>
            <ns3:atemp>30.0</ns3:atemp>
          </ns3:TrackPointExtension>
        </extensions>
      </trkpt>
      <trkpt lat="31.41225426457822322845458984375" lon="119.4870899431407451629638671875">
        <ele>54.40000152587890625</ele>
        <time>2015-09-09T09:27:28.000Z</time>
        <extensions>
          <ns3:TrackPointExtension>
            <ns3:atemp>30.0</ns3:atemp>
          </ns3:TrackPointExtension>
        </extensions>
      </trkpt>
      <trkpt lat="31.4128204621374607086181640625" lon="119.487113244831562042236328125">
        <ele>55</ele>
        <time>2015-09-09T09:27:45.000Z</time>
        <extensions>
          <ns3:TrackPointExtension>
            <ns3:atemp>30.0</ns3:atemp>
          </ns3:TrackPointExtension>
        </extensions>
      </trkpt>
      <trkpt lat="31.41339738853275775909423828125" lon="119.487108886241912841796875">
        <ele>54.200000762939453125</ele>
        <time>2015-09-09T09:28:02.000Z</time>
        <extensions>
          <ns3:TrackPointExtension>
            <ns3:atemp>30.0</ns3:atemp>
          </ns3:TrackPointExtension>
        </extensions>
      </trkpt>
      <trkpt lat="31.41395914368331432342529296875" lon="119.48703252710402011871337890625">
        <ele>54.59999847412109375</ele>
        <time>2015-09-09T09:28:18.000Z</time>
        <extensions>
          <ns3:TrackPointExtension>
            <ns3:atemp>29.0</ns3:atemp>
          </ns3:TrackPointExtension>
        </extensions>
      </trkpt>
      <trkpt lat="31.41455107368528842926025390625" lon="119.48703219182789325714111328125">
        <ele>54.799999237060546875</ele>
        <time>2015-09-09T09:28:33.000Z</time>
        <extensions>
          <ns3:TrackPointExtension>
            <ns3:atemp>29.0</ns3:atemp>
          </ns3:TrackPointExtension>
        </extensions>
      </trkpt>
      <trkpt lat="31.41514845192432403564453125" lon="119.48700251989066600799560546875">
        <ele>55</ele>
        <time>2015-09-09T09:28:49.000Z</time>
        <extensions>
          <ns3:TrackPointExtension>
            <ns3:atemp>29.0</ns3:atemp>
          </ns3:TrackPointExtension>
        </extensions>
      </trkpt>
      <trkpt lat="31.4156190119683742523193359375" lon="119.48703504167497158050537109375">
        <ele>55.200000762939453125</ele>
        <time>2015-09-09T09:29:09.000Z</time>
        <extensions>
          <ns3:TrackPointExtension>
            <ns3:atemp>29.0</ns3:atemp>
          </ns3:TrackPointExtension>
        </extensions>
      </trkpt>
      <trkpt lat="31.4162238501012325286865234375" lon="119.48687109164893627166748046875">
        <ele>54.59999847412109375</ele>
        <time>2015-09-09T09:29:29.000Z</time>
        <extensions>
          <ns3:TrackPointExtension>
            <ns3:atemp>29.0</ns3:atemp>
          </ns3:TrackPointExtension>
        </extensions>
      </trkpt>
      <trkpt lat="31.41682927496731281280517578125" lon="119.4868767075240612030029296875">
        <ele>54.59999847412109375</ele>
        <time>2015-09-09T09:29:44.000Z</time>
        <extensions>
          <ns3:TrackPointExtension>
            <ns3:atemp>29.0</ns3:atemp>
          </ns3:TrackPointExtension>
        </extensions>
      </trkpt>
      <trkpt lat="31.41745506785809993743896484375" lon="119.4868203811347484588623046875">
        <ele>54.40000152587890625</ele>
        <time>2015-09-09T09:30:00.000Z</time>
        <extensions>
          <ns3:TrackPointExtension>
            <ns3:atemp>29.0</ns3:atemp>
          </ns3:TrackPointExtension>
        </extensions>
      </trkpt>
      <trkpt lat="31.4180303178727626800537109375" lon="119.4867615401744842529296875">
        <ele>54.799999237060546875</ele>
        <time>2015-09-09T09:30:15.000Z</time>
        <extensions>
          <ns3:TrackPointExtension>
            <ns3:atemp>29.0</ns3:atemp>
          </ns3:TrackPointExtension>
        </extensions>
      </trkpt>
      <trkpt lat="31.41830138862133026123046875" lon="119.486793391406536102294921875">
        <ele>54.59999847412109375</ele>
        <time>2015-09-09T09:30:24.000Z</time>
        <extensions>
          <ns3:TrackPointExtension>
            <ns3:atemp>29.0</ns3:atemp>
          </ns3:TrackPointExtension>
        </extensions>
      </trkpt>
      <trkpt lat="31.41843608580529689788818359375" lon="119.4869055412709712982177734375">
        <ele>55.40000152587890625</ele>
        <time>2015-09-09T09:31:14.000Z</time>
        <extensions>
          <ns3:TrackPointExtension>
            <ns3:atemp>29.0</ns3:atemp>
          </ns3:TrackPointExtension>
        </extensions>
      </trkpt>
      <trkpt lat="31.4188004471361637115478515625" lon="119.48673941195011138916015625">
        <ele>54.59999847412109375</ele>
        <time>2015-09-09T09:32:20.000Z</time>
        <extensions>
          <ns3:TrackPointExtension>
            <ns3:atemp>30.0</ns3:atemp>
          </ns3:TrackPointExtension>
        </extensions>
      </trkpt>
      <trkpt lat="31.4192802272737026214599609375" lon="119.486710242927074432373046875">
        <ele>54.799999237060546875</ele>
        <time>2015-09-09T09:32:32.000Z</time>
        <extensions>
          <ns3:TrackPointExtension>
            <ns3:atemp>29.0</ns3:atemp>
          </ns3:TrackPointExtension>
        </extensions>
      </trkpt>
      <trkpt lat="31.41966185532510280609130859375" lon="119.48671435005962848663330078125">
        <ele>54.59999847412109375</ele>
        <time>2015-09-09T09:32:41.000Z</time>
        <extensions>
          <ns3:TrackPointExtension>
            <ns3:atemp>29.0</ns3:atemp>
          </ns3:TrackPointExtension>
        </extensions>
      </trkpt>
      <trkpt lat="31.41970627941191196441650390625" lon="119.48672055266797542572021484375">
        <ele>54.40000152587890625</ele>
        <time>2015-09-09T09:32:42.000Z</time>
        <extensions>
          <ns3:TrackPointExtension>
            <ns3:atemp>29.0</ns3:atemp>
          </ns3:TrackPointExtension>
        </extensions>
      </trkpt>
      <trkpt lat="31.42032821662724018096923828125" lon="119.48672960512340068817138671875">
        <ele>54.40000152587890625</ele>
        <time>2015-09-09T09:32:57.000Z</time>
        <extensions>
          <ns3:TrackPointExtension>
            <ns3:atemp>29.0</ns3:atemp>
          </ns3:TrackPointExtension>
        </extensions>
      </trkpt>
      <trkpt lat="31.42092165537178516387939453125" lon="119.48670462705194950103759765625">
        <ele>54.200000762939453125</ele>
        <time>2015-09-09T09:33:12.000Z</time>
        <extensions>
          <ns3:TrackPointExtension>
            <ns3:atemp>29.0</ns3:atemp>
          </ns3:TrackPointExtension>
        </extensions>
      </trkpt>
      <trkpt lat="31.42152884043753147125244140625" lon="119.48666623793542385101318359375">
        <ele>54.40000152587890625</ele>
        <time>2015-09-09T09:33:27.000Z</time>
        <extensions>
          <ns3:TrackPointExtension>
            <ns3:atemp>29.0</ns3:atemp>
          </ns3:TrackPointExtension>
        </extensions>
      </trkpt>
      <trkpt lat="31.4221260510385036468505859375" lon="119.48664813302457332611083984375">
        <ele>54.200000762939453125</ele>
        <time>2015-09-09T09:33:43.000Z</time>
        <extensions>
          <ns3:TrackPointExtension>
            <ns3:atemp>29.0</ns3:atemp>
          </ns3:TrackPointExtension>
        </extensions>
      </trkpt>
      <trkpt lat="31.42270934768021106719970703125" lon="119.48660085909068584442138671875">
        <ele>54.200000762939453125</ele>
        <time>2015-09-09T09:33:58.000Z</time>
        <extensions>
          <ns3:TrackPointExtension>
            <ns3:atemp>29.0</ns3:atemp>
          </ns3:TrackPointExtension>
        </extensions>
      </trkpt>
      <trkpt lat="31.42286826856434345245361328125" lon="119.4865706004202365875244140625">
        <ele>54.799999237060546875</ele>
        <time>2015-09-09T09:34:02.000Z</time>
        <extensions>
          <ns3:TrackPointExtension>
            <ns3:atemp>29.0</ns3:atemp>
          </ns3:TrackPointExtension>
        </extensions>
      </trkpt>
      <trkpt lat="31.42298720777034759521484375" lon="119.48655358515679836273193359375">
        <ele>54.59999847412109375</ele>
        <time>2015-09-09T09:34:05.000Z</time>
        <extensions>
          <ns3:TrackPointExtension>
            <ns3:atemp>29.0</ns3:atemp>
          </ns3:TrackPointExtension>
        </extensions>
      </trkpt>
      <trkpt lat="31.42302802763879299163818359375" lon="119.486553333699703216552734375">
        <ele>54.59999847412109375</ele>
        <time>2015-09-09T09:34:06.000Z</time>
        <extensions>
          <ns3:TrackPointExtension>
            <ns3:atemp>29.0</ns3:atemp>
          </ns3:TrackPointExtension>
        </extensions>
      </trkpt>
      <trkpt lat="31.42361375503242015838623046875" lon="119.4865115918219089508056640625">
        <ele>54.59999847412109375</ele>
        <time>2015-09-09T09:34:21.000Z</time>
        <extensions>
          <ns3:TrackPointExtension>
            <ns3:atemp>29.0</ns3:atemp>
          </ns3:TrackPointExtension>
        </extensions>
      </trkpt>
      <trkpt lat="31.42422932200133800506591796875" lon="119.48650312609970569610595703125">
        <ele>55</ele>
        <time>2015-09-09T09:34:38.000Z</time>
        <extensions>
          <ns3:TrackPointExtension>
            <ns3:atemp>29.0</ns3:atemp>
          </ns3:TrackPointExtension>
        </extensions>
      </trkpt>
      <trkpt lat="31.424399055540561676025390625" lon="119.48652475140988826751708984375">
        <ele>55.59999847412109375</ele>
        <time>2015-09-09T09:34:52.000Z</time>
        <extensions>
          <ns3:TrackPointExtension>
            <ns3:atemp>29.0</ns3:atemp>
          </ns3:TrackPointExtension>
        </extensions>
      </trkpt>
      <trkpt lat="31.4244174957275390625" lon="119.4865122623741626739501953125">
        <ele>55.200000762939453125</ele>
        <time>2015-09-09T09:35:14.000Z</time>
        <extensions>
          <ns3:TrackPointExtension>
            <ns3:atemp>29.0</ns3:atemp>
          </ns3:TrackPointExtension>
        </extensions>
      </trkpt>
      <trkpt lat="31.42443484626710414886474609375" lon="119.4865136034786701202392578125">
        <ele>55.200000762939453125</ele>
        <time>2015-09-09T09:35:15.000Z</time>
        <extensions>
          <ns3:TrackPointExtension>
            <ns3:atemp>29.0</ns3:atemp>
          </ns3:TrackPointExtension>
        </extensions>
      </trkpt>
      <trkpt lat="31.4244501851499080657958984375" lon="119.486513771116733551025390625">
        <ele>55.40000152587890625</ele>
        <time>2015-09-09T09:35:16.000Z</time>
        <extensions>
          <ns3:TrackPointExtension>
            <ns3:atemp>29.0</ns3:atemp>
          </ns3:TrackPointExtension>
        </extensions>
      </trkpt>
      <trkpt lat="31.4244703017175197601318359375" lon="119.48651184327900409698486328125">
        <ele>55.40000152587890625</ele>
        <time>2015-09-09T09:35:17.000Z</time>
        <extensions>
          <ns3:TrackPointExtension>
            <ns3:atemp>29.0</ns3:atemp>
          </ns3:TrackPointExtension>
        </extensions>
      </trkpt>
      <trkpt lat="31.42449268139898777008056640625" lon="119.486508406698703765869140625">
        <ele>55.40000152587890625</ele>
        <time>2015-09-09T09:35:18.000Z</time>
        <extensions>
          <ns3:TrackPointExtension>
            <ns3:atemp>29.0</ns3:atemp>
          </ns3:TrackPointExtension>
        </extensions>
      </trkpt>
      <trkpt lat="31.4245212636888027191162109375" lon="119.48650295846164226531982421875">
        <ele>55.59999847412109375</ele>
        <time>2015-09-09T09:35:19.000Z</time>
        <extensions>
          <ns3:TrackPointExtension>
            <ns3:atemp>29.0</ns3:atemp>
          </ns3:TrackPointExtension>
        </extensions>
      </trkpt>
      <trkpt lat="31.4251599647104740142822265625" lon="119.48641427792608737945556640625">
        <ele>55.40000152587890625</ele>
        <time>2015-09-09T09:35:35.000Z</time>
        <extensions>
          <ns3:TrackPointExtension>
            <ns3:atemp>29.0</ns3:atemp>
          </ns3:TrackPointExtension>
        </extensions>
      </trkpt>
      <trkpt lat="31.42574946396052837371826171875" lon="119.48639164678752422332763671875">
        <ele>55.59999847412109375</ele>
        <time>2015-09-09T09:35:51.000Z</time>
        <extensions>
          <ns3:TrackPointExtension>
            <ns3:atemp>29.0</ns3:atemp>
          </ns3:TrackPointExtension>
        </extensions>
      </trkpt>
      <trkpt lat="31.42636687494814395904541015625" lon="119.486363232135772705078125">
        <ele>55.59999847412109375</ele>
        <time>2015-09-09T09:36:08.000Z</time>
        <extensions>
          <ns3:TrackPointExtension>
            <ns3:atemp>29.0</ns3:atemp>
          </ns3:TrackPointExtension>
        </extensions>
      </trkpt>
      <trkpt lat="31.4265128038823604583740234375" lon="119.48636331595480442047119140625">
        <ele>55.799999237060546875</ele>
        <time>2015-09-09T09:36:15.000Z</time>
        <extensions>
          <ns3:TrackPointExtension>
            <ns3:atemp>29.0</ns3:atemp>
          </ns3:TrackPointExtension>
        </extensions>
      </trkpt>
      <trkpt lat="31.42652210779488086700439453125" lon="119.4863660819828510284423828125">
        <ele>56</ele>
        <time>2015-09-09T09:36:16.000Z</time>
        <extensions>
          <ns3:TrackPointExtension>
            <ns3:atemp>29.0</ns3:atemp>
          </ns3:TrackPointExtension>
        </extensions>
      </trkpt>
      <trkpt lat="31.42656720243394374847412109375" lon="119.48638561181724071502685546875">
        <ele>56.200000762939453125</ele>
        <time>2015-09-09T09:36:19.000Z</time>
        <extensions>
          <ns3:TrackPointExtension>
            <ns3:atemp>29.0</ns3:atemp>
          </ns3:TrackPointExtension>
        </extensions>
      </trkpt>
      <trkpt lat="31.42659083940088748931884765625" lon="119.48639147914946079254150390625">
        <ele>56.200000762939453125</ele>
        <time>2015-09-09T09:36:22.000Z</time>
        <extensions>
          <ns3:TrackPointExtension>
            <ns3:atemp>29.0</ns3:atemp>
          </ns3:TrackPointExtension>
        </extensions>
      </trkpt>
      <trkpt lat="31.426790244877338409423828125" lon="119.48639608919620513916015625">
        <ele>56</ele>
        <time>2015-09-09T09:36:58.000Z</time>
        <extensions>
          <ns3:TrackPointExtension>
            <ns3:atemp>29.0</ns3:atemp>
          </ns3:TrackPointExtension>
        </extensions>
      </trkpt>
      <trkpt lat="31.4268299750983715057373046875" lon="119.4863587059080600738525390625">
        <ele>55.59999847412109375</ele>
        <time>2015-09-09T09:37:01.000Z</time>
        <extensions>
          <ns3:TrackPointExtension>
            <ns3:atemp>29.0</ns3:atemp>
          </ns3:TrackPointExtension>
        </extensions>
      </trkpt>
      <trkpt lat="31.426855958998203277587890625" lon="119.48633498512208461761474609375">
        <ele>55.59999847412109375</ele>
        <time>2015-09-09T09:37:02.000Z</time>
        <extensions>
          <ns3:TrackPointExtension>
            <ns3:atemp>29.0</ns3:atemp>
          </ns3:TrackPointExtension>
        </extensions>
      </trkpt>
      <trkpt lat="31.42739139497280120849609375" lon="119.486159719526767730712890625">
        <ele>55.799999237060546875</ele>
        <time>2015-09-09T09:37:21.000Z</time>
        <extensions>
          <ns3:TrackPointExtension>
            <ns3:atemp>29.0</ns3:atemp>
          </ns3:TrackPointExtension>
        </extensions>
      </trkpt>
      <trkpt lat="31.42778157256543636322021484375" lon="119.48607967235147953033447265625">
        <ele>55.200000762939453125</ele>
        <time>2015-09-09T09:37:31.000Z</time>
        <extensions>
          <ns3:TrackPointExtension>
            <ns3:atemp>29.0</ns3:atemp>
          </ns3:TrackPointExtension>
        </extensions>
      </trkpt>
      <trkpt lat="31.4284040965139865875244140625" lon="119.48602820746600627899169921875">
        <ele>53.799999237060546875</ele>
        <time>2015-09-09T09:37:48.000Z</time>
        <extensions>
          <ns3:TrackPointExtension>
            <ns3:atemp>29.0</ns3:atemp>
          </ns3:TrackPointExtension>
        </extensions>
      </trkpt>
      <trkpt lat="31.42900700680911540985107421875" lon="119.4859342463314533233642578125">
        <ele>54.59999847412109375</ele>
        <time>2015-09-09T09:38:03.000Z</time>
        <extensions>
          <ns3:TrackPointExtension>
            <ns3:atemp>29.0</ns3:atemp>
          </ns3:TrackPointExtension>
        </extensions>
      </trkpt>
      <trkpt lat="31.42956859432160854339599609375" lon="119.4857262074947357177734375">
        <ele>55</ele>
        <time>2015-09-09T09:38:21.000Z</time>
        <extensions>
          <ns3:TrackPointExtension>
            <ns3:atemp>29.0</ns3:atemp>
          </ns3:TrackPointExtension>
        </extensions>
      </trkpt>
      <trkpt lat="31.43018147908151149749755859375" lon="119.485635347664356231689453125">
        <ele>54.799999237060546875</ele>
        <time>2015-09-09T09:38:39.000Z</time>
        <extensions>
          <ns3:TrackPointExtension>
            <ns3:atemp>29.0</ns3:atemp>
          </ns3:TrackPointExtension>
        </extensions>
      </trkpt>
      <trkpt lat="31.43024082295596599578857421875" lon="119.485658146440982818603515625">
        <ele>54.799999237060546875</ele>
        <time>2015-09-09T09:38:43.000Z</time>
        <extensions>
          <ns3:TrackPointExtension>
            <ns3:atemp>29.0</ns3:atemp>
          </ns3:TrackPointExtension>
        </extensions>
      </trkpt>
      <trkpt lat="31.4302990771830081939697265625" lon="119.4856418855488300323486328125">
        <ele>55</ele>
        <time>2015-09-09T09:38:51.000Z</time>
        <extensions>
          <ns3:TrackPointExtension>
            <ns3:atemp>29.0</ns3:atemp>
          </ns3:TrackPointExtension>
        </extensions>
      </trkpt>
      <trkpt lat="31.4302957244217395782470703125" lon="119.4856214337050914764404296875">
        <ele>54.799999237060546875</ele>
        <time>2015-09-09T09:38:58.000Z</time>
        <extensions>
          <ns3:TrackPointExtension>
            <ns3:atemp>29.0</ns3:atemp>
          </ns3:TrackPointExtension>
        </extensions>
      </trkpt>
      <trkpt lat="31.4304335229098796844482421875" lon="119.4855540432035923004150390625">
        <ele>54.799999237060546875</ele>
        <time>2015-09-09T09:39:15.000Z</time>
        <extensions>
          <ns3:TrackPointExtension>
            <ns3:atemp>29.0</ns3:atemp>
          </ns3:TrackPointExtension>
        </extensions>
      </trkpt>
      <trkpt lat="31.43044777214527130126953125" lon="119.48555110953748226165771484375">
        <ele>55</ele>
        <time>2015-09-09T09:39:16.000Z</time>
        <extensions>
          <ns3:TrackPointExtension>
            <ns3:atemp>29.0</ns3:atemp>
          </ns3:TrackPointExtension>
        </extensions>
      </trkpt>
      <trkpt lat="31.430463530123233795166015625" lon="119.48554180562496185302734375">
        <ele>55</ele>
        <time>2015-09-09T09:39:17.000Z</time>
        <extensions>
          <ns3:TrackPointExtension>
            <ns3:atemp>29.0</ns3:atemp>
          </ns3:TrackPointExtension>
        </extensions>
      </trkpt>
      <trkpt lat="31.43048155121505260467529296875" lon="119.48553585447371006011962890625">
        <ele>55.200000762939453125</ele>
        <time>2015-09-09T09:39:18.000Z</time>
        <extensions>
          <ns3:TrackPointExtension>
            <ns3:atemp>29.0</ns3:atemp>
          </ns3:TrackPointExtension>
        </extensions>
      </trkpt>
      <trkpt lat="31.43050611019134521484375" lon="119.48553283698856830596923828125">
        <ele>55.200000762939453125</ele>
        <time>2015-09-09T09:39:19.000Z</time>
        <extensions>
          <ns3:TrackPointExtension>
            <ns3:atemp>29.0</ns3:atemp>
          </ns3:TrackPointExtension>
        </extensions>
      </trkpt>
      <trkpt lat="31.430530250072479248046875" lon="119.48553015477955341339111328125">
        <ele>55.200000762939453125</ele>
        <time>2015-09-09T09:39:20.000Z</time>
        <extensions>
          <ns3:TrackPointExtension>
            <ns3:atemp>29.0</ns3:atemp>
          </ns3:TrackPointExtension>
        </extensions>
      </trkpt>
      <trkpt lat="31.4310371875762939453125" lon="119.48528967797756195068359375">
        <ele>55.40000152587890625</ele>
        <time>2015-09-09T09:39:38.000Z</time>
        <extensions>
          <ns3:TrackPointExtension>
            <ns3:atemp>29.0</ns3:atemp>
          </ns3:TrackPointExtension>
        </extensions>
      </trkpt>
      <trkpt lat="31.43159751780331134796142578125" lon="119.4849911145865917205810546875">
        <ele>56</ele>
        <time>2015-09-09T09:39:56.000Z</time>
        <extensions>
          <ns3:TrackPointExtension>
            <ns3:atemp>29.0</ns3:atemp>
          </ns3:TrackPointExtension>
        </extensions>
      </trkpt>
      <trkpt lat="31.43205399625003337860107421875" lon="119.4845193810760974884033203125">
        <ele>55.799999237060546875</ele>
        <time>2015-09-09T09:40:13.000Z</time>
        <extensions>
          <ns3:TrackPointExtension>
            <ns3:atemp>29.0</ns3:atemp>
          </ns3:TrackPointExtension>
        </extensions>
      </trkpt>
      <trkpt lat="31.4321682415902614593505859375" lon="119.48434595949947834014892578125">
        <ele>55.59999847412109375</ele>
        <time>2015-09-09T09:40:21.000Z</time>
        <extensions>
          <ns3:TrackPointExtension>
            <ns3:atemp>29.0</ns3:atemp>
          </ns3:TrackPointExtension>
        </extensions>
      </trkpt>
      <trkpt lat="31.43218425102531909942626953125" lon="119.484330452978610992431640625">
        <ele>55.40000152587890625</ele>
        <time>2015-09-09T09:40:22.000Z</time>
        <extensions>
          <ns3:TrackPointExtension>
            <ns3:atemp>29.0</ns3:atemp>
          </ns3:TrackPointExtension>
        </extensions>
      </trkpt>
      <trkpt lat="31.4322057925164699554443359375" lon="119.48431461118161678314208984375">
        <ele>55.40000152587890625</ele>
        <time>2015-09-09T09:40:23.000Z</time>
        <extensions>
          <ns3:TrackPointExtension>
            <ns3:atemp>29.0</ns3:atemp>
          </ns3:TrackPointExtension>
        </extensions>
      </trkpt>
      <trkpt lat="31.43262438476085662841796875" lon="119.48379644192755222320556640625">
        <ele>54.59999847412109375</ele>
        <time>2015-09-09T09:40:39.000Z</time>
        <extensions>
          <ns3:TrackPointExtension>
            <ns3:atemp>29.0</ns3:atemp>
          </ns3:TrackPointExtension>
        </extensions>
      </trkpt>
      <trkpt lat="31.43299897201359272003173828125" lon="119.48341791518032550811767578125">
        <ele>54.40000152587890625</ele>
        <time>2015-09-09T09:40:53.000Z</time>
        <extensions>
          <ns3:TrackPointExtension>
            <ns3:atemp>29.0</ns3:atemp>
          </ns3:TrackPointExtension>
        </extensions>
      </trkpt>
      <trkpt lat="31.43303048796951770782470703125" lon="119.4834250397980213165283203125">
        <ele>54.59999847412109375</ele>
        <time>2015-09-09T09:40:54.000Z</time>
        <extensions>
          <ns3:TrackPointExtension>
            <ns3:atemp>29.0</ns3:atemp>
          </ns3:TrackPointExtension>
        </extensions>
      </trkpt>
      <trkpt lat="31.43305630423128604888916015625" lon="119.4834350980818271636962890625">
        <ele>54.799999237060546875</ele>
        <time>2015-09-09T09:40:55.000Z</time>
        <extensions>
          <ns3:TrackPointExtension>
            <ns3:atemp>29.0</ns3:atemp>
          </ns3:TrackPointExtension>
        </extensions>
      </trkpt>
      <trkpt lat="31.43322050571441650390625" lon="119.48350743390619754791259765625">
        <ele>55.799999237060546875</ele>
        <time>2015-09-09T09:41:01.000Z</time>
        <extensions>
          <ns3:TrackPointExtension>
            <ns3:atemp>29.0</ns3:atemp>
          </ns3:TrackPointExtension>
        </extensions>
      </trkpt>
      <trkpt lat="31.43324858509004116058349609375" lon="119.48349888436496257781982421875">
        <ele>55.799999237060546875</ele>
        <time>2015-09-09T09:41:02.000Z</time>
        <extensions>
          <ns3:TrackPointExtension>
            <ns3:atemp>29.0</ns3:atemp>
          </ns3:TrackPointExtension>
        </extensions>
      </trkpt>
      <trkpt lat="31.433276832103729248046875" lon="119.48349402286112308502197265625">
        <ele>55.799999237060546875</ele>
        <time>2015-09-09T09:41:03.000Z</time>
        <extensions>
          <ns3:TrackPointExtension>
            <ns3:atemp>29.0</ns3:atemp>
          </ns3:TrackPointExtension>
        </extensions>
      </trkpt>
      <trkpt lat="31.43330709077417850494384765625" lon="119.48350223712623119354248046875">
        <ele>55.799999237060546875</ele>
        <time>2015-09-09T09:41:04.000Z</time>
        <extensions>
          <ns3:TrackPointExtension>
            <ns3:atemp>29.0</ns3:atemp>
          </ns3:TrackPointExtension>
        </extensions>
      </trkpt>
      <trkpt lat="31.43333558924496173858642578125" lon="119.4835202582180500030517578125">
        <ele>55.799999237060546875</ele>
        <time>2015-09-09T09:41:05.000Z</time>
        <extensions>
          <ns3:TrackPointExtension>
            <ns3:atemp>29.0</ns3:atemp>
          </ns3:TrackPointExtension>
        </extensions>
      </trkpt>
      <trkpt lat="31.43336090259253978729248046875" lon="119.48355085216462612152099609375">
        <ele>55.799999237060546875</ele>
        <time>2015-09-09T09:41:06.000Z</time>
        <extensions>
          <ns3:TrackPointExtension>
            <ns3:atemp>29.0</ns3:atemp>
          </ns3:TrackPointExtension>
        </extensions>
      </trkpt>
      <trkpt lat="31.433386467397212982177734375" lon="119.48358387686312198638916015625">
        <ele>55.799999237060546875</ele>
        <time>2015-09-09T09:41:07.000Z</time>
        <extensions>
          <ns3:TrackPointExtension>
            <ns3:atemp>29.0</ns3:atemp>
          </ns3:TrackPointExtension>
        </extensions>
      </trkpt>
      <trkpt lat="31.43341362476348876953125" lon="119.48361841030418872833251953125">
        <ele>55.799999237060546875</ele>
        <time>2015-09-09T09:41:08.000Z</time>
        <extensions>
          <ns3:TrackPointExtension>
            <ns3:atemp>29.0</ns3:atemp>
          </ns3:TrackPointExtension>
        </extensions>
      </trkpt>
      <trkpt lat="31.43385392613708972930908203125" lon="119.4840845279395580291748046875">
        <ele>54</ele>
        <time>2015-09-09T09:41:24.000Z</time>
        <extensions>
          <ns3:TrackPointExtension>
            <ns3:atemp>28.0</ns3:atemp>
          </ns3:TrackPointExtension>
        </extensions>
      </trkpt>
      <trkpt lat="31.43438802100718021392822265625" lon="119.48431176133453845977783203125">
        <ele>53.40000152587890625</ele>
        <time>2015-09-09T09:41:39.000Z</time>
        <extensions>
          <ns3:TrackPointExtension>
            <ns3:atemp>28.0</ns3:atemp>
          </ns3:TrackPointExtension>
        </extensions>
      </trkpt>
      <trkpt lat="31.43494843505322933197021484375" lon="119.48440815322101116180419921875">
        <ele>52.799999237060546875</ele>
        <time>2015-09-09T09:41:54.000Z</time>
        <extensions>
          <ns3:TrackPointExtension>
            <ns3:atemp>28.0</ns3:atemp>
          </ns3:TrackPointExtension>
        </extensions>
      </trkpt>
      <trkpt lat="31.4355210028588771820068359375" lon="119.48422878049314022064208984375">
        <ele>52.59999847412109375</ele>
        <time>2015-09-09T09:42:10.000Z</time>
        <extensions>
          <ns3:TrackPointExtension>
            <ns3:atemp>28.0</ns3:atemp>
          </ns3:TrackPointExtension>
        </extensions>
      </trkpt>
      <trkpt lat="31.43558110110461711883544921875" lon="119.483817480504512786865234375">
        <ele>53</ele>
        <time>2015-09-09T09:42:22.000Z</time>
        <extensions>
          <ns3:TrackPointExtension>
            <ns3:atemp>28.0</ns3:atemp>
          </ns3:TrackPointExtension>
        </extensions>
      </trkpt>
      <trkpt lat="31.435617394745349884033203125" lon="119.48313762433826923370361328125">
        <ele>53</ele>
        <time>2015-09-09T09:42:39.000Z</time>
        <extensions>
          <ns3:TrackPointExtension>
            <ns3:atemp>28.0</ns3:atemp>
          </ns3:TrackPointExtension>
        </extensions>
      </trkpt>
      <trkpt lat="31.43567095510661602020263671875" lon="119.482570253312587738037109375">
        <ele>53.59999847412109375</ele>
        <time>2015-09-09T09:42:58.000Z</time>
        <extensions>
          <ns3:TrackPointExtension>
            <ns3:atemp>28.0</ns3:atemp>
          </ns3:TrackPointExtension>
        </extensions>
      </trkpt>
      <trkpt lat="31.43567665480077266693115234375" lon="119.48256916366517543792724609375">
        <ele>54.200000762939453125</ele>
        <time>2015-09-09T09:43:00.000Z</time>
        <extensions>
          <ns3:TrackPointExtension>
            <ns3:atemp>28.0</ns3:atemp>
          </ns3:TrackPointExtension>
        </extensions>
      </trkpt>
      <trkpt lat="31.43568210303783416748046875" lon="119.482566900551319122314453125">
        <ele>54.200000762939453125</ele>
        <time>2015-09-09T09:43:01.000Z</time>
        <extensions>
          <ns3:TrackPointExtension>
            <ns3:atemp>28.0</ns3:atemp>
          </ns3:TrackPointExtension>
        </extensions>
      </trkpt>
      <trkpt lat="31.43570448271930217742919921875" lon="119.4825563393533229827880859375">
        <ele>54.40000152587890625</ele>
        <time>2015-09-09T09:43:04.000Z</time>
        <extensions>
          <ns3:TrackPointExtension>
            <ns3:atemp>28.0</ns3:atemp>
          </ns3:TrackPointExtension>
        </extensions>
      </trkpt>
      <trkpt lat="31.4357100985944271087646484375" lon="119.48255508206784725189208984375">
        <ele>54.40000152587890625</ele>
        <time>2015-09-09T09:43:05.000Z</time>
        <extensions>
          <ns3:TrackPointExtension>
            <ns3:atemp>28.0</ns3:atemp>
          </ns3:TrackPointExtension>
        </extensions>
      </trkpt>
    </trkseg>
  </trk>
</gpx>
