<gpx xmlns:ns3="http://www.garmin.com/xmlschemas/TrackPointExtension/v1" xmlns="http://www.topografix.com/GPX/1/1" xmlns:xsi="http://www.w3.org/2001/XMLSchema-instance" xmlns:ns2="http://www.garmin.com/xmlschemas/GpxExtensions/v3" creator="Garmin Connect" version="1.1" xsi:schemaLocation="http://www.topografix.com/GPX/1/1 http://www.topografix.com/GPX/11.xsd">
  <extensions>
<distance>3201.2</distance>
<average_hr></average_hr>
<average_speed>4.168229166666666</average_speed>
<start_time>2015-09-10T09:25:33+00:00</start_time>
<end_time>2015-09-10T09:38:21+00:00</end_time>
<moving_time>726.0</moving_time>
<elapsed_time>837.0</elapsed_time>
</extensions>
<metadata>
    <link href="connect.garmin.com">
      <text>Garmin Connect</text>
    </link>
    <time>2015-09-10T09:25:33.000Z</time>
  </metadata>
  <trk>
    <name>下班</name>
    <type>cycling</type>
    <trkseg>
      <trkpt lat="31.40960943885147571563720703125" lon="119.48753309436142444610595703125">
        <ele>49.799999237060546875</ele>
        <time>2015-09-10T09:25:33.000Z</time>
        <extensions>
          <ns3:TrackPointExtension>
            <ns3:atemp>30.0</ns3:atemp>
          </ns3:TrackPointExtension>
        </extensions>
      </trkpt>
      <trkpt lat="31.4095850475132465362548828125" lon="119.48756628669798374176025390625">
        <ele>4.19999980926513671875</ele>
        <time>2015-09-10T09:25:35.000Z</time>
        <extensions>
          <ns3:TrackPointExtension>
            <ns3:atemp>30.0</ns3:atemp>
          </ns3:TrackPointExtension>
        </extensions>
      </trkpt>
      <trkpt lat="31.40965973027050495147705078125" lon="119.48759662918746471405029296875">
        <ele>49.200000762939453125</ele>
        <time>2015-09-10T09:25:37.000Z</time>
        <extensions>
          <ns3:TrackPointExtension>
            <ns3:atemp>30.0</ns3:atemp>
          </ns3:TrackPointExtension>
        </extensions>
      </trkpt>
      <trkpt lat="31.4096598140895366668701171875" lon="119.487613476812839508056640625">
        <ele>49.200000762939453125</ele>
        <time>2015-09-10T09:25:38.000Z</time>
        <extensions>
          <ns3:TrackPointExtension>
            <ns3:atemp>30.0</ns3:atemp>
          </ns3:TrackPointExtension>
        </extensions>
      </trkpt>
      <trkpt lat="31.40962955541908740997314453125" lon="119.4875734113156795501708984375">
        <ele>49.200000762939453125</ele>
        <time>2015-09-10T09:25:39.000Z</time>
        <extensions>
          <ns3:TrackPointExtension>
            <ns3:atemp>30.0</ns3:atemp>
          </ns3:TrackPointExtension>
        </extensions>
      </trkpt>
      <trkpt lat="31.4096510969102382659912109375" lon="119.48723000474274158477783203125">
        <ele>49.200000762939453125</ele>
        <time>2015-09-10T09:25:54.000Z</time>
        <extensions>
          <ns3:TrackPointExtension>
            <ns3:atemp>30.0</ns3:atemp>
          </ns3:TrackPointExtension>
        </extensions>
      </trkpt>
      <trkpt lat="31.4096613228321075439453125" lon="119.48720435611903667449951171875">
        <ele>49.200000762939453125</ele>
        <time>2015-09-10T09:25:55.000Z</time>
        <extensions>
          <ns3:TrackPointExtension>
            <ns3:atemp>30.0</ns3:atemp>
          </ns3:TrackPointExtension>
        </extensions>
      </trkpt>
      <trkpt lat="31.40967951156198978424072265625" lon="119.487184993922710418701171875">
        <ele>49</ele>
        <time>2015-09-10T09:25:56.000Z</time>
        <extensions>
          <ns3:TrackPointExtension>
            <ns3:atemp>30.0</ns3:atemp>
          </ns3:TrackPointExtension>
        </extensions>
      </trkpt>
      <trkpt lat="31.40970197506248950958251953125" lon="119.48717116378247737884521484375">
        <ele>49</ele>
        <time>2015-09-10T09:25:57.000Z</time>
        <extensions>
          <ns3:TrackPointExtension>
            <ns3:atemp>30.0</ns3:atemp>
          </ns3:TrackPointExtension>
        </extensions>
      </trkpt>
      <trkpt lat="31.40972075052559375762939453125" lon="119.48716546408832073211669921875">
        <ele>49</ele>
        <time>2015-09-10T09:25:58.000Z</time>
        <extensions>
          <ns3:TrackPointExtension>
            <ns3:atemp>30.0</ns3:atemp>
          </ns3:TrackPointExtension>
        </extensions>
      </trkpt>
      <trkpt lat="31.4097429625689983367919921875" lon="119.48716378770768642425537109375">
        <ele>49</ele>
        <time>2015-09-10T09:25:59.000Z</time>
        <extensions>
          <ns3:TrackPointExtension>
            <ns3:atemp>30.0</ns3:atemp>
          </ns3:TrackPointExtension>
        </extensions>
      </trkpt>
      <trkpt lat="31.409763582050800323486328125" lon="119.4871630333364009857177734375">
        <ele>49</ele>
        <time>2015-09-10T09:26:00.000Z</time>
        <extensions>
          <ns3:TrackPointExtension>
            <ns3:atemp>30.0</ns3:atemp>
          </ns3:TrackPointExtension>
        </extensions>
      </trkpt>
      <trkpt lat="31.4097892306745052337646484375" lon="119.48716730810701847076416015625">
        <ele>49</ele>
        <time>2015-09-10T09:26:01.000Z</time>
        <extensions>
          <ns3:TrackPointExtension>
            <ns3:atemp>30.0</ns3:atemp>
          </ns3:TrackPointExtension>
        </extensions>
      </trkpt>
      <trkpt lat="31.40981496311724185943603515625" lon="119.48717468418180942535400390625">
        <ele>49</ele>
        <time>2015-09-10T09:26:02.000Z</time>
        <extensions>
          <ns3:TrackPointExtension>
            <ns3:atemp>30.0</ns3:atemp>
          </ns3:TrackPointExtension>
        </extensions>
      </trkpt>
      <trkpt lat="31.4098398573696613311767578125" lon="119.48718105442821979522705078125">
        <ele>49</ele>
        <time>2015-09-10T09:26:03.000Z</time>
        <extensions>
          <ns3:TrackPointExtension>
            <ns3:atemp>30.0</ns3:atemp>
          </ns3:TrackPointExtension>
        </extensions>
      </trkpt>
      <trkpt lat="31.40986558981239795684814453125" lon="119.48718055151402950286865234375">
        <ele>49</ele>
        <time>2015-09-10T09:26:04.000Z</time>
        <extensions>
          <ns3:TrackPointExtension>
            <ns3:atemp>30.0</ns3:atemp>
          </ns3:TrackPointExtension>
        </extensions>
      </trkpt>
      <trkpt lat="31.409891657531261444091796875" lon="119.48718306608498096466064453125">
        <ele>49</ele>
        <time>2015-09-10T09:26:05.000Z</time>
        <extensions>
          <ns3:TrackPointExtension>
            <ns3:atemp>30.0</ns3:atemp>
          </ns3:TrackPointExtension>
        </extensions>
      </trkpt>
      <trkpt lat="31.40991806052625179290771484375" lon="119.48719245381653308868408203125">
        <ele>49</ele>
        <time>2015-09-10T09:26:06.000Z</time>
        <extensions>
          <ns3:TrackPointExtension>
            <ns3:atemp>30.0</ns3:atemp>
          </ns3:TrackPointExtension>
        </extensions>
      </trkpt>
      <trkpt lat="31.40994454734027385711669921875" lon="119.4871958903968334197998046875">
        <ele>49</ele>
        <time>2015-09-10T09:26:07.000Z</time>
        <extensions>
          <ns3:TrackPointExtension>
            <ns3:atemp>30.0</ns3:atemp>
          </ns3:TrackPointExtension>
        </extensions>
      </trkpt>
      <trkpt lat="31.40997187234461307525634765625" lon="119.48720016516745090484619140625">
        <ele>49</ele>
        <time>2015-09-10T09:26:08.000Z</time>
        <extensions>
          <ns3:TrackPointExtension>
            <ns3:atemp>30.0</ns3:atemp>
          </ns3:TrackPointExtension>
        </extensions>
      </trkpt>
      <trkpt lat="31.41000120900571346282958984375" lon="119.487202428281307220458984375">
        <ele>49</ele>
        <time>2015-09-10T09:26:09.000Z</time>
        <extensions>
          <ns3:TrackPointExtension>
            <ns3:atemp>30.0</ns3:atemp>
          </ns3:TrackPointExtension>
        </extensions>
      </trkpt>
      <trkpt lat="31.4105700887739658355712890625" lon="119.487187005579471588134765625">
        <ele>49</ele>
        <time>2015-09-10T09:26:26.000Z</time>
        <extensions>
          <ns3:TrackPointExtension>
            <ns3:atemp>30.0</ns3:atemp>
          </ns3:TrackPointExtension>
        </extensions>
      </trkpt>
      <trkpt lat="31.41113796271383762359619140625" lon="119.4871222972869873046875">
        <ele>49.40000152587890625</ele>
        <time>2015-09-10T09:26:43.000Z</time>
        <extensions>
          <ns3:TrackPointExtension>
            <ns3:atemp>30.0</ns3:atemp>
          </ns3:TrackPointExtension>
        </extensions>
      </trkpt>
      <trkpt lat="31.41153375618159770965576171875" lon="119.48709455318748950958251953125">
        <ele>49.200000762939453125</ele>
        <time>2015-09-10T09:26:54.000Z</time>
        <extensions>
          <ns3:TrackPointExtension>
            <ns3:atemp>30.0</ns3:atemp>
          </ns3:TrackPointExtension>
        </extensions>
      </trkpt>
      <trkpt lat="31.4115735702216625213623046875" lon="119.4870953075587749481201171875">
        <ele>49.200000762939453125</ele>
        <time>2015-09-10T09:26:55.000Z</time>
        <extensions>
          <ns3:TrackPointExtension>
            <ns3:atemp>30.0</ns3:atemp>
          </ns3:TrackPointExtension>
        </extensions>
      </trkpt>
      <trkpt lat="31.41161019913852214813232421875" lon="119.48709622956812381744384765625">
        <ele>49.200000762939453125</ele>
        <time>2015-09-10T09:26:56.000Z</time>
        <extensions>
          <ns3:TrackPointExtension>
            <ns3:atemp>30.0</ns3:atemp>
          </ns3:TrackPointExtension>
        </extensions>
      </trkpt>
      <trkpt lat="31.4120082557201385498046875" lon="119.4871209561824798583984375">
        <ele>49.200000762939453125</ele>
        <time>2015-09-10T09:27:17.000Z</time>
        <extensions>
          <ns3:TrackPointExtension>
            <ns3:atemp>30.0</ns3:atemp>
          </ns3:TrackPointExtension>
        </extensions>
      </trkpt>
      <trkpt lat="31.41207866370677947998046875" lon="119.487123973667621612548828125">
        <ele>49.40000152587890625</ele>
        <time>2015-09-10T09:27:50.000Z</time>
        <extensions>
          <ns3:TrackPointExtension>
            <ns3:atemp>30.0</ns3:atemp>
          </ns3:TrackPointExtension>
        </extensions>
      </trkpt>
      <trkpt lat="31.4126707613468170166015625" lon="119.4870731793344020843505859375">
        <ele>49.59999847412109375</ele>
        <time>2015-09-10T09:28:08.000Z</time>
        <extensions>
          <ns3:TrackPointExtension>
            <ns3:atemp>30.0</ns3:atemp>
          </ns3:TrackPointExtension>
        </extensions>
      </trkpt>
      <trkpt lat="31.4132449217140674591064453125" lon="119.4870829023420810699462890625">
        <ele>49.59999847412109375</ele>
        <time>2015-09-10T09:28:22.000Z</time>
        <extensions>
          <ns3:TrackPointExtension>
            <ns3:atemp>30.0</ns3:atemp>
          </ns3:TrackPointExtension>
        </extensions>
      </trkpt>
      <trkpt lat="31.4138215966522693634033203125" lon="119.4870480336248874664306640625">
        <ele>49.59999847412109375</ele>
        <time>2015-09-10T09:28:36.000Z</time>
        <extensions>
          <ns3:TrackPointExtension>
            <ns3:atemp>30.0</ns3:atemp>
          </ns3:TrackPointExtension>
        </extensions>
      </trkpt>
      <trkpt lat="31.414238177239894866943359375" lon="119.4870319403707981109619140625">
        <ele>49.59999847412109375</ele>
        <time>2015-09-10T09:28:46.000Z</time>
        <extensions>
          <ns3:TrackPointExtension>
            <ns3:atemp>30.0</ns3:atemp>
          </ns3:TrackPointExtension>
        </extensions>
      </trkpt>
      <trkpt lat="31.41485013999044895172119140625" lon="119.48697100393474102020263671875">
        <ele>49.799999237060546875</ele>
        <time>2015-09-10T09:29:01.000Z</time>
        <extensions>
          <ns3:TrackPointExtension>
            <ns3:atemp>30.0</ns3:atemp>
          </ns3:TrackPointExtension>
        </extensions>
      </trkpt>
      <trkpt lat="31.415335200726985931396484375" lon="119.48696228675544261932373046875">
        <ele>49.799999237060546875</ele>
        <time>2015-09-10T09:29:13.000Z</time>
        <extensions>
          <ns3:TrackPointExtension>
            <ns3:atemp>30.0</ns3:atemp>
          </ns3:TrackPointExtension>
        </extensions>
      </trkpt>
      <trkpt lat="31.41536931507289409637451171875" lon="119.48696044273674488067626953125">
        <ele>49.59999847412109375</ele>
        <time>2015-09-10T09:29:14.000Z</time>
        <extensions>
          <ns3:TrackPointExtension>
            <ns3:atemp>30.0</ns3:atemp>
          </ns3:TrackPointExtension>
        </extensions>
      </trkpt>
      <trkpt lat="31.41562412492930889129638671875" lon="119.48697787709534168243408203125">
        <ele>50.799999237060546875</ele>
        <time>2015-09-10T09:29:31.000Z</time>
        <extensions>
          <ns3:TrackPointExtension>
            <ns3:atemp>30.0</ns3:atemp>
          </ns3:TrackPointExtension>
        </extensions>
      </trkpt>
      <trkpt lat="31.41568313352763652801513671875" lon="119.48697812855243682861328125">
        <ele>50.200000762939453125</ele>
        <time>2015-09-10T09:29:41.000Z</time>
        <extensions>
          <ns3:TrackPointExtension>
            <ns3:atemp>30.0</ns3:atemp>
          </ns3:TrackPointExtension>
        </extensions>
      </trkpt>
      <trkpt lat="31.41625511460006237030029296875" lon="119.486854076385498046875">
        <ele>49.799999237060546875</ele>
        <time>2015-09-10T09:30:00.000Z</time>
        <extensions>
          <ns3:TrackPointExtension>
            <ns3:atemp>30.0</ns3:atemp>
          </ns3:TrackPointExtension>
        </extensions>
      </trkpt>
      <trkpt lat="31.41684570349752902984619140625" lon="119.48680018074810504913330078125">
        <ele>50</ele>
        <time>2015-09-10T09:30:15.000Z</time>
        <extensions>
          <ns3:TrackPointExtension>
            <ns3:atemp>30.0</ns3:atemp>
          </ns3:TrackPointExtension>
        </extensions>
      </trkpt>
      <trkpt lat="31.41746277920901775360107421875" lon="119.48679515160620212554931640625">
        <ele>50.200000762939453125</ele>
        <time>2015-09-10T09:30:31.000Z</time>
        <extensions>
          <ns3:TrackPointExtension>
            <ns3:atemp>29.0</ns3:atemp>
          </ns3:TrackPointExtension>
        </extensions>
      </trkpt>
      <trkpt lat="31.41803509555757045745849609375" lon="119.48675575666129589080810546875">
        <ele>50.40000152587890625</ele>
        <time>2015-09-10T09:30:47.000Z</time>
        <extensions>
          <ns3:TrackPointExtension>
            <ns3:atemp>29.0</ns3:atemp>
          </ns3:TrackPointExtension>
        </extensions>
      </trkpt>
      <trkpt lat="31.4182633347809314727783203125" lon="119.486739747226238250732421875">
        <ele>50.59999847412109375</ele>
        <time>2015-09-10T09:30:55.000Z</time>
        <extensions>
          <ns3:TrackPointExtension>
            <ns3:atemp>29.0</ns3:atemp>
          </ns3:TrackPointExtension>
        </extensions>
      </trkpt>
      <trkpt lat="31.41830549575388431549072265625" lon="119.48677428066730499267578125">
        <ele>51.40000152587890625</ele>
        <time>2015-09-10T09:31:08.000Z</time>
        <extensions>
          <ns3:TrackPointExtension>
            <ns3:atemp>29.0</ns3:atemp>
          </ns3:TrackPointExtension>
        </extensions>
      </trkpt>
      <trkpt lat="31.4184048213064670562744140625" lon="119.4867935590445995330810546875">
        <ele>50.59999847412109375</ele>
        <time>2015-09-10T09:31:22.000Z</time>
        <extensions>
          <ns3:TrackPointExtension>
            <ns3:atemp>29.0</ns3:atemp>
          </ns3:TrackPointExtension>
        </extensions>
      </trkpt>
      <trkpt lat="31.41900412738323211669921875" lon="119.4867231510579586029052734375">
        <ele>50.40000152587890625</ele>
        <time>2015-09-10T09:31:40.000Z</time>
        <extensions>
          <ns3:TrackPointExtension>
            <ns3:atemp>30.0</ns3:atemp>
          </ns3:TrackPointExtension>
        </extensions>
      </trkpt>
      <trkpt lat="31.41960955224931240081787109375" lon="119.486712925136089324951171875">
        <ele>50.40000152587890625</ele>
        <time>2015-09-10T09:31:55.000Z</time>
        <extensions>
          <ns3:TrackPointExtension>
            <ns3:atemp>29.0</ns3:atemp>
          </ns3:TrackPointExtension>
        </extensions>
      </trkpt>
      <trkpt lat="31.42018740065395832061767578125" lon="119.4866842590272426605224609375">
        <ele>50.200000762939453125</ele>
        <time>2015-09-10T09:32:09.000Z</time>
        <extensions>
          <ns3:TrackPointExtension>
            <ns3:atemp>29.0</ns3:atemp>
          </ns3:TrackPointExtension>
        </extensions>
      </trkpt>
      <trkpt lat="31.420807577669620513916015625" lon="119.486679397523403167724609375">
        <ele>49.799999237060546875</ele>
        <time>2015-09-10T09:32:23.000Z</time>
        <extensions>
          <ns3:TrackPointExtension>
            <ns3:atemp>29.0</ns3:atemp>
          </ns3:TrackPointExtension>
        </extensions>
      </trkpt>
      <trkpt lat="31.4211229048669338226318359375" lon="119.48663153685629367828369140625">
        <ele>50.59999847412109375</ele>
        <time>2015-09-10T09:32:30.000Z</time>
        <extensions>
          <ns3:TrackPointExtension>
            <ns3:atemp>29.0</ns3:atemp>
          </ns3:TrackPointExtension>
        </extensions>
      </trkpt>
      <trkpt lat="31.42170150764286518096923828125" lon="119.4865910522639751434326171875">
        <ele>49.799999237060546875</ele>
        <time>2015-09-10T09:32:43.000Z</time>
        <extensions>
          <ns3:TrackPointExtension>
            <ns3:atemp>29.0</ns3:atemp>
          </ns3:TrackPointExtension>
        </extensions>
      </trkpt>
      <trkpt lat="31.42230617813766002655029296875" lon="119.4865350611507892608642578125">
        <ele>50</ele>
        <time>2015-09-10T09:32:57.000Z</time>
        <extensions>
          <ns3:TrackPointExtension>
            <ns3:atemp>29.0</ns3:atemp>
          </ns3:TrackPointExtension>
        </extensions>
      </trkpt>
      <trkpt lat="31.4224393665790557861328125" lon="119.48651838116347789764404296875">
        <ele>50</ele>
        <time>2015-09-10T09:33:00.000Z</time>
        <extensions>
          <ns3:TrackPointExtension>
            <ns3:atemp>29.0</ns3:atemp>
          </ns3:TrackPointExtension>
        </extensions>
      </trkpt>
      <trkpt lat="31.4224841259419918060302734375" lon="119.4865223206579685211181640625">
        <ele>50</ele>
        <time>2015-09-10T09:33:01.000Z</time>
        <extensions>
          <ns3:TrackPointExtension>
            <ns3:atemp>29.0</ns3:atemp>
          </ns3:TrackPointExtension>
        </extensions>
      </trkpt>
      <trkpt lat="31.42269040457904338836669921875" lon="119.4865317083895206451416015625">
        <ele>50.40000152587890625</ele>
        <time>2015-09-10T09:33:06.000Z</time>
        <extensions>
          <ns3:TrackPointExtension>
            <ns3:atemp>29.0</ns3:atemp>
          </ns3:TrackPointExtension>
        </extensions>
      </trkpt>
      <trkpt lat="31.42327613197267055511474609375" lon="119.48649575002491474151611328125">
        <ele>50.40000152587890625</ele>
        <time>2015-09-10T09:33:21.000Z</time>
        <extensions>
          <ns3:TrackPointExtension>
            <ns3:atemp>29.0</ns3:atemp>
          </ns3:TrackPointExtension>
        </extensions>
      </trkpt>
      <trkpt lat="31.42387007363140583038330078125" lon="119.48646859265863895416259765625">
        <ele>50.40000152587890625</ele>
        <time>2015-09-10T09:33:36.000Z</time>
        <extensions>
          <ns3:TrackPointExtension>
            <ns3:atemp>29.0</ns3:atemp>
          </ns3:TrackPointExtension>
        </extensions>
      </trkpt>
      <trkpt lat="31.42447717487812042236328125" lon="119.48645601980388164520263671875">
        <ele>50.799999237060546875</ele>
        <time>2015-09-10T09:33:53.000Z</time>
        <extensions>
          <ns3:TrackPointExtension>
            <ns3:atemp>29.0</ns3:atemp>
          </ns3:TrackPointExtension>
        </extensions>
      </trkpt>
      <trkpt lat="31.4250751398503780364990234375" lon="119.48637756519019603729248046875">
        <ele>51</ele>
        <time>2015-09-10T09:34:09.000Z</time>
        <extensions>
          <ns3:TrackPointExtension>
            <ns3:atemp>29.0</ns3:atemp>
          </ns3:TrackPointExtension>
        </extensions>
      </trkpt>
      <trkpt lat="31.42511746846139430999755859375" lon="119.486373625695705413818359375">
        <ele>51</ele>
        <time>2015-09-10T09:34:10.000Z</time>
        <extensions>
          <ns3:TrackPointExtension>
            <ns3:atemp>29.0</ns3:atemp>
          </ns3:TrackPointExtension>
        </extensions>
      </trkpt>
      <trkpt lat="31.42569934017956256866455078125" lon="119.4862101785838603973388671875">
        <ele>51.200000762939453125</ele>
        <time>2015-09-10T09:34:25.000Z</time>
        <extensions>
          <ns3:TrackPointExtension>
            <ns3:atemp>29.0</ns3:atemp>
          </ns3:TrackPointExtension>
        </extensions>
      </trkpt>
      <trkpt lat="31.426301412284374237060546875" lon="119.48611068539321422576904296875">
        <ele>51.200000762939453125</ele>
        <time>2015-09-10T09:34:41.000Z</time>
        <extensions>
          <ns3:TrackPointExtension>
            <ns3:atemp>29.0</ns3:atemp>
          </ns3:TrackPointExtension>
        </extensions>
      </trkpt>
      <trkpt lat="31.4264413900673389434814453125" lon="119.48611839674413204193115234375">
        <ele>51.200000762939453125</ele>
        <time>2015-09-10T09:34:47.000Z</time>
        <extensions>
          <ns3:TrackPointExtension>
            <ns3:atemp>29.0</ns3:atemp>
          </ns3:TrackPointExtension>
        </extensions>
      </trkpt>
      <trkpt lat="31.4264923520386219024658203125" lon="119.48614505119621753692626953125">
        <ele>51.40000152587890625</ele>
        <time>2015-09-10T09:34:52.000Z</time>
        <extensions>
          <ns3:TrackPointExtension>
            <ns3:atemp>29.0</ns3:atemp>
          </ns3:TrackPointExtension>
        </extensions>
      </trkpt>
      <trkpt lat="31.426505930721759796142578125" lon="119.4861491583287715911865234375">
        <ele>51.200000762939453125</ele>
        <time>2015-09-10T09:34:53.000Z</time>
        <extensions>
          <ns3:TrackPointExtension>
            <ns3:atemp>29.0</ns3:atemp>
          </ns3:TrackPointExtension>
        </extensions>
      </trkpt>
      <trkpt lat="31.42659519799053668975830078125" lon="119.4862058199942111968994140625">
        <ele>51.200000762939453125</ele>
        <time>2015-09-10T09:34:59.000Z</time>
        <extensions>
          <ns3:TrackPointExtension>
            <ns3:atemp>29.0</ns3:atemp>
          </ns3:TrackPointExtension>
        </extensions>
      </trkpt>
      <trkpt lat="31.42661531455814838409423828125" lon="119.4862296245992183685302734375">
        <ele>51.200000762939453125</ele>
        <time>2015-09-10T09:35:07.000Z</time>
        <extensions>
          <ns3:TrackPointExtension>
            <ns3:atemp>29.0</ns3:atemp>
          </ns3:TrackPointExtension>
        </extensions>
      </trkpt>
      <trkpt lat="31.4266638457775115966796875" lon="119.48625233955681324005126953125">
        <ele>51.200000762939453125</ele>
        <time>2015-09-10T09:35:19.000Z</time>
        <extensions>
          <ns3:TrackPointExtension>
            <ns3:atemp>29.0</ns3:atemp>
          </ns3:TrackPointExtension>
        </extensions>
      </trkpt>
      <trkpt lat="31.42667985521256923675537109375" lon="119.486254937946796417236328125">
        <ele>51.200000762939453125</ele>
        <time>2015-09-10T09:35:20.000Z</time>
        <extensions>
          <ns3:TrackPointExtension>
            <ns3:atemp>29.0</ns3:atemp>
          </ns3:TrackPointExtension>
        </extensions>
      </trkpt>
      <trkpt lat="31.42725083045661449432373046875" lon="119.48613859713077545166015625">
        <ele>51.40000152587890625</ele>
        <time>2015-09-10T09:35:38.000Z</time>
        <extensions>
          <ns3:TrackPointExtension>
            <ns3:atemp>29.0</ns3:atemp>
          </ns3:TrackPointExtension>
        </extensions>
      </trkpt>
      <trkpt lat="31.42728972248733043670654296875" lon="119.48613599874079227447509765625">
        <ele>51.40000152587890625</ele>
        <time>2015-09-10T09:35:39.000Z</time>
        <extensions>
          <ns3:TrackPointExtension>
            <ns3:atemp>29.0</ns3:atemp>
          </ns3:TrackPointExtension>
        </extensions>
      </trkpt>
      <trkpt lat="31.4278143458068370819091796875" lon="119.486093334853649139404296875">
        <ele>51</ele>
        <time>2015-09-10T09:35:51.000Z</time>
        <extensions>
          <ns3:TrackPointExtension>
            <ns3:atemp>29.0</ns3:atemp>
          </ns3:TrackPointExtension>
        </extensions>
      </trkpt>
      <trkpt lat="31.428432762622833251953125" lon="119.48599417693912982940673828125">
        <ele>49.799999237060546875</ele>
        <time>2015-09-10T09:36:02.000Z</time>
        <extensions>
          <ns3:TrackPointExtension>
            <ns3:atemp>29.0</ns3:atemp>
          </ns3:TrackPointExtension>
        </extensions>
      </trkpt>
      <trkpt lat="31.42907188273966312408447265625" lon="119.4858299754559993743896484375">
        <ele>50.59999847412109375</ele>
        <time>2015-09-10T09:36:13.000Z</time>
        <extensions>
          <ns3:TrackPointExtension>
            <ns3:atemp>29.0</ns3:atemp>
          </ns3:TrackPointExtension>
        </extensions>
      </trkpt>
      <trkpt lat="31.42964579164981842041015625" lon="119.4856764189898967742919921875">
        <ele>50.59999847412109375</ele>
        <time>2015-09-10T09:36:23.000Z</time>
        <extensions>
          <ns3:TrackPointExtension>
            <ns3:atemp>29.0</ns3:atemp>
          </ns3:TrackPointExtension>
        </extensions>
      </trkpt>
      <trkpt lat="31.4302340336143970489501953125" lon="119.4854926876723766326904296875">
        <ele>50.200000762939453125</ele>
        <time>2015-09-10T09:36:35.000Z</time>
        <extensions>
          <ns3:TrackPointExtension>
            <ns3:atemp>29.0</ns3:atemp>
          </ns3:TrackPointExtension>
        </extensions>
      </trkpt>
      <trkpt lat="31.43031776882708072662353515625" lon="119.485489167273044586181640625">
        <ele>50.59999847412109375</ele>
        <time>2015-09-10T09:36:37.000Z</time>
        <extensions>
          <ns3:TrackPointExtension>
            <ns3:atemp>29.0</ns3:atemp>
          </ns3:TrackPointExtension>
        </extensions>
      </trkpt>
      <trkpt lat="31.43036864697933197021484375" lon="119.4854900054633617401123046875">
        <ele>50.40000152587890625</ele>
        <time>2015-09-10T09:36:38.000Z</time>
        <extensions>
          <ns3:TrackPointExtension>
            <ns3:atemp>29.0</ns3:atemp>
          </ns3:TrackPointExtension>
        </extensions>
      </trkpt>
      <trkpt lat="31.430475600063800811767578125" lon="119.4854739122092723846435546875">
        <ele>50.40000152587890625</ele>
        <time>2015-09-10T09:36:40.000Z</time>
        <extensions>
          <ns3:TrackPointExtension>
            <ns3:atemp>29.0</ns3:atemp>
          </ns3:TrackPointExtension>
        </extensions>
      </trkpt>
      <trkpt lat="31.43052429892122745513916015625" lon="119.4854524545371532440185546875">
        <ele>50.59999847412109375</ele>
        <time>2015-09-10T09:36:41.000Z</time>
        <extensions>
          <ns3:TrackPointExtension>
            <ns3:atemp>29.0</ns3:atemp>
          </ns3:TrackPointExtension>
        </extensions>
      </trkpt>
      <trkpt lat="31.43091581761837005615234375" lon="119.4852278195321559906005859375">
        <ele>50.799999237060546875</ele>
        <time>2015-09-10T09:36:49.000Z</time>
        <extensions>
          <ns3:TrackPointExtension>
            <ns3:atemp>29.0</ns3:atemp>
          </ns3:TrackPointExtension>
        </extensions>
      </trkpt>
      <trkpt lat="31.43101262860000133514404296875" lon="119.48518146760761737823486328125">
        <ele>51</ele>
        <time>2015-09-10T09:36:51.000Z</time>
        <extensions>
          <ns3:TrackPointExtension>
            <ns3:atemp>29.0</ns3:atemp>
          </ns3:TrackPointExtension>
        </extensions>
      </trkpt>
      <trkpt lat="31.43123759888112545013427734375" lon="119.4850637018680572509765625">
        <ele>51.40000152587890625</ele>
        <time>2015-09-10T09:36:56.000Z</time>
        <extensions>
          <ns3:TrackPointExtension>
            <ns3:atemp>29.0</ns3:atemp>
          </ns3:TrackPointExtension>
        </extensions>
      </trkpt>
      <trkpt lat="31.43128252588212490081787109375" lon="119.48504157364368438720703125">
        <ele>51.40000152587890625</ele>
        <time>2015-09-10T09:36:57.000Z</time>
        <extensions>
          <ns3:TrackPointExtension>
            <ns3:atemp>29.0</ns3:atemp>
          </ns3:TrackPointExtension>
        </extensions>
      </trkpt>
      <trkpt lat="31.431325860321521759033203125" lon="119.48503084480762481689453125">
        <ele>51.40000152587890625</ele>
        <time>2015-09-10T09:36:58.000Z</time>
        <extensions>
          <ns3:TrackPointExtension>
            <ns3:atemp>29.0</ns3:atemp>
          </ns3:TrackPointExtension>
        </extensions>
      </trkpt>
      <trkpt lat="31.43136441707611083984375" lon="119.48501282371580600738525390625">
        <ele>51.40000152587890625</ele>
        <time>2015-09-10T09:36:59.000Z</time>
        <extensions>
          <ns3:TrackPointExtension>
            <ns3:atemp>29.0</ns3:atemp>
          </ns3:TrackPointExtension>
        </extensions>
      </trkpt>
      <trkpt lat="31.431399621069431304931640625" lon="119.48499488644301891326904296875">
        <ele>51.40000152587890625</ele>
        <time>2015-09-10T09:37:00.000Z</time>
        <extensions>
          <ns3:TrackPointExtension>
            <ns3:atemp>29.0</ns3:atemp>
          </ns3:TrackPointExtension>
        </extensions>
      </trkpt>
      <trkpt lat="31.4317675866186618804931640625" lon="119.48482758365571498870849609375">
        <ele>51.799999237060546875</ele>
        <time>2015-09-10T09:37:09.000Z</time>
        <extensions>
          <ns3:TrackPointExtension>
            <ns3:atemp>29.0</ns3:atemp>
          </ns3:TrackPointExtension>
        </extensions>
      </trkpt>
      <trkpt lat="31.4318148605525493621826171875" lon="119.48480419814586639404296875">
        <ele>51.59999847412109375</ele>
        <time>2015-09-10T09:37:10.000Z</time>
        <extensions>
          <ns3:TrackPointExtension>
            <ns3:atemp>29.0</ns3:atemp>
          </ns3:TrackPointExtension>
        </extensions>
      </trkpt>
      <trkpt lat="31.4318537525832653045654296875" lon="119.48477226309478282928466796875">
        <ele>51.40000152587890625</ele>
        <time>2015-09-10T09:37:11.000Z</time>
        <extensions>
          <ns3:TrackPointExtension>
            <ns3:atemp>29.0</ns3:atemp>
          </ns3:TrackPointExtension>
        </extensions>
      </trkpt>
      <trkpt lat="31.43228240311145782470703125" lon="119.48420329950749874114990234375">
        <ele>51</ele>
        <time>2015-09-10T09:37:32.000Z</time>
        <extensions>
          <ns3:TrackPointExtension>
            <ns3:atemp>29.0</ns3:atemp>
          </ns3:TrackPointExtension>
        </extensions>
      </trkpt>
      <trkpt lat="31.4326976425945758819580078125" lon="119.48368311859667301177978515625">
        <ele>50.799999237060546875</ele>
        <time>2015-09-10T09:37:43.000Z</time>
        <extensions>
          <ns3:TrackPointExtension>
            <ns3:atemp>29.0</ns3:atemp>
          </ns3:TrackPointExtension>
        </extensions>
      </trkpt>
      <trkpt lat="31.4329993911087512969970703125" lon="119.48338874615728855133056640625">
        <ele>50.59999847412109375</ele>
        <time>2015-09-10T09:37:51.000Z</time>
        <extensions>
          <ns3:TrackPointExtension>
            <ns3:atemp>29.0</ns3:atemp>
          </ns3:TrackPointExtension>
        </extensions>
      </trkpt>
      <trkpt lat="31.4330314099788665771484375" lon="119.4834106229245662689208984375">
        <ele>51</ele>
        <time>2015-09-10T09:37:52.000Z</time>
        <extensions>
          <ns3:TrackPointExtension>
            <ns3:atemp>29.0</ns3:atemp>
          </ns3:TrackPointExtension>
        </extensions>
      </trkpt>
      <trkpt lat="31.43306518904864788055419921875" lon="119.48343987576663494110107421875">
        <ele>51.40000152587890625</ele>
        <time>2015-09-10T09:37:53.000Z</time>
        <extensions>
          <ns3:TrackPointExtension>
            <ns3:atemp>29.0</ns3:atemp>
          </ns3:TrackPointExtension>
        </extensions>
      </trkpt>
      <trkpt lat="31.43348696641623973846435546875" lon="119.48384530842304229736328125">
        <ele>50.200000762939453125</ele>
        <time>2015-09-10T09:38:04.000Z</time>
        <extensions>
          <ns3:TrackPointExtension>
            <ns3:atemp>29.0</ns3:atemp>
          </ns3:TrackPointExtension>
        </extensions>
      </trkpt>
      <trkpt lat="31.433672793209552764892578125" lon="119.48399006389081478118896484375">
        <ele>49.59999847412109375</ele>
        <time>2015-09-10T09:38:08.000Z</time>
        <extensions>
          <ns3:TrackPointExtension>
            <ns3:atemp>29.0</ns3:atemp>
          </ns3:TrackPointExtension>
        </extensions>
      </trkpt>
      <trkpt lat="31.43401443958282470703125" lon="119.484261386096477508544921875">
        <ele>49</ele>
        <time>2015-09-10T09:38:15.000Z</time>
        <extensions>
          <ns3:TrackPointExtension>
            <ns3:atemp>29.0</ns3:atemp>
          </ns3:TrackPointExtension>
        </extensions>
      </trkpt>
      <trkpt lat="31.43406732939183712005615234375" lon="119.48428242467343807220458984375">
        <ele>49</ele>
        <time>2015-09-10T09:38:16.000Z</time>
        <extensions>
          <ns3:TrackPointExtension>
            <ns3:atemp>29.0</ns3:atemp>
          </ns3:TrackPointExtension>
        </extensions>
      </trkpt>
      <trkpt lat="31.4346308447420597076416015625" lon="119.48442173190414905548095703125">
        <ele>48.799999237060546875</ele>
        <time>2015-09-10T09:38:27.000Z</time>
        <extensions>
          <ns3:TrackPointExtension>
            <ns3:atemp>29.0</ns3:atemp>
          </ns3:TrackPointExtension>
        </extensions>
      </trkpt>
      <trkpt lat="31.4350824616849422454833984375" lon="119.48439507745206356048583984375">
        <ele>48.799999237060546875</ele>
        <time>2015-09-10T09:38:36.000Z</time>
        <extensions>
          <ns3:TrackPointExtension>
            <ns3:atemp>29.0</ns3:atemp>
          </ns3:TrackPointExtension>
        </extensions>
      </trkpt>
      <trkpt lat="31.435124874114990234375" lon="119.48437646962702274322509765625">
        <ele>49</ele>
        <time>2015-09-10T09:38:37.000Z</time>
        <extensions>
          <ns3:TrackPointExtension>
            <ns3:atemp>29.0</ns3:atemp>
          </ns3:TrackPointExtension>
        </extensions>
      </trkpt>
      <trkpt lat="31.435168795287609100341796875" lon="119.4843654893338680267333984375">
        <ele>49</ele>
        <time>2015-09-10T09:38:38.000Z</time>
        <extensions>
          <ns3:TrackPointExtension>
            <ns3:atemp>29.0</ns3:atemp>
          </ns3:TrackPointExtension>
        </extensions>
      </trkpt>
      <trkpt lat="31.4352152310311794281005859375" lon="119.4843554310500621795654296875">
        <ele>48.799999237060546875</ele>
        <time>2015-09-10T09:38:39.000Z</time>
        <extensions>
          <ns3:TrackPointExtension>
            <ns3:atemp>29.0</ns3:atemp>
          </ns3:TrackPointExtension>
        </extensions>
      </trkpt>
      <trkpt lat="31.43558110110461711883544921875" lon="119.48423800058662891387939453125">
        <ele>48.799999237060546875</ele>
        <time>2015-09-10T09:38:49.000Z</time>
        <extensions>
          <ns3:TrackPointExtension>
            <ns3:atemp>29.0</ns3:atemp>
          </ns3:TrackPointExtension>
        </extensions>
      </trkpt>
      <trkpt lat="31.435589902102947235107421875" lon="119.4842132739722728729248046875">
        <ele>48.799999237060546875</ele>
        <time>2015-09-10T09:38:50.000Z</time>
        <extensions>
          <ns3:TrackPointExtension>
            <ns3:atemp>29.0</ns3:atemp>
          </ns3:TrackPointExtension>
        </extensions>
      </trkpt>
      <trkpt lat="31.43559652380645275115966796875" lon="119.484184943139553070068359375">
        <ele>49</ele>
        <time>2015-09-10T09:38:51.000Z</time>
        <extensions>
          <ns3:TrackPointExtension>
            <ns3:atemp>29.0</ns3:atemp>
          </ns3:TrackPointExtension>
        </extensions>
      </trkpt>
      <trkpt lat="31.43559719435870647430419921875" lon="119.4841465540230274200439453125">
        <ele>49</ele>
        <time>2015-09-10T09:38:52.000Z</time>
        <extensions>
          <ns3:TrackPointExtension>
            <ns3:atemp>29.0</ns3:atemp>
          </ns3:TrackPointExtension>
        </extensions>
      </trkpt>
      <trkpt lat="31.435593925416469573974609375" lon="119.48410414159297943115234375">
        <ele>49</ele>
        <time>2015-09-10T09:38:53.000Z</time>
        <extensions>
          <ns3:TrackPointExtension>
            <ns3:atemp>29.0</ns3:atemp>
          </ns3:TrackPointExtension>
        </extensions>
      </trkpt>
      <trkpt lat="31.43559518270194530487060546875" lon="119.48406181298196315765380859375">
        <ele>49</ele>
        <time>2015-09-10T09:38:54.000Z</time>
        <extensions>
          <ns3:TrackPointExtension>
            <ns3:atemp>29.0</ns3:atemp>
          </ns3:TrackPointExtension>
        </extensions>
      </trkpt>
      <trkpt lat="31.435595266520977020263671875" lon="119.483932144939899444580078125">
        <ele>48.799999237060546875</ele>
        <time>2015-09-10T09:38:57.000Z</time>
        <extensions>
          <ns3:TrackPointExtension>
            <ns3:atemp>29.0</ns3:atemp>
          </ns3:TrackPointExtension>
        </extensions>
      </trkpt>
      <trkpt lat="31.43558822572231292724609375" lon="119.48388361372053623199462890625">
        <ele>48.799999237060546875</ele>
        <time>2015-09-10T09:38:58.000Z</time>
        <extensions>
          <ns3:TrackPointExtension>
            <ns3:atemp>29.0</ns3:atemp>
          </ns3:TrackPointExtension>
        </extensions>
      </trkpt>
      <trkpt lat="31.43558152019977569580078125" lon="119.48320535011589527130126953125">
        <ele>48.799999237060546875</ele>
        <time>2015-09-10T09:39:12.000Z</time>
        <extensions>
          <ns3:TrackPointExtension>
            <ns3:atemp>29.0</ns3:atemp>
          </ns3:TrackPointExtension>
        </extensions>
      </trkpt>
      <trkpt lat="31.43562803976237773895263671875" lon="119.48261744342744350433349609375">
        <ele>49</ele>
        <time>2015-09-10T09:39:30.000Z</time>
        <extensions>
          <ns3:TrackPointExtension>
            <ns3:atemp>29.0</ns3:atemp>
          </ns3:TrackPointExtension>
        </extensions>
      </trkpt>
    </trkseg>
  </trk>
</gpx>
