<gpx xmlns:ns3="http://www.garmin.com/xmlschemas/TrackPointExtension/v1" xmlns="http://www.topografix.com/GPX/1/1" xmlns:xsi="http://www.w3.org/2001/XMLSchema-instance" xmlns:ns2="http://www.garmin.com/xmlschemas/GpxExtensions/v3" creator="Garmin Connect" version="1.1" xsi:schemaLocation="http://www.topografix.com/GPX/1/1 http://www.topografix.com/GPX/11.xsd">
  <extensions>
<distance>3270.74</distance>
<average_hr></average_hr>
<average_speed>3.6749887640449432</average_speed>
<start_time>2015-09-11T09:34:48+00:00</start_time>
<end_time>2015-09-11T09:49:38+00:00</end_time>
<moving_time>860.0</moving_time>
<elapsed_time>1005.0</elapsed_time>
</extensions>
<metadata>
    <link href="connect.garmin.com">
      <text>Garmin Connect</text>
    </link>
    <time>2015-09-11T09:34:48.000Z</time>
  </metadata>
  <trk>
    <name>下班</name>
    <type>cycling</type>
    <trkseg>
      <trkpt lat="31.4096076786518096923828125" lon="119.4877512753009796142578125">
        <ele>3.7999999523162841796875</ele>
        <time>2015-09-11T09:34:48.000Z</time>
        <extensions>
          <ns3:TrackPointExtension>
            <ns3:atemp>30.0</ns3:atemp>
          </ns3:TrackPointExtension>
        </extensions>
      </trkpt>
      <trkpt lat="31.40965805388987064361572265625" lon="119.48781388811767101287841796875">
        <ele>18</ele>
        <time>2015-09-11T09:34:49.000Z</time>
        <extensions>
          <ns3:TrackPointExtension>
            <ns3:atemp>30.0</ns3:atemp>
          </ns3:TrackPointExtension>
        </extensions>
      </trkpt>
      <trkpt lat="31.409594602882862091064453125" lon="119.48774230666458606719970703125">
        <ele>18</ele>
        <time>2015-09-11T09:34:50.000Z</time>
        <extensions>
          <ns3:TrackPointExtension>
            <ns3:atemp>30.0</ns3:atemp>
          </ns3:TrackPointExtension>
        </extensions>
      </trkpt>
      <trkpt lat="31.409646235406398773193359375" lon="119.4877065159380435943603515625">
        <ele>3.400000095367431640625</ele>
        <time>2015-09-11T09:34:53.000Z</time>
        <extensions>
          <ns3:TrackPointExtension>
            <ns3:atemp>30.0</ns3:atemp>
          </ns3:TrackPointExtension>
        </extensions>
      </trkpt>
      <trkpt lat="31.409646905958652496337890625" lon="119.4876213558018207550048828125">
        <ele>3.400000095367431640625</ele>
        <time>2015-09-11T09:34:54.000Z</time>
        <extensions>
          <ns3:TrackPointExtension>
            <ns3:atemp>30.0</ns3:atemp>
          </ns3:TrackPointExtension>
        </extensions>
      </trkpt>
      <trkpt lat="31.40960122458636760711669921875" lon="119.48761942796409130096435546875">
        <ele>3.400000095367431640625</ele>
        <time>2015-09-11T09:34:56.000Z</time>
        <extensions>
          <ns3:TrackPointExtension>
            <ns3:atemp>30.0</ns3:atemp>
          </ns3:TrackPointExtension>
        </extensions>
      </trkpt>
      <trkpt lat="31.40961614437401294708251953125" lon="119.48760903440415859222412109375">
        <ele>3.400000095367431640625</ele>
        <time>2015-09-11T09:34:57.000Z</time>
        <extensions>
          <ns3:TrackPointExtension>
            <ns3:atemp>30.0</ns3:atemp>
          </ns3:TrackPointExtension>
        </extensions>
      </trkpt>
      <trkpt lat="31.40963206999003887176513671875" lon="119.4875442422926425933837890625">
        <ele>3.400000095367431640625</ele>
        <time>2015-09-11T09:34:58.000Z</time>
        <extensions>
          <ns3:TrackPointExtension>
            <ns3:atemp>30.0</ns3:atemp>
          </ns3:TrackPointExtension>
        </extensions>
      </trkpt>
      <trkpt lat="31.409609019756317138671875" lon="119.4875662028789520263671875">
        <ele>3.400000095367431640625</ele>
        <time>2015-09-11T09:34:59.000Z</time>
        <extensions>
          <ns3:TrackPointExtension>
            <ns3:atemp>30.0</ns3:atemp>
          </ns3:TrackPointExtension>
        </extensions>
      </trkpt>
      <trkpt lat="31.409597955644130706787109375" lon="119.48758296668529510498046875">
        <ele>3.400000095367431640625</ele>
        <time>2015-09-11T09:35:00.000Z</time>
        <extensions>
          <ns3:TrackPointExtension>
            <ns3:atemp>30.0</ns3:atemp>
          </ns3:TrackPointExtension>
        </extensions>
      </trkpt>
      <trkpt lat="31.4099250175058841705322265625" lon="119.4872072897851467132568359375">
        <ele>3.2000000476837158203125</ele>
        <time>2015-09-11T09:35:21.000Z</time>
        <extensions>
          <ns3:TrackPointExtension>
            <ns3:atemp>30.0</ns3:atemp>
          </ns3:TrackPointExtension>
        </extensions>
      </trkpt>
      <trkpt lat="31.410495825111865997314453125" lon="119.48719949461519718170166015625">
        <ele>2.7999999523162841796875</ele>
        <time>2015-09-11T09:35:39.000Z</time>
        <extensions>
          <ns3:TrackPointExtension>
            <ns3:atemp>30.0</ns3:atemp>
          </ns3:TrackPointExtension>
        </extensions>
      </trkpt>
      <trkpt lat="31.4110689796507358551025390625" lon="119.48717518709599971771240234375">
        <ele>2.599999904632568359375</ele>
        <time>2015-09-11T09:36:02.000Z</time>
        <extensions>
          <ns3:TrackPointExtension>
            <ns3:atemp>29.0</ns3:atemp>
          </ns3:TrackPointExtension>
        </extensions>
      </trkpt>
      <trkpt lat="31.41166149638593196868896484375" lon="119.48710159398615360260009765625">
        <ele>3</ele>
        <time>2015-09-11T09:36:23.000Z</time>
        <extensions>
          <ns3:TrackPointExtension>
            <ns3:atemp>29.0</ns3:atemp>
          </ns3:TrackPointExtension>
        </extensions>
      </trkpt>
      <trkpt lat="31.4120282046496868133544921875" lon="119.487118609249591827392578125">
        <ele>3.7999999523162841796875</ele>
        <time>2015-09-11T09:36:43.000Z</time>
        <extensions>
          <ns3:TrackPointExtension>
            <ns3:atemp>29.0</ns3:atemp>
          </ns3:TrackPointExtension>
        </extensions>
      </trkpt>
      <trkpt lat="31.41210674308240413665771484375" lon="119.48711148463189601898193359375">
        <ele>3.2000000476837158203125</ele>
        <time>2015-09-11T09:37:19.000Z</time>
        <extensions>
          <ns3:TrackPointExtension>
            <ns3:atemp>29.0</ns3:atemp>
          </ns3:TrackPointExtension>
        </extensions>
      </trkpt>
      <trkpt lat="31.41270521096885204315185546875" lon="119.48709388263523578643798828125">
        <ele>4</ele>
        <time>2015-09-11T09:37:38.000Z</time>
        <extensions>
          <ns3:TrackPointExtension>
            <ns3:atemp>29.0</ns3:atemp>
          </ns3:TrackPointExtension>
        </extensions>
      </trkpt>
      <trkpt lat="31.413275264203548431396484375" lon="119.487081058323383331298828125">
        <ele>3.7999999523162841796875</ele>
        <time>2015-09-11T09:37:56.000Z</time>
        <extensions>
          <ns3:TrackPointExtension>
            <ns3:atemp>29.0</ns3:atemp>
          </ns3:TrackPointExtension>
        </extensions>
      </trkpt>
      <trkpt lat="31.41386090777814388275146484375" lon="119.48700428009033203125">
        <ele>2.7999999523162841796875</ele>
        <time>2015-09-11T09:38:13.000Z</time>
        <extensions>
          <ns3:TrackPointExtension>
            <ns3:atemp>29.0</ns3:atemp>
          </ns3:TrackPointExtension>
        </extensions>
      </trkpt>
      <trkpt lat="31.41444345004856586456298828125" lon="119.48700402863323688507080078125">
        <ele>2.599999904632568359375</ele>
        <time>2015-09-11T09:38:34.000Z</time>
        <extensions>
          <ns3:TrackPointExtension>
            <ns3:atemp>29.0</ns3:atemp>
          </ns3:TrackPointExtension>
        </extensions>
      </trkpt>
      <trkpt lat="31.4150416664779186248779296875" lon="119.48696203529834747314453125">
        <ele>2.400000095367431640625</ele>
        <time>2015-09-11T09:38:52.000Z</time>
        <extensions>
          <ns3:TrackPointExtension>
            <ns3:atemp>29.0</ns3:atemp>
          </ns3:TrackPointExtension>
        </extensions>
      </trkpt>
      <trkpt lat="31.415657065808773040771484375" lon="119.48696262203156948089599609375">
        <ele>3.2000000476837158203125</ele>
        <time>2015-09-11T09:39:09.000Z</time>
        <extensions>
          <ns3:TrackPointExtension>
            <ns3:atemp>29.0</ns3:atemp>
          </ns3:TrackPointExtension>
        </extensions>
      </trkpt>
      <trkpt lat="31.41622175462543964385986328125" lon="119.486851729452610015869140625">
        <ele>2.599999904632568359375</ele>
        <time>2015-09-11T09:39:26.000Z</time>
        <extensions>
          <ns3:TrackPointExtension>
            <ns3:atemp>29.0</ns3:atemp>
          </ns3:TrackPointExtension>
        </extensions>
      </trkpt>
      <trkpt lat="31.416657529771327972412109375" lon="119.48683504946529865264892578125">
        <ele>2.599999904632568359375</ele>
        <time>2015-09-11T09:39:37.000Z</time>
        <extensions>
          <ns3:TrackPointExtension>
            <ns3:atemp>29.0</ns3:atemp>
          </ns3:TrackPointExtension>
        </extensions>
      </trkpt>
      <trkpt lat="31.417053155601024627685546875" lon="119.48683597147464752197265625">
        <ele>2.599999904632568359375</ele>
        <time>2015-09-11T09:39:46.000Z</time>
        <extensions>
          <ns3:TrackPointExtension>
            <ns3:atemp>29.0</ns3:atemp>
          </ns3:TrackPointExtension>
        </extensions>
      </trkpt>
      <trkpt lat="31.41709498129785060882568359375" lon="119.48683731257915496826171875">
        <ele>2.599999904632568359375</ele>
        <time>2015-09-11T09:39:47.000Z</time>
        <extensions>
          <ns3:TrackPointExtension>
            <ns3:atemp>29.0</ns3:atemp>
          </ns3:TrackPointExtension>
        </extensions>
      </trkpt>
      <trkpt lat="31.4176470972597599029541015625" lon="119.48683999478816986083984375">
        <ele>2.7999999523162841796875</ele>
        <time>2015-09-11T09:40:00.000Z</time>
        <extensions>
          <ns3:TrackPointExtension>
            <ns3:atemp>29.0</ns3:atemp>
          </ns3:TrackPointExtension>
        </extensions>
      </trkpt>
      <trkpt lat="31.41773418523371219635009765625" lon="119.48683605529367923736572265625">
        <ele>3</ele>
        <time>2015-09-11T09:40:02.000Z</time>
        <extensions>
          <ns3:TrackPointExtension>
            <ns3:atemp>29.0</ns3:atemp>
          </ns3:TrackPointExtension>
        </extensions>
      </trkpt>
      <trkpt lat="31.41830331645905971527099609375" lon="119.48677285574376583099365234375">
        <ele>2.7999999523162841796875</ele>
        <time>2015-09-11T09:40:17.000Z</time>
        <extensions>
          <ns3:TrackPointExtension>
            <ns3:atemp>29.0</ns3:atemp>
          </ns3:TrackPointExtension>
        </extensions>
      </trkpt>
      <trkpt lat="31.4183409512042999267578125" lon="119.486768245697021484375">
        <ele>3.2000000476837158203125</ele>
        <time>2015-09-11T09:40:26.000Z</time>
        <extensions>
          <ns3:TrackPointExtension>
            <ns3:atemp>29.0</ns3:atemp>
          </ns3:TrackPointExtension>
        </extensions>
      </trkpt>
      <trkpt lat="31.4184360019862651824951171875" lon="119.48677872307598590850830078125">
        <ele>3.2000000476837158203125</ele>
        <time>2015-09-11T09:40:47.000Z</time>
        <extensions>
          <ns3:TrackPointExtension>
            <ns3:atemp>29.0</ns3:atemp>
          </ns3:TrackPointExtension>
        </extensions>
      </trkpt>
      <trkpt lat="31.41900018788874149322509765625" lon="119.48671015910804271697998046875">
        <ele>3</ele>
        <time>2015-09-11T09:41:02.000Z</time>
        <extensions>
          <ns3:TrackPointExtension>
            <ns3:atemp>29.0</ns3:atemp>
          </ns3:TrackPointExtension>
        </extensions>
      </trkpt>
      <trkpt lat="31.41929405741393566131591796875" lon="119.4867231510579586029052734375">
        <ele>3.2000000476837158203125</ele>
        <time>2015-09-11T09:41:09.000Z</time>
        <extensions>
          <ns3:TrackPointExtension>
            <ns3:atemp>29.0</ns3:atemp>
          </ns3:TrackPointExtension>
        </extensions>
      </trkpt>
      <trkpt lat="31.419334374368190765380859375" lon="119.48672424070537090301513671875">
        <ele>3</ele>
        <time>2015-09-11T09:41:10.000Z</time>
        <extensions>
          <ns3:TrackPointExtension>
            <ns3:atemp>29.0</ns3:atemp>
          </ns3:TrackPointExtension>
        </extensions>
      </trkpt>
      <trkpt lat="31.41937427222728729248046875" lon="119.4867214746773242950439453125">
        <ele>3</ele>
        <time>2015-09-11T09:41:11.000Z</time>
        <extensions>
          <ns3:TrackPointExtension>
            <ns3:atemp>29.0</ns3:atemp>
          </ns3:TrackPointExtension>
        </extensions>
      </trkpt>
      <trkpt lat="31.41974265687167644500732421875" lon="119.48673547245562076568603515625">
        <ele>2.7999999523162841796875</ele>
        <time>2015-09-11T09:41:20.000Z</time>
        <extensions>
          <ns3:TrackPointExtension>
            <ns3:atemp>29.0</ns3:atemp>
          </ns3:TrackPointExtension>
        </extensions>
      </trkpt>
      <trkpt lat="31.42033852636814117431640625" lon="119.4867454469203948974609375">
        <ele>2.400000095367431640625</ele>
        <time>2015-09-11T09:41:35.000Z</time>
        <extensions>
          <ns3:TrackPointExtension>
            <ns3:atemp>29.0</ns3:atemp>
          </ns3:TrackPointExtension>
        </extensions>
      </trkpt>
      <trkpt lat="31.42050373367965221405029296875" lon="119.48675894178450107574462890625">
        <ele>2.400000095367431640625</ele>
        <time>2015-09-11T09:41:39.000Z</time>
        <extensions>
          <ns3:TrackPointExtension>
            <ns3:atemp>29.0</ns3:atemp>
          </ns3:TrackPointExtension>
        </extensions>
      </trkpt>
      <trkpt lat="31.4205502532422542572021484375" lon="119.48676078580319881439208984375">
        <ele>2.400000095367431640625</ele>
        <time>2015-09-11T09:41:40.000Z</time>
        <extensions>
          <ns3:TrackPointExtension>
            <ns3:atemp>29.0</ns3:atemp>
          </ns3:TrackPointExtension>
        </extensions>
      </trkpt>
      <trkpt lat="31.42077430151402950286865234375" lon="119.48671435005962848663330078125">
        <ele>2.599999904632568359375</ele>
        <time>2015-09-11T09:41:45.000Z</time>
        <extensions>
          <ns3:TrackPointExtension>
            <ns3:atemp>29.0</ns3:atemp>
          </ns3:TrackPointExtension>
        </extensions>
      </trkpt>
      <trkpt lat="31.4213565923273563385009765625" lon="119.4866899587213993072509765625">
        <ele>1.7999999523162841796875</ele>
        <time>2015-09-11T09:42:00.000Z</time>
        <extensions>
          <ns3:TrackPointExtension>
            <ns3:atemp>29.0</ns3:atemp>
          </ns3:TrackPointExtension>
        </extensions>
      </trkpt>
      <trkpt lat="31.4219667948782444000244140625" lon="119.4865799881517887115478515625">
        <ele>2.400000095367431640625</ele>
        <time>2015-09-11T09:42:16.000Z</time>
        <extensions>
          <ns3:TrackPointExtension>
            <ns3:atemp>28.0</ns3:atemp>
          </ns3:TrackPointExtension>
        </extensions>
      </trkpt>
      <trkpt lat="31.4225614070892333984375" lon="119.48654788546264171600341796875">
        <ele>2.599999904632568359375</ele>
        <time>2015-09-11T09:42:32.000Z</time>
        <extensions>
          <ns3:TrackPointExtension>
            <ns3:atemp>28.0</ns3:atemp>
          </ns3:TrackPointExtension>
        </extensions>
      </trkpt>
      <trkpt lat="31.4231607131659984588623046875" lon="119.48652642779052257537841796875">
        <ele>2.2000000476837158203125</ele>
        <time>2015-09-11T09:42:49.000Z</time>
        <extensions>
          <ns3:TrackPointExtension>
            <ns3:atemp>28.0</ns3:atemp>
          </ns3:TrackPointExtension>
        </extensions>
      </trkpt>
      <trkpt lat="31.42377954907715320587158203125" lon="119.486494995653629302978515625">
        <ele>2.400000095367431640625</ele>
        <time>2015-09-11T09:43:06.000Z</time>
        <extensions>
          <ns3:TrackPointExtension>
            <ns3:atemp>28.0</ns3:atemp>
          </ns3:TrackPointExtension>
        </extensions>
      </trkpt>
      <trkpt lat="31.4243472553789615631103515625" lon="119.48649776168167591094970703125">
        <ele>2.7999999523162841796875</ele>
        <time>2015-09-11T09:43:23.000Z</time>
        <extensions>
          <ns3:TrackPointExtension>
            <ns3:atemp>28.0</ns3:atemp>
          </ns3:TrackPointExtension>
        </extensions>
      </trkpt>
      <trkpt lat="31.42436527647078037261962890625" lon="119.486502707004547119140625">
        <ele>2.7999999523162841796875</ele>
        <time>2015-09-11T09:43:24.000Z</time>
        <extensions>
          <ns3:TrackPointExtension>
            <ns3:atemp>28.0</ns3:atemp>
          </ns3:TrackPointExtension>
        </extensions>
      </trkpt>
      <trkpt lat="31.4243901707231998443603515625" lon="119.48651251383125782012939453125">
        <ele>3.599999904632568359375</ele>
        <time>2015-09-11T09:43:32.000Z</time>
        <extensions>
          <ns3:TrackPointExtension>
            <ns3:atemp>28.0</ns3:atemp>
          </ns3:TrackPointExtension>
        </extensions>
      </trkpt>
      <trkpt lat="31.42452587373554706573486328125" lon="119.486559368669986724853515625">
        <ele>3.2000000476837158203125</ele>
        <time>2015-09-11T09:44:29.000Z</time>
        <extensions>
          <ns3:TrackPointExtension>
            <ns3:atemp>29.0</ns3:atemp>
          </ns3:TrackPointExtension>
        </extensions>
      </trkpt>
      <trkpt lat="31.42454934306442737579345703125" lon="119.48655568063259124755859375">
        <ele>3.2000000476837158203125</ele>
        <time>2015-09-11T09:44:30.000Z</time>
        <extensions>
          <ns3:TrackPointExtension>
            <ns3:atemp>29.0</ns3:atemp>
          </ns3:TrackPointExtension>
        </extensions>
      </trkpt>
      <trkpt lat="31.4251036383211612701416015625" lon="119.4864358194172382354736328125">
        <ele>3.599999904632568359375</ele>
        <time>2015-09-11T09:44:47.000Z</time>
        <extensions>
          <ns3:TrackPointExtension>
            <ns3:atemp>28.0</ns3:atemp>
          </ns3:TrackPointExtension>
        </extensions>
      </trkpt>
      <trkpt lat="31.42567612230777740478515625" lon="119.48619249276816844940185546875">
        <ele>3.2000000476837158203125</ele>
        <time>2015-09-11T09:45:04.000Z</time>
        <extensions>
          <ns3:TrackPointExtension>
            <ns3:atemp>28.0</ns3:atemp>
          </ns3:TrackPointExtension>
        </extensions>
      </trkpt>
      <trkpt lat="31.42633116804063320159912109375" lon="119.48604782111942768096923828125">
        <ele>2.599999904632568359375</ele>
        <time>2015-09-11T09:45:21.000Z</time>
        <extensions>
          <ns3:TrackPointExtension>
            <ns3:atemp>28.0</ns3:atemp>
          </ns3:TrackPointExtension>
        </extensions>
      </trkpt>
      <trkpt lat="31.4265429787337779998779296875" lon="119.48603860102593898773193359375">
        <ele>3.400000095367431640625</ele>
        <time>2015-09-11T09:45:35.000Z</time>
        <extensions>
          <ns3:TrackPointExtension>
            <ns3:atemp>28.0</ns3:atemp>
          </ns3:TrackPointExtension>
        </extensions>
      </trkpt>
      <trkpt lat="31.426589079201221466064453125" lon="119.48609861545264720916748046875">
        <ele>3.599999904632568359375</ele>
        <time>2015-09-11T09:45:44.000Z</time>
        <extensions>
          <ns3:TrackPointExtension>
            <ns3:atemp>28.0</ns3:atemp>
          </ns3:TrackPointExtension>
        </extensions>
      </trkpt>
      <trkpt lat="31.426595114171504974365234375" lon="119.4861097633838653564453125">
        <ele>3.599999904632568359375</ele>
        <time>2015-09-11T09:45:45.000Z</time>
        <extensions>
          <ns3:TrackPointExtension>
            <ns3:atemp>28.0</ns3:atemp>
          </ns3:TrackPointExtension>
        </extensions>
      </trkpt>
      <trkpt lat="31.426670886576175689697265625" lon="119.486126862466335296630859375">
        <ele>3.2000000476837158203125</ele>
        <time>2015-09-11T09:45:51.000Z</time>
        <extensions>
          <ns3:TrackPointExtension>
            <ns3:atemp>28.0</ns3:atemp>
          </ns3:TrackPointExtension>
        </extensions>
      </trkpt>
      <trkpt lat="31.42669226042926311492919921875" lon="119.4861394353210926055908203125">
        <ele>3.400000095367431640625</ele>
        <time>2015-09-11T09:45:52.000Z</time>
        <extensions>
          <ns3:TrackPointExtension>
            <ns3:atemp>28.0</ns3:atemp>
          </ns3:TrackPointExtension>
        </extensions>
      </trkpt>
      <trkpt lat="31.42732727341353893280029296875" lon="119.4860073365271091461181640625">
        <ele>3</ele>
        <time>2015-09-11T09:46:12.000Z</time>
        <extensions>
          <ns3:TrackPointExtension>
            <ns3:atemp>28.0</ns3:atemp>
          </ns3:TrackPointExtension>
        </extensions>
      </trkpt>
      <trkpt lat="31.42790503799915313720703125" lon="119.4860438816249370574951171875">
        <ele>2.2000000476837158203125</ele>
        <time>2015-09-11T09:46:28.000Z</time>
        <extensions>
          <ns3:TrackPointExtension>
            <ns3:atemp>28.0</ns3:atemp>
          </ns3:TrackPointExtension>
        </extensions>
      </trkpt>
      <trkpt lat="31.42819597385823726654052734375" lon="119.48608201928436756134033203125">
        <ele>2.2000000476837158203125</ele>
        <time>2015-09-11T09:46:35.000Z</time>
        <extensions>
          <ns3:TrackPointExtension>
            <ns3:atemp>28.0</ns3:atemp>
          </ns3:TrackPointExtension>
        </extensions>
      </trkpt>
      <trkpt lat="31.42824006266891956329345703125" lon="119.486083947122097015380859375">
        <ele>1.7999999523162841796875</ele>
        <time>2015-09-11T09:46:36.000Z</time>
        <extensions>
          <ns3:TrackPointExtension>
            <ns3:atemp>28.0</ns3:atemp>
          </ns3:TrackPointExtension>
        </extensions>
      </trkpt>
      <trkpt lat="31.4282864145934581756591796875" lon="119.4860841147601604461669921875">
        <ele>1.60000002384185791015625</ele>
        <time>2015-09-11T09:46:37.000Z</time>
        <extensions>
          <ns3:TrackPointExtension>
            <ns3:atemp>28.0</ns3:atemp>
          </ns3:TrackPointExtension>
        </extensions>
      </trkpt>
      <trkpt lat="31.42890273593366146087646484375" lon="119.48597959242761135101318359375">
        <ele>1.60000002384185791015625</ele>
        <time>2015-09-11T09:46:51.000Z</time>
        <extensions>
          <ns3:TrackPointExtension>
            <ns3:atemp>28.0</ns3:atemp>
          </ns3:TrackPointExtension>
        </extensions>
      </trkpt>
      <trkpt lat="31.4294344000518321990966796875" lon="119.48573215864598751068115234375">
        <ele>2</ele>
        <time>2015-09-11T09:47:08.000Z</time>
        <extensions>
          <ns3:TrackPointExtension>
            <ns3:atemp>28.0</ns3:atemp>
          </ns3:TrackPointExtension>
        </extensions>
      </trkpt>
      <trkpt lat="31.43003060482442378997802734375" lon="119.4855335913598537445068359375">
        <ele>2</ele>
        <time>2015-09-11T09:47:26.000Z</time>
        <extensions>
          <ns3:TrackPointExtension>
            <ns3:atemp>28.0</ns3:atemp>
          </ns3:TrackPointExtension>
        </extensions>
      </trkpt>
      <trkpt lat="31.43063393421471118927001953125" lon="119.48542286641895771026611328125">
        <ele>2.2000000476837158203125</ele>
        <time>2015-09-11T09:47:42.000Z</time>
        <extensions>
          <ns3:TrackPointExtension>
            <ns3:atemp>28.0</ns3:atemp>
          </ns3:TrackPointExtension>
        </extensions>
      </trkpt>
      <trkpt lat="31.431163586676120758056640625" lon="119.4851262308657169342041015625">
        <ele>2.7999999523162841796875</ele>
        <time>2015-09-11T09:48:00.000Z</time>
        <extensions>
          <ns3:TrackPointExtension>
            <ns3:atemp>28.0</ns3:atemp>
          </ns3:TrackPointExtension>
        </extensions>
      </trkpt>
      <trkpt lat="31.4316857792437076568603515625" lon="119.48481517843902111053466796875">
        <ele>3.599999904632568359375</ele>
        <time>2015-09-11T09:48:19.000Z</time>
        <extensions>
          <ns3:TrackPointExtension>
            <ns3:atemp>28.0</ns3:atemp>
          </ns3:TrackPointExtension>
        </extensions>
      </trkpt>
      <trkpt lat="31.432163715362548828125" lon="119.48438870720565319061279296875">
        <ele>2.400000095367431640625</ele>
        <time>2015-09-11T09:48:38.000Z</time>
        <extensions>
          <ns3:TrackPointExtension>
            <ns3:atemp>28.0</ns3:atemp>
          </ns3:TrackPointExtension>
        </extensions>
      </trkpt>
      <trkpt lat="31.43252371810376644134521484375" lon="119.48386609554290771484375">
        <ele>2.599999904632568359375</ele>
        <time>2015-09-11T09:48:56.000Z</time>
        <extensions>
          <ns3:TrackPointExtension>
            <ns3:atemp>28.0</ns3:atemp>
          </ns3:TrackPointExtension>
        </extensions>
      </trkpt>
      <trkpt lat="31.43290467560291290283203125" lon="119.48343015275895595550537109375">
        <ele>2.400000095367431640625</ele>
        <time>2015-09-11T09:49:14.000Z</time>
        <extensions>
          <ns3:TrackPointExtension>
            <ns3:atemp>28.0</ns3:atemp>
          </ns3:TrackPointExtension>
        </extensions>
      </trkpt>
      <trkpt lat="31.43292772583663463592529296875" lon="119.48343400843441486358642578125">
        <ele>2.599999904632568359375</ele>
        <time>2015-09-11T09:49:15.000Z</time>
        <extensions>
          <ns3:TrackPointExtension>
            <ns3:atemp>28.0</ns3:atemp>
          </ns3:TrackPointExtension>
        </extensions>
      </trkpt>
      <trkpt lat="31.43294951878488063812255859375" lon="119.4834471680223941802978515625">
        <ele>2.599999904632568359375</ele>
        <time>2015-09-11T09:49:16.000Z</time>
        <extensions>
          <ns3:TrackPointExtension>
            <ns3:atemp>28.0</ns3:atemp>
          </ns3:TrackPointExtension>
        </extensions>
      </trkpt>
      <trkpt lat="31.43296997062861919403076171875" lon="119.4834646023809909820556640625">
        <ele>2.7999999523162841796875</ele>
        <time>2015-09-11T09:49:17.000Z</time>
        <extensions>
          <ns3:TrackPointExtension>
            <ns3:atemp>28.0</ns3:atemp>
          </ns3:TrackPointExtension>
        </extensions>
      </trkpt>
      <trkpt lat="31.4330034144222736358642578125" lon="119.48348580859601497650146484375">
        <ele>3</ele>
        <time>2015-09-11T09:49:18.000Z</time>
        <extensions>
          <ns3:TrackPointExtension>
            <ns3:atemp>28.0</ns3:atemp>
          </ns3:TrackPointExtension>
        </extensions>
      </trkpt>
      <trkpt lat="31.43351621925830841064453125" lon="119.4839075021445751190185546875">
        <ele>1.60000002384185791015625</ele>
        <time>2015-09-11T09:49:38.000Z</time>
        <extensions>
          <ns3:TrackPointExtension>
            <ns3:atemp>28.0</ns3:atemp>
          </ns3:TrackPointExtension>
        </extensions>
      </trkpt>
      <trkpt lat="31.43358536995947360992431640625" lon="119.4839695282280445098876953125">
        <ele>1.39999997615814208984375</ele>
        <time>2015-09-11T09:49:40.000Z</time>
        <extensions>
          <ns3:TrackPointExtension>
            <ns3:atemp>28.0</ns3:atemp>
          </ns3:TrackPointExtension>
        </extensions>
      </trkpt>
      <trkpt lat="31.43362258560955524444580078125" lon="119.484001211822032928466796875">
        <ele>1.2000000476837158203125</ele>
        <time>2015-09-11T09:49:41.000Z</time>
        <extensions>
          <ns3:TrackPointExtension>
            <ns3:atemp>28.0</ns3:atemp>
          </ns3:TrackPointExtension>
        </extensions>
      </trkpt>
      <trkpt lat="31.4341386593878269195556640625" lon="119.4843547604978084564208984375">
        <ele>0.60000002384185791015625</ele>
        <time>2015-09-11T09:49:55.000Z</time>
        <extensions>
          <ns3:TrackPointExtension>
            <ns3:atemp>28.0</ns3:atemp>
          </ns3:TrackPointExtension>
        </extensions>
      </trkpt>
      <trkpt lat="31.43463604152202606201171875" lon="119.48443966917693614959716796875">
        <ele>0</ele>
        <time>2015-09-11T09:50:08.000Z</time>
        <extensions>
          <ns3:TrackPointExtension>
            <ns3:atemp>28.0</ns3:atemp>
          </ns3:TrackPointExtension>
        </extensions>
      </trkpt>
      <trkpt lat="31.434752382338047027587890625" lon="119.48445375077426433563232421875">
        <ele>0.20000000298023223876953125</ele>
        <time>2015-09-11T09:50:11.000Z</time>
        <extensions>
          <ns3:TrackPointExtension>
            <ns3:atemp>28.0</ns3:atemp>
          </ns3:TrackPointExtension>
        </extensions>
      </trkpt>
      <trkpt lat="31.4349879138171672821044921875" lon="119.48444302193820476531982421875">
        <ele>0</ele>
        <time>2015-09-11T09:50:17.000Z</time>
        <extensions>
          <ns3:TrackPointExtension>
            <ns3:atemp>28.0</ns3:atemp>
          </ns3:TrackPointExtension>
        </extensions>
      </trkpt>
      <trkpt lat="31.4350278116762638092041015625" lon="119.48443715460598468780517578125">
        <ele>-0.20000000298023223876953125</ele>
        <time>2015-09-11T09:50:18.000Z</time>
        <extensions>
          <ns3:TrackPointExtension>
            <ns3:atemp>28.0</ns3:atemp>
          </ns3:TrackPointExtension>
        </extensions>
      </trkpt>
      <trkpt lat="31.4354593120515346527099609375" lon="119.48431343771517276763916015625">
        <ele>0.4000000059604644775390625</ele>
        <time>2015-09-11T09:50:33.000Z</time>
        <extensions>
          <ns3:TrackPointExtension>
            <ns3:atemp>28.0</ns3:atemp>
          </ns3:TrackPointExtension>
        </extensions>
      </trkpt>
      <trkpt lat="31.4354749023914337158203125" lon="119.48429684154689311981201171875">
        <ele>0.4000000059604644775390625</ele>
        <time>2015-09-11T09:50:34.000Z</time>
        <extensions>
          <ns3:TrackPointExtension>
            <ns3:atemp>28.0</ns3:atemp>
          </ns3:TrackPointExtension>
        </extensions>
      </trkpt>
      <trkpt lat="31.43558227457106113433837890625" lon="119.48420966975390911102294921875">
        <ele>-0.20000000298023223876953125</ele>
        <time>2015-09-11T09:50:39.000Z</time>
        <extensions>
          <ns3:TrackPointExtension>
            <ns3:atemp>28.0</ns3:atemp>
          </ns3:TrackPointExtension>
        </extensions>
      </trkpt>
      <trkpt lat="31.435589902102947235107421875" lon="119.484184272587299346923828125">
        <ele>-0.20000000298023223876953125</ele>
        <time>2015-09-11T09:50:40.000Z</time>
        <extensions>
          <ns3:TrackPointExtension>
            <ns3:atemp>28.0</ns3:atemp>
          </ns3:TrackPointExtension>
        </extensions>
      </trkpt>
      <trkpt lat="31.4355984516441822052001953125" lon="119.4841571152210235595703125">
        <ele>0</ele>
        <time>2015-09-11T09:50:41.000Z</time>
        <extensions>
          <ns3:TrackPointExtension>
            <ns3:atemp>28.0</ns3:atemp>
          </ns3:TrackPointExtension>
        </extensions>
      </trkpt>
      <trkpt lat="31.4356051571667194366455078125" lon="119.48412668891251087188720703125">
        <ele>0.20000000298023223876953125</ele>
        <time>2015-09-11T09:50:42.000Z</time>
        <extensions>
          <ns3:TrackPointExtension>
            <ns3:atemp>28.0</ns3:atemp>
          </ns3:TrackPointExtension>
        </extensions>
      </trkpt>
      <trkpt lat="31.43561211414635181427001953125" lon="119.48409433476626873016357421875">
        <ele>0.4000000059604644775390625</ele>
        <time>2015-09-11T09:50:43.000Z</time>
        <extensions>
          <ns3:TrackPointExtension>
            <ns3:atemp>28.0</ns3:atemp>
          </ns3:TrackPointExtension>
        </extensions>
      </trkpt>
      <trkpt lat="31.43561102449893951416015625" lon="119.48341053910553455352783203125">
        <ele>0.800000011920928955078125</ele>
        <time>2015-09-11T09:51:05.000Z</time>
        <extensions>
          <ns3:TrackPointExtension>
            <ns3:atemp>28.0</ns3:atemp>
          </ns3:TrackPointExtension>
        </extensions>
      </trkpt>
      <trkpt lat="31.435581184923648834228515625" lon="119.48272640816867351531982421875">
        <ele>0.60000002384185791015625</ele>
        <time>2015-09-11T09:51:24.000Z</time>
        <extensions>
          <ns3:TrackPointExtension>
            <ns3:atemp>28.0</ns3:atemp>
          </ns3:TrackPointExtension>
        </extensions>
      </trkpt>
      <trkpt lat="31.435569114983081817626953125" lon="119.482660777866840362548828125">
        <ele>0.800000011920928955078125</ele>
        <time>2015-09-11T09:51:26.000Z</time>
        <extensions>
          <ns3:TrackPointExtension>
            <ns3:atemp>28.0</ns3:atemp>
          </ns3:TrackPointExtension>
        </extensions>
      </trkpt>
      <trkpt lat="31.43555729649960994720458984375" lon="119.4826458580791950225830078125">
        <ele>0.800000011920928955078125</ele>
        <time>2015-09-11T09:51:27.000Z</time>
        <extensions>
          <ns3:TrackPointExtension>
            <ns3:atemp>28.0</ns3:atemp>
          </ns3:TrackPointExtension>
        </extensions>
      </trkpt>
      <trkpt lat="31.435546316206455230712890625" lon="119.4826401583850383758544921875">
        <ele>0.60000002384185791015625</ele>
        <time>2015-09-11T09:51:28.000Z</time>
        <extensions>
          <ns3:TrackPointExtension>
            <ns3:atemp>28.0</ns3:atemp>
          </ns3:TrackPointExtension>
        </extensions>
      </trkpt>
      <trkpt lat="31.43555411137640476226806640625" lon="119.48264895938336849212646484375">
        <ele>1.2000000476837158203125</ele>
        <time>2015-09-11T09:51:33.000Z</time>
        <extensions>
          <ns3:TrackPointExtension>
            <ns3:atemp>28.0</ns3:atemp>
          </ns3:TrackPointExtension>
        </extensions>
      </trkpt>
    </trkseg>
  </trk>
</gpx>
