<gpx xmlns:ns3="http://www.garmin.com/xmlschemas/TrackPointExtension/v1" xmlns="http://www.topografix.com/GPX/1/1" xmlns:xsi="http://www.w3.org/2001/XMLSchema-instance" xmlns:ns2="http://www.garmin.com/xmlschemas/GpxExtensions/v3" creator="Garmin Connect" version="1.1" xsi:schemaLocation="http://www.topografix.com/GPX/1/1 http://www.topografix.com/GPX/11.xsd">
  <extensions>
<distance>3310.37</distance>
<average_hr></average_hr>
<average_speed>3.625815991237678</average_speed>
<start_time>2015-09-10T23:50:05+00:00</start_time>
<end_time>2015-09-11T00:05:18+00:00</end_time>
<moving_time>905.0</moving_time>
<elapsed_time>918.0</elapsed_time>
</extensions>
<metadata>
    <link href="connect.garmin.com">
      <text>Garmin Connect</text>
    </link>
    <time>2015-09-10T23:50:05.000Z</time>
  </metadata>
  <trk>
    <name>上班</name>
    <type>cycling</type>
    <trkseg>
      <trkpt lat="31.43569224514067173004150390625" lon="119.48259866796433925628662109375">
        <ele>2.400000095367431640625</ele>
        <time>2015-09-10T23:50:05.000Z</time>
        <extensions>
          <ns3:TrackPointExtension>
            <ns3:atemp>27.0</ns3:atemp>
          </ns3:TrackPointExtension>
        </extensions>
      </trkpt>
      <trkpt lat="31.43578109331429004669189453125" lon="119.4825370609760284423828125">
        <ele>-9</ele>
        <time>2015-09-10T23:50:07.000Z</time>
        <extensions>
          <ns3:TrackPointExtension>
            <ns3:atemp>28.0</ns3:atemp>
          </ns3:TrackPointExtension>
        </extensions>
      </trkpt>
      <trkpt lat="31.43574337475001811981201171875" lon="119.482569582760334014892578125">
        <ele>-9</ele>
        <time>2015-09-10T23:50:08.000Z</time>
        <extensions>
          <ns3:TrackPointExtension>
            <ns3:atemp>28.0</ns3:atemp>
          </ns3:TrackPointExtension>
        </extensions>
      </trkpt>
      <trkpt lat="31.4355709590017795562744140625" lon="119.482798241078853607177734375">
        <ele>2.400000095367431640625</ele>
        <time>2015-09-10T23:50:11.000Z</time>
        <extensions>
          <ns3:TrackPointExtension>
            <ns3:atemp>28.0</ns3:atemp>
          </ns3:TrackPointExtension>
        </extensions>
      </trkpt>
      <trkpt lat="31.43556266091763973236083984375" lon="119.48275633156299591064453125">
        <ele>2.400000095367431640625</ele>
        <time>2015-09-10T23:50:12.000Z</time>
        <extensions>
          <ns3:TrackPointExtension>
            <ns3:atemp>28.0</ns3:atemp>
          </ns3:TrackPointExtension>
        </extensions>
      </trkpt>
      <trkpt lat="31.435484625399112701416015625" lon="119.48280687443912029266357421875">
        <ele>2</ele>
        <time>2015-09-10T23:50:16.000Z</time>
        <extensions>
          <ns3:TrackPointExtension>
            <ns3:atemp>28.0</ns3:atemp>
          </ns3:TrackPointExtension>
        </extensions>
      </trkpt>
      <trkpt lat="31.4355055801570415496826171875" lon="119.4828108139336109161376953125">
        <ele>2</ele>
        <time>2015-09-10T23:50:17.000Z</time>
        <extensions>
          <ns3:TrackPointExtension>
            <ns3:atemp>28.0</ns3:atemp>
          </ns3:TrackPointExtension>
        </extensions>
      </trkpt>
      <trkpt lat="31.4355112798511981964111328125" lon="119.48280184529721736907958984375">
        <ele>2</ele>
        <time>2015-09-10T23:50:18.000Z</time>
        <extensions>
          <ns3:TrackPointExtension>
            <ns3:atemp>28.0</ns3:atemp>
          </ns3:TrackPointExtension>
        </extensions>
      </trkpt>
      <trkpt lat="31.43561311997473239898681640625" lon="119.482668824493885040283203125">
        <ele>2</ele>
        <time>2015-09-10T23:50:21.000Z</time>
        <extensions>
          <ns3:TrackPointExtension>
            <ns3:atemp>28.0</ns3:atemp>
          </ns3:TrackPointExtension>
        </extensions>
      </trkpt>
      <trkpt lat="31.4356520958244800567626953125" lon="119.4825855083763599395751953125">
        <ele>2</ele>
        <time>2015-09-10T23:50:22.000Z</time>
        <extensions>
          <ns3:TrackPointExtension>
            <ns3:atemp>28.0</ns3:atemp>
          </ns3:TrackPointExtension>
        </extensions>
      </trkpt>
      <trkpt lat="31.4356199093163013458251953125" lon="119.4826711714267730712890625">
        <ele>2</ele>
        <time>2015-09-10T23:50:23.000Z</time>
        <extensions>
          <ns3:TrackPointExtension>
            <ns3:atemp>28.0</ns3:atemp>
          </ns3:TrackPointExtension>
        </extensions>
      </trkpt>
      <trkpt lat="31.4356842823326587677001953125" lon="119.48329822160303592681884765625">
        <ele>1.60000002384185791015625</ele>
        <time>2015-09-10T23:50:48.000Z</time>
        <extensions>
          <ns3:TrackPointExtension>
            <ns3:atemp>28.0</ns3:atemp>
          </ns3:TrackPointExtension>
        </extensions>
      </trkpt>
      <trkpt lat="31.43575988709926605224609375" lon="119.48393105529248714447021484375">
        <ele>1.39999997615814208984375</ele>
        <time>2015-09-10T23:51:11.000Z</time>
        <extensions>
          <ns3:TrackPointExtension>
            <ns3:atemp>28.0</ns3:atemp>
          </ns3:TrackPointExtension>
        </extensions>
      </trkpt>
      <trkpt lat="31.43574723042547702789306640625" lon="119.48395184241235256195068359375">
        <ele>1.39999997615814208984375</ele>
        <time>2015-09-10T23:51:12.000Z</time>
        <extensions>
          <ns3:TrackPointExtension>
            <ns3:atemp>28.0</ns3:atemp>
          </ns3:TrackPointExtension>
        </extensions>
      </trkpt>
      <trkpt lat="31.43572074361145496368408203125" lon="119.48397346772253513336181640625">
        <ele>1.39999997615814208984375</ele>
        <time>2015-09-10T23:51:13.000Z</time>
        <extensions>
          <ns3:TrackPointExtension>
            <ns3:atemp>28.0</ns3:atemp>
          </ns3:TrackPointExtension>
        </extensions>
      </trkpt>
      <trkpt lat="31.43569693900644779205322265625" lon="119.483987130224704742431640625">
        <ele>1.39999997615814208984375</ele>
        <time>2015-09-10T23:51:14.000Z</time>
        <extensions>
          <ns3:TrackPointExtension>
            <ns3:atemp>28.0</ns3:atemp>
          </ns3:TrackPointExtension>
        </extensions>
      </trkpt>
      <trkpt lat="31.4356755651533603668212890625" lon="119.48399274609982967376708984375">
        <ele>1.39999997615814208984375</ele>
        <time>2015-09-10T23:51:15.000Z</time>
        <extensions>
          <ns3:TrackPointExtension>
            <ns3:atemp>28.0</ns3:atemp>
          </ns3:TrackPointExtension>
        </extensions>
      </trkpt>
      <trkpt lat="31.43565670587122440338134765625" lon="119.48399375192821025848388671875">
        <ele>1.39999997615814208984375</ele>
        <time>2015-09-10T23:51:16.000Z</time>
        <extensions>
          <ns3:TrackPointExtension>
            <ns3:atemp>28.0</ns3:atemp>
          </ns3:TrackPointExtension>
        </extensions>
      </trkpt>
      <trkpt lat="31.4356349967420101165771484375" lon="119.4839926622807979583740234375">
        <ele>1.39999997615814208984375</ele>
        <time>2015-09-10T23:51:17.000Z</time>
        <extensions>
          <ns3:TrackPointExtension>
            <ns3:atemp>28.0</ns3:atemp>
          </ns3:TrackPointExtension>
        </extensions>
      </trkpt>
      <trkpt lat="31.4356125332415103912353515625" lon="119.4839953444898128509521484375">
        <ele>1.39999997615814208984375</ele>
        <time>2015-09-10T23:51:18.000Z</time>
        <extensions>
          <ns3:TrackPointExtension>
            <ns3:atemp>28.0</ns3:atemp>
          </ns3:TrackPointExtension>
        </extensions>
      </trkpt>
      <trkpt lat="31.435590572655200958251953125" lon="119.483999200165271759033203125">
        <ele>1.39999997615814208984375</ele>
        <time>2015-09-10T23:51:19.000Z</time>
        <extensions>
          <ns3:TrackPointExtension>
            <ns3:atemp>28.0</ns3:atemp>
          </ns3:TrackPointExtension>
        </extensions>
      </trkpt>
      <trkpt lat="31.4349671266973018646240234375" lon="119.48406449519097805023193359375">
        <ele>1.2000000476837158203125</ele>
        <time>2015-09-10T23:51:40.000Z</time>
        <extensions>
          <ns3:TrackPointExtension>
            <ns3:atemp>28.0</ns3:atemp>
          </ns3:TrackPointExtension>
        </extensions>
      </trkpt>
      <trkpt lat="31.4342114143073558807373046875" lon="119.4842266850173473358154296875">
        <ele>1.7999999523162841796875</ele>
        <time>2015-09-10T23:51:59.000Z</time>
        <extensions>
          <ns3:TrackPointExtension>
            <ns3:atemp>28.0</ns3:atemp>
          </ns3:TrackPointExtension>
        </extensions>
      </trkpt>
      <trkpt lat="31.43364605493843555450439453125" lon="119.4840168021619319915771484375">
        <ele>2.2000000476837158203125</ele>
        <time>2015-09-10T23:52:18.000Z</time>
        <extensions>
          <ns3:TrackPointExtension>
            <ns3:atemp>28.0</ns3:atemp>
          </ns3:TrackPointExtension>
        </extensions>
      </trkpt>
      <trkpt lat="31.43306418322026729583740234375" lon="119.4840359129011631011962890625">
        <ele>2.400000095367431640625</ele>
        <time>2015-09-10T23:52:37.000Z</time>
        <extensions>
          <ns3:TrackPointExtension>
            <ns3:atemp>28.0</ns3:atemp>
          </ns3:TrackPointExtension>
        </extensions>
      </trkpt>
      <trkpt lat="31.43268448300659656524658203125" lon="119.48457797057926654815673828125">
        <ele>3.7999999523162841796875</ele>
        <time>2015-09-10T23:52:58.000Z</time>
        <extensions>
          <ns3:TrackPointExtension>
            <ns3:atemp>28.0</ns3:atemp>
          </ns3:TrackPointExtension>
        </extensions>
      </trkpt>
      <trkpt lat="31.43255054019391536712646484375" lon="119.48475298471748828887939453125">
        <ele>4</ele>
        <time>2015-09-10T23:53:08.000Z</time>
        <extensions>
          <ns3:TrackPointExtension>
            <ns3:atemp>28.0</ns3:atemp>
          </ns3:TrackPointExtension>
        </extensions>
      </trkpt>
      <trkpt lat="31.432536207139492034912109375" lon="119.48474477045238018035888671875">
        <ele>4</ele>
        <time>2015-09-10T23:53:09.000Z</time>
        <extensions>
          <ns3:TrackPointExtension>
            <ns3:atemp>28.0</ns3:atemp>
          </ns3:TrackPointExtension>
        </extensions>
      </trkpt>
      <trkpt lat="31.43252380192279815673828125" lon="119.484735466539859771728515625">
        <ele>4.19999980926513671875</ele>
        <time>2015-09-10T23:53:10.000Z</time>
        <extensions>
          <ns3:TrackPointExtension>
            <ns3:atemp>28.0</ns3:atemp>
          </ns3:TrackPointExtension>
        </extensions>
      </trkpt>
      <trkpt lat="31.4325125701725482940673828125" lon="119.4847242347896099090576171875">
        <ele>4.19999980926513671875</ele>
        <time>2015-09-10T23:53:11.000Z</time>
        <extensions>
          <ns3:TrackPointExtension>
            <ns3:atemp>28.0</ns3:atemp>
          </ns3:TrackPointExtension>
        </extensions>
      </trkpt>
      <trkpt lat="31.4325003325939178466796875" lon="119.4847096502780914306640625">
        <ele>4.19999980926513671875</ele>
        <time>2015-09-10T23:53:12.000Z</time>
        <extensions>
          <ns3:TrackPointExtension>
            <ns3:atemp>28.0</ns3:atemp>
          </ns3:TrackPointExtension>
        </extensions>
      </trkpt>
      <trkpt lat="31.43248449079692363739013671875" lon="119.48469347320497035980224609375">
        <ele>4.19999980926513671875</ele>
        <time>2015-09-10T23:53:13.000Z</time>
        <extensions>
          <ns3:TrackPointExtension>
            <ns3:atemp>28.0</ns3:atemp>
          </ns3:TrackPointExtension>
        </extensions>
      </trkpt>
      <trkpt lat="31.43246739171445369720458984375" lon="119.48467453010380268096923828125">
        <ele>4.19999980926513671875</ele>
        <time>2015-09-10T23:53:14.000Z</time>
        <extensions>
          <ns3:TrackPointExtension>
            <ns3:atemp>28.0</ns3:atemp>
          </ns3:TrackPointExtension>
        </extensions>
      </trkpt>
      <trkpt lat="31.4324495382606983184814453125" lon="119.48465290479362010955810546875">
        <ele>4.19999980926513671875</ele>
        <time>2015-09-10T23:53:15.000Z</time>
        <extensions>
          <ns3:TrackPointExtension>
            <ns3:atemp>28.0</ns3:atemp>
          </ns3:TrackPointExtension>
        </extensions>
      </trkpt>
      <trkpt lat="31.43194042146205902099609375" lon="119.48455818928778171539306640625">
        <ele>3.400000095367431640625</ele>
        <time>2015-09-10T23:53:35.000Z</time>
        <extensions>
          <ns3:TrackPointExtension>
            <ns3:atemp>28.0</ns3:atemp>
          </ns3:TrackPointExtension>
        </extensions>
      </trkpt>
      <trkpt lat="31.43144094385206699371337890625" lon="119.484944008290767669677734375">
        <ele>4</ele>
        <time>2015-09-10T23:53:55.000Z</time>
        <extensions>
          <ns3:TrackPointExtension>
            <ns3:atemp>28.0</ns3:atemp>
          </ns3:TrackPointExtension>
        </extensions>
      </trkpt>
      <trkpt lat="31.430932581424713134765625" lon="119.485190771520137786865234375">
        <ele>3.599999904632568359375</ele>
        <time>2015-09-10T23:54:12.000Z</time>
        <extensions>
          <ns3:TrackPointExtension>
            <ns3:atemp>28.0</ns3:atemp>
          </ns3:TrackPointExtension>
        </extensions>
      </trkpt>
      <trkpt lat="31.43042271025478839874267578125" lon="119.48542219586670398712158203125">
        <ele>3.2000000476837158203125</ele>
        <time>2015-09-10T23:54:36.000Z</time>
        <extensions>
          <ns3:TrackPointExtension>
            <ns3:atemp>28.0</ns3:atemp>
          </ns3:TrackPointExtension>
        </extensions>
      </trkpt>
      <trkpt lat="31.4304137416183948516845703125" lon="119.48541649617254734039306640625">
        <ele>3.2000000476837158203125</ele>
        <time>2015-09-10T23:54:37.000Z</time>
        <extensions>
          <ns3:TrackPointExtension>
            <ns3:atemp>28.0</ns3:atemp>
          </ns3:TrackPointExtension>
        </extensions>
      </trkpt>
      <trkpt lat="31.4303974807262420654296875" lon="119.48543250560760498046875">
        <ele>3.2000000476837158203125</ele>
        <time>2015-09-10T23:54:38.000Z</time>
        <extensions>
          <ns3:TrackPointExtension>
            <ns3:atemp>28.0</ns3:atemp>
          </ns3:TrackPointExtension>
        </extensions>
      </trkpt>
      <trkpt lat="31.43037694506347179412841796875" lon="119.48544524610042572021484375">
        <ele>3.2000000476837158203125</ele>
        <time>2015-09-10T23:54:39.000Z</time>
        <extensions>
          <ns3:TrackPointExtension>
            <ns3:atemp>28.0</ns3:atemp>
          </ns3:TrackPointExtension>
        </extensions>
      </trkpt>
      <trkpt lat="31.430329419672489166259765625" lon="119.48549008928239345550537109375">
        <ele>3</ele>
        <time>2015-09-10T23:54:47.000Z</time>
        <extensions>
          <ns3:TrackPointExtension>
            <ns3:atemp>28.0</ns3:atemp>
          </ns3:TrackPointExtension>
        </extensions>
      </trkpt>
      <trkpt lat="31.43030402250587940216064453125" lon="119.48549176566302776336669921875">
        <ele>3</ele>
        <time>2015-09-10T23:54:48.000Z</time>
        <extensions>
          <ns3:TrackPointExtension>
            <ns3:atemp>28.0</ns3:atemp>
          </ns3:TrackPointExtension>
        </extensions>
      </trkpt>
      <trkpt lat="31.42974612303078174591064453125" lon="119.4856278039515018463134765625">
        <ele>3.2000000476837158203125</ele>
        <time>2015-09-10T23:55:04.000Z</time>
        <extensions>
          <ns3:TrackPointExtension>
            <ns3:atemp>28.0</ns3:atemp>
          </ns3:TrackPointExtension>
        </extensions>
      </trkpt>
      <trkpt lat="31.4296452887356281280517578125" lon="119.48563995771110057830810546875">
        <ele>3.2000000476837158203125</ele>
        <time>2015-09-10T23:55:06.000Z</time>
        <extensions>
          <ns3:TrackPointExtension>
            <ns3:atemp>28.0</ns3:atemp>
          </ns3:TrackPointExtension>
        </extensions>
      </trkpt>
      <trkpt lat="31.42900700680911540985107421875" lon="119.48575613088905811309814453125">
        <ele>2.599999904632568359375</ele>
        <time>2015-09-10T23:55:24.000Z</time>
        <extensions>
          <ns3:TrackPointExtension>
            <ns3:atemp>28.0</ns3:atemp>
          </ns3:TrackPointExtension>
        </extensions>
      </trkpt>
      <trkpt lat="31.4283853210508823394775390625" lon="119.4859154708683490753173828125">
        <ele>2</ele>
        <time>2015-09-10T23:55:43.000Z</time>
        <extensions>
          <ns3:TrackPointExtension>
            <ns3:atemp>28.0</ns3:atemp>
          </ns3:TrackPointExtension>
        </extensions>
      </trkpt>
      <trkpt lat="31.42760236747562885284423828125" lon="119.4860043190419673919677734375">
        <ele>4</ele>
        <time>2015-09-10T23:56:03.000Z</time>
        <extensions>
          <ns3:TrackPointExtension>
            <ns3:atemp>28.0</ns3:atemp>
          </ns3:TrackPointExtension>
        </extensions>
      </trkpt>
      <trkpt lat="31.4270090125501155853271484375" lon="119.48603156022727489471435546875">
        <ele>3.599999904632568359375</ele>
        <time>2015-09-10T23:56:24.000Z</time>
        <extensions>
          <ns3:TrackPointExtension>
            <ns3:atemp>28.0</ns3:atemp>
          </ns3:TrackPointExtension>
        </extensions>
      </trkpt>
      <trkpt lat="31.4269000478088855743408203125" lon="119.48593885637819766998291015625">
        <ele>3.599999904632568359375</ele>
        <time>2015-09-10T23:56:37.000Z</time>
        <extensions>
          <ns3:TrackPointExtension>
            <ns3:atemp>28.0</ns3:atemp>
          </ns3:TrackPointExtension>
        </extensions>
      </trkpt>
      <trkpt lat="31.42688655294477939605712890625" lon="119.48594455607235431671142578125">
        <ele>3.599999904632568359375</ele>
        <time>2015-09-10T23:56:38.000Z</time>
        <extensions>
          <ns3:TrackPointExtension>
            <ns3:atemp>28.0</ns3:atemp>
          </ns3:TrackPointExtension>
        </extensions>
      </trkpt>
      <trkpt lat="31.426872722804546356201171875" lon="119.4859500043094158172607421875">
        <ele>3.599999904632568359375</ele>
        <time>2015-09-10T23:56:39.000Z</time>
        <extensions>
          <ns3:TrackPointExtension>
            <ns3:atemp>28.0</ns3:atemp>
          </ns3:TrackPointExtension>
        </extensions>
      </trkpt>
      <trkpt lat="31.42629713751375675201416015625" lon="119.4860720448195934295654296875">
        <ele>3.599999904632568359375</ele>
        <time>2015-09-10T23:57:03.000Z</time>
        <extensions>
          <ns3:TrackPointExtension>
            <ns3:atemp>28.0</ns3:atemp>
          </ns3:TrackPointExtension>
        </extensions>
      </trkpt>
      <trkpt lat="31.425634883344173431396484375" lon="119.4861997850239276885986328125">
        <ele>3.7999999523162841796875</ele>
        <time>2015-09-10T23:57:22.000Z</time>
        <extensions>
          <ns3:TrackPointExtension>
            <ns3:atemp>28.0</ns3:atemp>
          </ns3:TrackPointExtension>
        </extensions>
      </trkpt>
      <trkpt lat="31.42501822672784328460693359375" lon="119.48629123158752918243408203125">
        <ele>3.400000095367431640625</ele>
        <time>2015-09-10T23:57:44.000Z</time>
        <extensions>
          <ns3:TrackPointExtension>
            <ns3:atemp>28.0</ns3:atemp>
          </ns3:TrackPointExtension>
        </extensions>
      </trkpt>
      <trkpt lat="31.4244210161268711090087890625" lon="119.4862882979214191436767578125">
        <ele>3.400000095367431640625</ele>
        <time>2015-09-10T23:57:59.000Z</time>
        <extensions>
          <ns3:TrackPointExtension>
            <ns3:atemp>28.0</ns3:atemp>
          </ns3:TrackPointExtension>
        </extensions>
      </trkpt>
      <trkpt lat="31.4238490350544452667236328125" lon="119.48631562292575836181640625">
        <ele>2.400000095367431640625</ele>
        <time>2015-09-10T23:58:14.000Z</time>
        <extensions>
          <ns3:TrackPointExtension>
            <ns3:atemp>28.0</ns3:atemp>
          </ns3:TrackPointExtension>
        </extensions>
      </trkpt>
      <trkpt lat="31.42325568012893199920654296875" lon="119.48634705506265163421630859375">
        <ele>2.400000095367431640625</ele>
        <time>2015-09-10T23:58:30.000Z</time>
        <extensions>
          <ns3:TrackPointExtension>
            <ns3:atemp>28.0</ns3:atemp>
          </ns3:TrackPointExtension>
        </extensions>
      </trkpt>
      <trkpt lat="31.42265285365283489227294921875" lon="119.48638443835079669952392578125">
        <ele>2.599999904632568359375</ele>
        <time>2015-09-10T23:58:46.000Z</time>
        <extensions>
          <ns3:TrackPointExtension>
            <ns3:atemp>28.0</ns3:atemp>
          </ns3:TrackPointExtension>
        </extensions>
      </trkpt>
      <trkpt lat="31.4220603369176387786865234375" lon="119.48640145361423492431640625">
        <ele>2.2000000476837158203125</ele>
        <time>2015-09-10T23:59:02.000Z</time>
        <extensions>
          <ns3:TrackPointExtension>
            <ns3:atemp>28.0</ns3:atemp>
          </ns3:TrackPointExtension>
        </extensions>
      </trkpt>
      <trkpt lat="31.42147921957075595855712890625" lon="119.48641880415380001068115234375">
        <ele>2.400000095367431640625</ele>
        <time>2015-09-10T23:59:17.000Z</time>
        <extensions>
          <ns3:TrackPointExtension>
            <ns3:atemp>28.0</ns3:atemp>
          </ns3:TrackPointExtension>
        </extensions>
      </trkpt>
      <trkpt lat="31.4209364913403987884521484375" lon="119.4864262640476226806640625">
        <ele>2.599999904632568359375</ele>
        <time>2015-09-10T23:59:34.000Z</time>
        <extensions>
          <ns3:TrackPointExtension>
            <ns3:atemp>28.0</ns3:atemp>
          </ns3:TrackPointExtension>
        </extensions>
      </trkpt>
      <trkpt lat="31.420888043940067291259765625" lon="119.4864328019320964813232421875">
        <ele>2.7999999523162841796875</ele>
        <time>2015-09-10T23:59:37.000Z</time>
        <extensions>
          <ns3:TrackPointExtension>
            <ns3:atemp>28.0</ns3:atemp>
          </ns3:TrackPointExtension>
        </extensions>
      </trkpt>
      <trkpt lat="31.42087957821786403656005859375" lon="119.4864341430366039276123046875">
        <ele>3</ele>
        <time>2015-09-10T23:59:45.000Z</time>
        <extensions>
          <ns3:TrackPointExtension>
            <ns3:atemp>28.0</ns3:atemp>
          </ns3:TrackPointExtension>
        </extensions>
      </trkpt>
      <trkpt lat="31.4208292029798030853271484375" lon="119.48642366565763950347900390625">
        <ele>3.2000000476837158203125</ele>
        <time>2015-09-10T23:59:48.000Z</time>
        <extensions>
          <ns3:TrackPointExtension>
            <ns3:atemp>28.0</ns3:atemp>
          </ns3:TrackPointExtension>
        </extensions>
      </trkpt>
      <trkpt lat="31.420259736478328704833984375" lon="119.48644881136715412139892578125">
        <ele>2.599999904632568359375</ele>
        <time>2015-09-11T00:00:06.000Z</time>
        <extensions>
          <ns3:TrackPointExtension>
            <ns3:atemp>28.0</ns3:atemp>
          </ns3:TrackPointExtension>
        </extensions>
      </trkpt>
      <trkpt lat="31.419681049883365631103515625" lon="119.48644914664328098297119140625">
        <ele>3</ele>
        <time>2015-09-11T00:00:23.000Z</time>
        <extensions>
          <ns3:TrackPointExtension>
            <ns3:atemp>28.0</ns3:atemp>
          </ns3:TrackPointExtension>
        </extensions>
      </trkpt>
      <trkpt lat="31.4190931431949138641357421875" lon="119.48648988269269466400146484375">
        <ele>3.2000000476837158203125</ele>
        <time>2015-09-11T00:00:41.000Z</time>
        <extensions>
          <ns3:TrackPointExtension>
            <ns3:atemp>28.0</ns3:atemp>
          </ns3:TrackPointExtension>
        </extensions>
      </trkpt>
      <trkpt lat="31.418480090796947479248046875" lon="119.486520476639270782470703125">
        <ele>3.2000000476837158203125</ele>
        <time>2015-09-11T00:00:57.000Z</time>
        <extensions>
          <ns3:TrackPointExtension>
            <ns3:atemp>28.0</ns3:atemp>
          </ns3:TrackPointExtension>
        </extensions>
      </trkpt>
      <trkpt lat="31.4178998954594135284423828125" lon="119.48657286353409290313720703125">
        <ele>3.2000000476837158203125</ele>
        <time>2015-09-11T00:01:13.000Z</time>
        <extensions>
          <ns3:TrackPointExtension>
            <ns3:atemp>28.0</ns3:atemp>
          </ns3:TrackPointExtension>
        </extensions>
      </trkpt>
      <trkpt lat="31.4173215441405773162841796875" lon="119.48657638393342494964599609375">
        <ele>2.7999999523162841796875</ele>
        <time>2015-09-11T00:01:28.000Z</time>
        <extensions>
          <ns3:TrackPointExtension>
            <ns3:atemp>28.0</ns3:atemp>
          </ns3:TrackPointExtension>
        </extensions>
      </trkpt>
      <trkpt lat="31.41694343648850917816162109375" lon="119.48660186491906642913818359375">
        <ele>2.7999999523162841796875</ele>
        <time>2015-09-11T00:01:37.000Z</time>
        <extensions>
          <ns3:TrackPointExtension>
            <ns3:atemp>28.0</ns3:atemp>
          </ns3:TrackPointExtension>
        </extensions>
      </trkpt>
      <trkpt lat="31.41637547872960567474365234375" lon="119.4866249151527881622314453125">
        <ele>2.599999904632568359375</ele>
        <time>2015-09-11T00:01:52.000Z</time>
        <extensions>
          <ns3:TrackPointExtension>
            <ns3:atemp>28.0</ns3:atemp>
          </ns3:TrackPointExtension>
        </extensions>
      </trkpt>
      <trkpt lat="31.41577265225350856781005859375" lon="119.48660639114677906036376953125">
        <ele>3.2000000476837158203125</ele>
        <time>2015-09-11T00:02:07.000Z</time>
        <extensions>
          <ns3:TrackPointExtension>
            <ns3:atemp>28.0</ns3:atemp>
          </ns3:TrackPointExtension>
        </extensions>
      </trkpt>
      <trkpt lat="31.4151901938021183013916015625" lon="119.48665064759552478790283203125">
        <ele>2.7999999523162841796875</ele>
        <time>2015-09-11T00:02:23.000Z</time>
        <extensions>
          <ns3:TrackPointExtension>
            <ns3:atemp>28.0</ns3:atemp>
          </ns3:TrackPointExtension>
        </extensions>
      </trkpt>
      <trkpt lat="31.4147885330021381378173828125" lon="119.48666372336447238922119140625">
        <ele>2.7999999523162841796875</ele>
        <time>2015-09-11T00:02:33.000Z</time>
        <extensions>
          <ns3:TrackPointExtension>
            <ns3:atemp>28.0</ns3:atemp>
          </ns3:TrackPointExtension>
        </extensions>
      </trkpt>
      <trkpt lat="31.41417958773672580718994140625" lon="119.48668099008500576019287109375">
        <ele>2.7999999523162841796875</ele>
        <time>2015-09-11T00:02:48.000Z</time>
        <extensions>
          <ns3:TrackPointExtension>
            <ns3:atemp>28.0</ns3:atemp>
          </ns3:TrackPointExtension>
        </extensions>
      </trkpt>
      <trkpt lat="31.41362688504159450531005859375" lon="119.48670077137649059295654296875">
        <ele>2.7999999523162841796875</ele>
        <time>2015-09-11T00:03:03.000Z</time>
        <extensions>
          <ns3:TrackPointExtension>
            <ns3:atemp>28.0</ns3:atemp>
          </ns3:TrackPointExtension>
        </extensions>
      </trkpt>
      <trkpt lat="31.413039229810237884521484375" lon="119.48677738197147846221923828125">
        <ele>3.400000095367431640625</ele>
        <time>2015-09-11T00:03:19.000Z</time>
        <extensions>
          <ns3:TrackPointExtension>
            <ns3:atemp>28.0</ns3:atemp>
          </ns3:TrackPointExtension>
        </extensions>
      </trkpt>
      <trkpt lat="31.412441097199916839599609375" lon="119.48681023903191089630126953125">
        <ele>2.7999999523162841796875</ele>
        <time>2015-09-11T00:03:36.000Z</time>
        <extensions>
          <ns3:TrackPointExtension>
            <ns3:atemp>28.0</ns3:atemp>
          </ns3:TrackPointExtension>
        </extensions>
      </trkpt>
      <trkpt lat="31.4123141951858997344970703125" lon="119.48684192262589931488037109375">
        <ele>3.2000000476837158203125</ele>
        <time>2015-09-11T00:03:42.000Z</time>
        <extensions>
          <ns3:TrackPointExtension>
            <ns3:atemp>28.0</ns3:atemp>
          </ns3:TrackPointExtension>
        </extensions>
      </trkpt>
      <trkpt lat="31.4123078249394893646240234375" lon="119.486863128840923309326171875">
        <ele>3.2000000476837158203125</ele>
        <time>2015-09-11T00:03:43.000Z</time>
        <extensions>
          <ns3:TrackPointExtension>
            <ns3:atemp>28.0</ns3:atemp>
          </ns3:TrackPointExtension>
        </extensions>
      </trkpt>
      <trkpt lat="31.41230505891144275665283203125" lon="119.486884586513042449951171875">
        <ele>3</ele>
        <time>2015-09-11T00:03:44.000Z</time>
        <extensions>
          <ns3:TrackPointExtension>
            <ns3:atemp>28.0</ns3:atemp>
          </ns3:TrackPointExtension>
        </extensions>
      </trkpt>
      <trkpt lat="31.41230405308306217193603515625" lon="119.48690964840352535247802734375">
        <ele>3</ele>
        <time>2015-09-11T00:03:45.000Z</time>
        <extensions>
          <ns3:TrackPointExtension>
            <ns3:atemp>28.0</ns3:atemp>
          </ns3:TrackPointExtension>
        </extensions>
      </trkpt>
      <trkpt lat="31.4123064838349819183349609375" lon="119.48693512938916683197021484375">
        <ele>3</ele>
        <time>2015-09-11T00:03:46.000Z</time>
        <extensions>
          <ns3:TrackPointExtension>
            <ns3:atemp>28.0</ns3:atemp>
          </ns3:TrackPointExtension>
        </extensions>
      </trkpt>
      <trkpt lat="31.412312351167201995849609375" lon="119.486961700022220611572265625">
        <ele>3</ele>
        <time>2015-09-11T00:03:47.000Z</time>
        <extensions>
          <ns3:TrackPointExtension>
            <ns3:atemp>28.0</ns3:atemp>
          </ns3:TrackPointExtension>
        </extensions>
      </trkpt>
      <trkpt lat="31.4123165421187877655029296875" lon="119.4869890250265598297119140625">
        <ele>3.2000000476837158203125</ele>
        <time>2015-09-11T00:03:48.000Z</time>
        <extensions>
          <ns3:TrackPointExtension>
            <ns3:atemp>28.0</ns3:atemp>
          </ns3:TrackPointExtension>
        </extensions>
      </trkpt>
      <trkpt lat="31.41232115216553211212158203125" lon="119.48701710440218448638916015625">
        <ele>3.2000000476837158203125</ele>
        <time>2015-09-11T00:03:49.000Z</time>
        <extensions>
          <ns3:TrackPointExtension>
            <ns3:atemp>28.0</ns3:atemp>
          </ns3:TrackPointExtension>
        </extensions>
      </trkpt>
      <trkpt lat="31.41232551075518131256103515625" lon="119.487044513225555419921875">
        <ele>3</ele>
        <time>2015-09-11T00:03:50.000Z</time>
        <extensions>
          <ns3:TrackPointExtension>
            <ns3:atemp>28.0</ns3:atemp>
          </ns3:TrackPointExtension>
        </extensions>
      </trkpt>
      <trkpt lat="31.4123249240219593048095703125" lon="119.48706957511603832244873046875">
        <ele>2.7999999523162841796875</ele>
        <time>2015-09-11T00:03:51.000Z</time>
        <extensions>
          <ns3:TrackPointExtension>
            <ns3:atemp>28.0</ns3:atemp>
          </ns3:TrackPointExtension>
        </extensions>
      </trkpt>
      <trkpt lat="31.412319056689739227294921875" lon="119.48709237389266490936279296875">
        <ele>2.7999999523162841796875</ele>
        <time>2015-09-11T00:03:52.000Z</time>
        <extensions>
          <ns3:TrackPointExtension>
            <ns3:atemp>28.0</ns3:atemp>
          </ns3:TrackPointExtension>
        </extensions>
      </trkpt>
      <trkpt lat="31.4123006165027618408203125" lon="119.48711165226995944976806640625">
        <ele>2.7999999523162841796875</ele>
        <time>2015-09-11T00:03:53.000Z</time>
        <extensions>
          <ns3:TrackPointExtension>
            <ns3:atemp>28.0</ns3:atemp>
          </ns3:TrackPointExtension>
        </extensions>
      </trkpt>
      <trkpt lat="31.4122791588306427001953125" lon="119.48711751960217952728271484375">
        <ele>2.7999999523162841796875</ele>
        <time>2015-09-11T00:03:54.000Z</time>
        <extensions>
          <ns3:TrackPointExtension>
            <ns3:atemp>28.0</ns3:atemp>
          </ns3:TrackPointExtension>
        </extensions>
      </trkpt>
      <trkpt lat="31.41225392930209636688232421875" lon="119.48711819015443325042724609375">
        <ele>3</ele>
        <time>2015-09-11T00:03:55.000Z</time>
        <extensions>
          <ns3:TrackPointExtension>
            <ns3:atemp>28.0</ns3:atemp>
          </ns3:TrackPointExtension>
        </extensions>
      </trkpt>
      <trkpt lat="31.412226855754852294921875" lon="119.4871174357831478118896484375">
        <ele>3</ele>
        <time>2015-09-11T00:03:56.000Z</time>
        <extensions>
          <ns3:TrackPointExtension>
            <ns3:atemp>28.0</ns3:atemp>
          </ns3:TrackPointExtension>
        </extensions>
      </trkpt>
      <trkpt lat="31.41220011748373508453369140625" lon="119.4871181063354015350341796875">
        <ele>3.2000000476837158203125</ele>
        <time>2015-09-11T00:03:57.000Z</time>
        <extensions>
          <ns3:TrackPointExtension>
            <ns3:atemp>28.0</ns3:atemp>
          </ns3:TrackPointExtension>
        </extensions>
      </trkpt>
      <trkpt lat="31.41165445558726787567138671875" lon="119.4871130771934986114501953125">
        <ele>2.599999904632568359375</ele>
        <time>2015-09-11T00:04:14.000Z</time>
        <extensions>
          <ns3:TrackPointExtension>
            <ns3:atemp>28.0</ns3:atemp>
          </ns3:TrackPointExtension>
        </extensions>
      </trkpt>
      <trkpt lat="31.411085240542888641357421875" lon="119.4871345348656177520751953125">
        <ele>2.599999904632568359375</ele>
        <time>2015-09-11T00:04:30.000Z</time>
        <extensions>
          <ns3:TrackPointExtension>
            <ns3:atemp>28.0</ns3:atemp>
          </ns3:TrackPointExtension>
        </extensions>
      </trkpt>
      <trkpt lat="31.4104855991899967193603515625" lon="119.48715842328965663909912109375">
        <ele>2.599999904632568359375</ele>
        <time>2015-09-11T00:04:46.000Z</time>
        <extensions>
          <ns3:TrackPointExtension>
            <ns3:atemp>28.0</ns3:atemp>
          </ns3:TrackPointExtension>
        </extensions>
      </trkpt>
      <trkpt lat="31.40990481711924076080322265625" lon="119.48719161562621593475341796875">
        <ele>2.400000095367431640625</ele>
        <time>2015-09-11T00:05:03.000Z</time>
        <extensions>
          <ns3:TrackPointExtension>
            <ns3:atemp>28.0</ns3:atemp>
          </ns3:TrackPointExtension>
        </extensions>
      </trkpt>
      <trkpt lat="31.40955277718603610992431640625" lon="119.487300999462604522705078125">
        <ele>2.400000095367431640625</ele>
        <time>2015-09-11T00:05:15.000Z</time>
        <extensions>
          <ns3:TrackPointExtension>
            <ns3:atemp>28.0</ns3:atemp>
          </ns3:TrackPointExtension>
        </extensions>
      </trkpt>
      <trkpt lat="31.4095474965870380401611328125" lon="119.4873306713998317718505859375">
        <ele>2.599999904632568359375</ele>
        <time>2015-09-11T00:05:16.000Z</time>
        <extensions>
          <ns3:TrackPointExtension>
            <ns3:atemp>28.0</ns3:atemp>
          </ns3:TrackPointExtension>
        </extensions>
      </trkpt>
      <trkpt lat="31.40954724512994289398193359375" lon="119.4873548112809658050537109375">
        <ele>2.599999904632568359375</ele>
        <time>2015-09-11T00:05:17.000Z</time>
        <extensions>
          <ns3:TrackPointExtension>
            <ns3:atemp>28.0</ns3:atemp>
          </ns3:TrackPointExtension>
        </extensions>
      </trkpt>
      <trkpt lat="31.4095471613109111785888671875" lon="119.48737434111535549163818359375">
        <ele>2.599999904632568359375</ele>
        <time>2015-09-11T00:05:18.000Z</time>
        <extensions>
          <ns3:TrackPointExtension>
            <ns3:atemp>28.0</ns3:atemp>
          </ns3:TrackPointExtension>
        </extensions>
      </trkpt>
      <trkpt lat="31.409549005329608917236328125" lon="119.4873863272368907928466796875">
        <ele>2.7999999523162841796875</ele>
        <time>2015-09-11T00:05:19.000Z</time>
        <extensions>
          <ns3:TrackPointExtension>
            <ns3:atemp>28.0</ns3:atemp>
          </ns3:TrackPointExtension>
        </extensions>
      </trkpt>
      <trkpt lat="31.40955545939505100250244140625" lon="119.4873983971774578094482421875">
        <ele>3</ele>
        <time>2015-09-11T00:05:23.000Z</time>
        <extensions>
          <ns3:TrackPointExtension>
            <ns3:atemp>28.0</ns3:atemp>
          </ns3:TrackPointExtension>
        </extensions>
      </trkpt>
    </trkseg>
  </trk>
</gpx>
