<gpx xmlns:ns3="http://www.garmin.com/xmlschemas/TrackPointExtension/v1" xmlns="http://www.topografix.com/GPX/1/1" xmlns:xsi="http://www.w3.org/2001/XMLSchema-instance" xmlns:ns2="http://www.garmin.com/xmlschemas/GpxExtensions/v3" creator="Garmin Connect" version="1.1" xsi:schemaLocation="http://www.topografix.com/GPX/1/1 http://www.topografix.com/GPX/11.xsd">
  <extensions>
<distance>21130.0</distance>
<average_hr>143.0</average_hr>
<average_speed>2.7667932434201914</average_speed>
<start_time>2016-05-07T20:40:00+00:00</start_time>
<end_time>2016-05-07T22:47:17+00:00</end_time>
<moving_time></moving_time>
<elapsed_time>7637.0</elapsed_time>
</extensions>
<metadata>
    <link href="connect.garmin.com">
      <text>Garmin Connect</text>
    </link>
    <time>2016-05-07T20:40:00.000Z</time>
  </metadata>
  <trk>
    <name>半马</name>
    <desc>跑完后，保存数据时手表自动重启，数据丢失。</desc>
    <type>running</type>
    <trkseg/>
  </trk>
</gpx>
