<gpx xmlns:ns3="http://www.garmin.com/xmlschemas/TrackPointExtension/v1" xmlns="http://www.topografix.com/GPX/1/1" xmlns:xsi="http://www.w3.org/2001/XMLSchema-instance" xmlns:ns2="http://www.garmin.com/xmlschemas/GpxExtensions/v3" creator="Garmin Connect" version="1.1" xsi:schemaLocation="http://www.topografix.com/GPX/1/1 http://www.topografix.com/GPX/11.xsd">
  <extensions>
<distance>3196.43</distance>
<average_hr></average_hr>
<average_speed>3.485747001090512</average_speed>
<start_time>2015-09-15T09:02:30+00:00</start_time>
<end_time>2015-09-15T09:17:47+00:00</end_time>
<moving_time>896.0</moving_time>
<elapsed_time>1011.0</elapsed_time>
</extensions>
<metadata>
    <link href="connect.garmin.com">
      <text>Garmin Connect</text>
    </link>
    <time>2015-09-15T09:02:30.000Z</time>
  </metadata>
  <trk>
    <name>公交车</name>
    <type>cycling</type>
    <trkseg>
      <trkpt lat="31.41183190047740936279296875" lon="119.48700251989066600799560546875">
        <ele>7.599999904632568359375</ele>
        <time>2015-09-15T09:02:30.000Z</time>
        <extensions>
          <ns3:TrackPointExtension>
            <ns3:atemp>25.0</ns3:atemp>
          </ns3:TrackPointExtension>
        </extensions>
      </trkpt>
      <trkpt lat="31.41185930930078029632568359375" lon="119.487003274261951446533203125">
        <ele>7.599999904632568359375</ele>
        <time>2015-09-15T09:02:32.000Z</time>
        <extensions>
          <ns3:TrackPointExtension>
            <ns3:atemp>25.0</ns3:atemp>
          </ns3:TrackPointExtension>
        </extensions>
      </trkpt>
      <trkpt lat="31.4118629135191440582275390625" lon="119.48699866421520709991455078125">
        <ele>7.599999904632568359375</ele>
        <time>2015-09-15T09:02:33.000Z</time>
        <extensions>
          <ns3:TrackPointExtension>
            <ns3:atemp>25.0</ns3:atemp>
          </ns3:TrackPointExtension>
        </extensions>
      </trkpt>
      <trkpt lat="31.41174875199794769287109375" lon="119.48698692955076694488525390625">
        <ele>7.599999904632568359375</ele>
        <time>2015-09-15T09:02:38.000Z</time>
        <extensions>
          <ns3:TrackPointExtension>
            <ns3:atemp>25.0</ns3:atemp>
          </ns3:TrackPointExtension>
        </extensions>
      </trkpt>
      <trkpt lat="31.4118293859064579010009765625" lon="119.48704509995877742767333984375">
        <ele>7.599999904632568359375</ele>
        <time>2015-09-15T09:02:39.000Z</time>
        <extensions>
          <ns3:TrackPointExtension>
            <ns3:atemp>25.0</ns3:atemp>
          </ns3:TrackPointExtension>
        </extensions>
      </trkpt>
      <trkpt lat="31.41182385385036468505859375" lon="119.48695398867130279541015625">
        <ele>7.599999904632568359375</ele>
        <time>2015-09-15T09:02:40.000Z</time>
        <extensions>
          <ns3:TrackPointExtension>
            <ns3:atemp>25.0</ns3:atemp>
          </ns3:TrackPointExtension>
        </extensions>
      </trkpt>
      <trkpt lat="31.4118689484894275665283203125" lon="119.487020038068294525146484375">
        <ele>7.80000019073486328125</ele>
        <time>2015-09-15T09:02:41.000Z</time>
        <extensions>
          <ns3:TrackPointExtension>
            <ns3:atemp>25.0</ns3:atemp>
          </ns3:TrackPointExtension>
        </extensions>
      </trkpt>
      <trkpt lat="31.4118991233408451080322265625" lon="119.4870503805577754974365234375">
        <ele>7.80000019073486328125</ele>
        <time>2015-09-15T09:02:42.000Z</time>
        <extensions>
          <ns3:TrackPointExtension>
            <ns3:atemp>25.0</ns3:atemp>
          </ns3:TrackPointExtension>
        </extensions>
      </trkpt>
      <trkpt lat="31.4120080880820751190185546875" lon="119.4870483689010143280029296875">
        <ele>8.19999980926513671875</ele>
        <time>2015-09-15T09:02:44.000Z</time>
        <extensions>
          <ns3:TrackPointExtension>
            <ns3:atemp>25.0</ns3:atemp>
          </ns3:TrackPointExtension>
        </extensions>
      </trkpt>
      <trkpt lat="31.41205041669309139251708984375" lon="119.48703135363757610321044921875">
        <ele>8.3999996185302734375</ele>
        <time>2015-09-15T09:02:45.000Z</time>
        <extensions>
          <ns3:TrackPointExtension>
            <ns3:atemp>25.0</ns3:atemp>
          </ns3:TrackPointExtension>
        </extensions>
      </trkpt>
      <trkpt lat="31.4127029478549957275390625" lon="119.48696815408766269683837890625">
        <ele>9.80000019073486328125</ele>
        <time>2015-09-15T09:02:54.000Z</time>
        <extensions>
          <ns3:TrackPointExtension>
            <ns3:atemp>26.0</ns3:atemp>
          </ns3:TrackPointExtension>
        </extensions>
      </trkpt>
      <trkpt lat="31.41305943019688129425048828125" lon="119.4869866780936717987060546875">
        <ele>8</ele>
        <time>2015-09-15T09:03:08.000Z</time>
        <extensions>
          <ns3:TrackPointExtension>
            <ns3:atemp>26.0</ns3:atemp>
          </ns3:TrackPointExtension>
        </extensions>
      </trkpt>
      <trkpt lat="31.413118354976177215576171875" lon="119.48698223568499088287353515625">
        <ele>8</ele>
        <time>2015-09-15T09:03:12.000Z</time>
        <extensions>
          <ns3:TrackPointExtension>
            <ns3:atemp>26.0</ns3:atemp>
          </ns3:TrackPointExtension>
        </extensions>
      </trkpt>
      <trkpt lat="31.4137314073741436004638671875" lon="119.4869337044656276702880859375">
        <ele>10.19999980926513671875</ele>
        <time>2015-09-15T09:03:22.000Z</time>
        <extensions>
          <ns3:TrackPointExtension>
            <ns3:atemp>26.0</ns3:atemp>
          </ns3:TrackPointExtension>
        </extensions>
      </trkpt>
      <trkpt lat="31.41435409896075725555419921875" lon="119.4869412481784820556640625">
        <ele>10.6000003814697265625</ele>
        <time>2015-09-15T09:03:29.000Z</time>
        <extensions>
          <ns3:TrackPointExtension>
            <ns3:atemp>26.0</ns3:atemp>
          </ns3:TrackPointExtension>
        </extensions>
      </trkpt>
      <trkpt lat="31.4149441011250019073486328125" lon="119.4869578443467617034912109375">
        <ele>9.80000019073486328125</ele>
        <time>2015-09-15T09:03:36.000Z</time>
        <extensions>
          <ns3:TrackPointExtension>
            <ns3:atemp>26.0</ns3:atemp>
          </ns3:TrackPointExtension>
        </extensions>
      </trkpt>
      <trkpt lat="31.41548699699342250823974609375" lon="119.4869492948055267333984375">
        <ele>7.80000019073486328125</ele>
        <time>2015-09-15T09:03:46.000Z</time>
        <extensions>
          <ns3:TrackPointExtension>
            <ns3:atemp>26.0</ns3:atemp>
          </ns3:TrackPointExtension>
        </extensions>
      </trkpt>
      <trkpt lat="31.41547090373933315277099609375" lon="119.48691241443157196044921875">
        <ele>8.19999980926513671875</ele>
        <time>2015-09-15T09:04:20.000Z</time>
        <extensions>
          <ns3:TrackPointExtension>
            <ns3:atemp>27.0</ns3:atemp>
          </ns3:TrackPointExtension>
        </extensions>
      </trkpt>
      <trkpt lat="31.41558162868022918701171875" lon="119.4868902862071990966796875">
        <ele>8.80000019073486328125</ele>
        <time>2015-09-15T09:04:32.000Z</time>
        <extensions>
          <ns3:TrackPointExtension>
            <ns3:atemp>27.0</ns3:atemp>
          </ns3:TrackPointExtension>
        </extensions>
      </trkpt>
      <trkpt lat="31.41564306803047657012939453125" lon="119.48688198812305927276611328125">
        <ele>9</ele>
        <time>2015-09-15T09:04:33.000Z</time>
        <extensions>
          <ns3:TrackPointExtension>
            <ns3:atemp>27.0</ns3:atemp>
          </ns3:TrackPointExtension>
        </extensions>
      </trkpt>
      <trkpt lat="31.41631814651191234588623046875" lon="119.4868740253150463104248046875">
        <ele>9.19999980926513671875</ele>
        <time>2015-09-15T09:04:44.000Z</time>
        <extensions>
          <ns3:TrackPointExtension>
            <ns3:atemp>27.0</ns3:atemp>
          </ns3:TrackPointExtension>
        </extensions>
      </trkpt>
      <trkpt lat="31.41634513624012470245361328125" lon="119.48688156902790069580078125">
        <ele>9</ele>
        <time>2015-09-15T09:04:45.000Z</time>
        <extensions>
          <ns3:TrackPointExtension>
            <ns3:atemp>27.0</ns3:atemp>
          </ns3:TrackPointExtension>
        </extensions>
      </trkpt>
      <trkpt lat="31.41638570465147495269775390625" lon="119.4868850894272327423095703125">
        <ele>8.19999980926513671875</ele>
        <time>2015-09-15T09:04:55.000Z</time>
        <extensions>
          <ns3:TrackPointExtension>
            <ns3:atemp>27.0</ns3:atemp>
          </ns3:TrackPointExtension>
        </extensions>
      </trkpt>
      <trkpt lat="31.4164880476891994476318359375" lon="119.4868897832930088043212890625">
        <ele>8.6000003814697265625</ele>
        <time>2015-09-15T09:05:06.000Z</time>
        <extensions>
          <ns3:TrackPointExtension>
            <ns3:atemp>27.0</ns3:atemp>
          </ns3:TrackPointExtension>
        </extensions>
      </trkpt>
      <trkpt lat="31.4165249280631542205810546875" lon="119.486889280378818511962890625">
        <ele>8.6000003814697265625</ele>
        <time>2015-09-15T09:05:07.000Z</time>
        <extensions>
          <ns3:TrackPointExtension>
            <ns3:atemp>27.0</ns3:atemp>
          </ns3:TrackPointExtension>
        </extensions>
      </trkpt>
      <trkpt lat="31.417193971574306488037109375" lon="119.48689724318683147430419921875">
        <ele>10.3999996185302734375</ele>
        <time>2015-09-15T09:05:18.000Z</time>
        <extensions>
          <ns3:TrackPointExtension>
            <ns3:atemp>27.0</ns3:atemp>
          </ns3:TrackPointExtension>
        </extensions>
      </trkpt>
      <trkpt lat="31.41777969896793365478515625" lon="119.48693479411303997039794921875">
        <ele>9.80000019073486328125</ele>
        <time>2015-09-15T09:05:26.000Z</time>
        <extensions>
          <ns3:TrackPointExtension>
            <ns3:atemp>27.0</ns3:atemp>
          </ns3:TrackPointExtension>
        </extensions>
      </trkpt>
      <trkpt lat="31.4181989617645740509033203125" lon="119.48682180605828762054443359375">
        <ele>8.80000019073486328125</ele>
        <time>2015-09-15T09:05:47.000Z</time>
        <extensions>
          <ns3:TrackPointExtension>
            <ns3:atemp>27.0</ns3:atemp>
          </ns3:TrackPointExtension>
        </extensions>
      </trkpt>
      <trkpt lat="31.418232657015323638916015625" lon="119.48683798313140869140625">
        <ele>8.6000003814697265625</ele>
        <time>2015-09-15T09:06:11.000Z</time>
        <extensions>
          <ns3:TrackPointExtension>
            <ns3:atemp>28.0</ns3:atemp>
          </ns3:TrackPointExtension>
        </extensions>
      </trkpt>
      <trkpt lat="31.41825788654386997222900390625" lon="119.48682767339050769805908203125">
        <ele>8.80000019073486328125</ele>
        <time>2015-09-15T09:06:12.000Z</time>
        <extensions>
          <ns3:TrackPointExtension>
            <ns3:atemp>28.0</ns3:atemp>
          </ns3:TrackPointExtension>
        </extensions>
      </trkpt>
      <trkpt lat="31.4183127880096435546875" lon="119.48683287017047405242919921875">
        <ele>9</ele>
        <time>2015-09-15T09:06:13.000Z</time>
        <extensions>
          <ns3:TrackPointExtension>
            <ns3:atemp>28.0</ns3:atemp>
          </ns3:TrackPointExtension>
        </extensions>
      </trkpt>
      <trkpt lat="31.41901292838156223297119140625" lon="119.486692138016223907470703125">
        <ele>10.19999980926513671875</ele>
        <time>2015-09-15T09:06:27.000Z</time>
        <extensions>
          <ns3:TrackPointExtension>
            <ns3:atemp>28.0</ns3:atemp>
          </ns3:TrackPointExtension>
        </extensions>
      </trkpt>
      <trkpt lat="31.4197191037237644195556640625" lon="119.486722983419895172119140625">
        <ele>11.3999996185302734375</ele>
        <time>2015-09-15T09:06:34.000Z</time>
        <extensions>
          <ns3:TrackPointExtension>
            <ns3:atemp>28.0</ns3:atemp>
          </ns3:TrackPointExtension>
        </extensions>
      </trkpt>
      <trkpt lat="31.420337520539760589599609375" lon="119.4867375679314136505126953125">
        <ele>10</ele>
        <time>2015-09-15T09:06:42.000Z</time>
        <extensions>
          <ns3:TrackPointExtension>
            <ns3:atemp>28.0</ns3:atemp>
          </ns3:TrackPointExtension>
        </extensions>
      </trkpt>
      <trkpt lat="31.4204640872776508331298828125" lon="119.48674569837749004364013671875">
        <ele>9</ele>
        <time>2015-09-15T09:06:45.000Z</time>
        <extensions>
          <ns3:TrackPointExtension>
            <ns3:atemp>28.0</ns3:atemp>
          </ns3:TrackPointExtension>
        </extensions>
      </trkpt>
      <trkpt lat="31.420444808900356292724609375" lon="119.486652575433254241943359375">
        <ele>8</ele>
        <time>2015-09-15T09:06:58.000Z</time>
        <extensions>
          <ns3:TrackPointExtension>
            <ns3:atemp>28.0</ns3:atemp>
          </ns3:TrackPointExtension>
        </extensions>
      </trkpt>
      <trkpt lat="31.42045645974576473236083984375" lon="119.4866440258920192718505859375">
        <ele>8</ele>
        <time>2015-09-15T09:06:59.000Z</time>
        <extensions>
          <ns3:TrackPointExtension>
            <ns3:atemp>28.0</ns3:atemp>
          </ns3:TrackPointExtension>
        </extensions>
      </trkpt>
      <trkpt lat="31.42109398730099201202392578125" lon="119.486604630947113037109375">
        <ele>9.3999996185302734375</ele>
        <time>2015-09-15T09:07:11.000Z</time>
        <extensions>
          <ns3:TrackPointExtension>
            <ns3:atemp>28.0</ns3:atemp>
          </ns3:TrackPointExtension>
        </extensions>
      </trkpt>
      <trkpt lat="31.4217002503573894500732421875" lon="119.4865813292562961578369140625">
        <ele>10</ele>
        <time>2015-09-15T09:07:19.000Z</time>
        <extensions>
          <ns3:TrackPointExtension>
            <ns3:atemp>28.0</ns3:atemp>
          </ns3:TrackPointExtension>
        </extensions>
      </trkpt>
      <trkpt lat="31.42230735160410404205322265625" lon="119.486515112221240997314453125">
        <ele>9.6000003814697265625</ele>
        <time>2015-09-15T09:07:28.000Z</time>
        <extensions>
          <ns3:TrackPointExtension>
            <ns3:atemp>28.0</ns3:atemp>
          </ns3:TrackPointExtension>
        </extensions>
      </trkpt>
      <trkpt lat="31.42300992272794246673583984375" lon="119.4865689240396022796630859375">
        <ele>11</ele>
        <time>2015-09-15T09:07:36.000Z</time>
        <extensions>
          <ns3:TrackPointExtension>
            <ns3:atemp>28.0</ns3:atemp>
          </ns3:TrackPointExtension>
        </extensions>
      </trkpt>
      <trkpt lat="31.4234081469476222991943359375" lon="119.48665953241288661956787109375">
        <ele>8.6000003814697265625</ele>
        <time>2015-09-15T09:07:49.000Z</time>
        <extensions>
          <ns3:TrackPointExtension>
            <ns3:atemp>28.0</ns3:atemp>
          </ns3:TrackPointExtension>
        </extensions>
      </trkpt>
      <trkpt lat="31.4233994297683238983154296875" lon="119.48660823516547679901123046875">
        <ele>8.6000003814697265625</ele>
        <time>2015-09-15T09:07:57.000Z</time>
        <extensions>
          <ns3:TrackPointExtension>
            <ns3:atemp>28.0</ns3:atemp>
          </ns3:TrackPointExtension>
        </extensions>
      </trkpt>
      <trkpt lat="31.423483751714229583740234375" lon="119.4865732826292514801025390625">
        <ele>9</ele>
        <time>2015-09-15T09:08:00.000Z</time>
        <extensions>
          <ns3:TrackPointExtension>
            <ns3:atemp>28.0</ns3:atemp>
          </ns3:TrackPointExtension>
        </extensions>
      </trkpt>
      <trkpt lat="31.42352993600070476531982421875" lon="119.48656347580254077911376953125">
        <ele>9</ele>
        <time>2015-09-15T09:08:01.000Z</time>
        <extensions>
          <ns3:TrackPointExtension>
            <ns3:atemp>28.0</ns3:atemp>
          </ns3:TrackPointExtension>
        </extensions>
      </trkpt>
      <trkpt lat="31.42411499284207820892333984375" lon="119.4864314608275890350341796875">
        <ele>9.3999996185302734375</ele>
        <time>2015-09-15T09:08:28.000Z</time>
        <extensions>
          <ns3:TrackPointExtension>
            <ns3:atemp>28.0</ns3:atemp>
          </ns3:TrackPointExtension>
        </extensions>
      </trkpt>
      <trkpt lat="31.4247244410216808319091796875" lon="119.486379660665988922119140625">
        <ele>10.19999980926513671875</ele>
        <time>2015-09-15T09:08:41.000Z</time>
        <extensions>
          <ns3:TrackPointExtension>
            <ns3:atemp>28.0</ns3:atemp>
          </ns3:TrackPointExtension>
        </extensions>
      </trkpt>
      <trkpt lat="31.42533573321998119354248046875" lon="119.48641360737383365631103515625">
        <ele>10</ele>
        <time>2015-09-15T09:08:53.000Z</time>
        <extensions>
          <ns3:TrackPointExtension>
            <ns3:atemp>29.0</ns3:atemp>
          </ns3:TrackPointExtension>
        </extensions>
      </trkpt>
      <trkpt lat="31.4260997436940670013427734375" lon="119.48641754686832427978515625">
        <ele>10.80000019073486328125</ele>
        <time>2015-09-15T09:09:07.000Z</time>
        <extensions>
          <ns3:TrackPointExtension>
            <ns3:atemp>29.0</ns3:atemp>
          </ns3:TrackPointExtension>
        </extensions>
      </trkpt>
      <trkpt lat="31.42639839090406894683837890625" lon="119.4863821752369403839111328125">
        <ele>9.6000003814697265625</ele>
        <time>2015-09-15T09:09:18.000Z</time>
        <extensions>
          <ns3:TrackPointExtension>
            <ns3:atemp>29.0</ns3:atemp>
          </ns3:TrackPointExtension>
        </extensions>
      </trkpt>
      <trkpt lat="31.42643527127802371978759765625" lon="119.48636515997350215911865234375">
        <ele>9.6000003814697265625</ele>
        <time>2015-09-15T09:09:23.000Z</time>
        <extensions>
          <ns3:TrackPointExtension>
            <ns3:atemp>29.0</ns3:atemp>
          </ns3:TrackPointExtension>
        </extensions>
      </trkpt>
      <trkpt lat="31.42700524069368839263916015625" lon="119.48620338924229145050048828125">
        <ele>10.19999980926513671875</ele>
        <time>2015-09-15T09:09:42.000Z</time>
        <extensions>
          <ns3:TrackPointExtension>
            <ns3:atemp>29.0</ns3:atemp>
          </ns3:TrackPointExtension>
        </extensions>
      </trkpt>
      <trkpt lat="31.4276909641921520233154296875" lon="119.48610280640423297882080078125">
        <ele>10.3999996185302734375</ele>
        <time>2015-09-15T09:09:52.000Z</time>
        <extensions>
          <ns3:TrackPointExtension>
            <ns3:atemp>29.0</ns3:atemp>
          </ns3:TrackPointExtension>
        </extensions>
      </trkpt>
      <trkpt lat="31.428282223641872406005859375" lon="119.48604379780590534210205078125">
        <ele>7.80000019073486328125</ele>
        <time>2015-09-15T09:10:05.000Z</time>
        <extensions>
          <ns3:TrackPointExtension>
            <ns3:atemp>29.0</ns3:atemp>
          </ns3:TrackPointExtension>
        </extensions>
      </trkpt>
      <trkpt lat="31.428549103438854217529296875" lon="119.48605100624263286590576171875">
        <ele>7.19999980926513671875</ele>
        <time>2015-09-15T09:10:24.000Z</time>
        <extensions>
          <ns3:TrackPointExtension>
            <ns3:atemp>29.0</ns3:atemp>
          </ns3:TrackPointExtension>
        </extensions>
      </trkpt>
      <trkpt lat="31.4285895042121410369873046875" lon="119.486047737300395965576171875">
        <ele>7.400000095367431640625</ele>
        <time>2015-09-15T09:10:25.000Z</time>
        <extensions>
          <ns3:TrackPointExtension>
            <ns3:atemp>29.0</ns3:atemp>
          </ns3:TrackPointExtension>
        </extensions>
      </trkpt>
      <trkpt lat="31.42876259051263332366943359375" lon="119.48604614473879337310791015625">
        <ele>8.80000019073486328125</ele>
        <time>2015-09-15T09:10:28.000Z</time>
        <extensions>
          <ns3:TrackPointExtension>
            <ns3:atemp>29.0</ns3:atemp>
          </ns3:TrackPointExtension>
        </extensions>
      </trkpt>
      <trkpt lat="31.42895369790494441986083984375" lon="119.4860264472663402557373046875">
        <ele>9.80000019073486328125</ele>
        <time>2015-09-15T09:10:31.000Z</time>
        <extensions>
          <ns3:TrackPointExtension>
            <ns3:atemp>29.0</ns3:atemp>
          </ns3:TrackPointExtension>
        </extensions>
      </trkpt>
      <trkpt lat="31.42936273477971553802490234375" lon="119.4859278760850429534912109375">
        <ele>9.6000003814697265625</ele>
        <time>2015-09-15T09:10:39.000Z</time>
        <extensions>
          <ns3:TrackPointExtension>
            <ns3:atemp>29.0</ns3:atemp>
          </ns3:TrackPointExtension>
        </extensions>
      </trkpt>
      <trkpt lat="31.42988777719438076019287109375" lon="119.4857905805110931396484375">
        <ele>9</ele>
        <time>2015-09-15T09:10:57.000Z</time>
        <extensions>
          <ns3:TrackPointExtension>
            <ns3:atemp>29.0</ns3:atemp>
          </ns3:TrackPointExtension>
        </extensions>
      </trkpt>
      <trkpt lat="31.4305374585092067718505859375" lon="119.4857287220656871795654296875">
        <ele>9.3999996185302734375</ele>
        <time>2015-09-15T09:11:18.000Z</time>
        <extensions>
          <ns3:TrackPointExtension>
            <ns3:atemp>29.0</ns3:atemp>
          </ns3:TrackPointExtension>
        </extensions>
      </trkpt>
      <trkpt lat="31.4306142367422580718994140625" lon="119.4856552965939044952392578125">
        <ele>9.80000019073486328125</ele>
        <time>2015-09-15T09:11:20.000Z</time>
        <extensions>
          <ns3:TrackPointExtension>
            <ns3:atemp>29.0</ns3:atemp>
          </ns3:TrackPointExtension>
        </extensions>
      </trkpt>
      <trkpt lat="31.4310467429459095001220703125" lon="119.4853595830500125885009765625">
        <ele>10.6000003814697265625</ele>
        <time>2015-09-15T09:11:29.000Z</time>
        <extensions>
          <ns3:TrackPointExtension>
            <ns3:atemp>29.0</ns3:atemp>
          </ns3:TrackPointExtension>
        </extensions>
      </trkpt>
      <trkpt lat="31.431592404842376708984375" lon="119.4850424118340015411376953125">
        <ele>10.80000019073486328125</ele>
        <time>2015-09-15T09:11:42.000Z</time>
        <extensions>
          <ns3:TrackPointExtension>
            <ns3:atemp>29.0</ns3:atemp>
          </ns3:TrackPointExtension>
        </extensions>
      </trkpt>
      <trkpt lat="31.43203723244369029998779296875" lon="119.484507143497467041015625">
        <ele>9.80000019073486328125</ele>
        <time>2015-09-15T09:12:10.000Z</time>
        <extensions>
          <ns3:TrackPointExtension>
            <ns3:atemp>29.0</ns3:atemp>
          </ns3:TrackPointExtension>
        </extensions>
      </trkpt>
      <trkpt lat="31.4324599318206310272216796875" lon="119.48391060344874858856201171875">
        <ele>10.19999980926513671875</ele>
        <time>2015-09-15T09:12:24.000Z</time>
        <extensions>
          <ns3:TrackPointExtension>
            <ns3:atemp>29.0</ns3:atemp>
          </ns3:TrackPointExtension>
        </extensions>
      </trkpt>
      <trkpt lat="31.43290559761226177215576171875" lon="119.48341405950486660003662109375">
        <ele>8.80000019073486328125</ele>
        <time>2015-09-15T09:12:35.000Z</time>
        <extensions>
          <ns3:TrackPointExtension>
            <ns3:atemp>29.0</ns3:atemp>
          </ns3:TrackPointExtension>
        </extensions>
      </trkpt>
      <trkpt lat="31.4333961904048919677734375" lon="119.482896141707897186279296875">
        <ele>8.19999980926513671875</ele>
        <time>2015-09-15T09:12:51.000Z</time>
        <extensions>
          <ns3:TrackPointExtension>
            <ns3:atemp>29.0</ns3:atemp>
          </ns3:TrackPointExtension>
        </extensions>
      </trkpt>
      <trkpt lat="31.4335821010172367095947265625" lon="119.482630603015422821044921875">
        <ele>6.19999980926513671875</ele>
        <time>2015-09-15T09:13:03.000Z</time>
        <extensions>
          <ns3:TrackPointExtension>
            <ns3:atemp>29.0</ns3:atemp>
          </ns3:TrackPointExtension>
        </extensions>
      </trkpt>
      <trkpt lat="31.433575563132762908935546875" lon="119.48264527134597301483154296875">
        <ele>6</ele>
        <time>2015-09-15T09:13:04.000Z</time>
        <extensions>
          <ns3:TrackPointExtension>
            <ns3:atemp>29.0</ns3:atemp>
          </ns3:TrackPointExtension>
        </extensions>
      </trkpt>
      <trkpt lat="31.43356827087700366973876953125" lon="119.482660107314586639404296875">
        <ele>6</ele>
        <time>2015-09-15T09:13:05.000Z</time>
        <extensions>
          <ns3:TrackPointExtension>
            <ns3:atemp>29.0</ns3:atemp>
          </ns3:TrackPointExtension>
        </extensions>
      </trkpt>
      <trkpt lat="31.43356206826865673065185546875" lon="119.48267318308353424072265625">
        <ele>6</ele>
        <time>2015-09-15T09:13:06.000Z</time>
        <extensions>
          <ns3:TrackPointExtension>
            <ns3:atemp>29.0</ns3:atemp>
          </ns3:TrackPointExtension>
        </extensions>
      </trkpt>
      <trkpt lat="31.433554776012897491455078125" lon="119.48269153945147991180419921875">
        <ele>6</ele>
        <time>2015-09-15T09:13:07.000Z</time>
        <extensions>
          <ns3:TrackPointExtension>
            <ns3:atemp>29.0</ns3:atemp>
          </ns3:TrackPointExtension>
        </extensions>
      </trkpt>
      <trkpt lat="31.43354832194745540618896484375" lon="119.48270662687718868255615234375">
        <ele>6</ele>
        <time>2015-09-15T09:13:08.000Z</time>
        <extensions>
          <ns3:TrackPointExtension>
            <ns3:atemp>29.0</ns3:atemp>
          </ns3:TrackPointExtension>
        </extensions>
      </trkpt>
      <trkpt lat="31.43353440798819065093994140625" lon="119.48273562826216220855712890625">
        <ele>6</ele>
        <time>2015-09-15T09:13:10.000Z</time>
        <extensions>
          <ns3:TrackPointExtension>
            <ns3:atemp>29.0</ns3:atemp>
          </ns3:TrackPointExtension>
        </extensions>
      </trkpt>
      <trkpt lat="31.43352921120822429656982421875" lon="119.48275088332593441009521484375">
        <ele>6</ele>
        <time>2015-09-15T09:13:11.000Z</time>
        <extensions>
          <ns3:TrackPointExtension>
            <ns3:atemp>29.0</ns3:atemp>
          </ns3:TrackPointExtension>
        </extensions>
      </trkpt>
      <trkpt lat="31.433522589504718780517578125" lon="119.48276613838970661163330078125">
        <ele>6.400000095367431640625</ele>
        <time>2015-09-15T09:13:12.000Z</time>
        <extensions>
          <ns3:TrackPointExtension>
            <ns3:atemp>29.0</ns3:atemp>
          </ns3:TrackPointExtension>
        </extensions>
      </trkpt>
      <trkpt lat="31.43348193727433681488037109375" lon="119.482820369303226470947265625">
        <ele>6.599999904632568359375</ele>
        <time>2015-09-15T09:13:17.000Z</time>
        <extensions>
          <ns3:TrackPointExtension>
            <ns3:atemp>29.0</ns3:atemp>
          </ns3:TrackPointExtension>
        </extensions>
      </trkpt>
      <trkpt lat="31.43347171135246753692626953125" lon="119.48282682336866855621337890625">
        <ele>6.400000095367431640625</ele>
        <time>2015-09-15T09:13:18.000Z</time>
        <extensions>
          <ns3:TrackPointExtension>
            <ns3:atemp>29.0</ns3:atemp>
          </ns3:TrackPointExtension>
        </extensions>
      </trkpt>
      <trkpt lat="31.43341706134378910064697265625" lon="119.4828758575022220611572265625">
        <ele>6.400000095367431640625</ele>
        <time>2015-09-15T09:13:23.000Z</time>
        <extensions>
          <ns3:TrackPointExtension>
            <ns3:atemp>29.0</ns3:atemp>
          </ns3:TrackPointExtension>
        </extensions>
      </trkpt>
      <trkpt lat="31.43340800888836383819580078125" lon="119.48288331739604473114013671875">
        <ele>6.19999980926513671875</ele>
        <time>2015-09-15T09:13:24.000Z</time>
        <extensions>
          <ns3:TrackPointExtension>
            <ns3:atemp>29.0</ns3:atemp>
          </ns3:TrackPointExtension>
        </extensions>
      </trkpt>
      <trkpt lat="31.43339610658586025238037109375" lon="119.48289203457534313201904296875">
        <ele>6.400000095367431640625</ele>
        <time>2015-09-15T09:13:25.000Z</time>
        <extensions>
          <ns3:TrackPointExtension>
            <ns3:atemp>29.0</ns3:atemp>
          </ns3:TrackPointExtension>
        </extensions>
      </trkpt>
      <trkpt lat="31.43331161700189113616943359375" lon="119.48295171372592449188232421875">
        <ele>6.80000019073486328125</ele>
        <time>2015-09-15T09:13:33.000Z</time>
        <extensions>
          <ns3:TrackPointExtension>
            <ns3:atemp>29.0</ns3:atemp>
          </ns3:TrackPointExtension>
        </extensions>
      </trkpt>
      <trkpt lat="31.43330097198486328125" lon="119.482964538037776947021484375">
        <ele>6.80000019073486328125</ele>
        <time>2015-09-15T09:13:34.000Z</time>
        <extensions>
          <ns3:TrackPointExtension>
            <ns3:atemp>29.0</ns3:atemp>
          </ns3:TrackPointExtension>
        </extensions>
      </trkpt>
      <trkpt lat="31.43328730948269367218017578125" lon="119.48297183029353618621826171875">
        <ele>6.80000019073486328125</ele>
        <time>2015-09-15T09:13:35.000Z</time>
        <extensions>
          <ns3:TrackPointExtension>
            <ns3:atemp>29.0</ns3:atemp>
          </ns3:TrackPointExtension>
        </extensions>
      </trkpt>
      <trkpt lat="31.433269120752811431884765625" lon="119.48297627270221710205078125">
        <ele>7</ele>
        <time>2015-09-15T09:13:36.000Z</time>
        <extensions>
          <ns3:TrackPointExtension>
            <ns3:atemp>29.0</ns3:atemp>
          </ns3:TrackPointExtension>
        </extensions>
      </trkpt>
      <trkpt lat="31.43325361423194408416748046875" lon="119.48298322968184947967529296875">
        <ele>7</ele>
        <time>2015-09-15T09:13:37.000Z</time>
        <extensions>
          <ns3:TrackPointExtension>
            <ns3:atemp>29.0</ns3:atemp>
          </ns3:TrackPointExtension>
        </extensions>
      </trkpt>
      <trkpt lat="31.43322779797017574310302734375" lon="119.4830210320651531219482421875">
        <ele>7.19999980926513671875</ele>
        <time>2015-09-15T09:13:41.000Z</time>
        <extensions>
          <ns3:TrackPointExtension>
            <ns3:atemp>29.0</ns3:atemp>
          </ns3:TrackPointExtension>
        </extensions>
      </trkpt>
      <trkpt lat="31.43321447074413299560546875" lon="119.48303620330989360809326171875">
        <ele>7.19999980926513671875</ele>
        <time>2015-09-15T09:13:42.000Z</time>
        <extensions>
          <ns3:TrackPointExtension>
            <ns3:atemp>29.0</ns3:atemp>
          </ns3:TrackPointExtension>
        </extensions>
      </trkpt>
      <trkpt lat="31.43320684321224689483642578125" lon="119.4830502010881900787353515625">
        <ele>7.19999980926513671875</ele>
        <time>2015-09-15T09:13:43.000Z</time>
        <extensions>
          <ns3:TrackPointExtension>
            <ns3:atemp>29.0</ns3:atemp>
          </ns3:TrackPointExtension>
        </extensions>
      </trkpt>
      <trkpt lat="31.43319661729037761688232421875" lon="119.48306319303810596466064453125">
        <ele>7.400000095367431640625</ele>
        <time>2015-09-15T09:13:44.000Z</time>
        <extensions>
          <ns3:TrackPointExtension>
            <ns3:atemp>29.0</ns3:atemp>
          </ns3:TrackPointExtension>
        </extensions>
      </trkpt>
      <trkpt lat="31.43318505026400089263916015625" lon="119.4830776937305927276611328125">
        <ele>7.400000095367431640625</ele>
        <time>2015-09-15T09:13:45.000Z</time>
        <extensions>
          <ns3:TrackPointExtension>
            <ns3:atemp>29.0</ns3:atemp>
          </ns3:TrackPointExtension>
        </extensions>
      </trkpt>
      <trkpt lat="31.4331221021711826324462890625" lon="119.4831387139856815338134765625">
        <ele>7.599999904632568359375</ele>
        <time>2015-09-15T09:13:51.000Z</time>
        <extensions>
          <ns3:TrackPointExtension>
            <ns3:atemp>29.0</ns3:atemp>
          </ns3:TrackPointExtension>
        </extensions>
      </trkpt>
      <trkpt lat="31.43311078660190105438232421875" lon="119.48315187357366085052490234375">
        <ele>7.599999904632568359375</ele>
        <time>2015-09-15T09:13:52.000Z</time>
        <extensions>
          <ns3:TrackPointExtension>
            <ns3:atemp>29.0</ns3:atemp>
          </ns3:TrackPointExtension>
        </extensions>
      </trkpt>
      <trkpt lat="31.43309754319489002227783203125" lon="119.4831665419042110443115234375">
        <ele>7.599999904632568359375</ele>
        <time>2015-09-15T09:13:53.000Z</time>
        <extensions>
          <ns3:TrackPointExtension>
            <ns3:atemp>29.0</ns3:atemp>
          </ns3:TrackPointExtension>
        </extensions>
      </trkpt>
      <trkpt lat="31.43308438360691070556640625" lon="119.48317936621606349945068359375">
        <ele>7.599999904632568359375</ele>
        <time>2015-09-15T09:13:54.000Z</time>
        <extensions>
          <ns3:TrackPointExtension>
            <ns3:atemp>29.0</ns3:atemp>
          </ns3:TrackPointExtension>
        </extensions>
      </trkpt>
      <trkpt lat="31.43307910300791263580322265625" lon="119.48319361545145511627197265625">
        <ele>7.599999904632568359375</ele>
        <time>2015-09-15T09:13:55.000Z</time>
        <extensions>
          <ns3:TrackPointExtension>
            <ns3:atemp>29.0</ns3:atemp>
          </ns3:TrackPointExtension>
        </extensions>
      </trkpt>
      <trkpt lat="31.43308396451175212860107421875" lon="119.48320786468684673309326171875">
        <ele>7.80000019073486328125</ele>
        <time>2015-09-15T09:13:56.000Z</time>
        <extensions>
          <ns3:TrackPointExtension>
            <ns3:atemp>29.0</ns3:atemp>
          </ns3:TrackPointExtension>
        </extensions>
      </trkpt>
      <trkpt lat="31.43309301696717739105224609375" lon="119.48322177864611148834228515625">
        <ele>7.80000019073486328125</ele>
        <time>2015-09-15T09:13:57.000Z</time>
        <extensions>
          <ns3:TrackPointExtension>
            <ns3:atemp>29.0</ns3:atemp>
          </ns3:TrackPointExtension>
        </extensions>
      </trkpt>
      <trkpt lat="31.43310223706066608428955078125" lon="119.4832329265773296356201171875">
        <ele>7.80000019073486328125</ele>
        <time>2015-09-15T09:13:58.000Z</time>
        <extensions>
          <ns3:TrackPointExtension>
            <ns3:atemp>29.0</ns3:atemp>
          </ns3:TrackPointExtension>
        </extensions>
      </trkpt>
      <trkpt lat="31.43311028368771076202392578125" lon="119.48325111530721187591552734375">
        <ele>8</ele>
        <time>2015-09-15T09:13:59.000Z</time>
        <extensions>
          <ns3:TrackPointExtension>
            <ns3:atemp>29.0</ns3:atemp>
          </ns3:TrackPointExtension>
        </extensions>
      </trkpt>
      <trkpt lat="31.4331180788576602935791015625" lon="119.48326771147549152374267578125">
        <ele>8</ele>
        <time>2015-09-15T09:14:00.000Z</time>
        <extensions>
          <ns3:TrackPointExtension>
            <ns3:atemp>29.0</ns3:atemp>
          </ns3:TrackPointExtension>
        </extensions>
      </trkpt>
      <trkpt lat="31.43350406549870967864990234375" lon="119.48378655128180980682373046875">
        <ele>7.19999980926513671875</ele>
        <time>2015-09-15T09:14:38.000Z</time>
        <extensions>
          <ns3:TrackPointExtension>
            <ns3:atemp>28.0</ns3:atemp>
          </ns3:TrackPointExtension>
        </extensions>
      </trkpt>
      <trkpt lat="31.4339254237711429595947265625" lon="119.48420145548880100250244140625">
        <ele>6.19999980926513671875</ele>
        <time>2015-09-15T09:15:22.000Z</time>
        <extensions>
          <ns3:TrackPointExtension>
            <ns3:atemp>28.0</ns3:atemp>
          </ns3:TrackPointExtension>
        </extensions>
      </trkpt>
      <trkpt lat="31.434137821197509765625" lon="119.4843051396310329437255859375">
        <ele>6.19999980926513671875</ele>
        <time>2015-09-15T09:15:39.000Z</time>
        <extensions>
          <ns3:TrackPointExtension>
            <ns3:atemp>27.0</ns3:atemp>
          </ns3:TrackPointExtension>
        </extensions>
      </trkpt>
      <trkpt lat="31.43414922058582305908203125" lon="119.48430606164038181304931640625">
        <ele>6.19999980926513671875</ele>
        <time>2015-09-15T09:15:40.000Z</time>
        <extensions>
          <ns3:TrackPointExtension>
            <ns3:atemp>27.0</ns3:atemp>
          </ns3:TrackPointExtension>
        </extensions>
      </trkpt>
      <trkpt lat="31.434161625802516937255859375" lon="119.484311006963253021240234375">
        <ele>6.19999980926513671875</ele>
        <time>2015-09-15T09:15:41.000Z</time>
        <extensions>
          <ns3:TrackPointExtension>
            <ns3:atemp>27.0</ns3:atemp>
          </ns3:TrackPointExtension>
        </extensions>
      </trkpt>
      <trkpt lat="31.4341731928288936614990234375" lon="119.48431461118161678314208984375">
        <ele>6.19999980926513671875</ele>
        <time>2015-09-15T09:15:42.000Z</time>
        <extensions>
          <ns3:TrackPointExtension>
            <ns3:atemp>27.0</ns3:atemp>
          </ns3:TrackPointExtension>
        </extensions>
      </trkpt>
      <trkpt lat="31.4341862685978412628173828125" lon="119.48432064615190029144287109375">
        <ele>6.19999980926513671875</ele>
        <time>2015-09-15T09:15:43.000Z</time>
        <extensions>
          <ns3:TrackPointExtension>
            <ns3:atemp>27.0</ns3:atemp>
          </ns3:TrackPointExtension>
        </extensions>
      </trkpt>
      <trkpt lat="31.434813402593135833740234375" lon="119.4844426028430461883544921875">
        <ele>5.400000095367431640625</ele>
        <time>2015-09-15T09:16:23.000Z</time>
        <extensions>
          <ns3:TrackPointExtension>
            <ns3:atemp>27.0</ns3:atemp>
          </ns3:TrackPointExtension>
        </extensions>
      </trkpt>
      <trkpt lat="31.43500492908060550689697265625" lon="119.4843822531402111053466796875">
        <ele>5.599999904632568359375</ele>
        <time>2015-09-15T09:16:33.000Z</time>
        <extensions>
          <ns3:TrackPointExtension>
            <ns3:atemp>27.0</ns3:atemp>
          </ns3:TrackPointExtension>
        </extensions>
      </trkpt>
      <trkpt lat="31.43517709337174892425537109375" lon="119.484411589801311492919921875">
        <ele>6</ele>
        <time>2015-09-15T09:16:48.000Z</time>
        <extensions>
          <ns3:TrackPointExtension>
            <ns3:atemp>27.0</ns3:atemp>
          </ns3:TrackPointExtension>
        </extensions>
      </trkpt>
      <trkpt lat="31.43519033677875995635986328125" lon="119.4844097457826137542724609375">
        <ele>6</ele>
        <time>2015-09-15T09:16:49.000Z</time>
        <extensions>
          <ns3:TrackPointExtension>
            <ns3:atemp>27.0</ns3:atemp>
          </ns3:TrackPointExtension>
        </extensions>
      </trkpt>
      <trkpt lat="31.43519922159612178802490234375" lon="119.4844073988497257232666015625">
        <ele>5.80000019073486328125</ele>
        <time>2015-09-15T09:16:50.000Z</time>
        <extensions>
          <ns3:TrackPointExtension>
            <ns3:atemp>27.0</ns3:atemp>
          </ns3:TrackPointExtension>
        </extensions>
      </trkpt>
      <trkpt lat="31.435207016766071319580078125" lon="119.4844063930213451385498046875">
        <ele>5.599999904632568359375</ele>
        <time>2015-09-15T09:16:51.000Z</time>
        <extensions>
          <ns3:TrackPointExtension>
            <ns3:atemp>27.0</ns3:atemp>
          </ns3:TrackPointExtension>
        </extensions>
      </trkpt>
      <trkpt lat="31.43522084690630435943603515625" lon="119.48440278880298137664794921875">
        <ele>5.599999904632568359375</ele>
        <time>2015-09-15T09:16:52.000Z</time>
        <extensions>
          <ns3:TrackPointExtension>
            <ns3:atemp>27.0</ns3:atemp>
          </ns3:TrackPointExtension>
        </extensions>
      </trkpt>
      <trkpt lat="31.43523576669394969940185546875" lon="119.4844011962413787841796875">
        <ele>5.400000095367431640625</ele>
        <time>2015-09-15T09:16:53.000Z</time>
        <extensions>
          <ns3:TrackPointExtension>
            <ns3:atemp>27.0</ns3:atemp>
          </ns3:TrackPointExtension>
        </extensions>
      </trkpt>
      <trkpt lat="31.4352484233677387237548828125" lon="119.48439625091850757598876953125">
        <ele>5.400000095367431640625</ele>
        <time>2015-09-15T09:16:54.000Z</time>
        <extensions>
          <ns3:TrackPointExtension>
            <ns3:atemp>27.0</ns3:atemp>
          </ns3:TrackPointExtension>
        </extensions>
      </trkpt>
      <trkpt lat="31.43525957129895687103271484375" lon="119.484389461576938629150390625">
        <ele>5.599999904632568359375</ele>
        <time>2015-09-15T09:16:55.000Z</time>
        <extensions>
          <ns3:TrackPointExtension>
            <ns3:atemp>27.0</ns3:atemp>
          </ns3:TrackPointExtension>
        </extensions>
      </trkpt>
      <trkpt lat="31.435271389782428741455078125" lon="119.48438669554889202117919921875">
        <ele>5.599999904632568359375</ele>
        <time>2015-09-15T09:16:56.000Z</time>
        <extensions>
          <ns3:TrackPointExtension>
            <ns3:atemp>27.0</ns3:atemp>
          </ns3:TrackPointExtension>
        </extensions>
      </trkpt>
      <trkpt lat="31.43530634231865406036376953125" lon="119.48437395505607128143310546875">
        <ele>5.80000019073486328125</ele>
        <time>2015-09-15T09:17:05.000Z</time>
        <extensions>
          <ns3:TrackPointExtension>
            <ns3:atemp>27.0</ns3:atemp>
          </ns3:TrackPointExtension>
        </extensions>
      </trkpt>
      <trkpt lat="31.4354990422725677490234375" lon="119.48433707468211650848388671875">
        <ele>5.599999904632568359375</ele>
        <time>2015-09-15T09:17:43.000Z</time>
        <extensions>
          <ns3:TrackPointExtension>
            <ns3:atemp>27.0</ns3:atemp>
          </ns3:TrackPointExtension>
        </extensions>
      </trkpt>
      <trkpt lat="31.43555629067122936248779296875" lon="119.4837811030447483062744140625">
        <ele>5.80000019073486328125</ele>
        <time>2015-09-15T09:18:18.000Z</time>
        <extensions>
          <ns3:TrackPointExtension>
            <ns3:atemp>27.0</ns3:atemp>
          </ns3:TrackPointExtension>
        </extensions>
      </trkpt>
      <trkpt lat="31.4356242679059505462646484375" lon="119.4836704619228839874267578125">
        <ele>6</ele>
        <time>2015-09-15T09:18:27.000Z</time>
        <extensions>
          <ns3:TrackPointExtension>
            <ns3:atemp>27.0</ns3:atemp>
          </ns3:TrackPointExtension>
        </extensions>
      </trkpt>
      <trkpt lat="31.4356329850852489471435546875" lon="119.48365596123039722442626953125">
        <ele>5.80000019073486328125</ele>
        <time>2015-09-15T09:18:28.000Z</time>
        <extensions>
          <ns3:TrackPointExtension>
            <ns3:atemp>27.0</ns3:atemp>
          </ns3:TrackPointExtension>
        </extensions>
      </trkpt>
      <trkpt lat="31.435642875730991363525390625" lon="119.4836392812430858612060546875">
        <ele>5.80000019073486328125</ele>
        <time>2015-09-15T09:18:29.000Z</time>
        <extensions>
          <ns3:TrackPointExtension>
            <ns3:atemp>27.0</ns3:atemp>
          </ns3:TrackPointExtension>
        </extensions>
      </trkpt>
      <trkpt lat="31.4356572926044464111328125" lon="119.4836248643696308135986328125">
        <ele>5.599999904632568359375</ele>
        <time>2015-09-15T09:18:30.000Z</time>
        <extensions>
          <ns3:TrackPointExtension>
            <ns3:atemp>27.0</ns3:atemp>
          </ns3:TrackPointExtension>
        </extensions>
      </trkpt>
      <trkpt lat="31.43566139973700046539306640625" lon="119.48360818438231945037841796875">
        <ele>5.599999904632568359375</ele>
        <time>2015-09-15T09:18:31.000Z</time>
        <extensions>
          <ns3:TrackPointExtension>
            <ns3:atemp>27.0</ns3:atemp>
          </ns3:TrackPointExtension>
        </extensions>
      </trkpt>
      <trkpt lat="31.4356544427573680877685546875" lon="119.4835899956524372100830078125">
        <ele>5.599999904632568359375</ele>
        <time>2015-09-15T09:18:32.000Z</time>
        <extensions>
          <ns3:TrackPointExtension>
            <ns3:atemp>27.0</ns3:atemp>
          </ns3:TrackPointExtension>
        </extensions>
      </trkpt>
      <trkpt lat="31.43566072918474674224853515625" lon="119.48357717134058475494384765625">
        <ele>5.599999904632568359375</ele>
        <time>2015-09-15T09:18:33.000Z</time>
        <extensions>
          <ns3:TrackPointExtension>
            <ns3:atemp>27.0</ns3:atemp>
          </ns3:TrackPointExtension>
        </extensions>
      </trkpt>
      <trkpt lat="31.4356715418398380279541015625" lon="119.48356627486646175384521484375">
        <ele>5.599999904632568359375</ele>
        <time>2015-09-15T09:18:34.000Z</time>
        <extensions>
          <ns3:TrackPointExtension>
            <ns3:atemp>27.0</ns3:atemp>
          </ns3:TrackPointExtension>
        </extensions>
      </trkpt>
      <trkpt lat="31.43567313440144062042236328125" lon="119.48355554603040218353271484375">
        <ele>5.599999904632568359375</ele>
        <time>2015-09-15T09:18:35.000Z</time>
        <extensions>
          <ns3:TrackPointExtension>
            <ns3:atemp>27.0</ns3:atemp>
          </ns3:TrackPointExtension>
        </extensions>
      </trkpt>
      <trkpt lat="31.435690484941005706787109375" lon="119.48353660292923450469970703125">
        <ele>5.599999904632568359375</ele>
        <time>2015-09-15T09:18:37.000Z</time>
        <extensions>
          <ns3:TrackPointExtension>
            <ns3:atemp>27.0</ns3:atemp>
          </ns3:TrackPointExtension>
        </extensions>
      </trkpt>
      <trkpt lat="31.4356903173029422760009765625" lon="119.4835242815315723419189453125">
        <ele>5.599999904632568359375</ele>
        <time>2015-09-15T09:18:38.000Z</time>
        <extensions>
          <ns3:TrackPointExtension>
            <ns3:atemp>27.0</ns3:atemp>
          </ns3:TrackPointExtension>
        </extensions>
      </trkpt>
      <trkpt lat="31.43568738363683223724365234375" lon="119.4835108704864978790283203125">
        <ele>5.599999904632568359375</ele>
        <time>2015-09-15T09:18:39.000Z</time>
        <extensions>
          <ns3:TrackPointExtension>
            <ns3:atemp>27.0</ns3:atemp>
          </ns3:TrackPointExtension>
        </extensions>
      </trkpt>
      <trkpt lat="31.43568386323750019073486328125" lon="119.4834972918033599853515625">
        <ele>5.599999904632568359375</ele>
        <time>2015-09-15T09:18:40.000Z</time>
        <extensions>
          <ns3:TrackPointExtension>
            <ns3:atemp>27.0</ns3:atemp>
          </ns3:TrackPointExtension>
        </extensions>
      </trkpt>
      <trkpt lat="31.43567749299108982086181640625" lon="119.483482204377651214599609375">
        <ele>5.599999904632568359375</ele>
        <time>2015-09-15T09:18:41.000Z</time>
        <extensions>
          <ns3:TrackPointExtension>
            <ns3:atemp>27.0</ns3:atemp>
          </ns3:TrackPointExtension>
        </extensions>
      </trkpt>
      <trkpt lat="31.4356453903019428253173828125" lon="119.4834149815142154693603515625">
        <ele>5.599999904632568359375</ele>
        <time>2015-09-15T09:18:46.000Z</time>
        <extensions>
          <ns3:TrackPointExtension>
            <ns3:atemp>26.0</ns3:atemp>
          </ns3:TrackPointExtension>
        </extensions>
      </trkpt>
      <trkpt lat="31.435639858245849609375" lon="119.4833995588123798370361328125">
        <ele>5.599999904632568359375</ele>
        <time>2015-09-15T09:18:47.000Z</time>
        <extensions>
          <ns3:TrackPointExtension>
            <ns3:atemp>26.0</ns3:atemp>
          </ns3:TrackPointExtension>
        </extensions>
      </trkpt>
      <trkpt lat="31.43563273362815380096435546875" lon="119.48337994515895843505859375">
        <ele>5.599999904632568359375</ele>
        <time>2015-09-15T09:18:48.000Z</time>
        <extensions>
          <ns3:TrackPointExtension>
            <ns3:atemp>26.0</ns3:atemp>
          </ns3:TrackPointExtension>
        </extensions>
      </trkpt>
      <trkpt lat="31.4356450550258159637451171875" lon="119.48322110809385776519775390625">
        <ele>6</ele>
        <time>2015-09-15T09:19:02.000Z</time>
        <extensions>
          <ns3:TrackPointExtension>
            <ns3:atemp>26.0</ns3:atemp>
          </ns3:TrackPointExtension>
        </extensions>
      </trkpt>
      <trkpt lat="31.43563860096037387847900390625" lon="119.48303997516632080078125">
        <ele>6</ele>
        <time>2015-09-15T09:19:14.000Z</time>
        <extensions>
          <ns3:TrackPointExtension>
            <ns3:atemp>26.0</ns3:atemp>
          </ns3:TrackPointExtension>
        </extensions>
      </trkpt>
      <trkpt lat="31.43563709221780300140380859375" lon="119.48302413336932659149169921875">
        <ele>6.19999980926513671875</ele>
        <time>2015-09-15T09:19:15.000Z</time>
        <extensions>
          <ns3:TrackPointExtension>
            <ns3:atemp>26.0</ns3:atemp>
          </ns3:TrackPointExtension>
        </extensions>
      </trkpt>
      <trkpt lat="31.4356411993503570556640625" lon="119.483009465038776397705078125">
        <ele>6</ele>
        <time>2015-09-15T09:19:16.000Z</time>
        <extensions>
          <ns3:TrackPointExtension>
            <ns3:atemp>26.0</ns3:atemp>
          </ns3:TrackPointExtension>
        </extensions>
      </trkpt>
      <trkpt lat="31.4356477372348308563232421875" lon="119.4829955510795116424560546875">
        <ele>6.19999980926513671875</ele>
        <time>2015-09-15T09:19:17.000Z</time>
        <extensions>
          <ns3:TrackPointExtension>
            <ns3:atemp>26.0</ns3:atemp>
          </ns3:TrackPointExtension>
        </extensions>
      </trkpt>
      <trkpt lat="31.43564798869192600250244140625" lon="119.482982642948627471923828125">
        <ele>6.400000095367431640625</ele>
        <time>2015-09-15T09:19:18.000Z</time>
        <extensions>
          <ns3:TrackPointExtension>
            <ns3:atemp>26.0</ns3:atemp>
          </ns3:TrackPointExtension>
        </extensions>
      </trkpt>
      <trkpt lat="31.4356601424515247344970703125" lon="119.482974596321582794189453125">
        <ele>6.599999904632568359375</ele>
        <time>2015-09-15T09:19:19.000Z</time>
        <extensions>
          <ns3:TrackPointExtension>
            <ns3:atemp>26.0</ns3:atemp>
          </ns3:TrackPointExtension>
        </extensions>
      </trkpt>
      <trkpt lat="31.4356720447540283203125" lon="119.4829647056758403778076171875">
        <ele>6.599999904632568359375</ele>
        <time>2015-09-15T09:19:20.000Z</time>
        <extensions>
          <ns3:TrackPointExtension>
            <ns3:atemp>26.0</ns3:atemp>
          </ns3:TrackPointExtension>
        </extensions>
      </trkpt>
      <trkpt lat="31.43567497842013835906982421875" lon="119.48295288719236850738525390625">
        <ele>6.80000019073486328125</ele>
        <time>2015-09-15T09:19:21.000Z</time>
        <extensions>
          <ns3:TrackPointExtension>
            <ns3:atemp>26.0</ns3:atemp>
          </ns3:TrackPointExtension>
        </extensions>
      </trkpt>
    </trkseg>
  </trk>
</gpx>
