<gpx xmlns:ns3="http://www.garmin.com/xmlschemas/TrackPointExtension/v1" xmlns="http://www.topografix.com/GPX/1/1" xmlns:xsi="http://www.w3.org/2001/XMLSchema-instance" xmlns:ns2="http://www.garmin.com/xmlschemas/GpxExtensions/v3" creator="Garmin Connect" version="1.1" xsi:schemaLocation="http://www.topografix.com/GPX/1/1 http://www.topografix.com/GPX/11.xsd">
  <extensions>
<distance>3332.42</distance>
<average_hr></average_hr>
<average_speed>2.2769999504089355</average_speed>
<start_time>2018-04-15T22:10:03+00:00</start_time>
<end_time>2018-04-15T22:34:26.266000+00:00</end_time>
<moving_time>1462.0</moving_time>
<elapsed_time>1569.67</elapsed_time>
</extensions>
<metadata>
    <link href="connect.garmin.com">
      <text>Garmin Connect</text>
    </link>
    <time>2018-04-15T22:10:03.000Z</time>
  </metadata>
  <trk>
    <name>常州市 跑步</name>
    <type>running</type>
    <trkseg>
      <trkpt lat="31.43568654544651508331298828125" lon="119.48312287218868732452392578125">
        <ele>9.6000003814697265625</ele>
        <time>2018-04-15T22:10:03.000Z</time>
        <extensions>
          <ns3:TrackPointExtension>
            <ns3:atemp>22.0</ns3:atemp>
            <ns3:cad>0</ns3:cad>
          </ns3:TrackPointExtension>
        </extensions>
      </trkpt>
      <trkpt lat="31.4356867969036102294921875" lon="119.4831511192023754119873046875">
        <ele>8.19999980926513671875</ele>
        <time>2018-04-15T22:10:06.000Z</time>
        <extensions>
          <ns3:TrackPointExtension>
            <ns3:atemp>22.0</ns3:atemp>
            <ns3:cad>0</ns3:cad>
          </ns3:TrackPointExtension>
        </extensions>
      </trkpt>
      <trkpt lat="31.43568788655102252960205078125" lon="119.4832129776477813720703125">
        <ele>9</ele>
        <time>2018-04-15T22:10:13.000Z</time>
        <extensions>
          <ns3:TrackPointExtension>
            <ns3:atemp>22.0</ns3:atemp>
            <ns3:cad>91</ns3:cad>
          </ns3:TrackPointExtension>
        </extensions>
      </trkpt>
      <trkpt lat="31.43568235449492931365966796875" lon="119.483257234096527099609375">
        <ele>9.19999980926513671875</ele>
        <time>2018-04-15T22:10:17.000Z</time>
        <extensions>
          <ns3:TrackPointExtension>
            <ns3:atemp>22.0</ns3:atemp>
            <ns3:cad>91</ns3:cad>
          </ns3:TrackPointExtension>
        </extensions>
      </trkpt>
      <trkpt lat="31.43567263148725032806396484375" lon="119.4833596609532833099365234375">
        <ele>9.80000019073486328125</ele>
        <time>2018-04-15T22:10:23.000Z</time>
        <extensions>
          <ns3:TrackPointExtension>
            <ns3:atemp>22.0</ns3:atemp>
            <ns3:cad>91</ns3:cad>
          </ns3:TrackPointExtension>
        </extensions>
      </trkpt>
      <trkpt lat="31.4356802590191364288330078125" lon="119.48351833038032054901123046875">
        <ele>9.19999980926513671875</ele>
        <time>2018-04-15T22:10:31.000Z</time>
        <extensions>
          <ns3:TrackPointExtension>
            <ns3:atemp>22.0</ns3:atemp>
            <ns3:cad>90</ns3:cad>
          </ns3:TrackPointExtension>
        </extensions>
      </trkpt>
      <trkpt lat="31.43566810525953769683837890625" lon="119.48362930677831172943115234375">
        <ele>9</ele>
        <time>2018-04-15T22:10:37.000Z</time>
        <extensions>
          <ns3:TrackPointExtension>
            <ns3:atemp>22.0</ns3:atemp>
            <ns3:cad>90</ns3:cad>
          </ns3:TrackPointExtension>
        </extensions>
      </trkpt>
      <trkpt lat="31.43566290847957134246826171875" lon="119.4836573861539363861083984375">
        <ele>9</ele>
        <time>2018-04-15T22:10:39.000Z</time>
        <extensions>
          <ns3:TrackPointExtension>
            <ns3:atemp>22.0</ns3:atemp>
            <ns3:cad>89</ns3:cad>
          </ns3:TrackPointExtension>
        </extensions>
      </trkpt>
      <trkpt lat="31.43567263148725032806396484375" lon="119.48371882550418376922607421875">
        <ele>9.3999996185302734375</ele>
        <time>2018-04-15T22:10:43.000Z</time>
        <extensions>
          <ns3:TrackPointExtension>
            <ns3:atemp>22.0</ns3:atemp>
            <ns3:cad>89</ns3:cad>
          </ns3:TrackPointExtension>
        </extensions>
      </trkpt>
      <trkpt lat="31.43567615188658237457275390625" lon="119.48378898203372955322265625">
        <ele>9.3999996185302734375</ele>
        <time>2018-04-15T22:10:47.000Z</time>
        <extensions>
          <ns3:TrackPointExtension>
            <ns3:atemp>22.0</ns3:atemp>
            <ns3:cad>90</ns3:cad>
          </ns3:TrackPointExtension>
        </extensions>
      </trkpt>
      <trkpt lat="31.43568989820778369903564453125" lon="119.484077990055084228515625">
        <ele>10</ele>
        <time>2018-04-15T22:10:55.000Z</time>
        <extensions>
          <ns3:TrackPointExtension>
            <ns3:atemp>22.0</ns3:atemp>
            <ns3:cad>89</ns3:cad>
          </ns3:TrackPointExtension>
        </extensions>
      </trkpt>
      <trkpt lat="31.43568889237940311431884765625" lon="119.48423028923571109771728515625">
        <ele>10.3999996185302734375</ele>
        <time>2018-04-15T22:10:59.000Z</time>
        <extensions>
          <ns3:TrackPointExtension>
            <ns3:atemp>22.0</ns3:atemp>
            <ns3:cad>88</ns3:cad>
          </ns3:TrackPointExtension>
        </extensions>
      </trkpt>
      <trkpt lat="31.4356732182204723358154296875" lon="119.4842913933098316192626953125">
        <ele>10</ele>
        <time>2018-04-15T22:11:02.000Z</time>
        <extensions>
          <ns3:TrackPointExtension>
            <ns3:atemp>22.0</ns3:atemp>
            <ns3:cad>88</ns3:cad>
          </ns3:TrackPointExtension>
        </extensions>
      </trkpt>
      <trkpt lat="31.43549946136772632598876953125" lon="119.48436942882835865020751953125">
        <ele>10.19999980926513671875</ele>
        <time>2018-04-15T22:11:15.000Z</time>
        <extensions>
          <ns3:TrackPointExtension>
            <ns3:atemp>22.0</ns3:atemp>
            <ns3:cad>91</ns3:cad>
          </ns3:TrackPointExtension>
        </extensions>
      </trkpt>
      <trkpt lat="31.43531690351665019989013671875" lon="119.48440295644104480743408203125">
        <ele>9.6000003814697265625</ele>
        <time>2018-04-15T22:11:23.000Z</time>
        <extensions>
          <ns3:TrackPointExtension>
            <ns3:atemp>22.0</ns3:atemp>
            <ns3:cad>94</ns3:cad>
          </ns3:TrackPointExtension>
        </extensions>
      </trkpt>
      <trkpt lat="31.43512420356273651123046875" lon="119.4844543375074863433837890625">
        <ele>9.80000019073486328125</ele>
        <time>2018-04-15T22:11:30.000Z</time>
        <extensions>
          <ns3:TrackPointExtension>
            <ns3:atemp>22.0</ns3:atemp>
            <ns3:cad>93</ns3:cad>
          </ns3:TrackPointExtension>
        </extensions>
      </trkpt>
      <trkpt lat="31.43492479808628559112548828125" lon="119.48449197225272655487060546875">
        <ele>10.3999996185302734375</ele>
        <time>2018-04-15T22:11:39.000Z</time>
        <extensions>
          <ns3:TrackPointExtension>
            <ns3:atemp>22.0</ns3:atemp>
            <ns3:cad>93</ns3:cad>
          </ns3:TrackPointExtension>
        </extensions>
      </trkpt>
      <trkpt lat="31.434730589389801025390625" lon="119.48449716903269290924072265625">
        <ele>9.6000003814697265625</ele>
        <time>2018-04-15T22:11:49.000Z</time>
        <extensions>
          <ns3:TrackPointExtension>
            <ns3:atemp>22.0</ns3:atemp>
            <ns3:cad>91</ns3:cad>
          </ns3:TrackPointExtension>
        </extensions>
      </trkpt>
      <trkpt lat="31.43453286029398441314697265625" lon="119.484489373862743377685546875">
        <ele>10.3999996185302734375</ele>
        <time>2018-04-15T22:12:01.000Z</time>
        <extensions>
          <ns3:TrackPointExtension>
            <ns3:atemp>22.0</ns3:atemp>
            <ns3:cad>88</ns3:cad>
          </ns3:TrackPointExtension>
        </extensions>
      </trkpt>
      <trkpt lat="31.4343569241464138031005859375" lon="119.484543688595294952392578125">
        <ele>10.19999980926513671875</ele>
        <time>2018-04-15T22:12:12.000Z</time>
        <extensions>
          <ns3:TrackPointExtension>
            <ns3:atemp>22.0</ns3:atemp>
            <ns3:cad>89</ns3:cad>
          </ns3:TrackPointExtension>
        </extensions>
      </trkpt>
      <trkpt lat="31.43418082036077976226806640625" lon="119.4844764657318592071533203125">
        <ele>10</ele>
        <time>2018-04-15T22:12:23.000Z</time>
        <extensions>
          <ns3:TrackPointExtension>
            <ns3:atemp>22.0</ns3:atemp>
            <ns3:cad>88</ns3:cad>
          </ns3:TrackPointExtension>
        </extensions>
      </trkpt>
      <trkpt lat="31.43401217646896839141845703125" lon="119.48436037637293338775634765625">
        <ele>10.19999980926513671875</ele>
        <time>2018-04-15T22:12:36.000Z</time>
        <extensions>
          <ns3:TrackPointExtension>
            <ns3:atemp>21.0</ns3:atemp>
            <ns3:cad>90</ns3:cad>
          </ns3:TrackPointExtension>
        </extensions>
      </trkpt>
      <trkpt lat="31.4338419400155544281005859375" lon="119.4842548482120037078857421875">
        <ele>10.6000003814697265625</ele>
        <time>2018-04-15T22:12:49.000Z</time>
        <extensions>
          <ns3:TrackPointExtension>
            <ns3:atemp>21.0</ns3:atemp>
            <ns3:cad>0</ns3:cad>
          </ns3:TrackPointExtension>
        </extensions>
      </trkpt>
      <trkpt lat="31.4337970130145549774169921875" lon="119.4842330552637577056884765625">
        <ele>11.19999980926513671875</ele>
        <time>2018-04-15T22:12:53.000Z</time>
        <extensions>
          <ns3:TrackPointExtension>
            <ns3:atemp>21.0</ns3:atemp>
            <ns3:cad>0</ns3:cad>
          </ns3:TrackPointExtension>
        </extensions>
      </trkpt>
      <trkpt lat="31.4336233399808406829833984375" lon="119.4841760583221912384033203125">
        <ele>10.6000003814697265625</ele>
        <time>2018-04-15T22:13:03.000Z</time>
        <extensions>
          <ns3:TrackPointExtension>
            <ns3:atemp>21.0</ns3:atemp>
            <ns3:cad>90</ns3:cad>
          </ns3:TrackPointExtension>
        </extensions>
      </trkpt>
      <trkpt lat="31.43357397057116031646728515625" lon="119.4841535948216915130615234375">
        <ele>10.6000003814697265625</ele>
        <time>2018-04-15T22:13:07.000Z</time>
        <extensions>
          <ns3:TrackPointExtension>
            <ns3:atemp>21.0</ns3:atemp>
            <ns3:cad>88</ns3:cad>
          </ns3:TrackPointExtension>
        </extensions>
      </trkpt>
      <trkpt lat="31.433538012206554412841796875" lon="119.48414663784205913543701171875">
        <ele>10.6000003814697265625</ele>
        <time>2018-04-15T22:13:10.000Z</time>
        <extensions>
          <ns3:TrackPointExtension>
            <ns3:atemp>21.0</ns3:atemp>
            <ns3:cad>90</ns3:cad>
          </ns3:TrackPointExtension>
        </extensions>
      </trkpt>
      <trkpt lat="31.433505155146121978759765625" lon="119.48414227925240993499755859375">
        <ele>10.3999996185302734375</ele>
        <time>2018-04-15T22:13:12.000Z</time>
        <extensions>
          <ns3:TrackPointExtension>
            <ns3:atemp>21.0</ns3:atemp>
            <ns3:cad>91</ns3:cad>
          </ns3:TrackPointExtension>
        </extensions>
      </trkpt>
      <trkpt lat="31.4333068393170833587646484375" lon="119.4841462187469005584716796875">
        <ele>10.6000003814697265625</ele>
        <time>2018-04-15T22:13:23.000Z</time>
        <extensions>
          <ns3:TrackPointExtension>
            <ns3:atemp>21.0</ns3:atemp>
            <ns3:cad>91</ns3:cad>
          </ns3:TrackPointExtension>
        </extensions>
      </trkpt>
      <trkpt lat="31.43312461674213409423828125" lon="119.48414999060332775115966796875">
        <ele>11</ele>
        <time>2018-04-15T22:13:31.000Z</time>
        <extensions>
          <ns3:TrackPointExtension>
            <ns3:atemp>21.0</ns3:atemp>
            <ns3:cad>89</ns3:cad>
          </ns3:TrackPointExtension>
        </extensions>
      </trkpt>
      <trkpt lat="31.43304683268070220947265625" lon="119.48420070111751556396484375">
        <ele>11.3999996185302734375</ele>
        <time>2018-04-15T22:13:35.000Z</time>
        <extensions>
          <ns3:TrackPointExtension>
            <ns3:atemp>21.0</ns3:atemp>
            <ns3:cad>89</ns3:cad>
          </ns3:TrackPointExtension>
        </extensions>
      </trkpt>
      <trkpt lat="31.432912386953830718994140625" lon="119.48436431586742401123046875">
        <ele>11.19999980926513671875</ele>
        <time>2018-04-15T22:13:44.000Z</time>
        <extensions>
          <ns3:TrackPointExtension>
            <ns3:atemp>21.0</ns3:atemp>
            <ns3:cad>90</ns3:cad>
          </ns3:TrackPointExtension>
        </extensions>
      </trkpt>
      <trkpt lat="31.4327878318727016448974609375" lon="119.48451980017125606536865234375">
        <ele>12</ele>
        <time>2018-04-15T22:13:53.000Z</time>
        <extensions>
          <ns3:TrackPointExtension>
            <ns3:atemp>21.0</ns3:atemp>
            <ns3:cad>89</ns3:cad>
          </ns3:TrackPointExtension>
        </extensions>
      </trkpt>
      <trkpt lat="31.43274684436619281768798828125" lon="119.48457595892250537872314453125">
        <ele>12.3999996185302734375</ele>
        <time>2018-04-15T22:13:57.000Z</time>
        <extensions>
          <ns3:TrackPointExtension>
            <ns3:atemp>21.0</ns3:atemp>
            <ns3:cad>89</ns3:cad>
          </ns3:TrackPointExtension>
        </extensions>
      </trkpt>
      <trkpt lat="31.43271449021995067596435546875" lon="119.48464267887175083160400390625">
        <ele>13.19999980926513671875</ele>
        <time>2018-04-15T22:14:03.000Z</time>
        <extensions>
          <ns3:TrackPointExtension>
            <ns3:atemp>21.0</ns3:atemp>
            <ns3:cad>0</ns3:cad>
          </ns3:TrackPointExtension>
        </extensions>
      </trkpt>
      <trkpt lat="31.43258524127304553985595703125" lon="119.48479522950947284698486328125">
        <ele>12.80000019073486328125</ele>
        <time>2018-04-15T22:14:13.000Z</time>
        <extensions>
          <ns3:TrackPointExtension>
            <ns3:atemp>21.0</ns3:atemp>
            <ns3:cad>89</ns3:cad>
          </ns3:TrackPointExtension>
        </extensions>
      </trkpt>
      <trkpt lat="31.4324451796710491180419921875" lon="119.4849542342126369476318359375">
        <ele>13.19999980926513671875</ele>
        <time>2018-04-15T22:14:23.000Z</time>
        <extensions>
          <ns3:TrackPointExtension>
            <ns3:atemp>21.0</ns3:atemp>
            <ns3:cad>91</ns3:cad>
          </ns3:TrackPointExtension>
        </extensions>
      </trkpt>
      <trkpt lat="31.4324307627975940704345703125" lon="119.48497527278959751129150390625">
        <ele>13.6000003814697265625</ele>
        <time>2018-04-15T22:14:24.000Z</time>
        <extensions>
          <ns3:TrackPointExtension>
            <ns3:atemp>21.0</ns3:atemp>
            <ns3:cad>91</ns3:cad>
          </ns3:TrackPointExtension>
        </extensions>
      </trkpt>
      <trkpt lat="31.4323023520410060882568359375" lon="119.48514576070010662078857421875">
        <ele>13.19999980926513671875</ele>
        <time>2018-04-15T22:14:33.000Z</time>
        <extensions>
          <ns3:TrackPointExtension>
            <ns3:atemp>21.0</ns3:atemp>
            <ns3:cad>93</ns3:cad>
          </ns3:TrackPointExtension>
        </extensions>
      </trkpt>
      <trkpt lat="31.4321752823889255523681640625" lon="119.48529579676687717437744140625">
        <ele>13.3999996185302734375</ele>
        <time>2018-04-15T22:14:43.000Z</time>
        <extensions>
          <ns3:TrackPointExtension>
            <ns3:atemp>21.0</ns3:atemp>
            <ns3:cad>92</ns3:cad>
          </ns3:TrackPointExtension>
        </extensions>
      </trkpt>
      <trkpt lat="31.432060115039348602294921875" lon="119.485409371554851531982421875">
        <ele>12.19999980926513671875</ele>
        <time>2018-04-15T22:14:51.000Z</time>
        <extensions>
          <ns3:TrackPointExtension>
            <ns3:atemp>21.0</ns3:atemp>
            <ns3:cad>93</ns3:cad>
          </ns3:TrackPointExtension>
        </extensions>
      </trkpt>
      <trkpt lat="31.43193245865404605865478515625" lon="119.48557374067604541778564453125">
        <ele>12.3999996185302734375</ele>
        <time>2018-04-15T22:15:01.000Z</time>
        <extensions>
          <ns3:TrackPointExtension>
            <ns3:atemp>21.0</ns3:atemp>
            <ns3:cad>92</ns3:cad>
          </ns3:TrackPointExtension>
        </extensions>
      </trkpt>
      <trkpt lat="31.431804634630680084228515625" lon="119.4857568852603435516357421875">
        <ele>12</ele>
        <time>2018-04-15T22:15:09.000Z</time>
        <extensions>
          <ns3:TrackPointExtension>
            <ns3:atemp>21.0</ns3:atemp>
            <ns3:cad>93</ns3:cad>
          </ns3:TrackPointExtension>
        </extensions>
      </trkpt>
      <trkpt lat="31.43168418668210506439208984375" lon="119.48592242784798145294189453125">
        <ele>11.80000019073486328125</ele>
        <time>2018-04-15T22:15:17.000Z</time>
        <extensions>
          <ns3:TrackPointExtension>
            <ns3:atemp>21.0</ns3:atemp>
            <ns3:cad>93</ns3:cad>
          </ns3:TrackPointExtension>
        </extensions>
      </trkpt>
      <trkpt lat="31.43156382255256175994873046875" lon="119.486087299883365631103515625">
        <ele>11.6000003814697265625</ele>
        <time>2018-04-15T22:15:26.000Z</time>
        <extensions>
          <ns3:TrackPointExtension>
            <ns3:atemp>20.0</ns3:atemp>
            <ns3:cad>93</ns3:cad>
          </ns3:TrackPointExtension>
        </extensions>
      </trkpt>
      <trkpt lat="31.43152912147343158721923828125" lon="119.48613197542726993560791015625">
        <ele>11.19999980926513671875</ele>
        <time>2018-04-15T22:15:28.000Z</time>
        <extensions>
          <ns3:TrackPointExtension>
            <ns3:atemp>20.0</ns3:atemp>
            <ns3:cad>93</ns3:cad>
          </ns3:TrackPointExtension>
        </extensions>
      </trkpt>
      <trkpt lat="31.431390233337879180908203125" lon="119.48629860766232013702392578125">
        <ele>11.6000003814697265625</ele>
        <time>2018-04-15T22:15:36.000Z</time>
        <extensions>
          <ns3:TrackPointExtension>
            <ns3:atemp>20.0</ns3:atemp>
            <ns3:cad>93</ns3:cad>
          </ns3:TrackPointExtension>
        </extensions>
      </trkpt>
      <trkpt lat="31.4312287978827953338623046875" lon="119.4864150322973728179931640625">
        <ele>11.3999996185302734375</ele>
        <time>2018-04-15T22:15:45.000Z</time>
        <extensions>
          <ns3:TrackPointExtension>
            <ns3:atemp>20.0</ns3:atemp>
            <ns3:cad>91</ns3:cad>
          </ns3:TrackPointExtension>
        </extensions>
      </trkpt>
      <trkpt lat="31.43113349564373493194580078125" lon="119.48656062595546245574951171875">
        <ele>12.19999980926513671875</ele>
        <time>2018-04-15T22:15:53.000Z</time>
        <extensions>
          <ns3:TrackPointExtension>
            <ns3:atemp>20.0</ns3:atemp>
            <ns3:cad>91</ns3:cad>
          </ns3:TrackPointExtension>
        </extensions>
      </trkpt>
      <trkpt lat="31.43101799301803112030029296875" lon="119.486741758882999420166015625">
        <ele>11</ele>
        <time>2018-04-15T22:16:02.000Z</time>
        <extensions>
          <ns3:TrackPointExtension>
            <ns3:atemp>20.0</ns3:atemp>
            <ns3:cad>92</ns3:cad>
          </ns3:TrackPointExtension>
        </extensions>
      </trkpt>
      <trkpt lat="31.43091321922838687896728515625" lon="119.486889280378818511962890625">
        <ele>12.19999980926513671875</ele>
        <time>2018-04-15T22:16:10.000Z</time>
        <extensions>
          <ns3:TrackPointExtension>
            <ns3:atemp>20.0</ns3:atemp>
            <ns3:cad>93</ns3:cad>
          </ns3:TrackPointExtension>
        </extensions>
      </trkpt>
      <trkpt lat="31.4308754168450832366943359375" lon="119.4869585148990154266357421875">
        <ele>12.3999996185302734375</ele>
        <time>2018-04-15T22:16:14.000Z</time>
        <extensions>
          <ns3:TrackPointExtension>
            <ns3:atemp>20.0</ns3:atemp>
            <ns3:cad>91</ns3:cad>
          </ns3:TrackPointExtension>
        </extensions>
      </trkpt>
      <trkpt lat="31.4308687113225460052490234375" lon="119.4869695790112018585205078125">
        <ele>12.19999980926513671875</ele>
        <time>2018-04-15T22:16:15.000Z</time>
        <extensions>
          <ns3:TrackPointExtension>
            <ns3:atemp>20.0</ns3:atemp>
            <ns3:cad>91</ns3:cad>
          </ns3:TrackPointExtension>
        </extensions>
      </trkpt>
      <trkpt lat="31.43084934912621974945068359375" lon="119.4869947247207164764404296875">
        <ele>12</ele>
        <time>2018-04-15T22:16:18.000Z</time>
        <extensions>
          <ns3:TrackPointExtension>
            <ns3:atemp>20.0</ns3:atemp>
            <ns3:cad>0</ns3:cad>
          </ns3:TrackPointExtension>
        </extensions>
      </trkpt>
      <trkpt lat="31.4307429827749729156494140625" lon="119.48718407191336154937744140625">
        <ele>12.6000003814697265625</ele>
        <time>2018-04-15T22:16:27.000Z</time>
        <extensions>
          <ns3:TrackPointExtension>
            <ns3:atemp>20.0</ns3:atemp>
            <ns3:cad>90</ns3:cad>
          </ns3:TrackPointExtension>
        </extensions>
      </trkpt>
      <trkpt lat="31.43060912378132343292236328125" lon="119.48735891841351985931396484375">
        <ele>12.6000003814697265625</ele>
        <time>2018-04-15T22:16:36.000Z</time>
        <extensions>
          <ns3:TrackPointExtension>
            <ns3:atemp>20.0</ns3:atemp>
            <ns3:cad>91</ns3:cad>
          </ns3:TrackPointExtension>
        </extensions>
      </trkpt>
      <trkpt lat="31.43047702498733997344970703125" lon="119.48751113377511501312255859375">
        <ele>13</ele>
        <time>2018-04-15T22:16:46.000Z</time>
        <extensions>
          <ns3:TrackPointExtension>
            <ns3:atemp>20.0</ns3:atemp>
            <ns3:cad>92</ns3:cad>
          </ns3:TrackPointExtension>
        </extensions>
      </trkpt>
      <trkpt lat="31.430437378585338592529296875" lon="119.487560503184795379638671875">
        <ele>13.19999980926513671875</ele>
        <time>2018-04-15T22:16:50.000Z</time>
        <extensions>
          <ns3:TrackPointExtension>
            <ns3:atemp>20.0</ns3:atemp>
            <ns3:cad>90</ns3:cad>
          </ns3:TrackPointExtension>
        </extensions>
      </trkpt>
      <trkpt lat="31.430413238704204559326171875" lon="119.487586319446563720703125">
        <ele>13.19999980926513671875</ele>
        <time>2018-04-15T22:16:52.000Z</time>
        <extensions>
          <ns3:TrackPointExtension>
            <ns3:atemp>20.0</ns3:atemp>
            <ns3:cad>89</ns3:cad>
          </ns3:TrackPointExtension>
        </extensions>
      </trkpt>
      <trkpt lat="31.43035615794360637664794921875" lon="119.48768480680882930755615234375">
        <ele>12.3999996185302734375</ele>
        <time>2018-04-15T22:16:59.000Z</time>
        <extensions>
          <ns3:TrackPointExtension>
            <ns3:atemp>20.0</ns3:atemp>
            <ns3:cad>91</ns3:cad>
          </ns3:TrackPointExtension>
        </extensions>
      </trkpt>
      <trkpt lat="31.43033604137599468231201171875" lon="119.48770157061517238616943359375">
        <ele>12.19999980926513671875</ele>
        <time>2018-04-15T22:17:00.000Z</time>
        <extensions>
          <ns3:TrackPointExtension>
            <ns3:atemp>20.0</ns3:atemp>
            <ns3:cad>91</ns3:cad>
          </ns3:TrackPointExtension>
        </extensions>
      </trkpt>
      <trkpt lat="31.430246941745281219482421875" lon="119.4878040812909603118896484375">
        <ele>12.19999980926513671875</ele>
        <time>2018-04-15T22:17:07.000Z</time>
        <extensions>
          <ns3:TrackPointExtension>
            <ns3:atemp>20.0</ns3:atemp>
            <ns3:cad>90</ns3:cad>
          </ns3:TrackPointExtension>
        </extensions>
      </trkpt>
      <trkpt lat="31.4301428385078907012939453125" lon="119.48795554228127002716064453125">
        <ele>12.6000003814697265625</ele>
        <time>2018-04-15T22:17:23.000Z</time>
        <extensions>
          <ns3:TrackPointExtension>
            <ns3:atemp>20.0</ns3:atemp>
            <ns3:cad>0</ns3:cad>
          </ns3:TrackPointExtension>
        </extensions>
      </trkpt>
      <trkpt lat="31.43011542968451976776123046875" lon="119.48798756115138530731201171875">
        <ele>12.6000003814697265625</ele>
        <time>2018-04-15T22:17:25.000Z</time>
        <extensions>
          <ns3:TrackPointExtension>
            <ns3:atemp>20.0</ns3:atemp>
            <ns3:cad>60</ns3:cad>
          </ns3:TrackPointExtension>
        </extensions>
      </trkpt>
      <trkpt lat="31.43008441664278507232666015625" lon="119.4880065880715847015380859375">
        <ele>12.6000003814697265625</ele>
        <time>2018-04-15T22:17:27.000Z</time>
        <extensions>
          <ns3:TrackPointExtension>
            <ns3:atemp>20.0</ns3:atemp>
            <ns3:cad>60</ns3:cad>
          </ns3:TrackPointExtension>
        </extensions>
      </trkpt>
      <trkpt lat="31.42996874637901782989501953125" lon="119.48819828219711780548095703125">
        <ele>12.19999980926513671875</ele>
        <time>2018-04-15T22:17:37.000Z</time>
        <extensions>
          <ns3:TrackPointExtension>
            <ns3:atemp>20.0</ns3:atemp>
            <ns3:cad>92</ns3:cad>
          </ns3:TrackPointExtension>
        </extensions>
      </trkpt>
      <trkpt lat="31.42984402365982532501220703125" lon="119.4883599691092967987060546875">
        <ele>11.3999996185302734375</ele>
        <time>2018-04-15T22:17:45.000Z</time>
        <extensions>
          <ns3:TrackPointExtension>
            <ns3:atemp>20.0</ns3:atemp>
            <ns3:cad>93</ns3:cad>
          </ns3:TrackPointExtension>
        </extensions>
      </trkpt>
      <trkpt lat="31.4297250844538211822509765625" lon="119.48854881338775157928466796875">
        <ele>11.6000003814697265625</ele>
        <time>2018-04-15T22:17:55.000Z</time>
        <extensions>
          <ns3:TrackPointExtension>
            <ns3:atemp>20.0</ns3:atemp>
            <ns3:cad>91</ns3:cad>
          </ns3:TrackPointExtension>
        </extensions>
      </trkpt>
      <trkpt lat="31.42958007752895355224609375" lon="119.48871619999408721923828125">
        <ele>12.19999980926513671875</ele>
        <time>2018-04-15T22:18:02.000Z</time>
        <extensions>
          <ns3:TrackPointExtension>
            <ns3:atemp>20.0</ns3:atemp>
            <ns3:cad>89</ns3:cad>
          </ns3:TrackPointExtension>
        </extensions>
      </trkpt>
      <trkpt lat="31.4294692687690258026123046875" lon="119.48888593353331089019775390625">
        <ele>12.6000003814697265625</ele>
        <time>2018-04-15T22:18:10.000Z</time>
        <extensions>
          <ns3:TrackPointExtension>
            <ns3:atemp>20.0</ns3:atemp>
            <ns3:cad>89</ns3:cad>
          </ns3:TrackPointExtension>
        </extensions>
      </trkpt>
      <trkpt lat="31.42945728264749050140380859375" lon="119.4889044575393199920654296875">
        <ele>12.6000003814697265625</ele>
        <time>2018-04-15T22:18:11.000Z</time>
        <extensions>
          <ns3:TrackPointExtension>
            <ns3:atemp>20.0</ns3:atemp>
            <ns3:cad>89</ns3:cad>
          </ns3:TrackPointExtension>
        </extensions>
      </trkpt>
      <trkpt lat="31.429318226873874664306640625" lon="119.4890620373189449310302734375">
        <ele>12.19999980926513671875</ele>
        <time>2018-04-15T22:18:23.000Z</time>
        <extensions>
          <ns3:TrackPointExtension>
            <ns3:atemp>20.0</ns3:atemp>
            <ns3:cad>90</ns3:cad>
          </ns3:TrackPointExtension>
        </extensions>
      </trkpt>
      <trkpt lat="31.4291987009346485137939453125" lon="119.48922556824982166290283203125">
        <ele>11.80000019073486328125</ele>
        <time>2018-04-15T22:18:32.000Z</time>
        <extensions>
          <ns3:TrackPointExtension>
            <ns3:atemp>20.0</ns3:atemp>
            <ns3:cad>90</ns3:cad>
          </ns3:TrackPointExtension>
        </extensions>
      </trkpt>
      <trkpt lat="31.42907506786286830902099609375" lon="119.48941198177635669708251953125">
        <ele>12.3999996185302734375</ele>
        <time>2018-04-15T22:18:41.000Z</time>
        <extensions>
          <ns3:TrackPointExtension>
            <ns3:atemp>20.0</ns3:atemp>
            <ns3:cad>90</ns3:cad>
          </ns3:TrackPointExtension>
        </extensions>
      </trkpt>
      <trkpt lat="31.42895285971462726593017578125" lon="119.48960057459771633148193359375">
        <ele>12.3999996185302734375</ele>
        <time>2018-04-15T22:18:50.000Z</time>
        <extensions>
          <ns3:TrackPointExtension>
            <ns3:atemp>20.0</ns3:atemp>
            <ns3:cad>91</ns3:cad>
          </ns3:TrackPointExtension>
        </extensions>
      </trkpt>
      <trkpt lat="31.42883174121379852294921875" lon="119.48976360261440277099609375">
        <ele>11.80000019073486328125</ele>
        <time>2018-04-15T22:18:59.000Z</time>
        <extensions>
          <ns3:TrackPointExtension>
            <ns3:atemp>20.0</ns3:atemp>
            <ns3:cad>91</ns3:cad>
          </ns3:TrackPointExtension>
        </extensions>
      </trkpt>
      <trkpt lat="31.42878748476505279541015625" lon="119.4898056797683238983154296875">
        <ele>11</ele>
        <time>2018-04-15T22:19:02.000Z</time>
        <extensions>
          <ns3:TrackPointExtension>
            <ns3:atemp>20.0</ns3:atemp>
            <ns3:cad>91</ns3:cad>
          </ns3:TrackPointExtension>
        </extensions>
      </trkpt>
      <trkpt lat="31.42864826135337352752685546875" lon="119.48996300809085369110107421875">
        <ele>10.6000003814697265625</ele>
        <time>2018-04-15T22:19:12.000Z</time>
        <extensions>
          <ns3:TrackPointExtension>
            <ns3:atemp>20.0</ns3:atemp>
            <ns3:cad>89</ns3:cad>
          </ns3:TrackPointExtension>
        </extensions>
      </trkpt>
      <trkpt lat="31.42853200435638427734375" lon="119.49013701640069484710693359375">
        <ele>10.6000003814697265625</ele>
        <time>2018-04-15T22:19:21.000Z</time>
        <extensions>
          <ns3:TrackPointExtension>
            <ns3:atemp>20.0</ns3:atemp>
            <ns3:cad>91</ns3:cad>
          </ns3:TrackPointExtension>
        </extensions>
      </trkpt>
      <trkpt lat="31.4284000732004642486572265625" lon="119.49030448682606220245361328125">
        <ele>10.3999996185302734375</ele>
        <time>2018-04-15T22:19:32.000Z</time>
        <extensions>
          <ns3:TrackPointExtension>
            <ns3:atemp>20.0</ns3:atemp>
            <ns3:cad>90</ns3:cad>
          </ns3:TrackPointExtension>
        </extensions>
      </trkpt>
      <trkpt lat="31.42825967632234096527099609375" lon="119.490477405488491058349609375">
        <ele>10.3999996185302734375</ele>
        <time>2018-04-15T22:19:40.000Z</time>
        <extensions>
          <ns3:TrackPointExtension>
            <ns3:atemp>20.0</ns3:atemp>
            <ns3:cad>90</ns3:cad>
          </ns3:TrackPointExtension>
        </extensions>
      </trkpt>
      <trkpt lat="31.42813662998378276824951171875" lon="119.49065820313990116119384765625">
        <ele>11</ele>
        <time>2018-04-15T22:19:48.000Z</time>
        <extensions>
          <ns3:TrackPointExtension>
            <ns3:atemp>20.0</ns3:atemp>
            <ns3:cad>91</ns3:cad>
          </ns3:TrackPointExtension>
        </extensions>
      </trkpt>
      <trkpt lat="31.42811022698879241943359375" lon="119.4906881265342235565185546875">
        <ele>11.19999980926513671875</ele>
        <time>2018-04-15T22:19:50.000Z</time>
        <extensions>
          <ns3:TrackPointExtension>
            <ns3:atemp>20.0</ns3:atemp>
            <ns3:cad>91</ns3:cad>
          </ns3:TrackPointExtension>
        </extensions>
      </trkpt>
      <trkpt lat="31.4281003363430500030517578125" lon="119.490692317485809326171875">
        <ele>11.19999980926513671875</ele>
        <time>2018-04-15T22:19:51.000Z</time>
        <extensions>
          <ns3:TrackPointExtension>
            <ns3:atemp>20.0</ns3:atemp>
            <ns3:cad>90</ns3:cad>
          </ns3:TrackPointExtension>
        </extensions>
      </trkpt>
      <trkpt lat="31.4280829019844532012939453125" lon="119.49074068106710910797119140625">
        <ele>11.19999980926513671875</ele>
        <time>2018-04-15T22:19:58.000Z</time>
        <extensions>
          <ns3:TrackPointExtension>
            <ns3:atemp>20.0</ns3:atemp>
            <ns3:cad>57</ns3:cad>
          </ns3:TrackPointExtension>
        </extensions>
      </trkpt>
      <trkpt lat="31.42806337215006351470947265625" lon="119.49078359641134738922119140625">
        <ele>11</ele>
        <time>2018-04-15T22:20:02.000Z</time>
        <extensions>
          <ns3:TrackPointExtension>
            <ns3:atemp>20.0</ns3:atemp>
            <ns3:cad>45</ns3:cad>
          </ns3:TrackPointExtension>
        </extensions>
      </trkpt>
      <trkpt lat="31.42803453840315341949462890625" lon="119.4908071495592594146728515625">
        <ele>11</ele>
        <time>2018-04-15T22:20:04.000Z</time>
        <extensions>
          <ns3:TrackPointExtension>
            <ns3:atemp>20.0</ns3:atemp>
            <ns3:cad>83</ns3:cad>
          </ns3:TrackPointExtension>
        </extensions>
      </trkpt>
      <trkpt lat="31.42790830694139003753662109375" lon="119.49097336269915103912353515625">
        <ele>11.19999980926513671875</ele>
        <time>2018-04-15T22:20:14.000Z</time>
        <extensions>
          <ns3:TrackPointExtension>
            <ns3:atemp>19.0</ns3:atemp>
            <ns3:cad>88</ns3:cad>
          </ns3:TrackPointExtension>
        </extensions>
      </trkpt>
      <trkpt lat="31.42779280431568622589111328125" lon="119.49115307070314884185791015625">
        <ele>10.6000003814697265625</ele>
        <time>2018-04-15T22:20:24.000Z</time>
        <extensions>
          <ns3:TrackPointExtension>
            <ns3:atemp>19.0</ns3:atemp>
            <ns3:cad>88</ns3:cad>
          </ns3:TrackPointExtension>
        </extensions>
      </trkpt>
      <trkpt lat="31.427684761583805084228515625" lon="119.49134803377091884613037109375">
        <ele>10.3999996185302734375</ele>
        <time>2018-04-15T22:20:34.000Z</time>
        <extensions>
          <ns3:TrackPointExtension>
            <ns3:atemp>19.0</ns3:atemp>
            <ns3:cad>89</ns3:cad>
          </ns3:TrackPointExtension>
        </extensions>
      </trkpt>
      <trkpt lat="31.42759784124791622161865234375" lon="119.4915544800460338592529296875">
        <ele>11</ele>
        <time>2018-04-15T22:20:43.000Z</time>
        <extensions>
          <ns3:TrackPointExtension>
            <ns3:atemp>19.0</ns3:atemp>
            <ns3:cad>88</ns3:cad>
          </ns3:TrackPointExtension>
        </extensions>
      </trkpt>
      <trkpt lat="31.42751502804458141326904296875" lon="119.49174533598124980926513671875">
        <ele>10.19999980926513671875</ele>
        <time>2018-04-15T22:20:52.000Z</time>
        <extensions>
          <ns3:TrackPointExtension>
            <ns3:atemp>19.0</ns3:atemp>
            <ns3:cad>89</ns3:cad>
          </ns3:TrackPointExtension>
        </extensions>
      </trkpt>
      <trkpt lat="31.4274126850068569183349609375" lon="119.49190668761730194091796875">
        <ele>10</ele>
        <time>2018-04-15T22:21:00.000Z</time>
        <extensions>
          <ns3:TrackPointExtension>
            <ns3:atemp>19.0</ns3:atemp>
            <ns3:cad>89</ns3:cad>
          </ns3:TrackPointExtension>
        </extensions>
      </trkpt>
      <trkpt lat="31.42728745937347412109375" lon="119.492062591016292572021484375">
        <ele>10.19999980926513671875</ele>
        <time>2018-04-15T22:21:09.000Z</time>
        <extensions>
          <ns3:TrackPointExtension>
            <ns3:atemp>19.0</ns3:atemp>
            <ns3:cad>90</ns3:cad>
          </ns3:TrackPointExtension>
        </extensions>
      </trkpt>
      <trkpt lat="31.4271642453968524932861328125" lon="119.49223819188773632049560546875">
        <ele>10.19999980926513671875</ele>
        <time>2018-04-15T22:21:18.000Z</time>
        <extensions>
          <ns3:TrackPointExtension>
            <ns3:atemp>19.0</ns3:atemp>
            <ns3:cad>90</ns3:cad>
          </ns3:TrackPointExtension>
        </extensions>
      </trkpt>
      <trkpt lat="31.4270368404686450958251953125" lon="119.49239225126802921295166015625">
        <ele>10.6000003814697265625</ele>
        <time>2018-04-15T22:21:27.000Z</time>
        <extensions>
          <ns3:TrackPointExtension>
            <ns3:atemp>19.0</ns3:atemp>
            <ns3:cad>90</ns3:cad>
          </ns3:TrackPointExtension>
        </extensions>
      </trkpt>
      <trkpt lat="31.426976658403873443603515625" lon="119.49246014468371868133544921875">
        <ele>11.19999980926513671875</ele>
        <time>2018-04-15T22:21:31.000Z</time>
        <extensions>
          <ns3:TrackPointExtension>
            <ns3:atemp>19.0</ns3:atemp>
            <ns3:cad>90</ns3:cad>
          </ns3:TrackPointExtension>
        </extensions>
      </trkpt>
      <trkpt lat="31.42696299590170383453369140625" lon="119.49248109944164752960205078125">
        <ele>11.19999980926513671875</ele>
        <time>2018-04-15T22:21:32.000Z</time>
        <extensions>
          <ns3:TrackPointExtension>
            <ns3:atemp>19.0</ns3:atemp>
            <ns3:cad>90</ns3:cad>
          </ns3:TrackPointExtension>
        </extensions>
      </trkpt>
      <trkpt lat="31.42683743499219417572021484375" lon="119.492653347551822662353515625">
        <ele>10.80000019073486328125</ele>
        <time>2018-04-15T22:21:41.000Z</time>
        <extensions>
          <ns3:TrackPointExtension>
            <ns3:atemp>19.0</ns3:atemp>
            <ns3:cad>90</ns3:cad>
          </ns3:TrackPointExtension>
        </extensions>
      </trkpt>
      <trkpt lat="31.4267210103571414947509765625" lon="119.492791481316089630126953125">
        <ele>9.80000019073486328125</ele>
        <time>2018-04-15T22:21:50.000Z</time>
        <extensions>
          <ns3:TrackPointExtension>
            <ns3:atemp>19.0</ns3:atemp>
            <ns3:cad>88</ns3:cad>
          </ns3:TrackPointExtension>
        </extensions>
      </trkpt>
      <trkpt lat="31.42667147330939769744873046875" lon="119.49285593815147876739501953125">
        <ele>9.6000003814697265625</ele>
        <time>2018-04-15T22:21:54.000Z</time>
        <extensions>
          <ns3:TrackPointExtension>
            <ns3:atemp>19.0</ns3:atemp>
            <ns3:cad>88</ns3:cad>
          </ns3:TrackPointExtension>
        </extensions>
      </trkpt>
      <trkpt lat="31.42653635703027248382568359375" lon="119.49301636777818202972412109375">
        <ele>9.80000019073486328125</ele>
        <time>2018-04-15T22:22:04.000Z</time>
        <extensions>
          <ns3:TrackPointExtension>
            <ns3:atemp>19.0</ns3:atemp>
            <ns3:cad>86</ns3:cad>
          </ns3:TrackPointExtension>
        </extensions>
      </trkpt>
      <trkpt lat="31.42640174366533756256103515625" lon="119.49316472746431827545166015625">
        <ele>10.3999996185302734375</ele>
        <time>2018-04-15T22:22:18.000Z</time>
        <extensions>
          <ns3:TrackPointExtension>
            <ns3:atemp>19.0</ns3:atemp>
            <ns3:cad>90</ns3:cad>
          </ns3:TrackPointExtension>
        </extensions>
      </trkpt>
      <trkpt lat="31.4263374544680118560791015625" lon="119.49323127977550029754638671875">
        <ele>11</ele>
        <time>2018-04-15T22:22:22.000Z</time>
        <extensions>
          <ns3:TrackPointExtension>
            <ns3:atemp>19.0</ns3:atemp>
            <ns3:cad>89</ns3:cad>
          </ns3:TrackPointExtension>
        </extensions>
      </trkpt>
      <trkpt lat="31.42618750222027301788330078125" lon="119.4933758676052093505859375">
        <ele>11</ele>
        <time>2018-04-15T22:22:31.000Z</time>
        <extensions>
          <ns3:TrackPointExtension>
            <ns3:atemp>19.0</ns3:atemp>
            <ns3:cad>90</ns3:cad>
          </ns3:TrackPointExtension>
        </extensions>
      </trkpt>
      <trkpt lat="31.42603151500225067138671875" lon="119.493523724377155303955078125">
        <ele>11.19999980926513671875</ele>
        <time>2018-04-15T22:22:40.000Z</time>
        <extensions>
          <ns3:TrackPointExtension>
            <ns3:atemp>19.0</ns3:atemp>
            <ns3:cad>90</ns3:cad>
          </ns3:TrackPointExtension>
        </extensions>
      </trkpt>
      <trkpt lat="31.42587904818356037139892578125" lon="119.493661858141422271728515625">
        <ele>10.6000003814697265625</ele>
        <time>2018-04-15T22:22:49.000Z</time>
        <extensions>
          <ns3:TrackPointExtension>
            <ns3:atemp>19.0</ns3:atemp>
            <ns3:cad>92</ns3:cad>
          </ns3:TrackPointExtension>
        </extensions>
      </trkpt>
      <trkpt lat="31.4257252402603626251220703125" lon="119.49376906268298625946044921875">
        <ele>10.6000003814697265625</ele>
        <time>2018-04-15T22:22:58.000Z</time>
        <extensions>
          <ns3:TrackPointExtension>
            <ns3:atemp>19.0</ns3:atemp>
            <ns3:cad>88</ns3:cad>
          </ns3:TrackPointExtension>
        </extensions>
      </trkpt>
      <trkpt lat="31.42557428218424320220947265625" lon="119.49389864690601825714111328125">
        <ele>10.3999996185302734375</ele>
        <time>2018-04-15T22:23:06.000Z</time>
        <extensions>
          <ns3:TrackPointExtension>
            <ns3:atemp>19.0</ns3:atemp>
            <ns3:cad>89</ns3:cad>
          </ns3:TrackPointExtension>
        </extensions>
      </trkpt>
      <trkpt lat="31.425439417362213134765625" lon="119.49404734186828136444091796875">
        <ele>11.3999996185302734375</ele>
        <time>2018-04-15T22:23:15.000Z</time>
        <extensions>
          <ns3:TrackPointExtension>
            <ns3:atemp>19.0</ns3:atemp>
            <ns3:cad>88</ns3:cad>
          </ns3:TrackPointExtension>
        </extensions>
      </trkpt>
      <trkpt lat="31.42530388198792934417724609375" lon="119.49419788084924221038818359375">
        <ele>11.19999980926513671875</ele>
        <time>2018-04-15T22:23:24.000Z</time>
        <extensions>
          <ns3:TrackPointExtension>
            <ns3:atemp>19.0</ns3:atemp>
            <ns3:cad>89</ns3:cad>
          </ns3:TrackPointExtension>
        </extensions>
      </trkpt>
      <trkpt lat="31.42521956004202365875244140625" lon="119.49438898824155330657958984375">
        <ele>11</ele>
        <time>2018-04-15T22:23:35.000Z</time>
        <extensions>
          <ns3:TrackPointExtension>
            <ns3:atemp>19.0</ns3:atemp>
            <ns3:cad>90</ns3:cad>
          </ns3:TrackPointExtension>
        </extensions>
      </trkpt>
      <trkpt lat="31.42527647316455841064453125" lon="119.49454128742218017578125">
        <ele>12</ele>
        <time>2018-04-15T22:23:42.000Z</time>
        <extensions>
          <ns3:TrackPointExtension>
            <ns3:atemp>19.0</ns3:atemp>
            <ns3:cad>90</ns3:cad>
          </ns3:TrackPointExtension>
        </extensions>
      </trkpt>
      <trkpt lat="31.42533623613417148590087890625" lon="119.49473901651799678802490234375">
        <ele>12.19999980926513671875</ele>
        <time>2018-04-15T22:23:50.000Z</time>
        <extensions>
          <ns3:TrackPointExtension>
            <ns3:atemp>19.0</ns3:atemp>
            <ns3:cad>89</ns3:cad>
          </ns3:TrackPointExtension>
        </extensions>
      </trkpt>
      <trkpt lat="31.4253227412700653076171875" lon="119.49487849138677120208740234375">
        <ele>12.6000003814697265625</ele>
        <time>2018-04-15T22:23:58.000Z</time>
        <extensions>
          <ns3:TrackPointExtension>
            <ns3:atemp>19.0</ns3:atemp>
            <ns3:cad>89</ns3:cad>
          </ns3:TrackPointExtension>
        </extensions>
      </trkpt>
      <trkpt lat="31.42529583536088466644287109375" lon="119.49488569982349872589111328125">
        <ele>12.6000003814697265625</ele>
        <time>2018-04-15T22:24:00.000Z</time>
        <extensions>
          <ns3:TrackPointExtension>
            <ns3:atemp>19.0</ns3:atemp>
            <ns3:cad>89</ns3:cad>
          </ns3:TrackPointExtension>
        </extensions>
      </trkpt>
      <trkpt lat="31.42513238824903964996337890625" lon="119.49475829489529132843017578125">
        <ele>12.19999980926513671875</ele>
        <time>2018-04-15T22:24:09.000Z</time>
        <extensions>
          <ns3:TrackPointExtension>
            <ns3:atemp>19.0</ns3:atemp>
            <ns3:cad>90</ns3:cad>
          </ns3:TrackPointExtension>
        </extensions>
      </trkpt>
      <trkpt lat="31.42499475739896297454833984375" lon="119.49462099932134151458740234375">
        <ele>12.6000003814697265625</ele>
        <time>2018-04-15T22:24:17.000Z</time>
        <extensions>
          <ns3:TrackPointExtension>
            <ns3:atemp>19.0</ns3:atemp>
            <ns3:cad>90</ns3:cad>
          </ns3:TrackPointExtension>
        </extensions>
      </trkpt>
      <trkpt lat="31.424977742135524749755859375" lon="119.4946021400392055511474609375">
        <ele>13</ele>
        <time>2018-04-15T22:24:18.000Z</time>
        <extensions>
          <ns3:TrackPointExtension>
            <ns3:atemp>19.0</ns3:atemp>
            <ns3:cad>90</ns3:cad>
          </ns3:TrackPointExtension>
        </extensions>
      </trkpt>
      <trkpt lat="31.42484187148511409759521484375" lon="119.49440541677176952362060546875">
        <ele>13.6000003814697265625</ele>
        <time>2018-04-15T22:24:25.000Z</time>
        <extensions>
          <ns3:TrackPointExtension>
            <ns3:atemp>19.0</ns3:atemp>
            <ns3:cad>91</ns3:cad>
          </ns3:TrackPointExtension>
        </extensions>
      </trkpt>
      <trkpt lat="31.42481152899563312530517578125" lon="119.49434607289731502532958984375">
        <ele>14.19999980926513671875</ele>
        <time>2018-04-15T22:24:27.000Z</time>
        <extensions>
          <ns3:TrackPointExtension>
            <ns3:atemp>19.0</ns3:atemp>
            <ns3:cad>90</ns3:cad>
          </ns3:TrackPointExtension>
        </extensions>
      </trkpt>
      <trkpt lat="31.4246775023639202117919921875" lon="119.49417273513972759246826171875">
        <ele>13.6000003814697265625</ele>
        <time>2018-04-15T22:24:36.000Z</time>
        <extensions>
          <ns3:TrackPointExtension>
            <ns3:atemp>19.0</ns3:atemp>
            <ns3:cad>91</ns3:cad>
          </ns3:TrackPointExtension>
        </extensions>
      </trkpt>
      <trkpt lat="31.42460902221500873565673828125" lon="119.4940948672592639923095703125">
        <ele>13</ele>
        <time>2018-04-15T22:24:40.000Z</time>
        <extensions>
          <ns3:TrackPointExtension>
            <ns3:atemp>19.0</ns3:atemp>
            <ns3:cad>92</ns3:cad>
          </ns3:TrackPointExtension>
        </extensions>
      </trkpt>
      <trkpt lat="31.424482204020023345947265625" lon="119.4939232058823108673095703125">
        <ele>13</ele>
        <time>2018-04-15T22:24:50.000Z</time>
        <extensions>
          <ns3:TrackPointExtension>
            <ns3:atemp>19.0</ns3:atemp>
            <ns3:cad>91</ns3:cad>
          </ns3:TrackPointExtension>
        </extensions>
      </trkpt>
      <trkpt lat="31.4243412204086780548095703125" lon="119.49378230608999729156494140625">
        <ele>12.80000019073486328125</ele>
        <time>2018-04-15T22:24:58.000Z</time>
        <extensions>
          <ns3:TrackPointExtension>
            <ns3:atemp>19.0</ns3:atemp>
            <ns3:cad>92</ns3:cad>
          </ns3:TrackPointExtension>
        </extensions>
      </trkpt>
      <trkpt lat="31.4242802001535892486572265625" lon="119.4936883449554443359375">
        <ele>11.80000019073486328125</ele>
        <time>2018-04-15T22:25:03.000Z</time>
        <extensions>
          <ns3:TrackPointExtension>
            <ns3:atemp>19.0</ns3:atemp>
            <ns3:cad>92</ns3:cad>
          </ns3:TrackPointExtension>
        </extensions>
      </trkpt>
      <trkpt lat="31.424212642014026641845703125" lon="119.49358834885060787200927734375">
        <ele>13</ele>
        <time>2018-04-15T22:25:08.000Z</time>
        <extensions>
          <ns3:TrackPointExtension>
            <ns3:atemp>18.0</ns3:atemp>
            <ns3:cad>93</ns3:cad>
          </ns3:TrackPointExtension>
        </extensions>
      </trkpt>
      <trkpt lat="31.4240857400000095367431640625" lon="119.4934135861694812774658203125">
        <ele>12</ele>
        <time>2018-04-15T22:25:17.000Z</time>
        <extensions>
          <ns3:TrackPointExtension>
            <ns3:atemp>18.0</ns3:atemp>
            <ns3:cad>92</ns3:cad>
          </ns3:TrackPointExtension>
        </extensions>
      </trkpt>
      <trkpt lat="31.424070484936237335205078125" lon="119.49339489452540874481201171875">
        <ele>11.6000003814697265625</ele>
        <time>2018-04-15T22:25:18.000Z</time>
        <extensions>
          <ns3:TrackPointExtension>
            <ns3:atemp>18.0</ns3:atemp>
            <ns3:cad>92</ns3:cad>
          </ns3:TrackPointExtension>
        </extensions>
      </trkpt>
      <trkpt lat="31.42393042333424091339111328125" lon="119.49323966167867183685302734375">
        <ele>11.6000003814697265625</ele>
        <time>2018-04-15T22:25:26.000Z</time>
        <extensions>
          <ns3:TrackPointExtension>
            <ns3:atemp>18.0</ns3:atemp>
            <ns3:cad>91</ns3:cad>
          </ns3:TrackPointExtension>
        </extensions>
      </trkpt>
      <trkpt lat="31.4238470233976840972900390625" lon="119.49313136748969554901123046875">
        <ele>12.6000003814697265625</ele>
        <time>2018-04-15T22:25:31.000Z</time>
        <extensions>
          <ns3:TrackPointExtension>
            <ns3:atemp>18.0</ns3:atemp>
            <ns3:cad>91</ns3:cad>
          </ns3:TrackPointExtension>
        </extensions>
      </trkpt>
      <trkpt lat="31.423794887959957122802734375" lon="119.4930682517588138580322265625">
        <ele>12.3999996185302734375</ele>
        <time>2018-04-15T22:25:34.000Z</time>
        <extensions>
          <ns3:TrackPointExtension>
            <ns3:atemp>18.0</ns3:atemp>
            <ns3:cad>92</ns3:cad>
          </ns3:TrackPointExtension>
        </extensions>
      </trkpt>
      <trkpt lat="31.4236626215279102325439453125" lon="119.49291075579822063446044921875">
        <ele>11.80000019073486328125</ele>
        <time>2018-04-15T22:25:43.000Z</time>
        <extensions>
          <ns3:TrackPointExtension>
            <ns3:atemp>18.0</ns3:atemp>
            <ns3:cad>92</ns3:cad>
          </ns3:TrackPointExtension>
        </extensions>
      </trkpt>
      <trkpt lat="31.4235720969736576080322265625" lon="119.4927943311631679534912109375">
        <ele>11.6000003814697265625</ele>
        <time>2018-04-15T22:25:49.000Z</time>
        <extensions>
          <ns3:TrackPointExtension>
            <ns3:atemp>18.0</ns3:atemp>
            <ns3:cad>91</ns3:cad>
          </ns3:TrackPointExtension>
        </extensions>
      </trkpt>
      <trkpt lat="31.42345726490020751953125" lon="119.49261118657886981964111328125">
        <ele>12</ele>
        <time>2018-04-15T22:25:59.000Z</time>
        <extensions>
          <ns3:TrackPointExtension>
            <ns3:atemp>18.0</ns3:atemp>
            <ns3:cad>89</ns3:cad>
          </ns3:TrackPointExtension>
        </extensions>
      </trkpt>
      <trkpt lat="31.423314101994037628173828125" lon="119.4924671016633510589599609375">
        <ele>12</ele>
        <time>2018-04-15T22:26:08.000Z</time>
        <extensions>
          <ns3:TrackPointExtension>
            <ns3:atemp>18.0</ns3:atemp>
            <ns3:cad>89</ns3:cad>
          </ns3:TrackPointExtension>
        </extensions>
      </trkpt>
      <trkpt lat="31.423186697065830230712890625" lon="119.492322094738483428955078125">
        <ele>12.3999996185302734375</ele>
        <time>2018-04-15T22:26:17.000Z</time>
        <extensions>
          <ns3:TrackPointExtension>
            <ns3:atemp>18.0</ns3:atemp>
            <ns3:cad>89</ns3:cad>
          </ns3:TrackPointExtension>
        </extensions>
      </trkpt>
      <trkpt lat="31.42305702902376651763916015625" lon="119.49214498512446880340576171875">
        <ele>12</ele>
        <time>2018-04-15T22:26:26.000Z</time>
        <extensions>
          <ns3:TrackPointExtension>
            <ns3:atemp>18.0</ns3:atemp>
            <ns3:cad>91</ns3:cad>
          </ns3:TrackPointExtension>
        </extensions>
      </trkpt>
      <trkpt lat="31.42291621305048465728759765625" lon="119.49200249277055263519287109375">
        <ele>11.6000003814697265625</ele>
        <time>2018-04-15T22:26:35.000Z</time>
        <extensions>
          <ns3:TrackPointExtension>
            <ns3:atemp>18.0</ns3:atemp>
            <ns3:cad>90</ns3:cad>
          </ns3:TrackPointExtension>
        </extensions>
      </trkpt>
      <trkpt lat="31.4229065738618373870849609375" lon="119.49199310503900051116943359375">
        <ele>11.6000003814697265625</ele>
        <time>2018-04-15T22:26:36.000Z</time>
        <extensions>
          <ns3:TrackPointExtension>
            <ns3:atemp>18.0</ns3:atemp>
            <ns3:cad>90</ns3:cad>
          </ns3:TrackPointExtension>
        </extensions>
      </trkpt>
      <trkpt lat="31.42277154140174388885498046875" lon="119.492017328739166259765625">
        <ele>10.80000019073486328125</ele>
        <time>2018-04-15T22:27:47.000Z</time>
        <extensions>
          <ns3:TrackPointExtension>
            <ns3:atemp>18.0</ns3:atemp>
            <ns3:cad>0</ns3:cad>
          </ns3:TrackPointExtension>
        </extensions>
      </trkpt>
      <trkpt lat="31.42272309400141239166259765625" lon="119.49201053939759731292724609375">
        <ele>10.80000019073486328125</ele>
        <time>2018-04-15T22:27:50.000Z</time>
        <extensions>
          <ns3:TrackPointExtension>
            <ns3:atemp>18.0</ns3:atemp>
            <ns3:cad>61</ns3:cad>
          </ns3:TrackPointExtension>
        </extensions>
      </trkpt>
      <trkpt lat="31.4225575514137744903564453125" lon="119.49187709949910640716552734375">
        <ele>11</ele>
        <time>2018-04-15T22:27:58.000Z</time>
        <extensions>
          <ns3:TrackPointExtension>
            <ns3:atemp>19.0</ns3:atemp>
            <ns3:cad>90</ns3:cad>
          </ns3:TrackPointExtension>
        </extensions>
      </trkpt>
      <trkpt lat="31.42249829135835170745849609375" lon="119.4918354414403438568115234375">
        <ele>10.6000003814697265625</ele>
        <time>2018-04-15T22:28:01.000Z</time>
        <extensions>
          <ns3:TrackPointExtension>
            <ns3:atemp>19.0</ns3:atemp>
            <ns3:cad>91</ns3:cad>
          </ns3:TrackPointExtension>
        </extensions>
      </trkpt>
      <trkpt lat="31.42232160083949565887451171875" lon="119.49174181558191776275634765625">
        <ele>11.3999996185302734375</ele>
        <time>2018-04-15T22:28:10.000Z</time>
        <extensions>
          <ns3:TrackPointExtension>
            <ns3:atemp>19.0</ns3:atemp>
            <ns3:cad>92</ns3:cad>
          </ns3:TrackPointExtension>
        </extensions>
      </trkpt>
      <trkpt lat="31.422149352729320526123046875" lon="119.4916450046002864837646484375">
        <ele>10.6000003814697265625</ele>
        <time>2018-04-15T22:28:19.000Z</time>
        <extensions>
          <ns3:TrackPointExtension>
            <ns3:atemp>18.0</ns3:atemp>
            <ns3:cad>92</ns3:cad>
          </ns3:TrackPointExtension>
        </extensions>
      </trkpt>
      <trkpt lat="31.42196134664118289947509765625" lon="119.49157233349978923797607421875">
        <ele>10.3999996185302734375</ele>
        <time>2018-04-15T22:28:28.000Z</time>
        <extensions>
          <ns3:TrackPointExtension>
            <ns3:atemp>18.0</ns3:atemp>
            <ns3:cad>90</ns3:cad>
          </ns3:TrackPointExtension>
        </extensions>
      </trkpt>
      <trkpt lat="31.4217787049710750579833984375" lon="119.49149589054286479949951171875">
        <ele>11</ele>
        <time>2018-04-15T22:28:37.000Z</time>
        <extensions>
          <ns3:TrackPointExtension>
            <ns3:atemp>18.0</ns3:atemp>
            <ns3:cad>92</ns3:cad>
          </ns3:TrackPointExtension>
        </extensions>
      </trkpt>
      <trkpt lat="31.42158667556941509246826171875" lon="119.4914250634610652923583984375">
        <ele>10.6000003814697265625</ele>
        <time>2018-04-15T22:28:46.000Z</time>
        <extensions>
          <ns3:TrackPointExtension>
            <ns3:atemp>18.0</ns3:atemp>
            <ns3:cad>92</ns3:cad>
          </ns3:TrackPointExtension>
        </extensions>
      </trkpt>
      <trkpt lat="31.42139389179646968841552734375" lon="119.491364546120166778564453125">
        <ele>11.3999996185302734375</ele>
        <time>2018-04-15T22:28:55.000Z</time>
        <extensions>
          <ns3:TrackPointExtension>
            <ns3:atemp>18.0</ns3:atemp>
            <ns3:cad>92</ns3:cad>
          </ns3:TrackPointExtension>
        </extensions>
      </trkpt>
      <trkpt lat="31.42122105695307254791259765625" lon="119.49128584004938602447509765625">
        <ele>11</ele>
        <time>2018-04-15T22:29:03.000Z</time>
        <extensions>
          <ns3:TrackPointExtension>
            <ns3:atemp>18.0</ns3:atemp>
            <ns3:cad>92</ns3:cad>
          </ns3:TrackPointExtension>
        </extensions>
      </trkpt>
      <trkpt lat="31.421076469123363494873046875" lon="119.49114720337092876434326171875">
        <ele>10.3999996185302734375</ele>
        <time>2018-04-15T22:29:12.000Z</time>
        <extensions>
          <ns3:TrackPointExtension>
            <ns3:atemp>18.0</ns3:atemp>
            <ns3:cad>89</ns3:cad>
          </ns3:TrackPointExtension>
        </extensions>
      </trkpt>
      <trkpt lat="31.42099323682487010955810546875" lon="119.49108132161200046539306640625">
        <ele>10.80000019073486328125</ele>
        <time>2018-04-15T22:29:17.000Z</time>
        <extensions>
          <ns3:TrackPointExtension>
            <ns3:atemp>18.0</ns3:atemp>
            <ns3:cad>90</ns3:cad>
          </ns3:TrackPointExtension>
        </extensions>
      </trkpt>
      <trkpt lat="31.420828364789485931396484375" lon="119.49098878540098667144775390625">
        <ele>10.6000003814697265625</ele>
        <time>2018-04-15T22:29:26.000Z</time>
        <extensions>
          <ns3:TrackPointExtension>
            <ns3:atemp>18.0</ns3:atemp>
            <ns3:cad>90</ns3:cad>
          </ns3:TrackPointExtension>
        </extensions>
      </trkpt>
      <trkpt lat="31.4206605590879917144775390625" lon="119.49089742265641689300537109375">
        <ele>10.6000003814697265625</ele>
        <time>2018-04-15T22:29:37.000Z</time>
        <extensions>
          <ns3:TrackPointExtension>
            <ns3:atemp>18.0</ns3:atemp>
            <ns3:cad>89</ns3:cad>
          </ns3:TrackPointExtension>
        </extensions>
      </trkpt>
      <trkpt lat="31.4204845391213893890380859375" lon="119.490842185914516448974609375">
        <ele>10.6000003814697265625</ele>
        <time>2018-04-15T22:29:46.000Z</time>
        <extensions>
          <ns3:TrackPointExtension>
            <ns3:atemp>18.0</ns3:atemp>
            <ns3:cad>90</ns3:cad>
          </ns3:TrackPointExtension>
        </extensions>
      </trkpt>
      <trkpt lat="31.42029770649969577789306640625" lon="119.4907977618277072906494140625">
        <ele>10.80000019073486328125</ele>
        <time>2018-04-15T22:29:55.000Z</time>
        <extensions>
          <ns3:TrackPointExtension>
            <ns3:atemp>18.0</ns3:atemp>
            <ns3:cad>90</ns3:cad>
          </ns3:TrackPointExtension>
        </extensions>
      </trkpt>
      <trkpt lat="31.42012537457048892974853515625" lon="119.49071318842470645904541015625">
        <ele>10.6000003814697265625</ele>
        <time>2018-04-15T22:30:04.000Z</time>
        <extensions>
          <ns3:TrackPointExtension>
            <ns3:atemp>18.0</ns3:atemp>
            <ns3:cad>90</ns3:cad>
          </ns3:TrackPointExtension>
        </extensions>
      </trkpt>
      <trkpt lat="31.41994893550872802734375" lon="119.490657784044742584228515625">
        <ele>10.6000003814697265625</ele>
        <time>2018-04-15T22:30:14.000Z</time>
        <extensions>
          <ns3:TrackPointExtension>
            <ns3:atemp>18.0</ns3:atemp>
            <ns3:cad>89</ns3:cad>
          </ns3:TrackPointExtension>
        </extensions>
      </trkpt>
      <trkpt lat="31.41976159997284412384033203125" lon="119.49059047736227512359619140625">
        <ele>10.6000003814697265625</ele>
        <time>2018-04-15T22:30:24.000Z</time>
        <extensions>
          <ns3:TrackPointExtension>
            <ns3:atemp>18.0</ns3:atemp>
            <ns3:cad>89</ns3:cad>
          </ns3:TrackPointExtension>
        </extensions>
      </trkpt>
      <trkpt lat="31.419570408761501312255859375" lon="119.4905281998217105865478515625">
        <ele>11</ele>
        <time>2018-04-15T22:30:34.000Z</time>
        <extensions>
          <ns3:TrackPointExtension>
            <ns3:atemp>18.0</ns3:atemp>
            <ns3:cad>90</ns3:cad>
          </ns3:TrackPointExtension>
        </extensions>
      </trkpt>
      <trkpt lat="31.41939531080424785614013671875" lon="119.4904779084026813507080078125">
        <ele>11.3999996185302734375</ele>
        <time>2018-04-15T22:30:43.000Z</time>
        <extensions>
          <ns3:TrackPointExtension>
            <ns3:atemp>18.0</ns3:atemp>
            <ns3:cad>89</ns3:cad>
          </ns3:TrackPointExtension>
        </extensions>
      </trkpt>
      <trkpt lat="31.41933496110141277313232421875" lon="119.49046156369149684906005859375">
        <ele>11.80000019073486328125</ele>
        <time>2018-04-15T22:30:46.000Z</time>
        <extensions>
          <ns3:TrackPointExtension>
            <ns3:atemp>18.0</ns3:atemp>
            <ns3:cad>89</ns3:cad>
          </ns3:TrackPointExtension>
        </extensions>
      </trkpt>
      <trkpt lat="31.4191397465765476226806640625" lon="119.49041496030986309051513671875">
        <ele>12</ele>
        <time>2018-04-15T22:30:55.000Z</time>
        <extensions>
          <ns3:TrackPointExtension>
            <ns3:atemp>18.0</ns3:atemp>
            <ns3:cad>90</ns3:cad>
          </ns3:TrackPointExtension>
        </extensions>
      </trkpt>
      <trkpt lat="31.41894956119358539581298828125" lon="119.4903907366096973419189453125">
        <ele>11.3999996185302734375</ele>
        <time>2018-04-15T22:31:04.000Z</time>
        <extensions>
          <ns3:TrackPointExtension>
            <ns3:atemp>18.0</ns3:atemp>
            <ns3:cad>91</ns3:cad>
          </ns3:TrackPointExtension>
        </extensions>
      </trkpt>
      <trkpt lat="31.41876633279025554656982421875" lon="119.4903471507132053375244140625">
        <ele>10.80000019073486328125</ele>
        <time>2018-04-15T22:31:14.000Z</time>
        <extensions>
          <ns3:TrackPointExtension>
            <ns3:atemp>18.0</ns3:atemp>
            <ns3:cad>91</ns3:cad>
          </ns3:TrackPointExtension>
        </extensions>
      </trkpt>
      <trkpt lat="31.41867958009243011474609375" lon="119.490327201783657073974609375">
        <ele>10.6000003814697265625</ele>
        <time>2018-04-15T22:31:18.000Z</time>
        <extensions>
          <ns3:TrackPointExtension>
            <ns3:atemp>18.0</ns3:atemp>
            <ns3:cad>91</ns3:cad>
          </ns3:TrackPointExtension>
        </extensions>
      </trkpt>
      <trkpt lat="31.41848738305270671844482421875" lon="119.4903288781642913818359375">
        <ele>10.6000003814697265625</ele>
        <time>2018-04-15T22:31:26.000Z</time>
        <extensions>
          <ns3:TrackPointExtension>
            <ns3:atemp>18.0</ns3:atemp>
            <ns3:cad>90</ns3:cad>
          </ns3:TrackPointExtension>
        </extensions>
      </trkpt>
      <trkpt lat="31.418296359479427337646484375" lon="119.49035125784575939178466796875">
        <ele>10.19999980926513671875</ele>
        <time>2018-04-15T22:31:34.000Z</time>
        <extensions>
          <ns3:TrackPointExtension>
            <ns3:atemp>18.0</ns3:atemp>
            <ns3:cad>90</ns3:cad>
          </ns3:TrackPointExtension>
        </extensions>
      </trkpt>
      <trkpt lat="31.418110616505146026611328125" lon="119.49035310186445713043212890625">
        <ele>10.80000019073486328125</ele>
        <time>2018-04-15T22:31:41.000Z</time>
        <extensions>
          <ns3:TrackPointExtension>
            <ns3:atemp>18.0</ns3:atemp>
            <ns3:cad>91</ns3:cad>
          </ns3:TrackPointExtension>
        </extensions>
      </trkpt>
      <trkpt lat="31.41791607253253459930419921875" lon="119.49033834971487522125244140625">
        <ele>11.3999996185302734375</ele>
        <time>2018-04-15T22:31:49.000Z</time>
        <extensions>
          <ns3:TrackPointExtension>
            <ns3:atemp>18.0</ns3:atemp>
            <ns3:cad>90</ns3:cad>
          </ns3:TrackPointExtension>
        </extensions>
      </trkpt>
      <trkpt lat="31.41772295348346233367919921875" lon="119.49036173522472381591796875">
        <ele>11.19999980926513671875</ele>
        <time>2018-04-15T22:31:58.000Z</time>
        <extensions>
          <ns3:TrackPointExtension>
            <ns3:atemp>18.0</ns3:atemp>
            <ns3:cad>90</ns3:cad>
          </ns3:TrackPointExtension>
        </extensions>
      </trkpt>
      <trkpt lat="31.4176514558494091033935546875" lon="119.4903645850718021392822265625">
        <ele>11.80000019073486328125</ele>
        <time>2018-04-15T22:32:01.000Z</time>
        <extensions>
          <ns3:TrackPointExtension>
            <ns3:atemp>18.0</ns3:atemp>
            <ns3:cad>90</ns3:cad>
          </ns3:TrackPointExtension>
        </extensions>
      </trkpt>
      <trkpt lat="31.417456828057765960693359375" lon="119.49036651290953159332275390625">
        <ele>11.3999996185302734375</ele>
        <time>2018-04-15T22:32:10.000Z</time>
        <extensions>
          <ns3:TrackPointExtension>
            <ns3:atemp>18.0</ns3:atemp>
            <ns3:cad>90</ns3:cad>
          </ns3:TrackPointExtension>
        </extensions>
      </trkpt>
      <trkpt lat="31.4172866754233837127685546875" lon="119.4903317280113697052001953125">
        <ele>10.80000019073486328125</ele>
        <time>2018-04-15T22:32:18.000Z</time>
        <extensions>
          <ns3:TrackPointExtension>
            <ns3:atemp>18.0</ns3:atemp>
            <ns3:cad>91</ns3:cad>
          </ns3:TrackPointExtension>
        </extensions>
      </trkpt>
      <trkpt lat="31.41708995215594768524169921875" lon="119.49035377241671085357666015625">
        <ele>10.3999996185302734375</ele>
        <time>2018-04-15T22:32:26.000Z</time>
        <extensions>
          <ns3:TrackPointExtension>
            <ns3:atemp>17.0</ns3:atemp>
            <ns3:cad>90</ns3:cad>
          </ns3:TrackPointExtension>
        </extensions>
      </trkpt>
      <trkpt lat="31.4168940670788288116455078125" lon="119.49034522287547588348388671875">
        <ele>10.6000003814697265625</ele>
        <time>2018-04-15T22:32:35.000Z</time>
        <extensions>
          <ns3:TrackPointExtension>
            <ns3:atemp>17.0</ns3:atemp>
            <ns3:cad>90</ns3:cad>
          </ns3:TrackPointExtension>
        </extensions>
      </trkpt>
      <trkpt lat="31.4167029596865177154541015625" lon="119.49033348821103572845458984375">
        <ele>10.3999996185302734375</ele>
        <time>2018-04-15T22:32:44.000Z</time>
        <extensions>
          <ns3:TrackPointExtension>
            <ns3:atemp>17.0</ns3:atemp>
            <ns3:cad>89</ns3:cad>
          </ns3:TrackPointExtension>
        </extensions>
      </trkpt>
      <trkpt lat="31.41651193611323833465576171875" lon="119.49034631252288818359375">
        <ele>10.80000019073486328125</ele>
        <time>2018-04-15T22:32:52.000Z</time>
        <extensions>
          <ns3:TrackPointExtension>
            <ns3:atemp>17.0</ns3:atemp>
            <ns3:cad>90</ns3:cad>
          </ns3:TrackPointExtension>
        </extensions>
      </trkpt>
      <trkpt lat="31.41642610542476177215576171875" lon="119.4903535209596157073974609375">
        <ele>11</ele>
        <time>2018-04-15T22:32:56.000Z</time>
        <extensions>
          <ns3:TrackPointExtension>
            <ns3:atemp>17.0</ns3:atemp>
            <ns3:cad>90</ns3:cad>
          </ns3:TrackPointExtension>
        </extensions>
      </trkpt>
      <trkpt lat="31.41630314290523529052734375" lon="119.4903503358364105224609375">
        <ele>10.80000019073486328125</ele>
        <time>2018-04-15T22:33:10.000Z</time>
        <extensions>
          <ns3:TrackPointExtension>
            <ns3:atemp>17.0</ns3:atemp>
            <ns3:cad>0</ns3:cad>
          </ns3:TrackPointExtension>
        </extensions>
      </trkpt>
      <trkpt lat="31.41624606214463710784912109375" lon="119.49034254066646099090576171875">
        <ele>10.3999996185302734375</ele>
        <time>2018-04-15T22:33:14.000Z</time>
        <extensions>
          <ns3:TrackPointExtension>
            <ns3:atemp>17.0</ns3:atemp>
            <ns3:cad>98</ns3:cad>
          </ns3:TrackPointExtension>
        </extensions>
      </trkpt>
      <trkpt lat="31.4160662703216075897216796875" lon="119.4903297163546085357666015625">
        <ele>11</ele>
        <time>2018-04-15T22:33:23.000Z</time>
        <extensions>
          <ns3:TrackPointExtension>
            <ns3:atemp>17.0</ns3:atemp>
            <ns3:cad>90</ns3:cad>
          </ns3:TrackPointExtension>
        </extensions>
      </trkpt>
      <trkpt lat="31.41588614322245121002197265625" lon="119.49034069664776325225830078125">
        <ele>11</ele>
        <time>2018-04-15T22:33:31.000Z</time>
        <extensions>
          <ns3:TrackPointExtension>
            <ns3:atemp>17.0</ns3:atemp>
            <ns3:cad>91</ns3:cad>
          </ns3:TrackPointExtension>
        </extensions>
      </trkpt>
      <trkpt lat="31.41568648628890514373779296875" lon="119.4903830252587795257568359375">
        <ele>10.19999980926513671875</ele>
        <time>2018-04-15T22:33:39.000Z</time>
        <extensions>
          <ns3:TrackPointExtension>
            <ns3:atemp>17.0</ns3:atemp>
            <ns3:cad>92</ns3:cad>
          </ns3:TrackPointExtension>
        </extensions>
      </trkpt>
      <trkpt lat="31.415486745536327362060546875" lon="119.49040557257831096649169921875">
        <ele>11.6000003814697265625</ele>
        <time>2018-04-15T22:33:47.000Z</time>
        <extensions>
          <ns3:TrackPointExtension>
            <ns3:atemp>17.0</ns3:atemp>
            <ns3:cad>92</ns3:cad>
          </ns3:TrackPointExtension>
        </extensions>
      </trkpt>
      <trkpt lat="31.41530410386621952056884765625" lon="119.490393586456775665283203125">
        <ele>10.80000019073486328125</ele>
        <time>2018-04-15T22:33:55.000Z</time>
        <extensions>
          <ns3:TrackPointExtension>
            <ns3:atemp>17.0</ns3:atemp>
            <ns3:cad>91</ns3:cad>
          </ns3:TrackPointExtension>
        </extensions>
      </trkpt>
      <trkpt lat="31.415263116359710693359375" lon="119.4903904013335704803466796875">
        <ele>10.80000019073486328125</ele>
        <time>2018-04-15T22:33:57.000Z</time>
        <extensions>
          <ns3:TrackPointExtension>
            <ns3:atemp>17.0</ns3:atemp>
            <ns3:cad>91</ns3:cad>
          </ns3:TrackPointExtension>
        </extensions>
      </trkpt>
      <trkpt lat="31.41508164815604686737060546875" lon="119.49038009159266948699951171875">
        <ele>11.19999980926513671875</ele>
        <time>2018-04-15T22:34:06.000Z</time>
        <extensions>
          <ns3:TrackPointExtension>
            <ns3:atemp>17.0</ns3:atemp>
            <ns3:cad>91</ns3:cad>
          </ns3:TrackPointExtension>
        </extensions>
      </trkpt>
      <trkpt lat="31.4150188677012920379638671875" lon="119.490384198725223541259765625">
        <ele>12</ele>
        <time>2018-04-15T22:34:09.000Z</time>
        <extensions>
          <ns3:TrackPointExtension>
            <ns3:atemp>17.0</ns3:atemp>
            <ns3:cad>91</ns3:cad>
          </ns3:TrackPointExtension>
        </extensions>
      </trkpt>
      <trkpt lat="31.4148272573947906494140625" lon="119.4904098473489284515380859375">
        <ele>11.80000019073486328125</ele>
        <time>2018-04-15T22:34:18.000Z</time>
        <extensions>
          <ns3:TrackPointExtension>
            <ns3:atemp>17.0</ns3:atemp>
            <ns3:cad>90</ns3:cad>
          </ns3:TrackPointExtension>
        </extensions>
      </trkpt>
      <trkpt lat="31.41465048305690288543701171875" lon="119.49044815264642238616943359375">
        <ele>11</ele>
        <time>2018-04-15T22:34:26.000Z</time>
        <extensions>
          <ns3:TrackPointExtension>
            <ns3:atemp>17.0</ns3:atemp>
            <ns3:cad>92</ns3:cad>
          </ns3:TrackPointExtension>
        </extensions>
      </trkpt>
      <trkpt lat="31.41445719636976718902587890625" lon="119.49050121009349822998046875">
        <ele>11</ele>
        <time>2018-04-15T22:34:36.000Z</time>
        <extensions>
          <ns3:TrackPointExtension>
            <ns3:atemp>17.0</ns3:atemp>
            <ns3:cad>91</ns3:cad>
          </ns3:TrackPointExtension>
        </extensions>
      </trkpt>
      <trkpt lat="31.41427128575742244720458984375" lon="119.4905580393970012664794921875">
        <ele>10.6000003814697265625</ele>
        <time>2018-04-15T22:34:44.000Z</time>
        <extensions>
          <ns3:TrackPointExtension>
            <ns3:atemp>17.0</ns3:atemp>
            <ns3:cad>90</ns3:cad>
          </ns3:TrackPointExtension>
        </extensions>
      </trkpt>
      <trkpt lat="31.41408906318247318267822265625" lon="119.490572623908519744873046875">
        <ele>10.6000003814697265625</ele>
        <time>2018-04-15T22:34:52.000Z</time>
        <extensions>
          <ns3:TrackPointExtension>
            <ns3:atemp>17.0</ns3:atemp>
            <ns3:cad>90</ns3:cad>
          </ns3:TrackPointExtension>
        </extensions>
      </trkpt>
      <trkpt lat="31.41389694996178150177001953125" lon="119.49061880819499492645263671875">
        <ele>11</ele>
        <time>2018-04-15T22:35:07.000Z</time>
        <extensions>
          <ns3:TrackPointExtension>
            <ns3:atemp>17.0</ns3:atemp>
            <ns3:cad>91</ns3:cad>
          </ns3:TrackPointExtension>
        </extensions>
      </trkpt>
      <trkpt lat="31.4137176610529422760009765625" lon="119.4907065667212009429931640625">
        <ele>11</ele>
        <time>2018-04-15T22:35:14.000Z</time>
        <extensions>
          <ns3:TrackPointExtension>
            <ns3:atemp>17.0</ns3:atemp>
            <ns3:cad>94</ns3:cad>
          </ns3:TrackPointExtension>
        </extensions>
      </trkpt>
      <trkpt lat="31.413522697985172271728515625" lon="119.4907338917255401611328125">
        <ele>11.19999980926513671875</ele>
        <time>2018-04-15T22:35:23.000Z</time>
        <extensions>
          <ns3:TrackPointExtension>
            <ns3:atemp>17.0</ns3:atemp>
            <ns3:cad>91</ns3:cad>
          </ns3:TrackPointExtension>
        </extensions>
      </trkpt>
      <trkpt lat="31.4133466780185699462890625" lon="119.4907592050731182098388671875">
        <ele>10.80000019073486328125</ele>
        <time>2018-04-15T22:35:32.000Z</time>
        <extensions>
          <ns3:TrackPointExtension>
            <ns3:atemp>17.0</ns3:atemp>
            <ns3:cad>92</ns3:cad>
          </ns3:TrackPointExtension>
        </extensions>
      </trkpt>
      <trkpt lat="31.41317836940288543701171875" lon="119.49085953645408153533935546875">
        <ele>11.6000003814697265625</ele>
        <time>2018-04-15T22:35:39.000Z</time>
        <extensions>
          <ns3:TrackPointExtension>
            <ns3:atemp>17.0</ns3:atemp>
            <ns3:cad>93</ns3:cad>
          </ns3:TrackPointExtension>
        </extensions>
      </trkpt>
      <trkpt lat="31.41299824230372905731201171875" lon="119.4908882863819599151611328125">
        <ele>11.19999980926513671875</ele>
        <time>2018-04-15T22:35:46.000Z</time>
        <extensions>
          <ns3:TrackPointExtension>
            <ns3:atemp>17.0</ns3:atemp>
            <ns3:cad>92</ns3:cad>
          </ns3:TrackPointExtension>
        </extensions>
      </trkpt>
      <trkpt lat="31.41280830837786197662353515625" lon="119.4909268431365489959716796875">
        <ele>11.6000003814697265625</ele>
        <time>2018-04-15T22:35:54.000Z</time>
        <extensions>
          <ns3:TrackPointExtension>
            <ns3:atemp>17.0</ns3:atemp>
            <ns3:cad>92</ns3:cad>
          </ns3:TrackPointExtension>
        </extensions>
      </trkpt>
      <trkpt lat="31.41263396479189395904541015625" lon="119.49097336269915103912353515625">
        <ele>10.6000003814697265625</ele>
        <time>2018-04-15T22:36:02.000Z</time>
        <extensions>
          <ns3:TrackPointExtension>
            <ns3:atemp>17.0</ns3:atemp>
            <ns3:cad>92</ns3:cad>
          </ns3:TrackPointExtension>
        </extensions>
      </trkpt>
      <trkpt lat="31.41243933700025081634521484375" lon="119.4910307787358760833740234375">
        <ele>11.3999996185302734375</ele>
        <time>2018-04-15T22:36:10.000Z</time>
        <extensions>
          <ns3:TrackPointExtension>
            <ns3:atemp>17.0</ns3:atemp>
            <ns3:cad>92</ns3:cad>
          </ns3:TrackPointExtension>
        </extensions>
      </trkpt>
      <trkpt lat="31.41236641444265842437744140625" lon="119.49104930274188518524169921875">
        <ele>11.19999980926513671875</ele>
        <time>2018-04-15T22:36:13.000Z</time>
        <extensions>
          <ns3:TrackPointExtension>
            <ns3:atemp>17.0</ns3:atemp>
            <ns3:cad>92</ns3:cad>
          </ns3:TrackPointExtension>
        </extensions>
      </trkpt>
    </trkseg>
  </trk>
</gpx>
