<gpx xmlns:ns3="http://www.garmin.com/xmlschemas/TrackPointExtension/v1" xmlns="http://www.topografix.com/GPX/1/1" xmlns:xsi="http://www.w3.org/2001/XMLSchema-instance" xmlns:ns2="http://www.garmin.com/xmlschemas/GpxExtensions/v3" creator="Garmin Connect" version="1.1" xsi:schemaLocation="http://www.topografix.com/GPX/1/1 http://www.topografix.com/GPX/11.xsd">
  <extensions>
<distance>2712.76</distance>
<average_hr></average_hr>
<average_speed>4.173476923076922</average_speed>
<start_time>2015-09-14T09:37:07+00:00</start_time>
<end_time>2015-09-14T09:47:57+00:00</end_time>
<moving_time>623.0</moving_time>
<elapsed_time>758.0</elapsed_time>
</extensions>
<metadata>
    <link href="connect.garmin.com">
      <text>Garmin Connect</text>
    </link>
    <time>2015-09-14T09:37:07.000Z</time>
  </metadata>
  <trk>
    <name>下班</name>
    <type>cycling</type>
    <trkseg>
      <trkpt lat="31.4119916595518589019775390625" lon="119.48712430894374847412109375">
        <ele>8.80000019073486328125</ele>
        <time>2015-09-14T09:37:07.000Z</time>
        <extensions>
          <ns3:TrackPointExtension>
            <ns3:atemp>29.0</ns3:atemp>
          </ns3:TrackPointExtension>
        </extensions>
      </trkpt>
      <trkpt lat="31.41200062818825244903564453125" lon="119.48712623678147792816162109375">
        <ele>36</ele>
        <time>2015-09-14T09:37:10.000Z</time>
        <extensions>
          <ns3:TrackPointExtension>
            <ns3:atemp>28.0</ns3:atemp>
          </ns3:TrackPointExtension>
        </extensions>
      </trkpt>
      <trkpt lat="31.4120758138597011566162109375" lon="119.48713109828531742095947265625">
        <ele>8.19999980926513671875</ele>
        <time>2015-09-14T09:37:15.000Z</time>
        <extensions>
          <ns3:TrackPointExtension>
            <ns3:atemp>28.0</ns3:atemp>
          </ns3:TrackPointExtension>
        </extensions>
      </trkpt>
      <trkpt lat="31.4120969362556934356689453125" lon="119.4871311821043491363525390625">
        <ele>8.19999980926513671875</ele>
        <time>2015-09-14T09:37:16.000Z</time>
        <extensions>
          <ns3:TrackPointExtension>
            <ns3:atemp>28.0</ns3:atemp>
          </ns3:TrackPointExtension>
        </extensions>
      </trkpt>
      <trkpt lat="31.41212350688874721527099609375" lon="119.48712808080017566680908203125">
        <ele>8.19999980926513671875</ele>
        <time>2015-09-14T09:37:17.000Z</time>
        <extensions>
          <ns3:TrackPointExtension>
            <ns3:atemp>28.0</ns3:atemp>
          </ns3:TrackPointExtension>
        </extensions>
      </trkpt>
      <trkpt lat="31.412700600922107696533203125" lon="119.48709036223590373992919921875">
        <ele>8.6000003814697265625</ele>
        <time>2015-09-14T09:37:33.000Z</time>
        <extensions>
          <ns3:TrackPointExtension>
            <ns3:atemp>28.0</ns3:atemp>
          </ns3:TrackPointExtension>
        </extensions>
      </trkpt>
      <trkpt lat="31.41328758560121059417724609375" lon="119.48709011077880859375">
        <ele>8.19999980926513671875</ele>
        <time>2015-09-14T09:37:48.000Z</time>
        <extensions>
          <ns3:TrackPointExtension>
            <ns3:atemp>28.0</ns3:atemp>
          </ns3:TrackPointExtension>
        </extensions>
      </trkpt>
      <trkpt lat="31.41389451920986175537109375" lon="119.48708667419850826263427734375">
        <ele>8.6000003814697265625</ele>
        <time>2015-09-14T09:38:02.000Z</time>
        <extensions>
          <ns3:TrackPointExtension>
            <ns3:atemp>28.0</ns3:atemp>
          </ns3:TrackPointExtension>
        </extensions>
      </trkpt>
      <trkpt lat="31.4139838702976703643798828125" lon="119.48708466254174709320068359375">
        <ele>8.6000003814697265625</ele>
        <time>2015-09-14T09:38:04.000Z</time>
        <extensions>
          <ns3:TrackPointExtension>
            <ns3:atemp>28.0</ns3:atemp>
          </ns3:TrackPointExtension>
        </extensions>
      </trkpt>
      <trkpt lat="31.41438511200249195098876953125" lon="119.48701995424926280975341796875">
        <ele>8.3999996185302734375</ele>
        <time>2015-09-14T09:38:13.000Z</time>
        <extensions>
          <ns3:TrackPointExtension>
            <ns3:atemp>28.0</ns3:atemp>
          </ns3:TrackPointExtension>
        </extensions>
      </trkpt>
      <trkpt lat="31.41443003900349140167236328125" lon="119.48701157234609127044677734375">
        <ele>8.3999996185302734375</ele>
        <time>2015-09-14T09:38:14.000Z</time>
        <extensions>
          <ns3:TrackPointExtension>
            <ns3:atemp>28.0</ns3:atemp>
          </ns3:TrackPointExtension>
        </extensions>
      </trkpt>
      <trkpt lat="31.4144740439951419830322265625" lon="119.48700821958482265472412109375">
        <ele>8.3999996185302734375</ele>
        <time>2015-09-14T09:38:15.000Z</time>
        <extensions>
          <ns3:TrackPointExtension>
            <ns3:atemp>28.0</ns3:atemp>
          </ns3:TrackPointExtension>
        </extensions>
      </trkpt>
      <trkpt lat="31.41464629210531711578369140625" lon="119.4869930483400821685791015625">
        <ele>8.19999980926513671875</ele>
        <time>2015-09-14T09:38:19.000Z</time>
        <extensions>
          <ns3:TrackPointExtension>
            <ns3:atemp>28.0</ns3:atemp>
          </ns3:TrackPointExtension>
        </extensions>
      </trkpt>
      <trkpt lat="31.415252052247524261474609375" lon="119.48691484518349170684814453125">
        <ele>8.6000003814697265625</ele>
        <time>2015-09-14T09:38:33.000Z</time>
        <extensions>
          <ns3:TrackPointExtension>
            <ns3:atemp>28.0</ns3:atemp>
          </ns3:TrackPointExtension>
        </extensions>
      </trkpt>
      <trkpt lat="31.41559814102947711944580078125" lon="119.4869497977197170257568359375">
        <ele>9.19999980926513671875</ele>
        <time>2015-09-14T09:38:56.000Z</time>
        <extensions>
          <ns3:TrackPointExtension>
            <ns3:atemp>28.0</ns3:atemp>
          </ns3:TrackPointExtension>
        </extensions>
      </trkpt>
      <trkpt lat="31.41567273996770381927490234375" lon="119.48697921819984912872314453125">
        <ele>9.19999980926513671875</ele>
        <time>2015-09-14T09:39:12.000Z</time>
        <extensions>
          <ns3:TrackPointExtension>
            <ns3:atemp>28.0</ns3:atemp>
          </ns3:TrackPointExtension>
        </extensions>
      </trkpt>
      <trkpt lat="31.41616978682577610015869140625" lon="119.4868649728596210479736328125">
        <ele>8.80000019073486328125</ele>
        <time>2015-09-14T09:39:26.000Z</time>
        <extensions>
          <ns3:TrackPointExtension>
            <ns3:atemp>28.0</ns3:atemp>
          </ns3:TrackPointExtension>
        </extensions>
      </trkpt>
      <trkpt lat="31.41634739935398101806640625" lon="119.486863128840923309326171875">
        <ele>8.80000019073486328125</ele>
        <time>2015-09-14T09:39:30.000Z</time>
        <extensions>
          <ns3:TrackPointExtension>
            <ns3:atemp>28.0</ns3:atemp>
          </ns3:TrackPointExtension>
        </extensions>
      </trkpt>
      <trkpt lat="31.4169698394834995269775390625" lon="119.48680453933775424957275390625">
        <ele>9</ele>
        <time>2015-09-14T09:39:44.000Z</time>
        <extensions>
          <ns3:TrackPointExtension>
            <ns3:atemp>28.0</ns3:atemp>
          </ns3:TrackPointExtension>
        </extensions>
      </trkpt>
      <trkpt lat="31.4175792038440704345703125" lon="119.4867885299026966094970703125">
        <ele>8.80000019073486328125</ele>
        <time>2015-09-14T09:39:58.000Z</time>
        <extensions>
          <ns3:TrackPointExtension>
            <ns3:atemp>27.0</ns3:atemp>
          </ns3:TrackPointExtension>
        </extensions>
      </trkpt>
      <trkpt lat="31.4178422279655933380126953125" lon="119.4867722690105438232421875">
        <ele>9.19999980926513671875</ele>
        <time>2015-09-14T09:40:04.000Z</time>
        <extensions>
          <ns3:TrackPointExtension>
            <ns3:atemp>27.0</ns3:atemp>
          </ns3:TrackPointExtension>
        </extensions>
      </trkpt>
      <trkpt lat="31.41788254491984844207763671875" lon="119.48676732368767261505126953125">
        <ele>9.19999980926513671875</ele>
        <time>2015-09-14T09:40:05.000Z</time>
        <extensions>
          <ns3:TrackPointExtension>
            <ns3:atemp>27.0</ns3:atemp>
          </ns3:TrackPointExtension>
        </extensions>
      </trkpt>
      <trkpt lat="31.41832494176924228668212890625" lon="119.48674787767231464385986328125">
        <ele>9.3999996185302734375</ele>
        <time>2015-09-14T09:40:26.000Z</time>
        <extensions>
          <ns3:TrackPointExtension>
            <ns3:atemp>27.0</ns3:atemp>
          </ns3:TrackPointExtension>
        </extensions>
      </trkpt>
      <trkpt lat="31.4184121973812580108642578125" lon="119.48675693012773990631103515625">
        <ele>9.6000003814697265625</ele>
        <time>2015-09-14T09:40:48.000Z</time>
        <extensions>
          <ns3:TrackPointExtension>
            <ns3:atemp>27.0</ns3:atemp>
          </ns3:TrackPointExtension>
        </extensions>
      </trkpt>
      <trkpt lat="31.4190136827528476715087890625" lon="119.48671250604093074798583984375">
        <ele>9.6000003814697265625</ele>
        <time>2015-09-14T09:41:04.000Z</time>
        <extensions>
          <ns3:TrackPointExtension>
            <ns3:atemp>27.0</ns3:atemp>
          </ns3:TrackPointExtension>
        </extensions>
      </trkpt>
      <trkpt lat="31.41958708874881267547607421875" lon="119.48665215633809566497802734375">
        <ele>9.3999996185302734375</ele>
        <time>2015-09-14T09:41:16.000Z</time>
        <extensions>
          <ns3:TrackPointExtension>
            <ns3:atemp>27.0</ns3:atemp>
          </ns3:TrackPointExtension>
        </extensions>
      </trkpt>
      <trkpt lat="31.42015186138451099395751953125" lon="119.4866113364696502685546875">
        <ele>9.3999996185302734375</ele>
        <time>2015-09-14T09:41:28.000Z</time>
        <extensions>
          <ns3:TrackPointExtension>
            <ns3:atemp>27.0</ns3:atemp>
          </ns3:TrackPointExtension>
        </extensions>
      </trkpt>
      <trkpt lat="31.4206173084676265716552734375" lon="119.4866024516522884368896484375">
        <ele>9.3999996185302734375</ele>
        <time>2015-09-14T09:41:37.000Z</time>
        <extensions>
          <ns3:TrackPointExtension>
            <ns3:atemp>27.0</ns3:atemp>
          </ns3:TrackPointExtension>
        </extensions>
      </trkpt>
      <trkpt lat="31.420662067830562591552734375" lon="119.48659381829202175140380859375">
        <ele>9.3999996185302734375</ele>
        <time>2015-09-14T09:41:38.000Z</time>
        <extensions>
          <ns3:TrackPointExtension>
            <ns3:atemp>27.0</ns3:atemp>
          </ns3:TrackPointExtension>
        </extensions>
      </trkpt>
      <trkpt lat="31.42070758156478404998779296875" lon="119.48659532703459262847900390625">
        <ele>9.3999996185302734375</ele>
        <time>2015-09-14T09:41:39.000Z</time>
        <extensions>
          <ns3:TrackPointExtension>
            <ns3:atemp>27.0</ns3:atemp>
          </ns3:TrackPointExtension>
        </extensions>
      </trkpt>
      <trkpt lat="31.42109490931034088134765625" lon="119.4865977577865123748779296875">
        <ele>9.3999996185302734375</ele>
        <time>2015-09-14T09:41:47.000Z</time>
        <extensions>
          <ns3:TrackPointExtension>
            <ns3:atemp>27.0</ns3:atemp>
          </ns3:TrackPointExtension>
        </extensions>
      </trkpt>
      <trkpt lat="31.42134360037744045257568359375" lon="119.48659264482557773590087890625">
        <ele>9.19999980926513671875</ele>
        <time>2015-09-14T09:41:52.000Z</time>
        <extensions>
          <ns3:TrackPointExtension>
            <ns3:atemp>27.0</ns3:atemp>
          </ns3:TrackPointExtension>
        </extensions>
      </trkpt>
      <trkpt lat="31.4219433255493640899658203125" lon="119.48657236061990261077880859375">
        <ele>9.19999980926513671875</ele>
        <time>2015-09-14T09:42:04.000Z</time>
        <extensions>
          <ns3:TrackPointExtension>
            <ns3:atemp>27.0</ns3:atemp>
          </ns3:TrackPointExtension>
        </extensions>
      </trkpt>
      <trkpt lat="31.422094367444515228271484375" lon="119.48655995540320873260498046875">
        <ele>9.19999980926513671875</ele>
        <time>2015-09-14T09:42:07.000Z</time>
        <extensions>
          <ns3:TrackPointExtension>
            <ns3:atemp>27.0</ns3:atemp>
          </ns3:TrackPointExtension>
        </extensions>
      </trkpt>
      <trkpt lat="31.42268386669456958770751953125" lon="119.486556686460971832275390625">
        <ele>9.19999980926513671875</ele>
        <time>2015-09-14T09:42:19.000Z</time>
        <extensions>
          <ns3:TrackPointExtension>
            <ns3:atemp>27.0</ns3:atemp>
          </ns3:TrackPointExtension>
        </extensions>
      </trkpt>
      <trkpt lat="31.42329105176031589508056640625" lon="119.486541934311389923095703125">
        <ele>9.3999996185302734375</ele>
        <time>2015-09-14T09:42:33.000Z</time>
        <extensions>
          <ns3:TrackPointExtension>
            <ns3:atemp>27.0</ns3:atemp>
          </ns3:TrackPointExtension>
        </extensions>
      </trkpt>
      <trkpt lat="31.42388038337230682373046875" lon="119.4865179620683193206787109375">
        <ele>9.6000003814697265625</ele>
        <time>2015-09-14T09:42:48.000Z</time>
        <extensions>
          <ns3:TrackPointExtension>
            <ns3:atemp>27.0</ns3:atemp>
          </ns3:TrackPointExtension>
        </extensions>
      </trkpt>
      <trkpt lat="31.42436829395592212677001953125" lon="119.4865129329264163970947265625">
        <ele>9.6000003814697265625</ele>
        <time>2015-09-14T09:43:12.000Z</time>
        <extensions>
          <ns3:TrackPointExtension>
            <ns3:atemp>27.0</ns3:atemp>
          </ns3:TrackPointExtension>
        </extensions>
      </trkpt>
      <trkpt lat="31.42436661757528781890869140625" lon="119.48647730983793735504150390625">
        <ele>9.80000019073486328125</ele>
        <time>2015-09-14T09:43:49.000Z</time>
        <extensions>
          <ns3:TrackPointExtension>
            <ns3:atemp>27.0</ns3:atemp>
          </ns3:TrackPointExtension>
        </extensions>
      </trkpt>
      <trkpt lat="31.42438690178096294403076171875" lon="119.4864718616008758544921875">
        <ele>9.6000003814697265625</ele>
        <time>2015-09-14T09:43:50.000Z</time>
        <extensions>
          <ns3:TrackPointExtension>
            <ns3:atemp>27.0</ns3:atemp>
          </ns3:TrackPointExtension>
        </extensions>
      </trkpt>
      <trkpt lat="31.424406431615352630615234375" lon="119.4864713586866855621337890625">
        <ele>9.6000003814697265625</ele>
        <time>2015-09-14T09:43:51.000Z</time>
        <extensions>
          <ns3:TrackPointExtension>
            <ns3:atemp>27.0</ns3:atemp>
          </ns3:TrackPointExtension>
        </extensions>
      </trkpt>
      <trkpt lat="31.42443166114389896392822265625" lon="119.4864716939628124237060546875">
        <ele>9.6000003814697265625</ele>
        <time>2015-09-14T09:43:52.000Z</time>
        <extensions>
          <ns3:TrackPointExtension>
            <ns3:atemp>27.0</ns3:atemp>
          </ns3:TrackPointExtension>
        </extensions>
      </trkpt>
      <trkpt lat="31.42502862028777599334716796875" lon="119.486372955143451690673828125">
        <ele>9.80000019073486328125</ele>
        <time>2015-09-14T09:44:11.000Z</time>
        <extensions>
          <ns3:TrackPointExtension>
            <ns3:atemp>27.0</ns3:atemp>
          </ns3:TrackPointExtension>
        </extensions>
      </trkpt>
      <trkpt lat="31.42566229216754436492919921875" lon="119.48629676364362239837646484375">
        <ele>9.80000019073486328125</ele>
        <time>2015-09-14T09:44:27.000Z</time>
        <extensions>
          <ns3:TrackPointExtension>
            <ns3:atemp>27.0</ns3:atemp>
          </ns3:TrackPointExtension>
        </extensions>
      </trkpt>
      <trkpt lat="31.4262982271611690521240234375" lon="119.48616399429738521575927734375">
        <ele>9.80000019073486328125</ele>
        <time>2015-09-14T09:44:42.000Z</time>
        <extensions>
          <ns3:TrackPointExtension>
            <ns3:atemp>27.0</ns3:atemp>
          </ns3:TrackPointExtension>
        </extensions>
      </trkpt>
      <trkpt lat="31.4265511929988861083984375" lon="119.48617472313344478607177734375">
        <ele>9.80000019073486328125</ele>
        <time>2015-09-14T09:44:52.000Z</time>
        <extensions>
          <ns3:TrackPointExtension>
            <ns3:atemp>27.0</ns3:atemp>
          </ns3:TrackPointExtension>
        </extensions>
      </trkpt>
      <trkpt lat="31.4265630953013896942138671875" lon="119.4862170517444610595703125">
        <ele>10.6000003814697265625</ele>
        <time>2015-09-14T09:44:59.000Z</time>
        <extensions>
          <ns3:TrackPointExtension>
            <ns3:atemp>27.0</ns3:atemp>
          </ns3:TrackPointExtension>
        </extensions>
      </trkpt>
      <trkpt lat="31.4266425557434558868408203125" lon="119.4862644933164119720458984375">
        <ele>9.80000019073486328125</ele>
        <time>2015-09-14T09:45:29.000Z</time>
        <extensions>
          <ns3:TrackPointExtension>
            <ns3:atemp>27.0</ns3:atemp>
          </ns3:TrackPointExtension>
        </extensions>
      </trkpt>
      <trkpt lat="31.426673568785190582275390625" lon="119.48626063764095306396484375">
        <ele>9.80000019073486328125</ele>
        <time>2015-09-14T09:45:30.000Z</time>
        <extensions>
          <ns3:TrackPointExtension>
            <ns3:atemp>27.0</ns3:atemp>
          </ns3:TrackPointExtension>
        </extensions>
      </trkpt>
      <trkpt lat="31.4267067611217498779296875" lon="119.4862557761371135711669921875">
        <ele>9.80000019073486328125</ele>
        <time>2015-09-14T09:45:31.000Z</time>
        <extensions>
          <ns3:TrackPointExtension>
            <ns3:atemp>27.0</ns3:atemp>
          </ns3:TrackPointExtension>
        </extensions>
      </trkpt>
      <trkpt lat="31.42717405222356319427490234375" lon="119.486193247139453887939453125">
        <ele>9.80000019073486328125</ele>
        <time>2015-09-14T09:45:42.000Z</time>
        <extensions>
          <ns3:TrackPointExtension>
            <ns3:atemp>27.0</ns3:atemp>
          </ns3:TrackPointExtension>
        </extensions>
      </trkpt>
      <trkpt lat="31.42765969969332218170166015625" lon="119.48615393601357936859130859375">
        <ele>9.19999980926513671875</ele>
        <time>2015-09-14T09:45:52.000Z</time>
        <extensions>
          <ns3:TrackPointExtension>
            <ns3:atemp>27.0</ns3:atemp>
          </ns3:TrackPointExtension>
        </extensions>
      </trkpt>
      <trkpt lat="31.4281375519931316375732421875" lon="119.4861042313277721405029296875">
        <ele>8.6000003814697265625</ele>
        <time>2015-09-14T09:46:03.000Z</time>
        <extensions>
          <ns3:TrackPointExtension>
            <ns3:atemp>27.0</ns3:atemp>
          </ns3:TrackPointExtension>
        </extensions>
      </trkpt>
      <trkpt lat="31.42818775959312915802001953125" lon="119.48610238730907440185546875">
        <ele>8.6000003814697265625</ele>
        <time>2015-09-14T09:46:04.000Z</time>
        <extensions>
          <ns3:TrackPointExtension>
            <ns3:atemp>27.0</ns3:atemp>
          </ns3:TrackPointExtension>
        </extensions>
      </trkpt>
      <trkpt lat="31.42862261272966861724853515625" lon="119.48603055439889430999755859375">
        <ele>8</ele>
        <time>2015-09-14T09:46:13.000Z</time>
        <extensions>
          <ns3:TrackPointExtension>
            <ns3:atemp>27.0</ns3:atemp>
          </ns3:TrackPointExtension>
        </extensions>
      </trkpt>
      <trkpt lat="31.42889418639242649078369140625" lon="119.48592896573245525360107421875">
        <ele>8.80000019073486328125</ele>
        <time>2015-09-14T09:46:19.000Z</time>
        <extensions>
          <ns3:TrackPointExtension>
            <ns3:atemp>27.0</ns3:atemp>
          </ns3:TrackPointExtension>
        </extensions>
      </trkpt>
      <trkpt lat="31.42927120439708232879638671875" lon="119.4858125410974025726318359375">
        <ele>8.80000019073486328125</ele>
        <time>2015-09-14T09:46:29.000Z</time>
        <extensions>
          <ns3:TrackPointExtension>
            <ns3:atemp>27.0</ns3:atemp>
          </ns3:TrackPointExtension>
        </extensions>
      </trkpt>
      <trkpt lat="31.42928243614733219146728515625" lon="119.48579787276685237884521484375">
        <ele>8.80000019073486328125</ele>
        <time>2015-09-14T09:46:30.000Z</time>
        <extensions>
          <ns3:TrackPointExtension>
            <ns3:atemp>27.0</ns3:atemp>
          </ns3:TrackPointExtension>
        </extensions>
      </trkpt>
      <trkpt lat="31.42929735593497753143310546875" lon="119.48578831739723682403564453125">
        <ele>9</ele>
        <time>2015-09-14T09:46:31.000Z</time>
        <extensions>
          <ns3:TrackPointExtension>
            <ns3:atemp>27.0</ns3:atemp>
          </ns3:TrackPointExtension>
        </extensions>
      </trkpt>
      <trkpt lat="31.4293173886835575103759765625" lon="119.4857773371040821075439453125">
        <ele>8.80000019073486328125</ele>
        <time>2015-09-14T09:46:32.000Z</time>
        <extensions>
          <ns3:TrackPointExtension>
            <ns3:atemp>27.0</ns3:atemp>
          </ns3:TrackPointExtension>
        </extensions>
      </trkpt>
      <trkpt lat="31.42933993600308895111083984375" lon="119.4857699610292911529541015625">
        <ele>8.80000019073486328125</ele>
        <time>2015-09-14T09:46:33.000Z</time>
        <extensions>
          <ns3:TrackPointExtension>
            <ns3:atemp>27.0</ns3:atemp>
          </ns3:TrackPointExtension>
        </extensions>
      </trkpt>
      <trkpt lat="31.42993052490055561065673828125" lon="119.4856086932122707366943359375">
        <ele>9.19999980926513671875</ele>
        <time>2015-09-14T09:46:51.000Z</time>
        <extensions>
          <ns3:TrackPointExtension>
            <ns3:atemp>27.0</ns3:atemp>
          </ns3:TrackPointExtension>
        </extensions>
      </trkpt>
      <trkpt lat="31.43000252544879913330078125" lon="119.4855915941298007965087890625">
        <ele>9</ele>
        <time>2015-09-14T09:46:53.000Z</time>
        <extensions>
          <ns3:TrackPointExtension>
            <ns3:atemp>27.0</ns3:atemp>
          </ns3:TrackPointExtension>
        </extensions>
      </trkpt>
      <trkpt lat="31.4302249811589717864990234375" lon="119.48551322333514690399169921875">
        <ele>9.19999980926513671875</ele>
        <time>2015-09-14T09:47:12.000Z</time>
        <extensions>
          <ns3:TrackPointExtension>
            <ns3:atemp>27.0</ns3:atemp>
          </ns3:TrackPointExtension>
        </extensions>
      </trkpt>
      <trkpt lat="31.4302524738013744354248046875" lon="119.48551355861127376556396484375">
        <ele>9</ele>
        <time>2015-09-14T09:47:13.000Z</time>
        <extensions>
          <ns3:TrackPointExtension>
            <ns3:atemp>27.0</ns3:atemp>
          </ns3:TrackPointExtension>
        </extensions>
      </trkpt>
      <trkpt lat="31.43028021790087223052978515625" lon="119.485515654087066650390625">
        <ele>9</ele>
        <time>2015-09-14T09:47:14.000Z</time>
        <extensions>
          <ns3:TrackPointExtension>
            <ns3:atemp>27.0</ns3:atemp>
          </ns3:TrackPointExtension>
        </extensions>
      </trkpt>
      <trkpt lat="31.430308632552623748779296875" lon="119.48553468100726604461669921875">
        <ele>9</ele>
        <time>2015-09-14T09:47:15.000Z</time>
        <extensions>
          <ns3:TrackPointExtension>
            <ns3:atemp>27.0</ns3:atemp>
          </ns3:TrackPointExtension>
        </extensions>
      </trkpt>
      <trkpt lat="31.43033855594694614410400390625" lon="119.485544823110103607177734375">
        <ele>9</ele>
        <time>2015-09-14T09:47:16.000Z</time>
        <extensions>
          <ns3:TrackPointExtension>
            <ns3:atemp>27.0</ns3:atemp>
          </ns3:TrackPointExtension>
        </extensions>
      </trkpt>
      <trkpt lat="31.43036956898868083953857421875" lon="119.48554591275751590728759765625">
        <ele>9.19999980926513671875</ele>
        <time>2015-09-14T09:47:17.000Z</time>
        <extensions>
          <ns3:TrackPointExtension>
            <ns3:atemp>27.0</ns3:atemp>
          </ns3:TrackPointExtension>
        </extensions>
      </trkpt>
      <trkpt lat="31.430402509868144989013671875" lon="119.48553803376853466033935546875">
        <ele>9.19999980926513671875</ele>
        <time>2015-09-14T09:47:18.000Z</time>
        <extensions>
          <ns3:TrackPointExtension>
            <ns3:atemp>27.0</ns3:atemp>
          </ns3:TrackPointExtension>
        </extensions>
      </trkpt>
      <trkpt lat="31.4304368756711483001708984375" lon="119.48551791720092296600341796875">
        <ele>9</ele>
        <time>2015-09-14T09:47:19.000Z</time>
        <extensions>
          <ns3:TrackPointExtension>
            <ns3:atemp>27.0</ns3:atemp>
          </ns3:TrackPointExtension>
        </extensions>
      </trkpt>
      <trkpt lat="31.43047182820737361907958984375" lon="119.48550450615584850311279296875">
        <ele>9</ele>
        <time>2015-09-14T09:47:20.000Z</time>
        <extensions>
          <ns3:TrackPointExtension>
            <ns3:atemp>27.0</ns3:atemp>
          </ns3:TrackPointExtension>
        </extensions>
      </trkpt>
      <trkpt lat="31.4310036599636077880859375" lon="119.4852087087929248809814453125">
        <ele>9.3999996185302734375</ele>
        <time>2015-09-14T09:47:37.000Z</time>
        <extensions>
          <ns3:TrackPointExtension>
            <ns3:atemp>27.0</ns3:atemp>
          </ns3:TrackPointExtension>
        </extensions>
      </trkpt>
      <trkpt lat="31.43156901933252811431884765625" lon="119.48486831970512866973876953125">
        <ele>10.19999980926513671875</ele>
        <time>2015-09-14T09:47:56.000Z</time>
        <extensions>
          <ns3:TrackPointExtension>
            <ns3:atemp>27.0</ns3:atemp>
          </ns3:TrackPointExtension>
        </extensions>
      </trkpt>
      <trkpt lat="31.4320860989391803741455078125" lon="119.48446867056190967559814453125">
        <ele>9.6000003814697265625</ele>
        <time>2015-09-14T09:48:11.000Z</time>
        <extensions>
          <ns3:TrackPointExtension>
            <ns3:atemp>27.0</ns3:atemp>
          </ns3:TrackPointExtension>
        </extensions>
      </trkpt>
      <trkpt lat="31.43215592019259929656982421875" lon="119.48443137109279632568359375">
        <ele>9.3999996185302734375</ele>
        <time>2015-09-14T09:48:13.000Z</time>
        <extensions>
          <ns3:TrackPointExtension>
            <ns3:atemp>27.0</ns3:atemp>
          </ns3:TrackPointExtension>
        </extensions>
      </trkpt>
      <trkpt lat="31.4321918785572052001953125" lon="119.4844419322907924652099609375">
        <ele>9.3999996185302734375</ele>
        <time>2015-09-14T09:48:14.000Z</time>
        <extensions>
          <ns3:TrackPointExtension>
            <ns3:atemp>27.0</ns3:atemp>
          </ns3:TrackPointExtension>
        </extensions>
      </trkpt>
      <trkpt lat="31.4322255738079547882080078125" lon="119.48446732945740222930908203125">
        <ele>9.6000003814697265625</ele>
        <time>2015-09-14T09:48:15.000Z</time>
        <extensions>
          <ns3:TrackPointExtension>
            <ns3:atemp>27.0</ns3:atemp>
          </ns3:TrackPointExtension>
        </extensions>
      </trkpt>
      <trkpt lat="31.43258892931044101715087890625" lon="119.4847503863275051116943359375">
        <ele>10.19999980926513671875</ele>
        <time>2015-09-14T09:48:27.000Z</time>
        <extensions>
          <ns3:TrackPointExtension>
            <ns3:atemp>27.0</ns3:atemp>
          </ns3:TrackPointExtension>
        </extensions>
      </trkpt>
      <trkpt lat="31.43261969089508056640625" lon="119.48474292643368244171142578125">
        <ele>10.19999980926513671875</ele>
        <time>2015-09-14T09:48:28.000Z</time>
        <extensions>
          <ns3:TrackPointExtension>
            <ns3:atemp>27.0</ns3:atemp>
          </ns3:TrackPointExtension>
        </extensions>
      </trkpt>
      <trkpt lat="31.432646177709102630615234375" lon="119.48472029529511928558349609375">
        <ele>10</ele>
        <time>2015-09-14T09:48:29.000Z</time>
        <extensions>
          <ns3:TrackPointExtension>
            <ns3:atemp>27.0</ns3:atemp>
          </ns3:TrackPointExtension>
        </extensions>
      </trkpt>
      <trkpt lat="31.432665623724460601806640625" lon="119.484687186777591705322265625">
        <ele>10</ele>
        <time>2015-09-14T09:48:30.000Z</time>
        <extensions>
          <ns3:TrackPointExtension>
            <ns3:atemp>27.0</ns3:atemp>
          </ns3:TrackPointExtension>
        </extensions>
      </trkpt>
      <trkpt lat="31.43268406391143798828125" lon="119.48465223424136638641357421875">
        <ele>10</ele>
        <time>2015-09-14T09:48:31.000Z</time>
        <extensions>
          <ns3:TrackPointExtension>
            <ns3:atemp>27.0</ns3:atemp>
          </ns3:TrackPointExtension>
        </extensions>
      </trkpt>
      <trkpt lat="31.4329933561384677886962890625" lon="119.48423598892986774444580078125">
        <ele>8.19999980926513671875</ele>
        <time>2015-09-14T09:48:41.000Z</time>
        <extensions>
          <ns3:TrackPointExtension>
            <ns3:atemp>27.0</ns3:atemp>
          </ns3:TrackPointExtension>
        </extensions>
      </trkpt>
      <trkpt lat="31.43310005776584148406982421875" lon="119.4840976037085056304931640625">
        <ele>8</ele>
        <time>2015-09-14T09:48:44.000Z</time>
        <extensions>
          <ns3:TrackPointExtension>
            <ns3:atemp>27.0</ns3:atemp>
          </ns3:TrackPointExtension>
        </extensions>
      </trkpt>
      <trkpt lat="31.4331440627574920654296875" lon="119.48406801559031009674072265625">
        <ele>8</ele>
        <time>2015-09-14T09:48:45.000Z</time>
        <extensions>
          <ns3:TrackPointExtension>
            <ns3:atemp>27.0</ns3:atemp>
          </ns3:TrackPointExtension>
        </extensions>
      </trkpt>
      <trkpt lat="31.43319259397685527801513671875" lon="119.48405317962169647216796875">
        <ele>8</ele>
        <time>2015-09-14T09:48:46.000Z</time>
        <extensions>
          <ns3:TrackPointExtension>
            <ns3:atemp>27.0</ns3:atemp>
          </ns3:TrackPointExtension>
        </extensions>
      </trkpt>
      <trkpt lat="31.433241628110408782958984375" lon="119.4840536825358867645263671875">
        <ele>8</ele>
        <time>2015-09-14T09:48:47.000Z</time>
        <extensions>
          <ns3:TrackPointExtension>
            <ns3:atemp>27.0</ns3:atemp>
          </ns3:TrackPointExtension>
        </extensions>
      </trkpt>
      <trkpt lat="31.43329250626266002655029296875" lon="119.484063573181629180908203125">
        <ele>8.19999980926513671875</ele>
        <time>2015-09-14T09:48:48.000Z</time>
        <extensions>
          <ns3:TrackPointExtension>
            <ns3:atemp>27.0</ns3:atemp>
          </ns3:TrackPointExtension>
        </extensions>
      </trkpt>
      <trkpt lat="31.43334380351006984710693359375" lon="119.4840697757899761199951171875">
        <ele>8</ele>
        <time>2015-09-14T09:48:49.000Z</time>
        <extensions>
          <ns3:TrackPointExtension>
            <ns3:atemp>27.0</ns3:atemp>
          </ns3:TrackPointExtension>
        </extensions>
      </trkpt>
      <trkpt lat="31.43339392729103565216064453125" lon="119.48407388292253017425537109375">
        <ele>7.80000019073486328125</ele>
        <time>2015-09-14T09:48:50.000Z</time>
        <extensions>
          <ns3:TrackPointExtension>
            <ns3:atemp>27.0</ns3:atemp>
          </ns3:TrackPointExtension>
        </extensions>
      </trkpt>
      <trkpt lat="31.4337051473557949066162109375" lon="119.48412400670349597930908203125">
        <ele>7.80000019073486328125</ele>
        <time>2015-09-14T09:48:57.000Z</time>
        <extensions>
          <ns3:TrackPointExtension>
            <ns3:atemp>26.0</ns3:atemp>
          </ns3:TrackPointExtension>
        </extensions>
      </trkpt>
      <trkpt lat="31.4337447099387645721435546875" lon="119.4841438718140125274658203125">
        <ele>7.80000019073486328125</ele>
        <time>2015-09-14T09:48:58.000Z</time>
        <extensions>
          <ns3:TrackPointExtension>
            <ns3:atemp>26.0</ns3:atemp>
          </ns3:TrackPointExtension>
        </extensions>
      </trkpt>
      <trkpt lat="31.434316523373126983642578125" lon="119.48443950153887271881103515625">
        <ele>7.19999980926513671875</ele>
        <time>2015-09-14T09:49:11.000Z</time>
        <extensions>
          <ns3:TrackPointExtension>
            <ns3:atemp>26.0</ns3:atemp>
          </ns3:TrackPointExtension>
        </extensions>
      </trkpt>
      <trkpt lat="31.434783227741718292236328125" lon="119.48449700139462947845458984375">
        <ele>7</ele>
        <time>2015-09-14T09:49:21.000Z</time>
        <extensions>
          <ns3:TrackPointExtension>
            <ns3:atemp>26.0</ns3:atemp>
          </ns3:TrackPointExtension>
        </extensions>
      </trkpt>
      <trkpt lat="31.43482756800949573516845703125" lon="119.484477974474430084228515625">
        <ele>7</ele>
        <time>2015-09-14T09:49:22.000Z</time>
        <extensions>
          <ns3:TrackPointExtension>
            <ns3:atemp>26.0</ns3:atemp>
          </ns3:TrackPointExtension>
        </extensions>
      </trkpt>
      <trkpt lat="31.43486897461116313934326171875" lon="119.4844526611268520355224609375">
        <ele>7</ele>
        <time>2015-09-14T09:49:23.000Z</time>
        <extensions>
          <ns3:TrackPointExtension>
            <ns3:atemp>26.0</ns3:atemp>
          </ns3:TrackPointExtension>
        </extensions>
      </trkpt>
      <trkpt lat="31.43543207086622714996337890625" lon="119.484339840710163116455078125">
        <ele>7.19999980926513671875</ele>
        <time>2015-09-14T09:49:37.000Z</time>
        <extensions>
          <ns3:TrackPointExtension>
            <ns3:atemp>26.0</ns3:atemp>
          </ns3:TrackPointExtension>
        </extensions>
      </trkpt>
      <trkpt lat="31.43560658209025859832763671875" lon="119.48423146270215511322021484375">
        <ele>7.599999904632568359375</ele>
        <time>2015-09-14T09:49:45.000Z</time>
        <extensions>
          <ns3:TrackPointExtension>
            <ns3:atemp>26.0</ns3:atemp>
          </ns3:TrackPointExtension>
        </extensions>
      </trkpt>
    </trkseg>
  </trk>
</gpx>
