<gpx xmlns:ns3="http://www.garmin.com/xmlschemas/TrackPointExtension/v1" xmlns="http://www.topografix.com/GPX/1/1" xmlns:xsi="http://www.w3.org/2001/XMLSchema-instance" xmlns:ns2="http://www.garmin.com/xmlschemas/GpxExtensions/v3" creator="Garmin Connect" version="1.1" xsi:schemaLocation="http://www.topografix.com/GPX/1/1 http://www.topografix.com/GPX/11.xsd">
  <extensions>
<distance>2065.0</distance>
<average_hr></average_hr>
<average_speed>0.720876334275767</average_speed>
<start_time>2016-09-18T05:50:58+00:00</start_time>
<end_time>2016-09-18T06:38:42.569000+00:00</end_time>
<moving_time>2864.569</moving_time>
<elapsed_time>2879.893</elapsed_time>
</extensions>
<metadata>
    <link href="connect.garmin.com">
      <text>Garmin Connect</text>
    </link>
    <time>2016-09-18T05:50:58.000Z</time>
  </metadata>
  <trk>
    <name>泳道游泳</name>
    <type>lap_swimming</type>
    <trkseg/>
  </trk>
</gpx>
