<gpx xmlns:ns3="http://www.garmin.com/xmlschemas/TrackPointExtension/v1" xmlns="http://www.topografix.com/GPX/1/1" xmlns:xsi="http://www.w3.org/2001/XMLSchema-instance" xmlns:ns2="http://www.garmin.com/xmlschemas/GpxExtensions/v3" creator="Garmin Connect" version="1.1" xsi:schemaLocation="http://www.topografix.com/GPX/1/1 http://www.topografix.com/GPX/11.xsd">
  <extensions>
<distance>5553.52</distance>
<average_hr></average_hr>
<average_speed>5.487667984189724</average_speed>
<start_time>2015-07-27T08:54:17+00:00</start_time>
<end_time>2015-07-27T09:11:09+00:00</end_time>
<moving_time>970.0</moving_time>
<elapsed_time>1012.0</elapsed_time>
</extensions>
<metadata>
    <link href="connect.garmin.com">
      <text>Garmin Connect</text>
    </link>
    <time>2015-07-27T08:54:17.000Z</time>
  </metadata>
  <trk>
    <type>cycling</type>
    <trkseg>
      <trkpt lat="40.08482046425342559814453125" lon="116.576112471520900726318359375">
        <ele>9</ele>
        <time>2015-07-27T08:54:17.000Z</time>
        <extensions>
          <ns3:TrackPointExtension>
            <ns3:atemp>28.0</ns3:atemp>
          </ns3:TrackPointExtension>
        </extensions>
      </trkpt>
      <trkpt lat="40.084776543080806732177734375" lon="116.57612479291856288909912109375">
        <ele>-61.799999237060546875</ele>
        <time>2015-07-27T08:54:18.000Z</time>
        <extensions>
          <ns3:TrackPointExtension>
            <ns3:atemp>28.0</ns3:atemp>
          </ns3:TrackPointExtension>
        </extensions>
      </trkpt>
      <trkpt lat="40.08473840542137622833251953125" lon="116.5761421434581279754638671875">
        <ele>-61.799999237060546875</ele>
        <time>2015-07-27T08:54:19.000Z</time>
        <extensions>
          <ns3:TrackPointExtension>
            <ns3:atemp>32.0</ns3:atemp>
          </ns3:TrackPointExtension>
        </extensions>
      </trkpt>
      <trkpt lat="40.08460563607513904571533203125" lon="116.5761880762875080108642578125">
        <ele>7</ele>
        <time>2015-07-27T08:54:22.000Z</time>
        <extensions>
          <ns3:TrackPointExtension>
            <ns3:atemp>32.0</ns3:atemp>
          </ns3:TrackPointExtension>
        </extensions>
      </trkpt>
      <trkpt lat="40.08455752395093441009521484375" lon="116.5762014873325824737548828125">
        <ele>7</ele>
        <time>2015-07-27T08:54:23.000Z</time>
        <extensions>
          <ns3:TrackPointExtension>
            <ns3:atemp>32.0</ns3:atemp>
          </ns3:TrackPointExtension>
        </extensions>
      </trkpt>
      <trkpt lat="40.0839157216250896453857421875" lon="116.576284468173980712890625">
        <ele>7.19999980926513671875</ele>
        <time>2015-07-27T08:54:35.000Z</time>
        <extensions>
          <ns3:TrackPointExtension>
            <ns3:atemp>32.0</ns3:atemp>
          </ns3:TrackPointExtension>
        </extensions>
      </trkpt>
      <trkpt lat="40.083682537078857421875" lon="116.576323695480823516845703125">
        <ele>7</ele>
        <time>2015-07-27T08:54:39.000Z</time>
        <extensions>
          <ns3:TrackPointExtension>
            <ns3:atemp>32.0</ns3:atemp>
          </ns3:TrackPointExtension>
        </extensions>
      </trkpt>
      <trkpt lat="40.08358262479305267333984375" lon="116.576349176466464996337890625">
        <ele>7</ele>
        <time>2015-07-27T08:54:41.000Z</time>
        <extensions>
          <ns3:TrackPointExtension>
            <ns3:atemp>32.0</ns3:atemp>
          </ns3:TrackPointExtension>
        </extensions>
      </trkpt>
      <trkpt lat="40.08295238949358463287353515625" lon="116.57651689834892749786376953125">
        <ele>6.599999904632568359375</ele>
        <time>2015-07-27T08:54:54.000Z</time>
        <extensions>
          <ns3:TrackPointExtension>
            <ns3:atemp>32.0</ns3:atemp>
          </ns3:TrackPointExtension>
        </extensions>
      </trkpt>
      <trkpt lat="40.08270462043583393096923828125" lon="116.57658278010785579681396484375">
        <ele>6.19999980926513671875</ele>
        <time>2015-07-27T08:54:59.000Z</time>
        <extensions>
          <ns3:TrackPointExtension>
            <ns3:atemp>32.0</ns3:atemp>
          </ns3:TrackPointExtension>
        </extensions>
      </trkpt>
      <trkpt lat="40.08265583775937557220458984375" lon="116.57658143900334835052490234375">
        <ele>6.400000095367431640625</ele>
        <time>2015-07-27T08:55:00.000Z</time>
        <extensions>
          <ns3:TrackPointExtension>
            <ns3:atemp>32.0</ns3:atemp>
          </ns3:TrackPointExtension>
        </extensions>
      </trkpt>
      <trkpt lat="40.08203633129596710205078125" lon="116.57662854529917240142822265625">
        <ele>7.599999904632568359375</ele>
        <time>2015-07-27T08:55:11.000Z</time>
        <extensions>
          <ns3:TrackPointExtension>
            <ns3:atemp>32.0</ns3:atemp>
          </ns3:TrackPointExtension>
        </extensions>
      </trkpt>
      <trkpt lat="40.0814963690936565399169921875" lon="116.57664614729583263397216796875">
        <ele>7.599999904632568359375</ele>
        <time>2015-07-27T08:55:21.000Z</time>
        <extensions>
          <ns3:TrackPointExtension>
            <ns3:atemp>32.0</ns3:atemp>
          </ns3:TrackPointExtension>
        </extensions>
      </trkpt>
      <trkpt lat="40.08078667335212230682373046875" lon="116.57733648084104061126708984375">
        <ele>8</ele>
        <time>2015-07-27T08:55:40.000Z</time>
        <extensions>
          <ns3:TrackPointExtension>
            <ns3:atemp>32.0</ns3:atemp>
          </ns3:TrackPointExtension>
        </extensions>
      </trkpt>
      <trkpt lat="40.0807530619204044342041015625" lon="116.57749054022133350372314453125">
        <ele>8.80000019073486328125</ele>
        <time>2015-07-27T08:55:44.000Z</time>
        <extensions>
          <ns3:TrackPointExtension>
            <ns3:atemp>32.0</ns3:atemp>
          </ns3:TrackPointExtension>
        </extensions>
      </trkpt>
      <trkpt lat="40.0807483680546283721923828125" lon="116.57756748609244823455810546875">
        <ele>9</ele>
        <time>2015-07-27T08:55:45.000Z</time>
        <extensions>
          <ns3:TrackPointExtension>
            <ns3:atemp>32.0</ns3:atemp>
          </ns3:TrackPointExtension>
        </extensions>
      </trkpt>
      <trkpt lat="40.08069933392107486724853515625" lon="116.57761626876890659332275390625">
        <ele>9.19999980926513671875</ele>
        <time>2015-07-27T08:55:46.000Z</time>
        <extensions>
          <ns3:TrackPointExtension>
            <ns3:atemp>32.0</ns3:atemp>
          </ns3:TrackPointExtension>
        </extensions>
      </trkpt>
      <trkpt lat="40.08067108690738677978515625" lon="116.5776736848056316375732421875">
        <ele>9.3999996185302734375</ele>
        <time>2015-07-27T08:55:47.000Z</time>
        <extensions>
          <ns3:TrackPointExtension>
            <ns3:atemp>32.0</ns3:atemp>
          </ns3:TrackPointExtension>
        </extensions>
      </trkpt>
      <trkpt lat="40.0806326977908611297607421875" lon="116.5777259878814220428466796875">
        <ele>9.3999996185302734375</ele>
        <time>2015-07-27T08:55:48.000Z</time>
        <extensions>
          <ns3:TrackPointExtension>
            <ns3:atemp>32.0</ns3:atemp>
          </ns3:TrackPointExtension>
        </extensions>
      </trkpt>
      <trkpt lat="40.08059908635914325714111328125" lon="116.57778583467006683349609375">
        <ele>9.3999996185302734375</ele>
        <time>2015-07-27T08:55:49.000Z</time>
        <extensions>
          <ns3:TrackPointExtension>
            <ns3:atemp>32.0</ns3:atemp>
          </ns3:TrackPointExtension>
        </extensions>
      </trkpt>
      <trkpt lat="40.08026967756450176239013671875" lon="116.57838120125234127044677734375">
        <ele>11.19999980926513671875</ele>
        <time>2015-07-27T08:56:01.000Z</time>
        <extensions>
          <ns3:TrackPointExtension>
            <ns3:atemp>32.0</ns3:atemp>
          </ns3:TrackPointExtension>
        </extensions>
      </trkpt>
      <trkpt lat="40.0800214894115924835205078125" lon="116.57910506241023540496826171875">
        <ele>11.80000019073486328125</ele>
        <time>2015-07-27T08:56:13.000Z</time>
        <extensions>
          <ns3:TrackPointExtension>
            <ns3:atemp>32.0</ns3:atemp>
          </ns3:TrackPointExtension>
        </extensions>
      </trkpt>
      <trkpt lat="40.079738013446331024169921875" lon="116.579798161983489990234375">
        <ele>12.3999996185302734375</ele>
        <time>2015-07-27T08:56:25.000Z</time>
        <extensions>
          <ns3:TrackPointExtension>
            <ns3:atemp>33.0</ns3:atemp>
          </ns3:TrackPointExtension>
        </extensions>
      </trkpt>
      <trkpt lat="40.0796838663518428802490234375" lon="116.57989195547997951507568359375">
        <ele>12.6000003814697265625</ele>
        <time>2015-07-27T08:56:29.000Z</time>
        <extensions>
          <ns3:TrackPointExtension>
            <ns3:atemp>33.0</ns3:atemp>
          </ns3:TrackPointExtension>
        </extensions>
      </trkpt>
      <trkpt lat="40.07966819219291210174560546875" lon="116.57989966683089733123779296875">
        <ele>12.3999996185302734375</ele>
        <time>2015-07-27T08:56:30.000Z</time>
        <extensions>
          <ns3:TrackPointExtension>
            <ns3:atemp>33.0</ns3:atemp>
          </ns3:TrackPointExtension>
        </extensions>
      </trkpt>
      <trkpt lat="40.0792919285595417022705078125" lon="116.58002682030200958251953125">
        <ele>11.6000003814697265625</ele>
        <time>2015-07-27T08:56:43.000Z</time>
        <extensions>
          <ns3:TrackPointExtension>
            <ns3:atemp>33.0</ns3:atemp>
          </ns3:TrackPointExtension>
        </extensions>
      </trkpt>
      <trkpt lat="40.07927893660962581634521484375" lon="116.5800757706165313720703125">
        <ele>11.6000003814697265625</ele>
        <time>2015-07-27T08:56:44.000Z</time>
        <extensions>
          <ns3:TrackPointExtension>
            <ns3:atemp>33.0</ns3:atemp>
          </ns3:TrackPointExtension>
        </extensions>
      </trkpt>
      <trkpt lat="40.07927499711513519287109375" lon="116.5801295824348926544189453125">
        <ele>11.6000003814697265625</ele>
        <time>2015-07-27T08:56:45.000Z</time>
        <extensions>
          <ns3:TrackPointExtension>
            <ns3:atemp>33.0</ns3:atemp>
          </ns3:TrackPointExtension>
        </extensions>
      </trkpt>
      <trkpt lat="40.07928078062832355499267578125" lon="116.58019253052771091461181640625">
        <ele>11.3999996185302734375</ele>
        <time>2015-07-27T08:56:46.000Z</time>
        <extensions>
          <ns3:TrackPointExtension>
            <ns3:atemp>33.0</ns3:atemp>
          </ns3:TrackPointExtension>
        </extensions>
      </trkpt>
      <trkpt lat="40.0792848877608776092529296875" lon="116.58025941811501979827880859375">
        <ele>11</ele>
        <time>2015-07-27T08:56:47.000Z</time>
        <extensions>
          <ns3:TrackPointExtension>
            <ns3:atemp>33.0</ns3:atemp>
          </ns3:TrackPointExtension>
        </extensions>
      </trkpt>
      <trkpt lat="40.0793264620006084442138671875" lon="116.5805228613317012786865234375">
        <ele>11.3999996185302734375</ele>
        <time>2015-07-27T08:56:51.000Z</time>
        <extensions>
          <ns3:TrackPointExtension>
            <ns3:atemp>33.0</ns3:atemp>
          </ns3:TrackPointExtension>
        </extensions>
      </trkpt>
      <trkpt lat="40.0793494284152984619140625" lon="116.58064129762351512908935546875">
        <ele>11.80000019073486328125</ele>
        <time>2015-07-27T08:56:53.000Z</time>
        <extensions>
          <ns3:TrackPointExtension>
            <ns3:atemp>33.0</ns3:atemp>
          </ns3:TrackPointExtension>
        </extensions>
      </trkpt>
      <trkpt lat="40.079348422586917877197265625" lon="116.5807065926492214202880859375">
        <ele>11.80000019073486328125</ele>
        <time>2015-07-27T08:56:54.000Z</time>
        <extensions>
          <ns3:TrackPointExtension>
            <ns3:atemp>33.0</ns3:atemp>
          </ns3:TrackPointExtension>
        </extensions>
      </trkpt>
      <trkpt lat="40.0793620012700557708740234375" lon="116.58112711273133754730224609375">
        <ele>10.6000003814697265625</ele>
        <time>2015-07-27T08:57:00.000Z</time>
        <extensions>
          <ns3:TrackPointExtension>
            <ns3:atemp>33.0</ns3:atemp>
          </ns3:TrackPointExtension>
        </extensions>
      </trkpt>
      <trkpt lat="40.079377591609954833984375" lon="116.58120028674602508544921875">
        <ele>10.6000003814697265625</ele>
        <time>2015-07-27T08:57:01.000Z</time>
        <extensions>
          <ns3:TrackPointExtension>
            <ns3:atemp>33.0</ns3:atemp>
          </ns3:TrackPointExtension>
        </extensions>
      </trkpt>
      <trkpt lat="40.07949535734951496124267578125" lon="116.58190838992595672607421875">
        <ele>11</ele>
        <time>2015-07-27T08:57:11.000Z</time>
        <extensions>
          <ns3:TrackPointExtension>
            <ns3:atemp>33.0</ns3:atemp>
          </ns3:TrackPointExtension>
        </extensions>
      </trkpt>
      <trkpt lat="40.079522430896759033203125" lon="116.58263501711189746856689453125">
        <ele>11.6000003814697265625</ele>
        <time>2015-07-27T08:57:24.000Z</time>
        <extensions>
          <ns3:TrackPointExtension>
            <ns3:atemp>33.0</ns3:atemp>
          </ns3:TrackPointExtension>
        </extensions>
      </trkpt>
      <trkpt lat="40.07952284999191761016845703125" lon="116.58301605843007564544677734375">
        <ele>11.80000019073486328125</ele>
        <time>2015-07-27T08:57:30.000Z</time>
        <extensions>
          <ns3:TrackPointExtension>
            <ns3:atemp>33.0</ns3:atemp>
          </ns3:TrackPointExtension>
        </extensions>
      </trkpt>
      <trkpt lat="40.0795339979231357574462890625" lon="116.58310993574559688568115234375">
        <ele>11.6000003814697265625</ele>
        <time>2015-07-27T08:57:31.000Z</time>
        <extensions>
          <ns3:TrackPointExtension>
            <ns3:atemp>33.0</ns3:atemp>
          </ns3:TrackPointExtension>
        </extensions>
      </trkpt>
      <trkpt lat="40.0796131230890750885009765625" lon="116.58336373977363109588623046875">
        <ele>11.80000019073486328125</ele>
        <time>2015-07-27T08:57:35.000Z</time>
        <extensions>
          <ns3:TrackPointExtension>
            <ns3:atemp>33.0</ns3:atemp>
          </ns3:TrackPointExtension>
        </extensions>
      </trkpt>
      <trkpt lat="40.0796258635818958282470703125" lon="116.58341788686811923980712890625">
        <ele>11.80000019073486328125</ele>
        <time>2015-07-27T08:57:36.000Z</time>
        <extensions>
          <ns3:TrackPointExtension>
            <ns3:atemp>33.0</ns3:atemp>
          </ns3:TrackPointExtension>
        </extensions>
      </trkpt>
      <trkpt lat="40.079629719257354736328125" lon="116.58348460681736469268798828125">
        <ele>12.19999980926513671875</ele>
        <time>2015-07-27T08:57:37.000Z</time>
        <extensions>
          <ns3:TrackPointExtension>
            <ns3:atemp>33.0</ns3:atemp>
          </ns3:TrackPointExtension>
        </extensions>
      </trkpt>
      <trkpt lat="40.07962142117321491241455078125" lon="116.58352467231452465057373046875">
        <ele>12.3999996185302734375</ele>
        <time>2015-07-27T08:57:38.000Z</time>
        <extensions>
          <ns3:TrackPointExtension>
            <ns3:atemp>33.0</ns3:atemp>
          </ns3:TrackPointExtension>
        </extensions>
      </trkpt>
      <trkpt lat="40.07960130460560321807861328125" lon="116.58357043750584125518798828125">
        <ele>12.3999996185302734375</ele>
        <time>2015-07-27T08:57:39.000Z</time>
        <extensions>
          <ns3:TrackPointExtension>
            <ns3:atemp>33.0</ns3:atemp>
          </ns3:TrackPointExtension>
        </extensions>
      </trkpt>
      <trkpt lat="40.07958252914249897003173828125" lon="116.58363481052219867706298828125">
        <ele>12.19999980926513671875</ele>
        <time>2015-07-27T08:57:40.000Z</time>
        <extensions>
          <ns3:TrackPointExtension>
            <ns3:atemp>33.0</ns3:atemp>
          </ns3:TrackPointExtension>
        </extensions>
      </trkpt>
      <trkpt lat="40.079574398696422576904296875" lon="116.5837740339338779449462890625">
        <ele>12</ele>
        <time>2015-07-27T08:57:41.000Z</time>
        <extensions>
          <ns3:TrackPointExtension>
            <ns3:atemp>33.0</ns3:atemp>
          </ns3:TrackPointExtension>
        </extensions>
      </trkpt>
      <trkpt lat="40.07954900152981281280517578125" lon="116.583819799125194549560546875">
        <ele>12</ele>
        <time>2015-07-27T08:57:42.000Z</time>
        <extensions>
          <ns3:TrackPointExtension>
            <ns3:atemp>33.0</ns3:atemp>
          </ns3:TrackPointExtension>
        </extensions>
      </trkpt>
      <trkpt lat="40.07956895045936107635498046875" lon="116.58378903754055500030517578125">
        <ele>12</ele>
        <time>2015-07-27T08:57:43.000Z</time>
        <extensions>
          <ns3:TrackPointExtension>
            <ns3:atemp>33.0</ns3:atemp>
          </ns3:TrackPointExtension>
        </extensions>
      </trkpt>
      <trkpt lat="40.07956123910844326019287109375" lon="116.58379976637661457061767578125">
        <ele>11.80000019073486328125</ele>
        <time>2015-07-27T08:57:44.000Z</time>
        <extensions>
          <ns3:TrackPointExtension>
            <ns3:atemp>33.0</ns3:atemp>
          </ns3:TrackPointExtension>
        </extensions>
      </trkpt>
      <trkpt lat="40.079520754516124725341796875" lon="116.5838253311812877655029296875">
        <ele>11.6000003814697265625</ele>
        <time>2015-07-27T08:57:45.000Z</time>
        <extensions>
          <ns3:TrackPointExtension>
            <ns3:atemp>33.0</ns3:atemp>
          </ns3:TrackPointExtension>
        </extensions>
      </trkpt>
      <trkpt lat="40.079397372901439666748046875" lon="116.58392717130482196807861328125">
        <ele>10.80000019073486328125</ele>
        <time>2015-07-27T08:57:48.000Z</time>
        <extensions>
          <ns3:TrackPointExtension>
            <ns3:atemp>33.0</ns3:atemp>
          </ns3:TrackPointExtension>
        </extensions>
      </trkpt>
      <trkpt lat="40.07934817112982273101806640625" lon="116.58395080827176570892333984375">
        <ele>10.80000019073486328125</ele>
        <time>2015-07-27T08:57:49.000Z</time>
        <extensions>
          <ns3:TrackPointExtension>
            <ns3:atemp>33.0</ns3:atemp>
          </ns3:TrackPointExtension>
        </extensions>
      </trkpt>
      <trkpt lat="40.07929913699626922607421875" lon="116.58396338112652301788330078125">
        <ele>10.80000019073486328125</ele>
        <time>2015-07-27T08:57:50.000Z</time>
        <extensions>
          <ns3:TrackPointExtension>
            <ns3:atemp>33.0</ns3:atemp>
          </ns3:TrackPointExtension>
        </extensions>
      </trkpt>
      <trkpt lat="40.07924524135887622833251953125" lon="116.58397494815289974212646484375">
        <ele>11</ele>
        <time>2015-07-27T08:57:51.000Z</time>
        <extensions>
          <ns3:TrackPointExtension>
            <ns3:atemp>33.0</ns3:atemp>
          </ns3:TrackPointExtension>
        </extensions>
      </trkpt>
      <trkpt lat="40.07918916642665863037109375" lon="116.58398400060832500457763671875">
        <ele>11.19999980926513671875</ele>
        <time>2015-07-27T08:57:52.000Z</time>
        <extensions>
          <ns3:TrackPointExtension>
            <ns3:atemp>33.0</ns3:atemp>
          </ns3:TrackPointExtension>
        </extensions>
      </trkpt>
      <trkpt lat="40.07854535244405269622802734375" lon="116.58403747715055942535400390625">
        <ele>10.80000019073486328125</ele>
        <time>2015-07-27T08:58:03.000Z</time>
        <extensions>
          <ns3:TrackPointExtension>
            <ns3:atemp>33.0</ns3:atemp>
          </ns3:TrackPointExtension>
        </extensions>
      </trkpt>
      <trkpt lat="40.078276209533214569091796875" lon="116.58409765921533107757568359375">
        <ele>10.19999980926513671875</ele>
        <time>2015-07-27T08:58:08.000Z</time>
        <extensions>
          <ns3:TrackPointExtension>
            <ns3:atemp>33.0</ns3:atemp>
          </ns3:TrackPointExtension>
        </extensions>
      </trkpt>
      <trkpt lat="40.07766910828649997711181640625" lon="116.5842112340033054351806640625">
        <ele>7.599999904632568359375</ele>
        <time>2015-07-27T08:58:19.000Z</time>
        <extensions>
          <ns3:TrackPointExtension>
            <ns3:atemp>33.0</ns3:atemp>
          </ns3:TrackPointExtension>
        </extensions>
      </trkpt>
      <trkpt lat="40.0770901702344417572021484375" lon="116.58425264060497283935546875">
        <ele>7.19999980926513671875</ele>
        <time>2015-07-27T08:58:30.000Z</time>
        <extensions>
          <ns3:TrackPointExtension>
            <ns3:atemp>33.0</ns3:atemp>
          </ns3:TrackPointExtension>
        </extensions>
      </trkpt>
      <trkpt lat="40.0766911916434764862060546875" lon="116.5842273272573947906494140625">
        <ele>7.599999904632568359375</ele>
        <time>2015-07-27T08:58:42.000Z</time>
        <extensions>
          <ns3:TrackPointExtension>
            <ns3:atemp>33.0</ns3:atemp>
          </ns3:TrackPointExtension>
        </extensions>
      </trkpt>
      <trkpt lat="40.07663511671125888824462890625" lon="116.5843346156179904937744140625">
        <ele>7.599999904632568359375</ele>
        <time>2015-07-27T08:58:43.000Z</time>
        <extensions>
          <ns3:TrackPointExtension>
            <ns3:atemp>33.0</ns3:atemp>
          </ns3:TrackPointExtension>
        </extensions>
      </trkpt>
      <trkpt lat="40.07660846225917339324951171875" lon="116.5843297541141510009765625">
        <ele>7.400000095367431640625</ele>
        <time>2015-07-27T08:58:44.000Z</time>
        <extensions>
          <ns3:TrackPointExtension>
            <ns3:atemp>33.0</ns3:atemp>
          </ns3:TrackPointExtension>
        </extensions>
      </trkpt>
      <trkpt lat="40.07658650167286396026611328125" lon="116.58428440801799297332763671875">
        <ele>7.19999980926513671875</ele>
        <time>2015-07-27T08:58:45.000Z</time>
        <extensions>
          <ns3:TrackPointExtension>
            <ns3:atemp>33.0</ns3:atemp>
          </ns3:TrackPointExtension>
        </extensions>
      </trkpt>
      <trkpt lat="40.07656269706785678863525390625" lon="116.58422606997191905975341796875">
        <ele>7</ele>
        <time>2015-07-27T08:58:46.000Z</time>
        <extensions>
          <ns3:TrackPointExtension>
            <ns3:atemp>33.0</ns3:atemp>
          </ns3:TrackPointExtension>
        </extensions>
      </trkpt>
      <trkpt lat="40.0764611922204494476318359375" lon="116.5838910453021526336669921875">
        <ele>6.599999904632568359375</ele>
        <time>2015-07-27T08:58:51.000Z</time>
        <extensions>
          <ns3:TrackPointExtension>
            <ns3:atemp>33.0</ns3:atemp>
          </ns3:TrackPointExtension>
        </extensions>
      </trkpt>
      <trkpt lat="40.07611359469592571258544921875" lon="116.58328972756862640380859375">
        <ele>7</ele>
        <time>2015-07-27T08:59:02.000Z</time>
        <extensions>
          <ns3:TrackPointExtension>
            <ns3:atemp>33.0</ns3:atemp>
          </ns3:TrackPointExtension>
        </extensions>
      </trkpt>
      <trkpt lat="40.075614452362060546875" lon="116.58281229436397552490234375">
        <ele>8.19999980926513671875</ele>
        <time>2015-07-27T08:59:13.000Z</time>
        <extensions>
          <ns3:TrackPointExtension>
            <ns3:atemp>33.0</ns3:atemp>
          </ns3:TrackPointExtension>
        </extensions>
      </trkpt>
      <trkpt lat="40.07501053623855113983154296875" lon="116.58260467462241649627685546875">
        <ele>6.19999980926513671875</ele>
        <time>2015-07-27T08:59:24.000Z</time>
        <extensions>
          <ns3:TrackPointExtension>
            <ns3:atemp>33.0</ns3:atemp>
          </ns3:TrackPointExtension>
        </extensions>
      </trkpt>
      <trkpt lat="40.0748907588422298431396484375" lon="116.5825811214745044708251953125">
        <ele>5.80000019073486328125</ele>
        <time>2015-07-27T08:59:26.000Z</time>
        <extensions>
          <ns3:TrackPointExtension>
            <ns3:atemp>33.0</ns3:atemp>
          </ns3:TrackPointExtension>
        </extensions>
      </trkpt>
      <trkpt lat="40.074827559292316436767578125" lon="116.5825663693249225616455078125">
        <ele>5.599999904632568359375</ele>
        <time>2015-07-27T08:59:27.000Z</time>
        <extensions>
          <ns3:TrackPointExtension>
            <ns3:atemp>33.0</ns3:atemp>
          </ns3:TrackPointExtension>
        </extensions>
      </trkpt>
      <trkpt lat="40.074210651218891143798828125" lon="116.58240635879337787628173828125">
        <ele>5.599999904632568359375</ele>
        <time>2015-07-27T08:59:37.000Z</time>
        <extensions>
          <ns3:TrackPointExtension>
            <ns3:atemp>33.0</ns3:atemp>
          </ns3:TrackPointExtension>
        </extensions>
      </trkpt>
      <trkpt lat="40.073593743145465850830078125" lon="116.58225112594664096832275390625">
        <ele>5</ele>
        <time>2015-07-27T08:59:48.000Z</time>
        <extensions>
          <ns3:TrackPointExtension>
            <ns3:atemp>33.0</ns3:atemp>
          </ns3:TrackPointExtension>
        </extensions>
      </trkpt>
      <trkpt lat="40.0734782405197620391845703125" lon="116.582264788448810577392578125">
        <ele>4.80000019073486328125</ele>
        <time>2015-07-27T08:59:50.000Z</time>
        <extensions>
          <ns3:TrackPointExtension>
            <ns3:atemp>33.0</ns3:atemp>
          </ns3:TrackPointExtension>
        </extensions>
      </trkpt>
      <trkpt lat="40.07335091941058635711669921875" lon="116.58225716091692447662353515625">
        <ele>4.599999904632568359375</ele>
        <time>2015-07-27T08:59:52.000Z</time>
        <extensions>
          <ns3:TrackPointExtension>
            <ns3:atemp>33.0</ns3:atemp>
          </ns3:TrackPointExtension>
        </extensions>
      </trkpt>
      <trkpt lat="40.07272638380527496337890625" lon="116.5822086296975612640380859375">
        <ele>5.599999904632568359375</ele>
        <time>2015-07-27T09:00:02.000Z</time>
        <extensions>
          <ns3:TrackPointExtension>
            <ns3:atemp>33.0</ns3:atemp>
          </ns3:TrackPointExtension>
        </extensions>
      </trkpt>
      <trkpt lat="40.07233302108943462371826171875" lon="116.58220435492694377899169921875">
        <ele>6.19999980926513671875</ele>
        <time>2015-07-27T09:00:09.000Z</time>
        <extensions>
          <ns3:TrackPointExtension>
            <ns3:atemp>33.0</ns3:atemp>
          </ns3:TrackPointExtension>
        </extensions>
      </trkpt>
      <trkpt lat="40.07226881571114063262939453125" lon="116.582203097641468048095703125">
        <ele>6.19999980926513671875</ele>
        <time>2015-07-27T09:00:10.000Z</time>
        <extensions>
          <ns3:TrackPointExtension>
            <ns3:atemp>33.0</ns3:atemp>
          </ns3:TrackPointExtension>
        </extensions>
      </trkpt>
      <trkpt lat="40.0722129084169864654541015625" lon="116.58220469020307064056396484375">
        <ele>6.19999980926513671875</ele>
        <time>2015-07-27T09:00:11.000Z</time>
        <extensions>
          <ns3:TrackPointExtension>
            <ns3:atemp>33.0</ns3:atemp>
          </ns3:TrackPointExtension>
        </extensions>
      </trkpt>
      <trkpt lat="40.0716355629265308380126953125" lon="116.5823020040988922119140625">
        <ele>6.80000019073486328125</ele>
        <time>2015-07-27T09:00:22.000Z</time>
        <extensions>
          <ns3:TrackPointExtension>
            <ns3:atemp>33.0</ns3:atemp>
          </ns3:TrackPointExtension>
        </extensions>
      </trkpt>
      <trkpt lat="40.07152399979531764984130859375" lon="116.58233393914997577667236328125">
        <ele>7.19999980926513671875</ele>
        <time>2015-07-27T09:00:24.000Z</time>
        <extensions>
          <ns3:TrackPointExtension>
            <ns3:atemp>33.0</ns3:atemp>
          </ns3:TrackPointExtension>
        </extensions>
      </trkpt>
      <trkpt lat="40.0714709423482418060302734375" lon="116.58234366215765476226806640625">
        <ele>7.400000095367431640625</ele>
        <time>2015-07-27T09:00:25.000Z</time>
        <extensions>
          <ns3:TrackPointExtension>
            <ns3:atemp>33.0</ns3:atemp>
          </ns3:TrackPointExtension>
        </extensions>
      </trkpt>
      <trkpt lat="40.0708563812077045440673828125" lon="116.5824307501316070556640625">
        <ele>9.3999996185302734375</ele>
        <time>2015-07-27T09:00:37.000Z</time>
        <extensions>
          <ns3:TrackPointExtension>
            <ns3:atemp>33.0</ns3:atemp>
          </ns3:TrackPointExtension>
        </extensions>
      </trkpt>
      <trkpt lat="40.07028532214462757110595703125" lon="116.5824951231479644775390625">
        <ele>9.80000019073486328125</ele>
        <time>2015-07-27T09:00:48.000Z</time>
        <extensions>
          <ns3:TrackPointExtension>
            <ns3:atemp>33.0</ns3:atemp>
          </ns3:TrackPointExtension>
        </extensions>
      </trkpt>
      <trkpt lat="40.0697147659957408905029296875" lon="116.5826079435646533966064453125">
        <ele>10</ele>
        <time>2015-07-27T09:00:59.000Z</time>
        <extensions>
          <ns3:TrackPointExtension>
            <ns3:atemp>33.0</ns3:atemp>
          </ns3:TrackPointExtension>
        </extensions>
      </trkpt>
      <trkpt lat="40.06907732225954532623291015625" lon="116.582692600786685943603515625">
        <ele>9.80000019073486328125</ele>
        <time>2015-07-27T09:01:10.000Z</time>
        <extensions>
          <ns3:TrackPointExtension>
            <ns3:atemp>33.0</ns3:atemp>
          </ns3:TrackPointExtension>
        </extensions>
      </trkpt>
      <trkpt lat="40.06841146387159824371337890625" lon="116.582724116742610931396484375">
        <ele>9.3999996185302734375</ele>
        <time>2015-07-27T09:01:21.000Z</time>
        <extensions>
          <ns3:TrackPointExtension>
            <ns3:atemp>33.0</ns3:atemp>
          </ns3:TrackPointExtension>
        </extensions>
      </trkpt>
      <trkpt lat="40.06778843700885772705078125" lon="116.58280366100370883941650390625">
        <ele>9.80000019073486328125</ele>
        <time>2015-07-27T09:01:32.000Z</time>
        <extensions>
          <ns3:TrackPointExtension>
            <ns3:atemp>33.0</ns3:atemp>
          </ns3:TrackPointExtension>
        </extensions>
      </trkpt>
      <trkpt lat="40.0676199607551097869873046875" lon="116.58285546116530895233154296875">
        <ele>9.6000003814697265625</ele>
        <time>2015-07-27T09:01:35.000Z</time>
        <extensions>
          <ns3:TrackPointExtension>
            <ns3:atemp>33.0</ns3:atemp>
          </ns3:TrackPointExtension>
        </extensions>
      </trkpt>
      <trkpt lat="40.067195333540439605712890625" lon="116.582995690405368804931640625">
        <ele>10.19999980926513671875</ele>
        <time>2015-07-27T09:01:43.000Z</time>
        <extensions>
          <ns3:TrackPointExtension>
            <ns3:atemp>33.0</ns3:atemp>
          </ns3:TrackPointExtension>
        </extensions>
      </trkpt>
      <trkpt lat="40.0665816105902194976806640625" lon="116.58306366764008998870849609375">
        <ele>10</ele>
        <time>2015-07-27T09:01:53.000Z</time>
        <extensions>
          <ns3:TrackPointExtension>
            <ns3:atemp>33.0</ns3:atemp>
          </ns3:TrackPointExtension>
        </extensions>
      </trkpt>
      <trkpt lat="40.0659623555839061737060546875" lon="116.583127118647098541259765625">
        <ele>10</ele>
        <time>2015-07-27T09:02:03.000Z</time>
        <extensions>
          <ns3:TrackPointExtension>
            <ns3:atemp>33.0</ns3:atemp>
          </ns3:TrackPointExtension>
        </extensions>
      </trkpt>
      <trkpt lat="40.06533228792250156402587890625" lon="116.58319811336696147918701171875">
        <ele>10.19999980926513671875</ele>
        <time>2015-07-27T09:02:13.000Z</time>
        <extensions>
          <ns3:TrackPointExtension>
            <ns3:atemp>33.0</ns3:atemp>
          </ns3:TrackPointExtension>
        </extensions>
      </trkpt>
      <trkpt lat="40.0646831095218658447265625" lon="116.58326826989650726318359375">
        <ele>10.19999980926513671875</ele>
        <time>2015-07-27T09:02:24.000Z</time>
        <extensions>
          <ns3:TrackPointExtension>
            <ns3:atemp>32.0</ns3:atemp>
          </ns3:TrackPointExtension>
        </extensions>
      </trkpt>
      <trkpt lat="40.06440860219299793243408203125" lon="116.5833579562604427337646484375">
        <ele>10</ele>
        <time>2015-07-27T09:02:29.000Z</time>
        <extensions>
          <ns3:TrackPointExtension>
            <ns3:atemp>32.0</ns3:atemp>
          </ns3:TrackPointExtension>
        </extensions>
      </trkpt>
      <trkpt lat="40.06434850394725799560546875" lon="116.5833673439919948577880859375">
        <ele>10</ele>
        <time>2015-07-27T09:02:30.000Z</time>
        <extensions>
          <ns3:TrackPointExtension>
            <ns3:atemp>32.0</ns3:atemp>
          </ns3:TrackPointExtension>
        </extensions>
      </trkpt>
      <trkpt lat="40.06369731388986110687255859375" lon="116.58344437368214130401611328125">
        <ele>10</ele>
        <time>2015-07-27T09:02:41.000Z</time>
        <extensions>
          <ns3:TrackPointExtension>
            <ns3:atemp>32.0</ns3:atemp>
          </ns3:TrackPointExtension>
        </extensions>
      </trkpt>
      <trkpt lat="40.06308124400675296783447265625" lon="116.5835524164140224456787109375">
        <ele>10.3999996185302734375</ele>
        <time>2015-07-27T09:02:52.000Z</time>
        <extensions>
          <ns3:TrackPointExtension>
            <ns3:atemp>32.0</ns3:atemp>
          </ns3:TrackPointExtension>
        </extensions>
      </trkpt>
      <trkpt lat="40.06247824989259243011474609375" lon="116.5836667455732822418212890625">
        <ele>9.80000019073486328125</ele>
        <time>2015-07-27T09:03:03.000Z</time>
        <extensions>
          <ns3:TrackPointExtension>
            <ns3:atemp>32.0</ns3:atemp>
          </ns3:TrackPointExtension>
        </extensions>
      </trkpt>
      <trkpt lat="40.061863772571086883544921875" lon="116.583774872124195098876953125">
        <ele>9.80000019073486328125</ele>
        <time>2015-07-27T09:03:14.000Z</time>
        <extensions>
          <ns3:TrackPointExtension>
            <ns3:atemp>32.0</ns3:atemp>
          </ns3:TrackPointExtension>
        </extensions>
      </trkpt>
      <trkpt lat="40.06122599355876445770263671875" lon="116.58387176692485809326171875">
        <ele>9.6000003814697265625</ele>
        <time>2015-07-27T09:03:25.000Z</time>
        <extensions>
          <ns3:TrackPointExtension>
            <ns3:atemp>32.0</ns3:atemp>
          </ns3:TrackPointExtension>
        </extensions>
      </trkpt>
      <trkpt lat="40.0609226524829864501953125" lon="116.58393957652151584625244140625">
        <ele>10.19999980926513671875</ele>
        <time>2015-07-27T09:03:31.000Z</time>
        <extensions>
          <ns3:TrackPointExtension>
            <ns3:atemp>32.0</ns3:atemp>
          </ns3:TrackPointExtension>
        </extensions>
      </trkpt>
      <trkpt lat="40.06087194196879863739013671875" lon="116.58393404446542263031005859375">
        <ele>10.19999980926513671875</ele>
        <time>2015-07-27T09:03:32.000Z</time>
        <extensions>
          <ns3:TrackPointExtension>
            <ns3:atemp>32.0</ns3:atemp>
          </ns3:TrackPointExtension>
        </extensions>
      </trkpt>
      <trkpt lat="40.06030012853443622589111328125" lon="116.58403144218027591705322265625">
        <ele>10.19999980926513671875</ele>
        <time>2015-07-27T09:03:43.000Z</time>
        <extensions>
          <ns3:TrackPointExtension>
            <ns3:atemp>32.0</ns3:atemp>
          </ns3:TrackPointExtension>
        </extensions>
      </trkpt>
      <trkpt lat="40.059673748910427093505859375" lon="116.5841339528560638427734375">
        <ele>10.80000019073486328125</ele>
        <time>2015-07-27T09:03:53.000Z</time>
        <extensions>
          <ns3:TrackPointExtension>
            <ns3:atemp>32.0</ns3:atemp>
          </ns3:TrackPointExtension>
        </extensions>
      </trkpt>
      <trkpt lat="40.05905918776988983154296875" lon="116.58422992564737796783447265625">
        <ele>10.19999980926513671875</ele>
        <time>2015-07-27T09:04:04.000Z</time>
        <extensions>
          <ns3:TrackPointExtension>
            <ns3:atemp>32.0</ns3:atemp>
          </ns3:TrackPointExtension>
        </extensions>
      </trkpt>
      <trkpt lat="40.05899724550545215606689453125" lon="116.584242917597293853759765625">
        <ele>10.19999980926513671875</ele>
        <time>2015-07-27T09:04:05.000Z</time>
        <extensions>
          <ns3:TrackPointExtension>
            <ns3:atemp>32.0</ns3:atemp>
          </ns3:TrackPointExtension>
        </extensions>
      </trkpt>
      <trkpt lat="40.05840665660798549652099609375" lon="116.58437065780162811279296875">
        <ele>9.80000019073486328125</ele>
        <time>2015-07-27T09:04:15.000Z</time>
        <extensions>
          <ns3:TrackPointExtension>
            <ns3:atemp>32.0</ns3:atemp>
          </ns3:TrackPointExtension>
        </extensions>
      </trkpt>
      <trkpt lat="40.05781858228147029876708984375" lon="116.5844636969268321990966796875">
        <ele>9.19999980926513671875</ele>
        <time>2015-07-27T09:04:29.000Z</time>
        <extensions>
          <ns3:TrackPointExtension>
            <ns3:atemp>32.0</ns3:atemp>
          </ns3:TrackPointExtension>
        </extensions>
      </trkpt>
      <trkpt lat="40.0571774505078792572021484375" lon="116.584577858448028564453125">
        <ele>9.6000003814697265625</ele>
        <time>2015-07-27T09:04:40.000Z</time>
        <extensions>
          <ns3:TrackPointExtension>
            <ns3:atemp>32.0</ns3:atemp>
          </ns3:TrackPointExtension>
        </extensions>
      </trkpt>
      <trkpt lat="40.05654034204781055450439453125" lon="116.58469595946371555328369140625">
        <ele>10.19999980926513671875</ele>
        <time>2015-07-27T09:04:51.000Z</time>
        <extensions>
          <ns3:TrackPointExtension>
            <ns3:atemp>32.0</ns3:atemp>
          </ns3:TrackPointExtension>
        </extensions>
      </trkpt>
      <trkpt lat="40.05606106482446193695068359375" lon="116.5849112905561923980712890625">
        <ele>10.6000003814697265625</ele>
        <time>2015-07-27T09:05:00.000Z</time>
        <extensions>
          <ns3:TrackPointExtension>
            <ns3:atemp>32.0</ns3:atemp>
          </ns3:TrackPointExtension>
        </extensions>
      </trkpt>
      <trkpt lat="40.0556070171296596527099609375" lon="116.58543457277119159698486328125">
        <ele>11.80000019073486328125</ele>
        <time>2015-07-27T09:05:11.000Z</time>
        <extensions>
          <ns3:TrackPointExtension>
            <ns3:atemp>32.0</ns3:atemp>
          </ns3:TrackPointExtension>
        </extensions>
      </trkpt>
      <trkpt lat="40.055198483169078826904296875" lon="116.58595307730138301849365234375">
        <ele>12</ele>
        <time>2015-07-27T09:05:22.000Z</time>
        <extensions>
          <ns3:TrackPointExtension>
            <ns3:atemp>32.0</ns3:atemp>
          </ns3:TrackPointExtension>
        </extensions>
      </trkpt>
      <trkpt lat="40.05502992309629917144775390625" lon="116.5860879421234130859375">
        <ele>12.3999996185302734375</ele>
        <time>2015-07-27T09:05:26.000Z</time>
        <extensions>
          <ns3:TrackPointExtension>
            <ns3:atemp>32.0</ns3:atemp>
          </ns3:TrackPointExtension>
        </extensions>
      </trkpt>
      <trkpt lat="40.0549842417240142822265625" lon="116.5861058793962001800537109375">
        <ele>12.6000003814697265625</ele>
        <time>2015-07-27T09:05:27.000Z</time>
        <extensions>
          <ns3:TrackPointExtension>
            <ns3:atemp>32.0</ns3:atemp>
          </ns3:TrackPointExtension>
        </extensions>
      </trkpt>
      <trkpt lat="40.05493462085723876953125" lon="116.58611275255680084228515625">
        <ele>12.3999996185302734375</ele>
        <time>2015-07-27T09:05:28.000Z</time>
        <extensions>
          <ns3:TrackPointExtension>
            <ns3:atemp>32.0</ns3:atemp>
          </ns3:TrackPointExtension>
        </extensions>
      </trkpt>
      <trkpt lat="40.05488893948495388031005859375" lon="116.58611199818551540374755859375">
        <ele>12.19999980926513671875</ele>
        <time>2015-07-27T09:05:29.000Z</time>
        <extensions>
          <ns3:TrackPointExtension>
            <ns3:atemp>32.0</ns3:atemp>
          </ns3:TrackPointExtension>
        </extensions>
      </trkpt>
      <trkpt lat="40.05484418012201786041259765625" lon="116.58610244281589984893798828125">
        <ele>12.19999980926513671875</ele>
        <time>2015-07-27T09:05:30.000Z</time>
        <extensions>
          <ns3:TrackPointExtension>
            <ns3:atemp>32.0</ns3:atemp>
          </ns3:TrackPointExtension>
        </extensions>
      </trkpt>
      <trkpt lat="40.054802857339382171630859375" lon="116.586092971265316009521484375">
        <ele>12.19999980926513671875</ele>
        <time>2015-07-27T09:05:31.000Z</time>
        <extensions>
          <ns3:TrackPointExtension>
            <ns3:atemp>32.0</ns3:atemp>
          </ns3:TrackPointExtension>
        </extensions>
      </trkpt>
      <trkpt lat="40.0546665675938129425048828125" lon="116.58599548973143100738525390625">
        <ele>12.3999996185302734375</ele>
        <time>2015-07-27T09:05:35.000Z</time>
        <extensions>
          <ns3:TrackPointExtension>
            <ns3:atemp>32.0</ns3:atemp>
          </ns3:TrackPointExtension>
        </extensions>
      </trkpt>
      <trkpt lat="40.0546310283243656158447265625" lon="116.5859550051391124725341796875">
        <ele>12.6000003814697265625</ele>
        <time>2015-07-27T09:05:36.000Z</time>
        <extensions>
          <ns3:TrackPointExtension>
            <ns3:atemp>32.0</ns3:atemp>
          </ns3:TrackPointExtension>
        </extensions>
      </trkpt>
      <trkpt lat="40.05459465086460113525390625" lon="116.58592499792575836181640625">
        <ele>12.80000019073486328125</ele>
        <time>2015-07-27T09:05:37.000Z</time>
        <extensions>
          <ns3:TrackPointExtension>
            <ns3:atemp>32.0</ns3:atemp>
          </ns3:TrackPointExtension>
        </extensions>
      </trkpt>
      <trkpt lat="40.0545599497854709625244140625" lon="116.5859050489962100982666015625">
        <ele>13</ele>
        <time>2015-07-27T09:05:38.000Z</time>
        <extensions>
          <ns3:TrackPointExtension>
            <ns3:atemp>32.0</ns3:atemp>
          </ns3:TrackPointExtension>
        </extensions>
      </trkpt>
      <trkpt lat="40.05453027784824371337890625" lon="116.5858936496078968048095703125">
        <ele>13.19999980926513671875</ele>
        <time>2015-07-27T09:05:39.000Z</time>
        <extensions>
          <ns3:TrackPointExtension>
            <ns3:atemp>32.0</ns3:atemp>
          </ns3:TrackPointExtension>
        </extensions>
      </trkpt>
      <trkpt lat="40.054497756063938140869140625" lon="116.58588836900889873504638671875">
        <ele>13.19999980926513671875</ele>
        <time>2015-07-27T09:05:40.000Z</time>
        <extensions>
          <ns3:TrackPointExtension>
            <ns3:atemp>32.0</ns3:atemp>
          </ns3:TrackPointExtension>
        </extensions>
      </trkpt>
      <trkpt lat="40.05446590483188629150390625" lon="116.585886776447296142578125">
        <ele>13.19999980926513671875</ele>
        <time>2015-07-27T09:05:41.000Z</time>
        <extensions>
          <ns3:TrackPointExtension>
            <ns3:atemp>32.0</ns3:atemp>
          </ns3:TrackPointExtension>
        </extensions>
      </trkpt>
      <trkpt lat="40.05443028174340724945068359375" lon="116.5858939848840236663818359375">
        <ele>13.19999980926513671875</ele>
        <time>2015-07-27T09:05:42.000Z</time>
        <extensions>
          <ns3:TrackPointExtension>
            <ns3:atemp>32.0</ns3:atemp>
          </ns3:TrackPointExtension>
        </extensions>
      </trkpt>
      <trkpt lat="40.0543966703116893768310546875" lon="116.58590890467166900634765625">
        <ele>13.19999980926513671875</ele>
        <time>2015-07-27T09:05:43.000Z</time>
        <extensions>
          <ns3:TrackPointExtension>
            <ns3:atemp>32.0</ns3:atemp>
          </ns3:TrackPointExtension>
        </extensions>
      </trkpt>
      <trkpt lat="40.0543624721467494964599609375" lon="116.58592860214412212371826171875">
        <ele>13.19999980926513671875</ele>
        <time>2015-07-27T09:05:44.000Z</time>
        <extensions>
          <ns3:TrackPointExtension>
            <ns3:atemp>32.0</ns3:atemp>
          </ns3:TrackPointExtension>
        </extensions>
      </trkpt>
      <trkpt lat="40.05432483740150928497314453125" lon="116.585953496396541595458984375">
        <ele>13</ele>
        <time>2015-07-27T09:05:45.000Z</time>
        <extensions>
          <ns3:TrackPointExtension>
            <ns3:atemp>32.0</ns3:atemp>
          </ns3:TrackPointExtension>
        </extensions>
      </trkpt>
      <trkpt lat="40.05428812466561794281005859375" lon="116.585983000695705413818359375">
        <ele>12.80000019073486328125</ele>
        <time>2015-07-27T09:05:46.000Z</time>
        <extensions>
          <ns3:TrackPointExtension>
            <ns3:atemp>32.0</ns3:atemp>
          </ns3:TrackPointExtension>
        </extensions>
      </trkpt>
      <trkpt lat="40.05408360622823238372802734375" lon="116.586160026490688323974609375">
        <ele>11.80000019073486328125</ele>
        <time>2015-07-27T09:05:51.000Z</time>
        <extensions>
          <ns3:TrackPointExtension>
            <ns3:atemp>32.0</ns3:atemp>
          </ns3:TrackPointExtension>
        </extensions>
      </trkpt>
      <trkpt lat="40.0540506653487682342529296875" lon="116.58620788715779781341552734375">
        <ele>11.6000003814697265625</ele>
        <time>2015-07-27T09:05:52.000Z</time>
        <extensions>
          <ns3:TrackPointExtension>
            <ns3:atemp>32.0</ns3:atemp>
          </ns3:TrackPointExtension>
        </extensions>
      </trkpt>
      <trkpt lat="40.05401923321187496185302734375" lon="116.58626002259552478790283203125">
        <ele>11.3999996185302734375</ele>
        <time>2015-07-27T09:05:53.000Z</time>
        <extensions>
          <ns3:TrackPointExtension>
            <ns3:atemp>32.0</ns3:atemp>
          </ns3:TrackPointExtension>
        </extensions>
      </trkpt>
      <trkpt lat="40.0539950095117092132568359375" lon="116.5863063745200634002685546875">
        <ele>11.19999980926513671875</ele>
        <time>2015-07-27T09:05:54.000Z</time>
        <extensions>
          <ns3:TrackPointExtension>
            <ns3:atemp>32.0</ns3:atemp>
          </ns3:TrackPointExtension>
        </extensions>
      </trkpt>
      <trkpt lat="40.05396726541221141815185546875" lon="116.58635641448199748992919921875">
        <ele>11</ele>
        <time>2015-07-27T09:05:55.000Z</time>
        <extensions>
          <ns3:TrackPointExtension>
            <ns3:atemp>32.0</ns3:atemp>
          </ns3:TrackPointExtension>
        </extensions>
      </trkpt>
      <trkpt lat="40.05392946302890777587890625" lon="116.58639815635979175567626953125">
        <ele>11</ele>
        <time>2015-07-27T09:05:56.000Z</time>
        <extensions>
          <ns3:TrackPointExtension>
            <ns3:atemp>32.0</ns3:atemp>
          </ns3:TrackPointExtension>
        </extensions>
      </trkpt>
      <trkpt lat="40.05387506447732448577880859375" lon="116.58641274087131023406982421875">
        <ele>10.6000003814697265625</ele>
        <time>2015-07-27T09:05:57.000Z</time>
        <extensions>
          <ns3:TrackPointExtension>
            <ns3:atemp>32.0</ns3:atemp>
          </ns3:TrackPointExtension>
        </extensions>
      </trkpt>
      <trkpt lat="40.05382276140153408050537109375" lon="116.58640989102423191070556640625">
        <ele>10.3999996185302734375</ele>
        <time>2015-07-27T09:05:58.000Z</time>
        <extensions>
          <ns3:TrackPointExtension>
            <ns3:atemp>32.0</ns3:atemp>
          </ns3:TrackPointExtension>
        </extensions>
      </trkpt>
      <trkpt lat="40.053793005645275115966796875" lon="116.58637225627899169921875">
        <ele>10.6000003814697265625</ele>
        <time>2015-07-27T09:05:59.000Z</time>
        <extensions>
          <ns3:TrackPointExtension>
            <ns3:atemp>32.0</ns3:atemp>
          </ns3:TrackPointExtension>
        </extensions>
      </trkpt>
      <trkpt lat="40.0537619926035404205322265625" lon="116.58633881248533725738525390625">
        <ele>11</ele>
        <time>2015-07-27T09:06:00.000Z</time>
        <extensions>
          <ns3:TrackPointExtension>
            <ns3:atemp>32.0</ns3:atemp>
          </ns3:TrackPointExtension>
        </extensions>
      </trkpt>
      <trkpt lat="40.05373458378016948699951171875" lon="116.58630981110036373138427734375">
        <ele>11.19999980926513671875</ele>
        <time>2015-07-27T09:06:01.000Z</time>
        <extensions>
          <ns3:TrackPointExtension>
            <ns3:atemp>32.0</ns3:atemp>
          </ns3:TrackPointExtension>
        </extensions>
      </trkpt>
      <trkpt lat="40.053713209927082061767578125" lon="116.586284078657627105712890625">
        <ele>11.3999996185302734375</ele>
        <time>2015-07-27T09:06:02.000Z</time>
        <extensions>
          <ns3:TrackPointExtension>
            <ns3:atemp>32.0</ns3:atemp>
          </ns3:TrackPointExtension>
        </extensions>
      </trkpt>
      <trkpt lat="40.053693763911724090576171875" lon="116.58625666983425617218017578125">
        <ele>11.3999996185302734375</ele>
        <time>2015-07-27T09:06:03.000Z</time>
        <extensions>
          <ns3:TrackPointExtension>
            <ns3:atemp>32.0</ns3:atemp>
          </ns3:TrackPointExtension>
        </extensions>
      </trkpt>
      <trkpt lat="40.053671300411224365234375" lon="116.58623135648667812347412109375">
        <ele>11.3999996185302734375</ele>
        <time>2015-07-27T09:06:04.000Z</time>
        <extensions>
          <ns3:TrackPointExtension>
            <ns3:atemp>32.0</ns3:atemp>
          </ns3:TrackPointExtension>
        </extensions>
      </trkpt>
      <trkpt lat="40.053519420325756072998046875" lon="116.5861099027097225189208984375">
        <ele>11.19999980926513671875</ele>
        <time>2015-07-27T09:06:15.000Z</time>
        <extensions>
          <ns3:TrackPointExtension>
            <ns3:atemp>32.0</ns3:atemp>
          </ns3:TrackPointExtension>
        </extensions>
      </trkpt>
      <trkpt lat="40.05350743420422077178955078125" lon="116.586105041205883026123046875">
        <ele>11.19999980926513671875</ele>
        <time>2015-07-27T09:06:16.000Z</time>
        <extensions>
          <ns3:TrackPointExtension>
            <ns3:atemp>32.0</ns3:atemp>
          </ns3:TrackPointExtension>
        </extensions>
      </trkpt>
      <trkpt lat="40.0534823723137378692626953125" lon="116.58609724603593349456787109375">
        <ele>11.3999996185302734375</ele>
        <time>2015-07-27T09:06:17.000Z</time>
        <extensions>
          <ns3:TrackPointExtension>
            <ns3:atemp>32.0</ns3:atemp>
          </ns3:TrackPointExtension>
        </extensions>
      </trkpt>
      <trkpt lat="40.05345982499420642852783203125" lon="116.58608802594244480133056640625">
        <ele>11.19999980926513671875</ele>
        <time>2015-07-27T09:06:18.000Z</time>
        <extensions>
          <ns3:TrackPointExtension>
            <ns3:atemp>32.0</ns3:atemp>
          </ns3:TrackPointExtension>
        </extensions>
      </trkpt>
      <trkpt lat="40.05343182943761348724365234375" lon="116.58608031459152698516845703125">
        <ele>11</ele>
        <time>2015-07-27T09:06:19.000Z</time>
        <extensions>
          <ns3:TrackPointExtension>
            <ns3:atemp>32.0</ns3:atemp>
          </ns3:TrackPointExtension>
        </extensions>
      </trkpt>
      <trkpt lat="40.0533375330269336700439453125" lon="116.58600278198719024658203125">
        <ele>10.3999996185302734375</ele>
        <time>2015-07-27T09:06:22.000Z</time>
        <extensions>
          <ns3:TrackPointExtension>
            <ns3:atemp>32.0</ns3:atemp>
          </ns3:TrackPointExtension>
        </extensions>
      </trkpt>
      <trkpt lat="40.0528232194483280181884765625" lon="116.58559240400791168212890625">
        <ele>10</ele>
        <time>2015-07-27T09:06:34.000Z</time>
        <extensions>
          <ns3:TrackPointExtension>
            <ns3:atemp>32.0</ns3:atemp>
          </ns3:TrackPointExtension>
        </extensions>
      </trkpt>
      <trkpt lat="40.05274183116853237152099609375" lon="116.58551839180290699005126953125">
        <ele>9.6000003814697265625</ele>
        <time>2015-07-27T09:06:36.000Z</time>
        <extensions>
          <ns3:TrackPointExtension>
            <ns3:atemp>32.0</ns3:atemp>
          </ns3:TrackPointExtension>
        </extensions>
      </trkpt>
      <trkpt lat="40.05225266329944133758544921875" lon="116.58506409265100955963134765625">
        <ele>9.19999980926513671875</ele>
        <time>2015-07-27T09:06:46.000Z</time>
        <extensions>
          <ns3:TrackPointExtension>
            <ns3:atemp>32.0</ns3:atemp>
          </ns3:TrackPointExtension>
        </extensions>
      </trkpt>
      <trkpt lat="40.05170297808945178985595703125" lon="116.584593951702117919921875">
        <ele>9.3999996185302734375</ele>
        <time>2015-07-27T09:06:56.000Z</time>
        <extensions>
          <ns3:TrackPointExtension>
            <ns3:atemp>32.0</ns3:atemp>
          </ns3:TrackPointExtension>
        </extensions>
      </trkpt>
      <trkpt lat="40.051192604005336761474609375" lon="116.58417443744838237762451171875">
        <ele>9.19999980926513671875</ele>
        <time>2015-07-27T09:07:05.000Z</time>
        <extensions>
          <ns3:TrackPointExtension>
            <ns3:atemp>32.0</ns3:atemp>
          </ns3:TrackPointExtension>
        </extensions>
      </trkpt>
      <trkpt lat="40.05067133344709873199462890625" lon="116.58374042250216007232666015625">
        <ele>8.80000019073486328125</ele>
        <time>2015-07-27T09:07:14.000Z</time>
        <extensions>
          <ns3:TrackPointExtension>
            <ns3:atemp>32.0</ns3:atemp>
          </ns3:TrackPointExtension>
        </extensions>
      </trkpt>
      <trkpt lat="40.0501815788447856903076171875" lon="116.58331294544041156768798828125">
        <ele>8.3999996185302734375</ele>
        <time>2015-07-27T09:07:23.000Z</time>
        <extensions>
          <ns3:TrackPointExtension>
            <ns3:atemp>32.0</ns3:atemp>
          </ns3:TrackPointExtension>
        </extensions>
      </trkpt>
      <trkpt lat="40.04971009679138660430908203125" lon="116.58288043923676013946533203125">
        <ele>8</ele>
        <time>2015-07-27T09:07:32.000Z</time>
        <extensions>
          <ns3:TrackPointExtension>
            <ns3:atemp>33.0</ns3:atemp>
          </ns3:TrackPointExtension>
        </extensions>
      </trkpt>
      <trkpt lat="40.0492126308381557464599609375" lon="116.58247592858970165252685546875">
        <ele>7.599999904632568359375</ele>
        <time>2015-07-27T09:07:42.000Z</time>
        <extensions>
          <ns3:TrackPointExtension>
            <ns3:atemp>33.0</ns3:atemp>
          </ns3:TrackPointExtension>
        </extensions>
      </trkpt>
      <trkpt lat="40.04869647324085235595703125" lon="116.58201165497303009033203125">
        <ele>7</ele>
        <time>2015-07-27T09:07:53.000Z</time>
        <extensions>
          <ns3:TrackPointExtension>
            <ns3:atemp>32.0</ns3:atemp>
          </ns3:TrackPointExtension>
        </extensions>
      </trkpt>
      <trkpt lat="40.0482731871306896209716796875" lon="116.58167503774166107177734375">
        <ele>6.599999904632568359375</ele>
        <time>2015-07-27T09:08:02.000Z</time>
        <extensions>
          <ns3:TrackPointExtension>
            <ns3:atemp>32.0</ns3:atemp>
          </ns3:TrackPointExtension>
        </extensions>
      </trkpt>
      <trkpt lat="40.0482292659580707550048828125" lon="116.58165718428790569305419921875">
        <ele>6.400000095367431640625</ele>
        <time>2015-07-27T09:08:03.000Z</time>
        <extensions>
          <ns3:TrackPointExtension>
            <ns3:atemp>32.0</ns3:atemp>
          </ns3:TrackPointExtension>
        </extensions>
      </trkpt>
      <trkpt lat="40.04818509332835674285888671875" lon="116.58164880238473415374755859375">
        <ele>6.19999980926513671875</ele>
        <time>2015-07-27T09:08:04.000Z</time>
        <extensions>
          <ns3:TrackPointExtension>
            <ns3:atemp>32.0</ns3:atemp>
          </ns3:TrackPointExtension>
        </extensions>
      </trkpt>
      <trkpt lat="40.04814435727894306182861328125" lon="116.5816738642752170562744140625">
        <ele>6.19999980926513671875</ele>
        <time>2015-07-27T09:08:05.000Z</time>
        <extensions>
          <ns3:TrackPointExtension>
            <ns3:atemp>32.0</ns3:atemp>
          </ns3:TrackPointExtension>
        </extensions>
      </trkpt>
      <trkpt lat="40.04810747690498828887939453125" lon="116.581720300018787384033203125">
        <ele>6</ele>
        <time>2015-07-27T09:08:06.000Z</time>
        <extensions>
          <ns3:TrackPointExtension>
            <ns3:atemp>32.0</ns3:atemp>
          </ns3:TrackPointExtension>
        </extensions>
      </trkpt>
      <trkpt lat="40.0480700097978115081787109375" lon="116.5817710943520069122314453125">
        <ele>6</ele>
        <time>2015-07-27T09:08:07.000Z</time>
        <extensions>
          <ns3:TrackPointExtension>
            <ns3:atemp>32.0</ns3:atemp>
          </ns3:TrackPointExtension>
        </extensions>
      </trkpt>
      <trkpt lat="40.048034973442554473876953125" lon="116.58183152787387371063232421875">
        <ele>5.80000019073486328125</ele>
        <time>2015-07-27T09:08:08.000Z</time>
        <extensions>
          <ns3:TrackPointExtension>
            <ns3:atemp>32.0</ns3:atemp>
          </ns3:TrackPointExtension>
        </extensions>
      </trkpt>
      <trkpt lat="40.04800387658178806304931640625" lon="116.58189774490892887115478515625">
        <ele>5.80000019073486328125</ele>
        <time>2015-07-27T09:08:09.000Z</time>
        <extensions>
          <ns3:TrackPointExtension>
            <ns3:atemp>32.0</ns3:atemp>
          </ns3:TrackPointExtension>
        </extensions>
      </trkpt>
      <trkpt lat="40.0479781441390514373779296875" lon="116.58196337521076202392578125">
        <ele>6.400000095367431640625</ele>
        <time>2015-07-27T09:08:10.000Z</time>
        <extensions>
          <ns3:TrackPointExtension>
            <ns3:atemp>32.0</ns3:atemp>
          </ns3:TrackPointExtension>
        </extensions>
      </trkpt>
      <trkpt lat="40.04795056767761707305908203125" lon="116.582029759883880615234375">
        <ele>6.599999904632568359375</ele>
        <time>2015-07-27T09:08:11.000Z</time>
        <extensions>
          <ns3:TrackPointExtension>
            <ns3:atemp>32.0</ns3:atemp>
          </ns3:TrackPointExtension>
        </extensions>
      </trkpt>
      <trkpt lat="40.047923661768436431884765625" lon="116.58209924586117267608642578125">
        <ele>7</ele>
        <time>2015-07-27T09:08:12.000Z</time>
        <extensions>
          <ns3:TrackPointExtension>
            <ns3:atemp>32.0</ns3:atemp>
          </ns3:TrackPointExtension>
        </extensions>
      </trkpt>
      <trkpt lat="40.04777840338647365570068359375" lon="116.58251632936298847198486328125">
        <ele>7</ele>
        <time>2015-07-27T09:08:18.000Z</time>
        <extensions>
          <ns3:TrackPointExtension>
            <ns3:atemp>32.0</ns3:atemp>
          </ns3:TrackPointExtension>
        </extensions>
      </trkpt>
      <trkpt lat="40.04775770008563995361328125" lon="116.58258430659770965576171875">
        <ele>7</ele>
        <time>2015-07-27T09:08:19.000Z</time>
        <extensions>
          <ns3:TrackPointExtension>
            <ns3:atemp>32.0</ns3:atemp>
          </ns3:TrackPointExtension>
        </extensions>
      </trkpt>
      <trkpt lat="40.0477300398051738739013671875" lon="116.58265362493693828582763671875">
        <ele>7</ele>
        <time>2015-07-27T09:08:20.000Z</time>
        <extensions>
          <ns3:TrackPointExtension>
            <ns3:atemp>32.0</ns3:atemp>
          </ns3:TrackPointExtension>
        </extensions>
      </trkpt>
      <trkpt lat="40.04761026240885257720947265625" lon="116.58344521187245845794677734375">
        <ele>7.599999904632568359375</ele>
        <time>2015-07-27T09:08:33.000Z</time>
        <extensions>
          <ns3:TrackPointExtension>
            <ns3:atemp>32.0</ns3:atemp>
          </ns3:TrackPointExtension>
        </extensions>
      </trkpt>
      <trkpt lat="40.0476623140275478363037109375" lon="116.58421718515455722808837890625">
        <ele>7.80000019073486328125</ele>
        <time>2015-07-27T09:08:43.000Z</time>
        <extensions>
          <ns3:TrackPointExtension>
            <ns3:atemp>32.0</ns3:atemp>
          </ns3:TrackPointExtension>
        </extensions>
      </trkpt>
      <trkpt lat="40.04770581610500812530517578125" lon="116.58444785512983798980712890625">
        <ele>7.400000095367431640625</ele>
        <time>2015-07-27T09:08:46.000Z</time>
        <extensions>
          <ns3:TrackPointExtension>
            <ns3:atemp>32.0</ns3:atemp>
          </ns3:TrackPointExtension>
        </extensions>
      </trkpt>
      <trkpt lat="40.04775141365826129913330078125" lon="116.585223264992237091064453125">
        <ele>8.80000019073486328125</ele>
        <time>2015-07-27T09:08:56.000Z</time>
        <extensions>
          <ns3:TrackPointExtension>
            <ns3:atemp>32.0</ns3:atemp>
          </ns3:TrackPointExtension>
        </extensions>
      </trkpt>
      <trkpt lat="40.04774303175508975982666015625" lon="116.585298366844654083251953125">
        <ele>8.80000019073486328125</ele>
        <time>2015-07-27T09:08:57.000Z</time>
        <extensions>
          <ns3:TrackPointExtension>
            <ns3:atemp>32.0</ns3:atemp>
          </ns3:TrackPointExtension>
        </extensions>
      </trkpt>
      <trkpt lat="40.04766390658915042877197265625" lon="116.58587847836315631866455078125">
        <ele>9</ele>
        <time>2015-07-27T09:09:18.000Z</time>
        <extensions>
          <ns3:TrackPointExtension>
            <ns3:atemp>32.0</ns3:atemp>
          </ns3:TrackPointExtension>
        </extensions>
      </trkpt>
      <trkpt lat="40.0476559437811374664306640625" lon="116.5859077312052249908447265625">
        <ele>9</ele>
        <time>2015-07-27T09:09:20.000Z</time>
        <extensions>
          <ns3:TrackPointExtension>
            <ns3:atemp>32.0</ns3:atemp>
          </ns3:TrackPointExtension>
        </extensions>
      </trkpt>
      <trkpt lat="40.04764714278280735015869140625" lon="116.5859258361160755157470703125">
        <ele>9</ele>
        <time>2015-07-27T09:09:21.000Z</time>
        <extensions>
          <ns3:TrackPointExtension>
            <ns3:atemp>32.0</ns3:atemp>
          </ns3:TrackPointExtension>
        </extensions>
      </trkpt>
      <trkpt lat="40.0476458854973316192626953125" lon="116.58594234846532344818115234375">
        <ele>9</ele>
        <time>2015-07-27T09:09:22.000Z</time>
        <extensions>
          <ns3:TrackPointExtension>
            <ns3:atemp>32.0</ns3:atemp>
          </ns3:TrackPointExtension>
        </extensions>
      </trkpt>
      <trkpt lat="40.047640018165111541748046875" lon="116.58596062101423740386962890625">
        <ele>8.80000019073486328125</ele>
        <time>2015-07-27T09:09:23.000Z</time>
        <extensions>
          <ns3:TrackPointExtension>
            <ns3:atemp>32.0</ns3:atemp>
          </ns3:TrackPointExtension>
        </extensions>
      </trkpt>
      <trkpt lat="40.047630630433559417724609375" lon="116.58597487024962902069091796875">
        <ele>8.80000019073486328125</ele>
        <time>2015-07-27T09:09:24.000Z</time>
        <extensions>
          <ns3:TrackPointExtension>
            <ns3:atemp>32.0</ns3:atemp>
          </ns3:TrackPointExtension>
        </extensions>
      </trkpt>
      <trkpt lat="40.0476130284368991851806640625" lon="116.585985012352466583251953125">
        <ele>8.3999996185302734375</ele>
        <time>2015-07-27T09:09:25.000Z</time>
        <extensions>
          <ns3:TrackPointExtension>
            <ns3:atemp>32.0</ns3:atemp>
          </ns3:TrackPointExtension>
        </extensions>
      </trkpt>
      <trkpt lat="40.04759752191603183746337890625" lon="116.58599766902625560760498046875">
        <ele>8.3999996185302734375</ele>
        <time>2015-07-27T09:09:26.000Z</time>
        <extensions>
          <ns3:TrackPointExtension>
            <ns3:atemp>32.0</ns3:atemp>
          </ns3:TrackPointExtension>
        </extensions>
      </trkpt>
      <trkpt lat="40.04758109338581562042236328125" lon="116.586011163890361785888671875">
        <ele>8.3999996185302734375</ele>
        <time>2015-07-27T09:09:27.000Z</time>
        <extensions>
          <ns3:TrackPointExtension>
            <ns3:atemp>32.0</ns3:atemp>
          </ns3:TrackPointExtension>
        </extensions>
      </trkpt>
      <trkpt lat="40.0475593842566013336181640625" lon="116.58602423965930938720703125">
        <ele>8.19999980926513671875</ele>
        <time>2015-07-27T09:09:28.000Z</time>
        <extensions>
          <ns3:TrackPointExtension>
            <ns3:atemp>32.0</ns3:atemp>
          </ns3:TrackPointExtension>
        </extensions>
      </trkpt>
      <trkpt lat="40.04733734764158725738525390625" lon="116.58608651719987392425537109375">
        <ele>8</ele>
        <time>2015-07-27T09:09:33.000Z</time>
        <extensions>
          <ns3:TrackPointExtension>
            <ns3:atemp>32.0</ns3:atemp>
          </ns3:TrackPointExtension>
        </extensions>
      </trkpt>
      <trkpt lat="40.04662840627133846282958984375" lon="116.58615608699619770050048828125">
        <ele>8.19999980926513671875</ele>
        <time>2015-07-27T09:09:46.000Z</time>
        <extensions>
          <ns3:TrackPointExtension>
            <ns3:atemp>32.0</ns3:atemp>
          </ns3:TrackPointExtension>
        </extensions>
      </trkpt>
      <trkpt lat="40.046614073216915130615234375" lon="116.5861169435083866119384765625">
        <ele>8</ele>
        <time>2015-07-27T09:09:47.000Z</time>
        <extensions>
          <ns3:TrackPointExtension>
            <ns3:atemp>32.0</ns3:atemp>
          </ns3:TrackPointExtension>
        </extensions>
      </trkpt>
      <trkpt lat="40.04657484591007232666015625" lon="116.58590982668101787567138671875">
        <ele>8.19999980926513671875</ele>
        <time>2015-07-27T09:09:51.000Z</time>
        <extensions>
          <ns3:TrackPointExtension>
            <ns3:atemp>32.0</ns3:atemp>
          </ns3:TrackPointExtension>
        </extensions>
      </trkpt>
      <trkpt lat="40.0465287454426288604736328125" lon="116.5855164639651775360107421875">
        <ele>8.6000003814697265625</ele>
        <time>2015-07-27T09:09:59.000Z</time>
        <extensions>
          <ns3:TrackPointExtension>
            <ns3:atemp>32.0</ns3:atemp>
          </ns3:TrackPointExtension>
        </extensions>
      </trkpt>
      <trkpt lat="40.0465139932930469512939453125" lon="116.5854997001588344573974609375">
        <ele>8.6000003814697265625</ele>
        <time>2015-07-27T09:10:00.000Z</time>
        <extensions>
          <ns3:TrackPointExtension>
            <ns3:atemp>32.0</ns3:atemp>
          </ns3:TrackPointExtension>
        </extensions>
      </trkpt>
      <trkpt lat="40.04649647511541843414306640625" lon="116.58548871986567974090576171875">
        <ele>8.6000003814697265625</ele>
        <time>2015-07-27T09:10:01.000Z</time>
        <extensions>
          <ns3:TrackPointExtension>
            <ns3:atemp>32.0</ns3:atemp>
          </ns3:TrackPointExtension>
        </extensions>
      </trkpt>
      <trkpt lat="40.04648960195481777191162109375" lon="116.58547765575349330902099609375">
        <ele>8.6000003814697265625</ele>
        <time>2015-07-27T09:10:02.000Z</time>
        <extensions>
          <ns3:TrackPointExtension>
            <ns3:atemp>32.0</ns3:atemp>
          </ns3:TrackPointExtension>
        </extensions>
      </trkpt>
      <trkpt lat="40.0464834831655025482177734375" lon="116.58544932492077350616455078125">
        <ele>8.6000003814697265625</ele>
        <time>2015-07-27T09:10:05.000Z</time>
        <extensions>
          <ns3:TrackPointExtension>
            <ns3:atemp>32.0</ns3:atemp>
          </ns3:TrackPointExtension>
        </extensions>
      </trkpt>
      <trkpt lat="40.04646127112209796905517578125" lon="116.5853920765221118927001953125">
        <ele>8.3999996185302734375</ele>
        <time>2015-07-27T09:10:15.000Z</time>
        <extensions>
          <ns3:TrackPointExtension>
            <ns3:atemp>32.0</ns3:atemp>
          </ns3:TrackPointExtension>
        </extensions>
      </trkpt>
      <trkpt lat="40.046453140676021575927734375" lon="116.5853813476860523223876953125">
        <ele>8.3999996185302734375</ele>
        <time>2015-07-27T09:10:16.000Z</time>
        <extensions>
          <ns3:TrackPointExtension>
            <ns3:atemp>32.0</ns3:atemp>
          </ns3:TrackPointExtension>
        </extensions>
      </trkpt>
      <trkpt lat="40.046441070735454559326171875" lon="116.585376150906085968017578125">
        <ele>8</ele>
        <time>2015-07-27T09:11:10.000Z</time>
        <extensions>
          <ns3:TrackPointExtension>
            <ns3:atemp>32.0</ns3:atemp>
          </ns3:TrackPointExtension>
        </extensions>
      </trkpt>
    </trkseg>
  </trk>
</gpx>
