<gpx xmlns:ns3="http://www.garmin.com/xmlschemas/TrackPointExtension/v1" xmlns="http://www.topografix.com/GPX/1/1" xmlns:xsi="http://www.w3.org/2001/XMLSchema-instance" xmlns:ns2="http://www.garmin.com/xmlschemas/GpxExtensions/v3" creator="Garmin Connect" version="1.1" xsi:schemaLocation="http://www.topografix.com/GPX/1/1 http://www.topografix.com/GPX/11.xsd">
  <extensions>
<distance>6197.86</distance>
<average_hr></average_hr>
<average_speed>5.874748815165876</average_speed>
<start_time>2015-07-26T23:38:20+00:00</start_time>
<end_time>2015-07-26T23:55:55+00:00</end_time>
<moving_time>1043.0</moving_time>
<elapsed_time>1055.0</elapsed_time>
</extensions>
<metadata>
    <link href="connect.garmin.com">
      <text>Garmin Connect</text>
    </link>
    <time>2015-07-26T23:38:20.000Z</time>
  </metadata>
  <trk>
    <type>cycling</type>
    <trkseg>
      <trkpt lat="40.04636437632143497467041015625" lon="116.58570765517652034759521484375">
        <ele>-97</ele>
        <time>2015-07-26T23:38:20.000Z</time>
        <extensions>
          <ns3:TrackPointExtension>
            <ns3:atemp>28.0</ns3:atemp>
          </ns3:TrackPointExtension>
        </extensions>
      </trkpt>
      <trkpt lat="40.04638717509806156158447265625" lon="116.5856830962002277374267578125">
        <ele>42.59999847412109375</ele>
        <time>2015-07-26T23:38:21.000Z</time>
        <extensions>
          <ns3:TrackPointExtension>
            <ns3:atemp>29.0</ns3:atemp>
          </ns3:TrackPointExtension>
        </extensions>
      </trkpt>
      <trkpt lat="40.04640812985599040985107421875" lon="116.58565971069037914276123046875">
        <ele>42.59999847412109375</ele>
        <time>2015-07-26T23:38:22.000Z</time>
        <extensions>
          <ns3:TrackPointExtension>
            <ns3:atemp>29.0</ns3:atemp>
          </ns3:TrackPointExtension>
        </extensions>
      </trkpt>
      <trkpt lat="40.0464529730379581451416015625" lon="116.585616879165172576904296875">
        <ele>-96.8000030517578125</ele>
        <time>2015-07-26T23:38:24.000Z</time>
        <extensions>
          <ns3:TrackPointExtension>
            <ns3:atemp>29.0</ns3:atemp>
          </ns3:TrackPointExtension>
        </extensions>
      </trkpt>
      <trkpt lat="40.046463198959827423095703125" lon="116.58558511175215244293212890625">
        <ele>-96.59999847412109375</ele>
        <time>2015-07-26T23:38:25.000Z</time>
        <extensions>
          <ns3:TrackPointExtension>
            <ns3:atemp>28.0</ns3:atemp>
          </ns3:TrackPointExtension>
        </extensions>
      </trkpt>
      <trkpt lat="40.0466320104897022247314453125" lon="116.5853924117982387542724609375">
        <ele>-97.1999969482421875</ele>
        <time>2015-07-26T23:38:30.000Z</time>
        <extensions>
          <ns3:TrackPointExtension>
            <ns3:atemp>28.0</ns3:atemp>
          </ns3:TrackPointExtension>
        </extensions>
      </trkpt>
      <trkpt lat="40.04665405489504337310791015625" lon="116.5853270329535007476806640625">
        <ele>-97.59999847412109375</ele>
        <time>2015-07-26T23:38:31.000Z</time>
        <extensions>
          <ns3:TrackPointExtension>
            <ns3:atemp>28.0</ns3:atemp>
          </ns3:TrackPointExtension>
        </extensions>
      </trkpt>
      <trkpt lat="40.046748854219913482666015625" lon="116.58486150205135345458984375">
        <ele>-98.59999847412109375</ele>
        <time>2015-07-26T23:38:37.000Z</time>
        <extensions>
          <ns3:TrackPointExtension>
            <ns3:atemp>28.0</ns3:atemp>
          </ns3:TrackPointExtension>
        </extensions>
      </trkpt>
      <trkpt lat="40.0467473454773426055908203125" lon="116.58477776683866977691650390625">
        <ele>-98.59999847412109375</ele>
        <time>2015-07-26T23:38:38.000Z</time>
        <extensions>
          <ns3:TrackPointExtension>
            <ns3:atemp>28.0</ns3:atemp>
          </ns3:TrackPointExtension>
        </extensions>
      </trkpt>
      <trkpt lat="40.04678808152675628662109375" lon="116.58396405167877674102783203125">
        <ele>-97.8000030517578125</ele>
        <time>2015-07-26T23:38:48.000Z</time>
        <extensions>
          <ns3:TrackPointExtension>
            <ns3:atemp>28.0</ns3:atemp>
          </ns3:TrackPointExtension>
        </extensions>
      </trkpt>
      <trkpt lat="40.04681012593209743499755859375" lon="116.58317632041871547698974609375">
        <ele>-97.40000152587890625</ele>
        <time>2015-07-26T23:39:00.000Z</time>
        <extensions>
          <ns3:TrackPointExtension>
            <ns3:atemp>28.0</ns3:atemp>
          </ns3:TrackPointExtension>
        </extensions>
      </trkpt>
      <trkpt lat="40.046815574169158935546875" lon="116.5829536132514476776123046875">
        <ele>-98.1999969482421875</ele>
        <time>2015-07-26T23:39:03.000Z</time>
        <extensions>
          <ns3:TrackPointExtension>
            <ns3:atemp>28.0</ns3:atemp>
          </ns3:TrackPointExtension>
        </extensions>
      </trkpt>
      <trkpt lat="40.046811886131763458251953125" lon="116.58287088386714458465576171875">
        <ele>-98</ele>
        <time>2015-07-26T23:39:04.000Z</time>
        <extensions>
          <ns3:TrackPointExtension>
            <ns3:atemp>28.0</ns3:atemp>
          </ns3:TrackPointExtension>
        </extensions>
      </trkpt>
      <trkpt lat="40.0470769219100475311279296875" lon="116.58216043375432491302490234375">
        <ele>-98.59999847412109375</ele>
        <time>2015-07-26T23:39:14.000Z</time>
        <extensions>
          <ns3:TrackPointExtension>
            <ns3:atemp>28.0</ns3:atemp>
          </ns3:TrackPointExtension>
        </extensions>
      </trkpt>
      <trkpt lat="40.04744949750602245330810546875" lon="116.5817429311573505401611328125">
        <ele>-98.8000030517578125</ele>
        <time>2015-07-26T23:39:32.000Z</time>
        <extensions>
          <ns3:TrackPointExtension>
            <ns3:atemp>28.0</ns3:atemp>
          </ns3:TrackPointExtension>
        </extensions>
      </trkpt>
      <trkpt lat="40.04802701063454151153564453125" lon="116.5821841545403003692626953125">
        <ele>-98.8000030517578125</ele>
        <time>2015-07-26T23:39:45.000Z</time>
        <extensions>
          <ns3:TrackPointExtension>
            <ns3:atemp>28.0</ns3:atemp>
          </ns3:TrackPointExtension>
        </extensions>
      </trkpt>
      <trkpt lat="40.0480703450739383697509765625" lon="116.5822240523993968963623046875">
        <ele>-98.8000030517578125</ele>
        <time>2015-07-26T23:39:46.000Z</time>
        <extensions>
          <ns3:TrackPointExtension>
            <ns3:atemp>28.0</ns3:atemp>
          </ns3:TrackPointExtension>
        </extensions>
      </trkpt>
      <trkpt lat="40.04856429062783718109130859375" lon="116.58260819502174854278564453125">
        <ele>-97.40000152587890625</ele>
        <time>2015-07-26T23:39:57.000Z</time>
        <extensions>
          <ns3:TrackPointExtension>
            <ns3:atemp>28.0</ns3:atemp>
          </ns3:TrackPointExtension>
        </extensions>
      </trkpt>
      <trkpt lat="40.04910475574433803558349609375" lon="116.583013124763965606689453125">
        <ele>-96.8000030517578125</ele>
        <time>2015-07-26T23:40:21.000Z</time>
        <extensions>
          <ns3:TrackPointExtension>
            <ns3:atemp>28.0</ns3:atemp>
          </ns3:TrackPointExtension>
        </extensions>
      </trkpt>
      <trkpt lat="40.04969802685081958770751953125" lon="116.583448983728885650634765625">
        <ele>-97.40000152587890625</ele>
        <time>2015-07-26T23:40:35.000Z</time>
        <extensions>
          <ns3:TrackPointExtension>
            <ns3:atemp>28.0</ns3:atemp>
          </ns3:TrackPointExtension>
        </extensions>
      </trkpt>
      <trkpt lat="40.05031845532357692718505859375" lon="116.58392817713320255279541015625">
        <ele>-96.40000152587890625</ele>
        <time>2015-07-26T23:40:44.000Z</time>
        <extensions>
          <ns3:TrackPointExtension>
            <ns3:atemp>28.0</ns3:atemp>
          </ns3:TrackPointExtension>
        </extensions>
      </trkpt>
      <trkpt lat="40.05082170478999614715576171875" lon="116.5843168459832668304443359375">
        <ele>-96.59999847412109375</ele>
        <time>2015-07-26T23:40:52.000Z</time>
        <extensions>
          <ns3:TrackPointExtension>
            <ns3:atemp>28.0</ns3:atemp>
          </ns3:TrackPointExtension>
        </extensions>
      </trkpt>
      <trkpt lat="40.0513174943625926971435546875" lon="116.58471808768808841705322265625">
        <ele>-96.59999847412109375</ele>
        <time>2015-07-26T23:41:00.000Z</time>
        <extensions>
          <ns3:TrackPointExtension>
            <ns3:atemp>28.0</ns3:atemp>
          </ns3:TrackPointExtension>
        </extensions>
      </trkpt>
      <trkpt lat="40.05200489424169063568115234375" lon="116.585185043513774871826171875">
        <ele>-96.1999969482421875</ele>
        <time>2015-07-26T23:41:08.000Z</time>
        <extensions>
          <ns3:TrackPointExtension>
            <ns3:atemp>28.0</ns3:atemp>
          </ns3:TrackPointExtension>
        </extensions>
      </trkpt>
      <trkpt lat="40.05279664881527423858642578125" lon="116.585703380405902862548828125">
        <ele>-96.1999969482421875</ele>
        <time>2015-07-26T23:41:17.000Z</time>
        <extensions>
          <ns3:TrackPointExtension>
            <ns3:atemp>28.0</ns3:atemp>
          </ns3:TrackPointExtension>
        </extensions>
      </trkpt>
      <trkpt lat="40.05311499349772930145263671875" lon="116.585973612964153289794921875">
        <ele>-96</ele>
        <time>2015-07-26T23:41:24.000Z</time>
        <extensions>
          <ns3:TrackPointExtension>
            <ns3:atemp>28.0</ns3:atemp>
          </ns3:TrackPointExtension>
        </extensions>
      </trkpt>
      <trkpt lat="40.0535866431891918182373046875" lon="116.5862802229821681976318359375">
        <ele>-95.1999969482421875</ele>
        <time>2015-07-26T23:41:42.000Z</time>
        <extensions>
          <ns3:TrackPointExtension>
            <ns3:atemp>27.0</ns3:atemp>
          </ns3:TrackPointExtension>
        </extensions>
      </trkpt>
      <trkpt lat="40.053587146103382110595703125" lon="116.58631467260420322418212890625">
        <ele>-95.1999969482421875</ele>
        <time>2015-07-26T23:42:03.000Z</time>
        <extensions>
          <ns3:TrackPointExtension>
            <ns3:atemp>28.0</ns3:atemp>
          </ns3:TrackPointExtension>
        </extensions>
      </trkpt>
      <trkpt lat="40.053636096417903900146484375" lon="116.58634199760854244232177734375">
        <ele>-95.40000152587890625</ele>
        <time>2015-07-26T23:42:08.000Z</time>
        <extensions>
          <ns3:TrackPointExtension>
            <ns3:atemp>28.0</ns3:atemp>
          </ns3:TrackPointExtension>
        </extensions>
      </trkpt>
      <trkpt lat="40.05365881137549877166748046875" lon="116.5863509662449359893798828125">
        <ele>-95.40000152587890625</ele>
        <time>2015-07-26T23:42:09.000Z</time>
        <extensions>
          <ns3:TrackPointExtension>
            <ns3:atemp>28.0</ns3:atemp>
          </ns3:TrackPointExtension>
        </extensions>
      </trkpt>
      <trkpt lat="40.05368672311305999755859375" lon="116.586358845233917236328125">
        <ele>-95.40000152587890625</ele>
        <time>2015-07-26T23:42:10.000Z</time>
        <extensions>
          <ns3:TrackPointExtension>
            <ns3:atemp>28.0</ns3:atemp>
          </ns3:TrackPointExtension>
        </extensions>
      </trkpt>
      <trkpt lat="40.0537113659083843231201171875" lon="116.5863637067377567291259765625">
        <ele>-95.40000152587890625</ele>
        <time>2015-07-26T23:42:11.000Z</time>
        <extensions>
          <ns3:TrackPointExtension>
            <ns3:atemp>28.0</ns3:atemp>
          </ns3:TrackPointExtension>
        </extensions>
      </trkpt>
      <trkpt lat="40.05374363623559474945068359375" lon="116.5863633714616298675537109375">
        <ele>-95.59999847412109375</ele>
        <time>2015-07-26T23:42:12.000Z</time>
        <extensions>
          <ns3:TrackPointExtension>
            <ns3:atemp>28.0</ns3:atemp>
          </ns3:TrackPointExtension>
        </extensions>
      </trkpt>
      <trkpt lat="40.05378470756113529205322265625" lon="116.5863620303571224212646484375">
        <ele>-95.59999847412109375</ele>
        <time>2015-07-26T23:42:13.000Z</time>
        <extensions>
          <ns3:TrackPointExtension>
            <ns3:atemp>28.0</ns3:atemp>
          </ns3:TrackPointExtension>
        </extensions>
      </trkpt>
      <trkpt lat="40.05423179827630519866943359375" lon="116.58602113835513591766357421875">
        <ele>-94</ele>
        <time>2015-07-26T23:42:27.000Z</time>
        <extensions>
          <ns3:TrackPointExtension>
            <ns3:atemp>28.0</ns3:atemp>
          </ns3:TrackPointExtension>
        </extensions>
      </trkpt>
      <trkpt lat="40.05440882407128810882568359375" lon="116.58590496517717838287353515625">
        <ele>-93.40000152587890625</ele>
        <time>2015-07-26T23:42:31.000Z</time>
        <extensions>
          <ns3:TrackPointExtension>
            <ns3:atemp>28.0</ns3:atemp>
          </ns3:TrackPointExtension>
        </extensions>
      </trkpt>
      <trkpt lat="40.054455511271953582763671875" lon="116.585894487798213958740234375">
        <ele>-93.40000152587890625</ele>
        <time>2015-07-26T23:42:32.000Z</time>
        <extensions>
          <ns3:TrackPointExtension>
            <ns3:atemp>28.0</ns3:atemp>
          </ns3:TrackPointExtension>
        </extensions>
      </trkpt>
      <trkpt lat="40.05450119264423847198486328125" lon="116.5858959965407848358154296875">
        <ele>-93.1999969482421875</ele>
        <time>2015-07-26T23:42:33.000Z</time>
        <extensions>
          <ns3:TrackPointExtension>
            <ns3:atemp>28.0</ns3:atemp>
          </ns3:TrackPointExtension>
        </extensions>
      </trkpt>
      <trkpt lat="40.0545502267777919769287109375" lon="116.5859053842723369598388671875">
        <ele>-93.1999969482421875</ele>
        <time>2015-07-26T23:42:34.000Z</time>
        <extensions>
          <ns3:TrackPointExtension>
            <ns3:atemp>28.0</ns3:atemp>
          </ns3:TrackPointExtension>
        </extensions>
      </trkpt>
      <trkpt lat="40.05460412241518497467041015625" lon="116.58592843450605869293212890625">
        <ele>-93.1999969482421875</ele>
        <time>2015-07-26T23:42:35.000Z</time>
        <extensions>
          <ns3:TrackPointExtension>
            <ns3:atemp>28.0</ns3:atemp>
          </ns3:TrackPointExtension>
        </extensions>
      </trkpt>
      <trkpt lat="40.054651983082294464111328125" lon="116.58595316112041473388671875">
        <ele>-93.1999969482421875</ele>
        <time>2015-07-26T23:42:36.000Z</time>
        <extensions>
          <ns3:TrackPointExtension>
            <ns3:atemp>28.0</ns3:atemp>
          </ns3:TrackPointExtension>
        </extensions>
      </trkpt>
      <trkpt lat="40.0546907074749469757080078125" lon="116.5859878621995449066162109375">
        <ele>-93.1999969482421875</ele>
        <time>2015-07-26T23:42:37.000Z</time>
        <extensions>
          <ns3:TrackPointExtension>
            <ns3:atemp>28.0</ns3:atemp>
          </ns3:TrackPointExtension>
        </extensions>
      </trkpt>
      <trkpt lat="40.054886005818843841552734375" lon="116.58614695072174072265625">
        <ele>-93.59999847412109375</ele>
        <time>2015-07-26T23:42:42.000Z</time>
        <extensions>
          <ns3:TrackPointExtension>
            <ns3:atemp>28.0</ns3:atemp>
          </ns3:TrackPointExtension>
        </extensions>
      </trkpt>
      <trkpt lat="40.0549240596592426300048828125" lon="116.58616597764194011688232421875">
        <ele>-93.59999847412109375</ele>
        <time>2015-07-26T23:42:43.000Z</time>
        <extensions>
          <ns3:TrackPointExtension>
            <ns3:atemp>28.0</ns3:atemp>
          </ns3:TrackPointExtension>
        </extensions>
      </trkpt>
      <trkpt lat="40.054956413805484771728515625" lon="116.5861782990396022796630859375">
        <ele>-93.40000152587890625</ele>
        <time>2015-07-26T23:42:44.000Z</time>
        <extensions>
          <ns3:TrackPointExtension>
            <ns3:atemp>28.0</ns3:atemp>
          </ns3:TrackPointExtension>
        </extensions>
      </trkpt>
      <trkpt lat="40.05499103106558322906494140625" lon="116.58618525601923465728759765625">
        <ele>-93.40000152587890625</ele>
        <time>2015-07-26T23:42:45.000Z</time>
        <extensions>
          <ns3:TrackPointExtension>
            <ns3:atemp>28.0</ns3:atemp>
          </ns3:TrackPointExtension>
        </extensions>
      </trkpt>
      <trkpt lat="40.055018104612827301025390625" lon="116.5861913748085498809814453125">
        <ele>-93.1999969482421875</ele>
        <time>2015-07-26T23:42:46.000Z</time>
        <extensions>
          <ns3:TrackPointExtension>
            <ns3:atemp>28.0</ns3:atemp>
          </ns3:TrackPointExtension>
        </extensions>
      </trkpt>
      <trkpt lat="40.0550454296171665191650390625" lon="116.58619246445596218109130859375">
        <ele>-93.1999969482421875</ele>
        <time>2015-07-26T23:42:47.000Z</time>
        <extensions>
          <ns3:TrackPointExtension>
            <ns3:atemp>28.0</ns3:atemp>
          </ns3:TrackPointExtension>
        </extensions>
      </trkpt>
      <trkpt lat="40.0550705753266811370849609375" lon="116.58618877641856670379638671875">
        <ele>-93.1999969482421875</ele>
        <time>2015-07-26T23:42:48.000Z</time>
        <extensions>
          <ns3:TrackPointExtension>
            <ns3:atemp>28.0</ns3:atemp>
          </ns3:TrackPointExtension>
        </extensions>
      </trkpt>
      <trkpt lat="40.05509563721716403961181640625" lon="116.58617980778217315673828125">
        <ele>-93.1999969482421875</ele>
        <time>2015-07-26T23:42:49.000Z</time>
        <extensions>
          <ns3:TrackPointExtension>
            <ns3:atemp>28.0</ns3:atemp>
          </ns3:TrackPointExtension>
        </extensions>
      </trkpt>
      <trkpt lat="40.0551269017159938812255859375" lon="116.58615591935813426971435546875">
        <ele>-93.40000152587890625</ele>
        <time>2015-07-26T23:42:50.000Z</time>
        <extensions>
          <ns3:TrackPointExtension>
            <ns3:atemp>28.0</ns3:atemp>
          </ns3:TrackPointExtension>
        </extensions>
      </trkpt>
      <trkpt lat="40.05516537465155124664306640625" lon="116.58612884581089019775390625">
        <ele>-93.59999847412109375</ele>
        <time>2015-07-26T23:42:51.000Z</time>
        <extensions>
          <ns3:TrackPointExtension>
            <ns3:atemp>28.0</ns3:atemp>
          </ns3:TrackPointExtension>
        </extensions>
      </trkpt>
      <trkpt lat="40.0552455894649028778076171875" lon="116.5860597789287567138671875">
        <ele>-93.8000030517578125</ele>
        <time>2015-07-26T23:42:53.000Z</time>
        <extensions>
          <ns3:TrackPointExtension>
            <ns3:atemp>28.0</ns3:atemp>
          </ns3:TrackPointExtension>
        </extensions>
      </trkpt>
      <trkpt lat="40.05528825335204601287841796875" lon="116.58601208589971065521240234375">
        <ele>-94</ele>
        <time>2015-07-26T23:42:54.000Z</time>
        <extensions>
          <ns3:TrackPointExtension>
            <ns3:atemp>28.0</ns3:atemp>
          </ns3:TrackPointExtension>
        </extensions>
      </trkpt>
      <trkpt lat="40.05533234216272830963134765625" lon="116.58595844171941280364990234375">
        <ele>-94.1999969482421875</ele>
        <time>2015-07-26T23:42:55.000Z</time>
        <extensions>
          <ns3:TrackPointExtension>
            <ns3:atemp>28.0</ns3:atemp>
          </ns3:TrackPointExtension>
        </extensions>
      </trkpt>
      <trkpt lat="40.05578312091529369354248046875" lon="116.58535125665366649627685546875">
        <ele>-95.40000152587890625</ele>
        <time>2015-07-26T23:43:05.000Z</time>
        <extensions>
          <ns3:TrackPointExtension>
            <ns3:atemp>28.0</ns3:atemp>
          </ns3:TrackPointExtension>
        </extensions>
      </trkpt>
      <trkpt lat="40.05620707757771015167236328125" lon="116.5848623402416706085205078125">
        <ele>-96</ele>
        <time>2015-07-26T23:43:14.000Z</time>
        <extensions>
          <ns3:TrackPointExtension>
            <ns3:atemp>28.0</ns3:atemp>
          </ns3:TrackPointExtension>
        </extensions>
      </trkpt>
      <trkpt lat="40.0563763082027435302734375" lon="116.58473216928541660308837890625">
        <ele>-96.1999969482421875</ele>
        <time>2015-07-26T23:43:17.000Z</time>
        <extensions>
          <ns3:TrackPointExtension>
            <ns3:atemp>28.0</ns3:atemp>
          </ns3:TrackPointExtension>
        </extensions>
      </trkpt>
      <trkpt lat="40.05700469948351383209228515625" lon="116.58454089425504207611083984375">
        <ele>-97.59999847412109375</ele>
        <time>2015-07-26T23:43:27.000Z</time>
        <extensions>
          <ns3:TrackPointExtension>
            <ns3:atemp>28.0</ns3:atemp>
          </ns3:TrackPointExtension>
        </extensions>
      </trkpt>
      <trkpt lat="40.057662762701511383056640625" lon="116.5844499506056308746337890625">
        <ele>-97.8000030517578125</ele>
        <time>2015-07-26T23:43:36.000Z</time>
        <extensions>
          <ns3:TrackPointExtension>
            <ns3:atemp>27.0</ns3:atemp>
          </ns3:TrackPointExtension>
        </extensions>
      </trkpt>
      <trkpt lat="40.05828746594488620758056640625" lon="116.5843646228313446044921875">
        <ele>-97.59999847412109375</ele>
        <time>2015-07-26T23:43:45.000Z</time>
        <extensions>
          <ns3:TrackPointExtension>
            <ns3:atemp>27.0</ns3:atemp>
          </ns3:TrackPointExtension>
        </extensions>
      </trkpt>
      <trkpt lat="40.058903284370899200439453125" lon="116.58425557427108287811279296875">
        <ele>-97.40000152587890625</ele>
        <time>2015-07-26T23:43:54.000Z</time>
        <extensions>
          <ns3:TrackPointExtension>
            <ns3:atemp>27.0</ns3:atemp>
          </ns3:TrackPointExtension>
        </extensions>
      </trkpt>
      <trkpt lat="40.05948565900325775146484375" lon="116.5841482020914554595947265625">
        <ele>-97.1999969482421875</ele>
        <time>2015-07-26T23:44:03.000Z</time>
        <extensions>
          <ns3:TrackPointExtension>
            <ns3:atemp>27.0</ns3:atemp>
          </ns3:TrackPointExtension>
        </extensions>
      </trkpt>
      <trkpt lat="40.06008337251842021942138671875" lon="116.58408575691282749176025390625">
        <ele>-97.59999847412109375</ele>
        <time>2015-07-26T23:44:12.000Z</time>
        <extensions>
          <ns3:TrackPointExtension>
            <ns3:atemp>27.0</ns3:atemp>
          </ns3:TrackPointExtension>
        </extensions>
      </trkpt>
      <trkpt lat="40.06069541908800601959228515625" lon="116.58398685045540332794189453125">
        <ele>-96.8000030517578125</ele>
        <time>2015-07-26T23:44:21.000Z</time>
        <extensions>
          <ns3:TrackPointExtension>
            <ns3:atemp>27.0</ns3:atemp>
          </ns3:TrackPointExtension>
        </extensions>
      </trkpt>
      <trkpt lat="40.0613057054579257965087890625" lon="116.5839014388620853424072265625">
        <ele>-96.8000030517578125</ele>
        <time>2015-07-26T23:44:31.000Z</time>
        <extensions>
          <ns3:TrackPointExtension>
            <ns3:atemp>27.0</ns3:atemp>
          </ns3:TrackPointExtension>
        </extensions>
      </trkpt>
      <trkpt lat="40.06186720915138721466064453125" lon="116.583831869065761566162109375">
        <ele>-96.59999847412109375</ele>
        <time>2015-07-26T23:44:42.000Z</time>
        <extensions>
          <ns3:TrackPointExtension>
            <ns3:atemp>27.0</ns3:atemp>
          </ns3:TrackPointExtension>
        </extensions>
      </trkpt>
      <trkpt lat="40.0623158924281597137451171875" lon="116.5837348066270351409912109375">
        <ele>-96.40000152587890625</ele>
        <time>2015-07-26T23:44:50.000Z</time>
        <extensions>
          <ns3:TrackPointExtension>
            <ns3:atemp>27.0</ns3:atemp>
          </ns3:TrackPointExtension>
        </extensions>
      </trkpt>
      <trkpt lat="40.06289063952863216400146484375" lon="116.583611257374286651611328125">
        <ele>-96.1999969482421875</ele>
        <time>2015-07-26T23:45:00.000Z</time>
        <extensions>
          <ns3:TrackPointExtension>
            <ns3:atemp>27.0</ns3:atemp>
          </ns3:TrackPointExtension>
        </extensions>
      </trkpt>
      <trkpt lat="40.06351408548653125762939453125" lon="116.58350036479532718658447265625">
        <ele>-96.8000030517578125</ele>
        <time>2015-07-26T23:45:10.000Z</time>
        <extensions>
          <ns3:TrackPointExtension>
            <ns3:atemp>27.0</ns3:atemp>
          </ns3:TrackPointExtension>
        </extensions>
      </trkpt>
      <trkpt lat="40.06391474045813083648681640625" lon="116.58343859016895294189453125">
        <ele>-97.1999969482421875</ele>
        <time>2015-07-26T23:45:16.000Z</time>
        <extensions>
          <ns3:TrackPointExtension>
            <ns3:atemp>27.0</ns3:atemp>
          </ns3:TrackPointExtension>
        </extensions>
      </trkpt>
      <trkpt lat="40.06454556249082088470458984375" lon="116.58334580250084400177001953125">
        <ele>-96.8000030517578125</ele>
        <time>2015-07-26T23:45:26.000Z</time>
        <extensions>
          <ns3:TrackPointExtension>
            <ns3:atemp>27.0</ns3:atemp>
          </ns3:TrackPointExtension>
        </extensions>
      </trkpt>
      <trkpt lat="40.06512911058962345123291015625" lon="116.58326064236462116241455078125">
        <ele>-96.8000030517578125</ele>
        <time>2015-07-26T23:45:36.000Z</time>
        <extensions>
          <ns3:TrackPointExtension>
            <ns3:atemp>27.0</ns3:atemp>
          </ns3:TrackPointExtension>
        </extensions>
      </trkpt>
      <trkpt lat="40.06576596759259700775146484375" lon="116.58317866735160350799560546875">
        <ele>-96.40000152587890625</ele>
        <time>2015-07-26T23:45:46.000Z</time>
        <extensions>
          <ns3:TrackPointExtension>
            <ns3:atemp>27.0</ns3:atemp>
          </ns3:TrackPointExtension>
        </extensions>
      </trkpt>
      <trkpt lat="40.06639192812144756317138671875" lon="116.5830894000828266143798828125">
        <ele>-96.8000030517578125</ele>
        <time>2015-07-26T23:45:56.000Z</time>
        <extensions>
          <ns3:TrackPointExtension>
            <ns3:atemp>27.0</ns3:atemp>
          </ns3:TrackPointExtension>
        </extensions>
      </trkpt>
      <trkpt lat="40.06702140904963016510009765625" lon="116.58302829600870609283447265625">
        <ele>-97</ele>
        <time>2015-07-26T23:46:06.000Z</time>
        <extensions>
          <ns3:TrackPointExtension>
            <ns3:atemp>27.0</ns3:atemp>
          </ns3:TrackPointExtension>
        </extensions>
      </trkpt>
      <trkpt lat="40.0676226429641246795654296875" lon="116.58292838372290134429931640625">
        <ele>-96.59999847412109375</ele>
        <time>2015-07-26T23:46:16.000Z</time>
        <extensions>
          <ns3:TrackPointExtension>
            <ns3:atemp>27.0</ns3:atemp>
          </ns3:TrackPointExtension>
        </extensions>
      </trkpt>
      <trkpt lat="40.0680870003998279571533203125" lon="116.58284590579569339752197265625">
        <ele>-96.40000152587890625</ele>
        <time>2015-07-26T23:46:24.000Z</time>
        <extensions>
          <ns3:TrackPointExtension>
            <ns3:atemp>27.0</ns3:atemp>
          </ns3:TrackPointExtension>
        </extensions>
      </trkpt>
      <trkpt lat="40.068670548498630523681640625" lon="116.58274364657700061798095703125">
        <ele>-96.1999969482421875</ele>
        <time>2015-07-26T23:46:35.000Z</time>
        <extensions>
          <ns3:TrackPointExtension>
            <ns3:atemp>27.0</ns3:atemp>
          </ns3:TrackPointExtension>
        </extensions>
      </trkpt>
      <trkpt lat="40.0691283680498600006103515625" lon="116.58265815116465091705322265625">
        <ele>-96.40000152587890625</ele>
        <time>2015-07-26T23:46:44.000Z</time>
        <extensions>
          <ns3:TrackPointExtension>
            <ns3:atemp>27.0</ns3:atemp>
          </ns3:TrackPointExtension>
        </extensions>
      </trkpt>
      <trkpt lat="40.069349817931652069091796875" lon="116.58263199962675571441650390625">
        <ele>-96.40000152587890625</ele>
        <time>2015-07-26T23:46:48.000Z</time>
        <extensions>
          <ns3:TrackPointExtension>
            <ns3:atemp>27.0</ns3:atemp>
          </ns3:TrackPointExtension>
        </extensions>
      </trkpt>
      <trkpt lat="40.069618709385395050048828125" lon="116.58257961273193359375">
        <ele>-96.40000152587890625</ele>
        <time>2015-07-26T23:46:53.000Z</time>
        <extensions>
          <ns3:TrackPointExtension>
            <ns3:atemp>27.0</ns3:atemp>
          </ns3:TrackPointExtension>
        </extensions>
      </trkpt>
      <trkpt lat="40.0696691684424877166748046875" lon="116.58257223665714263916015625">
        <ele>-96.40000152587890625</ele>
        <time>2015-07-26T23:46:54.000Z</time>
        <extensions>
          <ns3:TrackPointExtension>
            <ns3:atemp>27.0</ns3:atemp>
          </ns3:TrackPointExtension>
        </extensions>
      </trkpt>
      <trkpt lat="40.070281885564327239990234375" lon="116.58250643871724605560302734375">
        <ele>-96.1999969482421875</ele>
        <time>2015-07-26T23:47:06.000Z</time>
        <extensions>
          <ns3:TrackPointExtension>
            <ns3:atemp>27.0</ns3:atemp>
          </ns3:TrackPointExtension>
        </extensions>
      </trkpt>
      <trkpt lat="40.07090248167514801025390625" lon="116.58242404460906982421875">
        <ele>-96.8000030517578125</ele>
        <time>2015-07-26T23:47:17.000Z</time>
        <extensions>
          <ns3:TrackPointExtension>
            <ns3:atemp>27.0</ns3:atemp>
          </ns3:TrackPointExtension>
        </extensions>
      </trkpt>
      <trkpt lat="40.07150866091251373291015625" lon="116.582335866987705230712890625">
        <ele>-98.40000152587890625</ele>
        <time>2015-07-26T23:47:27.000Z</time>
        <extensions>
          <ns3:TrackPointExtension>
            <ns3:atemp>27.0</ns3:atemp>
          </ns3:TrackPointExtension>
        </extensions>
      </trkpt>
      <trkpt lat="40.07212464697659015655517578125" lon="116.5822746790945529937744140625">
        <ele>-99.40000152587890625</ele>
        <time>2015-07-26T23:47:36.000Z</time>
        <extensions>
          <ns3:TrackPointExtension>
            <ns3:atemp>27.0</ns3:atemp>
          </ns3:TrackPointExtension>
        </extensions>
      </trkpt>
      <trkpt lat="40.07275144569575786590576171875" lon="116.58227610401809215545654296875">
        <ele>-100.1999969482421875</ele>
        <time>2015-07-26T23:47:45.000Z</time>
        <extensions>
          <ns3:TrackPointExtension>
            <ns3:atemp>27.0</ns3:atemp>
          </ns3:TrackPointExtension>
        </extensions>
      </trkpt>
      <trkpt lat="40.07335360161960124969482421875" lon="116.58237584866583347320556640625">
        <ele>-101.40000152587890625</ele>
        <time>2015-07-26T23:47:54.000Z</time>
        <extensions>
          <ns3:TrackPointExtension>
            <ns3:atemp>27.0</ns3:atemp>
          </ns3:TrackPointExtension>
        </extensions>
      </trkpt>
      <trkpt lat="40.0739546678960323333740234375" lon="116.58257625997066497802734375">
        <ele>-100.40000152587890625</ele>
        <time>2015-07-26T23:48:05.000Z</time>
        <extensions>
          <ns3:TrackPointExtension>
            <ns3:atemp>27.0</ns3:atemp>
          </ns3:TrackPointExtension>
        </extensions>
      </trkpt>
      <trkpt lat="40.074067153036594390869140625" lon="116.58257148228585720062255859375">
        <ele>-100.40000152587890625</ele>
        <time>2015-07-26T23:48:07.000Z</time>
        <extensions>
          <ns3:TrackPointExtension>
            <ns3:atemp>27.0</ns3:atemp>
          </ns3:TrackPointExtension>
        </extensions>
      </trkpt>
      <trkpt lat="40.074689425528049468994140625" lon="116.5826327539980411529541015625">
        <ele>-100.59999847412109375</ele>
        <time>2015-07-26T23:48:17.000Z</time>
        <extensions>
          <ns3:TrackPointExtension>
            <ns3:atemp>27.0</ns3:atemp>
          </ns3:TrackPointExtension>
        </extensions>
      </trkpt>
      <trkpt lat="40.0748843885958194732666015625" lon="116.5826739929616451263427734375">
        <ele>-99.8000030517578125</ele>
        <time>2015-07-26T23:48:21.000Z</time>
        <extensions>
          <ns3:TrackPointExtension>
            <ns3:atemp>27.0</ns3:atemp>
          </ns3:TrackPointExtension>
        </extensions>
      </trkpt>
      <trkpt lat="40.07493191398680210113525390625" lon="116.58267684280872344970703125">
        <ele>-99.59999847412109375</ele>
        <time>2015-07-26T23:48:22.000Z</time>
        <extensions>
          <ns3:TrackPointExtension>
            <ns3:atemp>27.0</ns3:atemp>
          </ns3:TrackPointExtension>
        </extensions>
      </trkpt>
      <trkpt lat="40.0753852911293506622314453125" lon="116.58276225440204143524169921875">
        <ele>-98.40000152587890625</ele>
        <time>2015-07-26T23:48:31.000Z</time>
        <extensions>
          <ns3:TrackPointExtension>
            <ns3:atemp>27.0</ns3:atemp>
          </ns3:TrackPointExtension>
        </extensions>
      </trkpt>
      <trkpt lat="40.0754342414438724517822265625" lon="116.58278136514127254486083984375">
        <ele>-98.40000152587890625</ele>
        <time>2015-07-26T23:48:32.000Z</time>
        <extensions>
          <ns3:TrackPointExtension>
            <ns3:atemp>27.0</ns3:atemp>
          </ns3:TrackPointExtension>
        </extensions>
      </trkpt>
      <trkpt lat="40.07583238184452056884765625" lon="116.58299560658633708953857421875">
        <ele>-97.59999847412109375</ele>
        <time>2015-07-26T23:48:41.000Z</time>
        <extensions>
          <ns3:TrackPointExtension>
            <ns3:atemp>27.0</ns3:atemp>
          </ns3:TrackPointExtension>
        </extensions>
      </trkpt>
      <trkpt lat="40.076288692653179168701171875" lon="116.58353112637996673583984375">
        <ele>-98.40000152587890625</ele>
        <time>2015-07-26T23:48:56.000Z</time>
        <extensions>
          <ns3:TrackPointExtension>
            <ns3:atemp>27.0</ns3:atemp>
          </ns3:TrackPointExtension>
        </extensions>
      </trkpt>
      <trkpt lat="40.07639162242412567138671875" lon="116.5837046317756175994873046875">
        <ele>-98.8000030517578125</ele>
        <time>2015-07-26T23:48:59.000Z</time>
        <extensions>
          <ns3:TrackPointExtension>
            <ns3:atemp>27.0</ns3:atemp>
          </ns3:TrackPointExtension>
        </extensions>
      </trkpt>
      <trkpt lat="40.076638720929622650146484375" lon="116.58440376631915569305419921875">
        <ele>-99.59999847412109375</ele>
        <time>2015-07-26T23:49:11.000Z</time>
        <extensions>
          <ns3:TrackPointExtension>
            <ns3:atemp>27.0</ns3:atemp>
          </ns3:TrackPointExtension>
        </extensions>
      </trkpt>
      <trkpt lat="40.07679102011024951934814453125" lon="116.58454835414886474609375">
        <ele>-98.8000030517578125</ele>
        <time>2015-07-26T23:49:19.000Z</time>
        <extensions>
          <ns3:TrackPointExtension>
            <ns3:atemp>27.0</ns3:atemp>
          </ns3:TrackPointExtension>
        </extensions>
      </trkpt>
      <trkpt lat="40.07681298069655895233154296875" lon="116.5845146588981151580810546875">
        <ele>-98.8000030517578125</ele>
        <time>2015-07-26T23:49:20.000Z</time>
        <extensions>
          <ns3:TrackPointExtension>
            <ns3:atemp>27.0</ns3:atemp>
          </ns3:TrackPointExtension>
        </extensions>
      </trkpt>
      <trkpt lat="40.07687953300774097442626953125" lon="116.58449395559728145599365234375">
        <ele>-98.8000030517578125</ele>
        <time>2015-07-26T23:49:21.000Z</time>
        <extensions>
          <ns3:TrackPointExtension>
            <ns3:atemp>27.0</ns3:atemp>
          </ns3:TrackPointExtension>
        </extensions>
      </trkpt>
      <trkpt lat="40.07691624574363231658935546875" lon="116.58448624424636363983154296875">
        <ele>-99</ele>
        <time>2015-07-26T23:49:22.000Z</time>
        <extensions>
          <ns3:TrackPointExtension>
            <ns3:atemp>27.0</ns3:atemp>
          </ns3:TrackPointExtension>
        </extensions>
      </trkpt>
      <trkpt lat="40.076955221593379974365234375" lon="116.58448054455220699310302734375">
        <ele>-98.8000030517578125</ele>
        <time>2015-07-26T23:49:23.000Z</time>
        <extensions>
          <ns3:TrackPointExtension>
            <ns3:atemp>27.0</ns3:atemp>
          </ns3:TrackPointExtension>
        </extensions>
      </trkpt>
      <trkpt lat="40.07760406471788883209228515625" lon="116.5843208692967891693115234375">
        <ele>-98.1999969482421875</ele>
        <time>2015-07-26T23:49:37.000Z</time>
        <extensions>
          <ns3:TrackPointExtension>
            <ns3:atemp>27.0</ns3:atemp>
          </ns3:TrackPointExtension>
        </extensions>
      </trkpt>
      <trkpt lat="40.07820353843271732330322265625" lon="116.5842211246490478515625">
        <ele>-96.40000152587890625</ele>
        <time>2015-07-26T23:49:51.000Z</time>
        <extensions>
          <ns3:TrackPointExtension>
            <ns3:atemp>27.0</ns3:atemp>
          </ns3:TrackPointExtension>
        </extensions>
      </trkpt>
      <trkpt lat="40.07877786643803119659423828125" lon="116.58413470722734928131103515625">
        <ele>-94.8000030517578125</ele>
        <time>2015-07-26T23:50:05.000Z</time>
        <extensions>
          <ns3:TrackPointExtension>
            <ns3:atemp>27.0</ns3:atemp>
          </ns3:TrackPointExtension>
        </extensions>
      </trkpt>
      <trkpt lat="40.07894399575889110565185546875" lon="116.58409145660698413848876953125">
        <ele>-94.8000030517578125</ele>
        <time>2015-07-26T23:50:09.000Z</time>
        <extensions>
          <ns3:TrackPointExtension>
            <ns3:atemp>27.0</ns3:atemp>
          </ns3:TrackPointExtension>
        </extensions>
      </trkpt>
      <trkpt lat="40.0794843770563602447509765625" lon="116.5839500539004802703857421875">
        <ele>-94.40000152587890625</ele>
        <time>2015-07-26T23:50:25.000Z</time>
        <extensions>
          <ns3:TrackPointExtension>
            <ns3:atemp>27.0</ns3:atemp>
          </ns3:TrackPointExtension>
        </extensions>
      </trkpt>
      <trkpt lat="40.07955797016620635986328125" lon="116.58324874006211757659912109375">
        <ele>-94.40000152587890625</ele>
        <time>2015-07-26T23:50:41.000Z</time>
        <extensions>
          <ns3:TrackPointExtension>
            <ns3:atemp>27.0</ns3:atemp>
          </ns3:TrackPointExtension>
        </extensions>
      </trkpt>
      <trkpt lat="40.07960717193782329559326171875" lon="116.58241054974496364593505859375">
        <ele>-94.8000030517578125</ele>
        <time>2015-07-26T23:50:57.000Z</time>
        <extensions>
          <ns3:TrackPointExtension>
            <ns3:atemp>27.0</ns3:atemp>
          </ns3:TrackPointExtension>
        </extensions>
      </trkpt>
      <trkpt lat="40.0796838663518428802490234375" lon="116.581956334412097930908203125">
        <ele>-94.1999969482421875</ele>
        <time>2015-07-26T23:51:05.000Z</time>
        <extensions>
          <ns3:TrackPointExtension>
            <ns3:atemp>27.0</ns3:atemp>
          </ns3:TrackPointExtension>
        </extensions>
      </trkpt>
      <trkpt lat="40.07962703704833984375" lon="116.58178878016769886016845703125">
        <ele>-94.1999969482421875</ele>
        <time>2015-07-26T23:51:06.000Z</time>
        <extensions>
          <ns3:TrackPointExtension>
            <ns3:atemp>27.0</ns3:atemp>
          </ns3:TrackPointExtension>
        </extensions>
      </trkpt>
      <trkpt lat="40.0795184075832366943359375" lon="116.58111822791397571563720703125">
        <ele>-94.40000152587890625</ele>
        <time>2015-07-26T23:51:11.000Z</time>
        <extensions>
          <ns3:TrackPointExtension>
            <ns3:atemp>27.0</ns3:atemp>
          </ns3:TrackPointExtension>
        </extensions>
      </trkpt>
      <trkpt lat="40.07951103150844573974609375" lon="116.58104203641414642333984375">
        <ele>-94.40000152587890625</ele>
        <time>2015-07-26T23:51:12.000Z</time>
        <extensions>
          <ns3:TrackPointExtension>
            <ns3:atemp>27.0</ns3:atemp>
          </ns3:TrackPointExtension>
        </extensions>
      </trkpt>
      <trkpt lat="40.07937826216220855712890625" lon="116.58021918497979640960693359375">
        <ele>-95</ele>
        <time>2015-07-26T23:51:24.000Z</time>
        <extensions>
          <ns3:TrackPointExtension>
            <ns3:atemp>27.0</ns3:atemp>
          </ns3:TrackPointExtension>
        </extensions>
      </trkpt>
      <trkpt lat="40.07940432988107204437255859375" lon="116.57995431683957576751708984375">
        <ele>-94.59999847412109375</ele>
        <time>2015-07-26T23:51:30.000Z</time>
        <extensions>
          <ns3:TrackPointExtension>
            <ns3:atemp>27.0</ns3:atemp>
          </ns3:TrackPointExtension>
        </extensions>
      </trkpt>
      <trkpt lat="40.0794290564954280853271484375" lon="116.57993738539516925811767578125">
        <ele>-94.40000152587890625</ele>
        <time>2015-07-26T23:51:31.000Z</time>
        <extensions>
          <ns3:TrackPointExtension>
            <ns3:atemp>27.0</ns3:atemp>
          </ns3:TrackPointExtension>
        </extensions>
      </trkpt>
      <trkpt lat="40.079461075365543365478515625" lon="116.5799253992736339569091796875">
        <ele>-94.1999969482421875</ele>
        <time>2015-07-26T23:51:32.000Z</time>
        <extensions>
          <ns3:TrackPointExtension>
            <ns3:atemp>27.0</ns3:atemp>
          </ns3:TrackPointExtension>
        </extensions>
      </trkpt>
      <trkpt lat="40.07980867289006710052490234375" lon="116.57977041788399219512939453125">
        <ele>-94.1999969482421875</ele>
        <time>2015-07-26T23:51:41.000Z</time>
        <extensions>
          <ns3:TrackPointExtension>
            <ns3:atemp>27.0</ns3:atemp>
          </ns3:TrackPointExtension>
        </extensions>
      </trkpt>
      <trkpt lat="40.07983918301761150360107421875" lon="116.579729430377483367919921875">
        <ele>-94</ele>
        <time>2015-07-26T23:51:42.000Z</time>
        <extensions>
          <ns3:TrackPointExtension>
            <ns3:atemp>27.0</ns3:atemp>
          </ns3:TrackPointExtension>
        </extensions>
      </trkpt>
      <trkpt lat="40.07986399345099925994873046875" lon="116.5796826593577861785888671875">
        <ele>-93.8000030517578125</ele>
        <time>2015-07-26T23:51:43.000Z</time>
        <extensions>
          <ns3:TrackPointExtension>
            <ns3:atemp>27.0</ns3:atemp>
          </ns3:TrackPointExtension>
        </extensions>
      </trkpt>
      <trkpt lat="40.079888217151165008544921875" lon="116.57963513396680355072021484375">
        <ele>-93.8000030517578125</ele>
        <time>2015-07-26T23:51:44.000Z</time>
        <extensions>
          <ns3:TrackPointExtension>
            <ns3:atemp>27.0</ns3:atemp>
          </ns3:TrackPointExtension>
        </extensions>
      </trkpt>
      <trkpt lat="40.07991026155650615692138671875" lon="116.5795847587287425994873046875">
        <ele>-94</ele>
        <time>2015-07-26T23:51:45.000Z</time>
        <extensions>
          <ns3:TrackPointExtension>
            <ns3:atemp>27.0</ns3:atemp>
          </ns3:TrackPointExtension>
        </extensions>
      </trkpt>
      <trkpt lat="40.07993289269506931304931640625" lon="116.57953019253909587860107421875">
        <ele>-94</ele>
        <time>2015-07-26T23:51:46.000Z</time>
        <extensions>
          <ns3:TrackPointExtension>
            <ns3:atemp>27.0</ns3:atemp>
          </ns3:TrackPointExtension>
        </extensions>
      </trkpt>
      <trkpt lat="40.08017764426767826080322265625" lon="116.57883935607969760894775390625">
        <ele>-94.8000030517578125</ele>
        <time>2015-07-26T23:51:56.000Z</time>
        <extensions>
          <ns3:TrackPointExtension>
            <ns3:atemp>27.0</ns3:atemp>
          </ns3:TrackPointExtension>
        </extensions>
      </trkpt>
      <trkpt lat="40.080407224595546722412109375" lon="116.57810526899993419647216796875">
        <ele>-95.1999969482421875</ele>
        <time>2015-07-26T23:52:07.000Z</time>
        <extensions>
          <ns3:TrackPointExtension>
            <ns3:atemp>28.0</ns3:atemp>
          </ns3:TrackPointExtension>
        </extensions>
      </trkpt>
      <trkpt lat="40.0806417502462863922119140625" lon="116.57733715139329433441162109375">
        <ele>-97</ele>
        <time>2015-07-26T23:52:18.000Z</time>
        <extensions>
          <ns3:TrackPointExtension>
            <ns3:atemp>28.0</ns3:atemp>
          </ns3:TrackPointExtension>
        </extensions>
      </trkpt>
      <trkpt lat="40.08097258396446704864501953125" lon="116.5766940079629421234130859375">
        <ele>-97.8000030517578125</ele>
        <time>2015-07-26T23:52:27.000Z</time>
        <extensions>
          <ns3:TrackPointExtension>
            <ns3:atemp>28.0</ns3:atemp>
          </ns3:TrackPointExtension>
        </extensions>
      </trkpt>
      <trkpt lat="40.08132747374475002288818359375" lon="116.57613091170787811279296875">
        <ele>-97.59999847412109375</ele>
        <time>2015-07-26T23:52:35.000Z</time>
        <extensions>
          <ns3:TrackPointExtension>
            <ns3:atemp>28.0</ns3:atemp>
          </ns3:TrackPointExtension>
        </extensions>
      </trkpt>
      <trkpt lat="40.0813706405460834503173828125" lon="116.57606041990220546722412109375">
        <ele>-97.8000030517578125</ele>
        <time>2015-07-26T23:52:36.000Z</time>
        <extensions>
          <ns3:TrackPointExtension>
            <ns3:atemp>28.0</ns3:atemp>
          </ns3:TrackPointExtension>
        </extensions>
      </trkpt>
      <trkpt lat="40.08217991329729557037353515625" lon="116.5763570554554462432861328125">
        <ele>-98.59999847412109375</ele>
        <time>2015-07-26T23:52:48.000Z</time>
        <extensions>
          <ns3:TrackPointExtension>
            <ns3:atemp>28.0</ns3:atemp>
          </ns3:TrackPointExtension>
        </extensions>
      </trkpt>
      <trkpt lat="40.08277016691863536834716796875" lon="116.57627013511955738067626953125">
        <ele>-98.59999847412109375</ele>
        <time>2015-07-26T23:52:58.000Z</time>
        <extensions>
          <ns3:TrackPointExtension>
            <ns3:atemp>28.0</ns3:atemp>
          </ns3:TrackPointExtension>
        </extensions>
      </trkpt>
      <trkpt lat="40.08288432843983173370361328125" lon="116.576274074614048004150390625">
        <ele>-98.40000152587890625</ele>
        <time>2015-07-26T23:53:00.000Z</time>
        <extensions>
          <ns3:TrackPointExtension>
            <ns3:atemp>28.0</ns3:atemp>
          </ns3:TrackPointExtension>
        </extensions>
      </trkpt>
      <trkpt lat="40.08293621242046356201171875" lon="116.576278768479824066162109375">
        <ele>-98.1999969482421875</ele>
        <time>2015-07-26T23:53:01.000Z</time>
        <extensions>
          <ns3:TrackPointExtension>
            <ns3:atemp>28.0</ns3:atemp>
          </ns3:TrackPointExtension>
        </extensions>
      </trkpt>
      <trkpt lat="40.0833990611135959625244140625" lon="116.576372645795345306396484375">
        <ele>-98.1999969482421875</ele>
        <time>2015-07-26T23:53:10.000Z</time>
        <extensions>
          <ns3:TrackPointExtension>
            <ns3:atemp>28.0</ns3:atemp>
          </ns3:TrackPointExtension>
        </extensions>
      </trkpt>
      <trkpt lat="40.0834527052938938140869140625" lon="116.57636853866279125213623046875">
        <ele>-98.1999969482421875</ele>
        <time>2015-07-26T23:53:11.000Z</time>
        <extensions>
          <ns3:TrackPointExtension>
            <ns3:atemp>28.0</ns3:atemp>
          </ns3:TrackPointExtension>
        </extensions>
      </trkpt>
      <trkpt lat="40.084053687751293182373046875" lon="116.5760926902294158935546875">
        <ele>-98</ele>
        <time>2015-07-26T23:53:22.000Z</time>
        <extensions>
          <ns3:TrackPointExtension>
            <ns3:atemp>28.0</ns3:atemp>
          </ns3:TrackPointExtension>
        </extensions>
      </trkpt>
      <trkpt lat="40.0846385769546031951904296875" lon="116.57582103274762630462646484375">
        <ele>-97.59999847412109375</ele>
        <time>2015-07-26T23:53:33.000Z</time>
        <extensions>
          <ns3:TrackPointExtension>
            <ns3:atemp>28.0</ns3:atemp>
          </ns3:TrackPointExtension>
        </extensions>
      </trkpt>
      <trkpt lat="40.0850794650614261627197265625" lon="116.57580477185547351837158203125">
        <ele>-96.59999847412109375</ele>
        <time>2015-07-26T23:53:42.000Z</time>
        <extensions>
          <ns3:TrackPointExtension>
            <ns3:atemp>28.0</ns3:atemp>
          </ns3:TrackPointExtension>
        </extensions>
      </trkpt>
      <trkpt lat="40.0856888294219970703125" lon="116.57578180544078350067138671875">
        <ele>-95.1999969482421875</ele>
        <time>2015-07-26T23:53:54.000Z</time>
        <extensions>
          <ns3:TrackPointExtension>
            <ns3:atemp>28.0</ns3:atemp>
          </ns3:TrackPointExtension>
        </extensions>
      </trkpt>
      <trkpt lat="40.08629542775452136993408203125" lon="116.575750373303890228271484375">
        <ele>-94.40000152587890625</ele>
        <time>2015-07-26T23:54:06.000Z</time>
        <extensions>
          <ns3:TrackPointExtension>
            <ns3:atemp>28.0</ns3:atemp>
          </ns3:TrackPointExtension>
        </extensions>
      </trkpt>
      <trkpt lat="40.08691904135048389434814453125" lon="116.575665883719921112060546875">
        <ele>-94.59999847412109375</ele>
        <time>2015-07-26T23:54:17.000Z</time>
        <extensions>
          <ns3:TrackPointExtension>
            <ns3:atemp>28.0</ns3:atemp>
          </ns3:TrackPointExtension>
        </extensions>
      </trkpt>
      <trkpt lat="40.08746906183660030364990234375" lon="116.57560922205448150634765625">
        <ele>-94.59999847412109375</ele>
        <time>2015-07-26T23:54:26.000Z</time>
        <extensions>
          <ns3:TrackPointExtension>
            <ns3:atemp>28.0</ns3:atemp>
          </ns3:TrackPointExtension>
        </extensions>
      </trkpt>
      <trkpt lat="40.087521784007549285888671875" lon="116.5756238065659999847412109375">
        <ele>-94.59999847412109375</ele>
        <time>2015-07-26T23:54:27.000Z</time>
        <extensions>
          <ns3:TrackPointExtension>
            <ns3:atemp>28.0</ns3:atemp>
          </ns3:TrackPointExtension>
        </extensions>
      </trkpt>
      <trkpt lat="40.087572745978832244873046875" lon="116.57564786262810230255126953125">
        <ele>-94.8000030517578125</ele>
        <time>2015-07-26T23:54:28.000Z</time>
        <extensions>
          <ns3:TrackPointExtension>
            <ns3:atemp>28.0</ns3:atemp>
          </ns3:TrackPointExtension>
        </extensions>
      </trkpt>
      <trkpt lat="40.08761490695178508758544921875" lon="116.5756865032017230987548828125">
        <ele>-94.8000030517578125</ele>
        <time>2015-07-26T23:54:29.000Z</time>
        <extensions>
          <ns3:TrackPointExtension>
            <ns3:atemp>28.0</ns3:atemp>
          </ns3:TrackPointExtension>
        </extensions>
      </trkpt>
      <trkpt lat="40.08765212260186672210693359375" lon="116.5757359564304351806640625">
        <ele>-95</ele>
        <time>2015-07-26T23:54:30.000Z</time>
        <extensions>
          <ns3:TrackPointExtension>
            <ns3:atemp>28.0</ns3:atemp>
          </ns3:TrackPointExtension>
        </extensions>
      </trkpt>
      <trkpt lat="40.08767860941588878631591796875" lon="116.57579504884779453277587890625">
        <ele>-95</ele>
        <time>2015-07-26T23:54:31.000Z</time>
        <extensions>
          <ns3:TrackPointExtension>
            <ns3:atemp>28.0</ns3:atemp>
          </ns3:TrackPointExtension>
        </extensions>
      </trkpt>
      <trkpt lat="40.08770124055445194244384765625" lon="116.57586000859737396240234375">
        <ele>-95</ele>
        <time>2015-07-26T23:54:32.000Z</time>
        <extensions>
          <ns3:TrackPointExtension>
            <ns3:atemp>28.0</ns3:atemp>
          </ns3:TrackPointExtension>
        </extensions>
      </trkpt>
      <trkpt lat="40.0877170823514461517333984375" lon="116.57592572271823883056640625">
        <ele>-95</ele>
        <time>2015-07-26T23:54:33.000Z</time>
        <extensions>
          <ns3:TrackPointExtension>
            <ns3:atemp>28.0</ns3:atemp>
          </ns3:TrackPointExtension>
        </extensions>
      </trkpt>
      <trkpt lat="40.08772739209234714508056640625" lon="116.57599235884845256805419921875">
        <ele>-95</ele>
        <time>2015-07-26T23:54:34.000Z</time>
        <extensions>
          <ns3:TrackPointExtension>
            <ns3:atemp>28.0</ns3:atemp>
          </ns3:TrackPointExtension>
        </extensions>
      </trkpt>
      <trkpt lat="40.0877388752996921539306640625" lon="116.57605488784611225128173828125">
        <ele>-95</ele>
        <time>2015-07-26T23:54:35.000Z</time>
        <extensions>
          <ns3:TrackPointExtension>
            <ns3:atemp>28.0</ns3:atemp>
          </ns3:TrackPointExtension>
        </extensions>
      </trkpt>
      <trkpt lat="40.08775354363024234771728515625" lon="116.5761126391589641571044921875">
        <ele>-94.8000030517578125</ele>
        <time>2015-07-26T23:54:36.000Z</time>
        <extensions>
          <ns3:TrackPointExtension>
            <ns3:atemp>28.0</ns3:atemp>
          </ns3:TrackPointExtension>
        </extensions>
      </trkpt>
      <trkpt lat="40.08776997216045856475830078125" lon="116.5761706419289112091064453125">
        <ele>-94.59999847412109375</ele>
        <time>2015-07-26T23:54:37.000Z</time>
        <extensions>
          <ns3:TrackPointExtension>
            <ns3:atemp>28.0</ns3:atemp>
          </ns3:TrackPointExtension>
        </extensions>
      </trkpt>
      <trkpt lat="40.0877905078232288360595703125" lon="116.5762965381145477294921875">
        <ele>-94.1999969482421875</ele>
        <time>2015-07-26T23:54:39.000Z</time>
        <extensions>
          <ns3:TrackPointExtension>
            <ns3:atemp>28.0</ns3:atemp>
          </ns3:TrackPointExtension>
        </extensions>
      </trkpt>
      <trkpt lat="40.0877945311367511749267578125" lon="116.576358564198017120361328125">
        <ele>-94.1999969482421875</ele>
        <time>2015-07-26T23:54:40.000Z</time>
        <extensions>
          <ns3:TrackPointExtension>
            <ns3:atemp>28.0</ns3:atemp>
          </ns3:TrackPointExtension>
        </extensions>
      </trkpt>
      <trkpt lat="40.0876067765057086944580078125" lon="116.5769831836223602294921875">
        <ele>-93.40000152587890625</ele>
        <time>2015-07-26T23:54:58.000Z</time>
        <extensions>
          <ns3:TrackPointExtension>
            <ns3:atemp>28.0</ns3:atemp>
          </ns3:TrackPointExtension>
        </extensions>
      </trkpt>
      <trkpt lat="40.08752086199820041656494140625" lon="116.57699584029614925384521484375">
        <ele>-93.59999847412109375</ele>
        <time>2015-07-26T23:55:02.000Z</time>
        <extensions>
          <ns3:TrackPointExtension>
            <ns3:atemp>28.0</ns3:atemp>
          </ns3:TrackPointExtension>
        </extensions>
      </trkpt>
      <trkpt lat="40.08749906904995441436767578125" lon="116.5769863687455654144287109375">
        <ele>-93.8000030517578125</ele>
        <time>2015-07-26T23:55:03.000Z</time>
        <extensions>
          <ns3:TrackPointExtension>
            <ns3:atemp>28.0</ns3:atemp>
          </ns3:TrackPointExtension>
        </extensions>
      </trkpt>
      <trkpt lat="40.0874743424355983734130859375" lon="116.57697941176593303680419921875">
        <ele>-94</ele>
        <time>2015-07-26T23:55:04.000Z</time>
        <extensions>
          <ns3:TrackPointExtension>
            <ns3:atemp>28.0</ns3:atemp>
          </ns3:TrackPointExtension>
        </extensions>
      </trkpt>
      <trkpt lat="40.08744592778384685516357421875" lon="116.57697589136660099029541015625">
        <ele>-94</ele>
        <time>2015-07-26T23:55:05.000Z</time>
        <extensions>
          <ns3:TrackPointExtension>
            <ns3:atemp>28.0</ns3:atemp>
          </ns3:TrackPointExtension>
        </extensions>
      </trkpt>
      <trkpt lat="40.08741407655179500579833984375" lon="116.57697589136660099029541015625">
        <ele>-94</ele>
        <time>2015-07-26T23:55:06.000Z</time>
        <extensions>
          <ns3:TrackPointExtension>
            <ns3:atemp>28.0</ns3:atemp>
          </ns3:TrackPointExtension>
        </extensions>
      </trkpt>
      <trkpt lat="40.08737501688301563262939453125" lon="116.57697907648980617523193359375">
        <ele>-94</ele>
        <time>2015-07-26T23:55:07.000Z</time>
        <extensions>
          <ns3:TrackPointExtension>
            <ns3:atemp>28.0</ns3:atemp>
          </ns3:TrackPointExtension>
        </extensions>
      </trkpt>
      <trkpt lat="40.0869895331561565399169921875" lon="116.57698410563170909881591796875">
        <ele>-94.59999847412109375</ele>
        <time>2015-07-26T23:55:15.000Z</time>
        <extensions>
          <ns3:TrackPointExtension>
            <ns3:atemp>28.0</ns3:atemp>
          </ns3:TrackPointExtension>
        </extensions>
      </trkpt>
      <trkpt lat="40.08649944327771663665771484375" lon="116.5766889788210391998291015625">
        <ele>-93.8000030517578125</ele>
        <time>2015-07-26T23:55:29.000Z</time>
        <extensions>
          <ns3:TrackPointExtension>
            <ns3:atemp>28.0</ns3:atemp>
          </ns3:TrackPointExtension>
        </extensions>
      </trkpt>
      <trkpt lat="40.08646340109407901763916015625" lon="116.576565764844417572021484375">
        <ele>-93.59999847412109375</ele>
        <time>2015-07-26T23:55:33.000Z</time>
        <extensions>
          <ns3:TrackPointExtension>
            <ns3:atemp>28.0</ns3:atemp>
          </ns3:TrackPointExtension>
        </extensions>
      </trkpt>
      <trkpt lat="40.08643959648907184600830078125" lon="116.57654690556228160858154296875">
        <ele>-93.59999847412109375</ele>
        <time>2015-07-26T23:55:34.000Z</time>
        <extensions>
          <ns3:TrackPointExtension>
            <ns3:atemp>28.0</ns3:atemp>
          </ns3:TrackPointExtension>
        </extensions>
      </trkpt>
      <trkpt lat="40.0864051468670368194580078125" lon="116.57653592526912689208984375">
        <ele>-93.59999847412109375</ele>
        <time>2015-07-26T23:55:35.000Z</time>
        <extensions>
          <ns3:TrackPointExtension>
            <ns3:atemp>28.0</ns3:atemp>
          </ns3:TrackPointExtension>
        </extensions>
      </trkpt>
      <trkpt lat="40.086368434131145477294921875" lon="116.5765297226607799530029296875">
        <ele>-93.59999847412109375</ele>
        <time>2015-07-26T23:55:36.000Z</time>
        <extensions>
          <ns3:TrackPointExtension>
            <ns3:atemp>28.0</ns3:atemp>
          </ns3:TrackPointExtension>
        </extensions>
      </trkpt>
      <trkpt lat="40.0863285362720489501953125" lon="116.57652712427079677581787109375">
        <ele>-93.8000030517578125</ele>
        <time>2015-07-26T23:55:37.000Z</time>
        <extensions>
          <ns3:TrackPointExtension>
            <ns3:atemp>28.0</ns3:atemp>
          </ns3:TrackPointExtension>
        </extensions>
      </trkpt>
      <trkpt lat="40.08628503419458866119384765625" lon="116.57653332687914371490478515625">
        <ele>-93.8000030517578125</ele>
        <time>2015-07-26T23:55:38.000Z</time>
        <extensions>
          <ns3:TrackPointExtension>
            <ns3:atemp>28.0</ns3:atemp>
          </ns3:TrackPointExtension>
        </extensions>
      </trkpt>
      <trkpt lat="40.08624044246971607208251953125" lon="116.57654154114425182342529296875">
        <ele>-94</ele>
        <time>2015-07-26T23:55:39.000Z</time>
        <extensions>
          <ns3:TrackPointExtension>
            <ns3:atemp>28.0</ns3:atemp>
          </ns3:TrackPointExtension>
        </extensions>
      </trkpt>
      <trkpt lat="40.0858140550553798675537109375" lon="116.5766165591776371002197265625">
        <ele>-94</ele>
        <time>2015-07-26T23:55:49.000Z</time>
        <extensions>
          <ns3:TrackPointExtension>
            <ns3:atemp>28.0</ns3:atemp>
          </ns3:TrackPointExtension>
        </extensions>
      </trkpt>
      <trkpt lat="40.08555270731449127197265625" lon="116.57664950005710124969482421875">
        <ele>-94</ele>
        <time>2015-07-26T23:55:55.000Z</time>
        <extensions>
          <ns3:TrackPointExtension>
            <ns3:atemp>28.0</ns3:atemp>
          </ns3:TrackPointExtension>
        </extensions>
      </trkpt>
    </trkseg>
  </trk>
</gpx>
