<gpx xmlns:ns3="http://www.garmin.com/xmlschemas/TrackPointExtension/v1" xmlns="http://www.topografix.com/GPX/1/1" xmlns:xsi="http://www.w3.org/2001/XMLSchema-instance" xmlns:ns2="http://www.garmin.com/xmlschemas/GpxExtensions/v3" creator="Garmin Connect" version="1.1" xsi:schemaLocation="http://www.topografix.com/GPX/1/1 http://www.topografix.com/GPX/11.xsd">
  <extensions>
<distance>5008.02</distance>
<average_hr></average_hr>
<average_speed>3.0913703703703708</average_speed>
<start_time>2015-07-26T12:54:54+00:00</start_time>
<end_time>2015-07-26T13:21:54+00:00</end_time>
<moving_time>1621.0</moving_time>
<elapsed_time>1620.0</elapsed_time>
</extensions>
<metadata>
    <link href="connect.garmin.com">
      <text>Garmin Connect</text>
    </link>
    <time>2015-07-26T12:54:54.000Z</time>
  </metadata>
  <trk>
    <type>running</type>
    <trkseg>
      <trkpt lat="40.04527254961431026458740234375" lon="116.59012307412922382354736328125">
        <ele>50.200000762939453125</ele>
        <time>2015-07-26T12:54:54.000Z</time>
        <extensions>
          <ns3:TrackPointExtension>
            <ns3:atemp>30.0</ns3:atemp>
            <ns3:cad>60</ns3:cad>
          </ns3:TrackPointExtension>
        </extensions>
      </trkpt>
      <trkpt lat="40.04505814053118228912353515625" lon="116.59018560312688350677490234375">
        <ele>49.799999237060546875</ele>
        <time>2015-07-26T12:55:05.000Z</time>
        <extensions>
          <ns3:TrackPointExtension>
            <ns3:atemp>31.0</ns3:atemp>
            <ns3:cad>85</ns3:cad>
          </ns3:TrackPointExtension>
        </extensions>
      </trkpt>
      <trkpt lat="40.04489854909479618072509765625" lon="116.59035944379866123199462890625">
        <ele>49.799999237060546875</ele>
        <time>2015-07-26T12:55:14.000Z</time>
        <extensions>
          <ns3:TrackPointExtension>
            <ns3:atemp>31.0</ns3:atemp>
            <ns3:cad>86</ns3:cad>
          </ns3:TrackPointExtension>
        </extensions>
      </trkpt>
      <trkpt lat="40.04480819217860698699951171875" lon="116.5905922092497348785400390625">
        <ele>50.200000762939453125</ele>
        <time>2015-07-26T12:55:22.000Z</time>
        <extensions>
          <ns3:TrackPointExtension>
            <ns3:atemp>31.0</ns3:atemp>
            <ns3:cad>86</ns3:cad>
          </ns3:TrackPointExtension>
        </extensions>
      </trkpt>
      <trkpt lat="40.0448389537632465362548828125" lon="116.59075842238962650299072265625">
        <ele>50</ele>
        <time>2015-07-26T12:55:27.000Z</time>
        <extensions>
          <ns3:TrackPointExtension>
            <ns3:atemp>31.0</ns3:atemp>
            <ns3:cad>85</ns3:cad>
          </ns3:TrackPointExtension>
        </extensions>
      </trkpt>
      <trkpt lat="40.04494951106607913970947265625" lon="116.59099730663001537322998046875">
        <ele>50.40000152587890625</ele>
        <time>2015-07-26T12:55:35.000Z</time>
        <extensions>
          <ns3:TrackPointExtension>
            <ns3:atemp>31.0</ns3:atemp>
            <ns3:cad>88</ns3:cad>
          </ns3:TrackPointExtension>
        </extensions>
      </trkpt>
      <trkpt lat="40.04510072059929370880126953125" lon="116.59112756140530109405517578125">
        <ele>50</ele>
        <time>2015-07-26T12:55:44.000Z</time>
        <extensions>
          <ns3:TrackPointExtension>
            <ns3:atemp>31.0</ns3:atemp>
            <ns3:cad>86</ns3:cad>
          </ns3:TrackPointExtension>
        </extensions>
      </trkpt>
      <trkpt lat="40.04530037753283977508544921875" lon="116.591142900288105010986328125">
        <ele>50.40000152587890625</ele>
        <time>2015-07-26T12:55:51.000Z</time>
        <extensions>
          <ns3:TrackPointExtension>
            <ns3:atemp>31.0</ns3:atemp>
            <ns3:cad>88</ns3:cad>
          </ns3:TrackPointExtension>
        </extensions>
      </trkpt>
      <trkpt lat="40.04551629535853862762451171875" lon="116.59113074652850627899169921875">
        <ele>50</ele>
        <time>2015-07-26T12:55:58.000Z</time>
        <extensions>
          <ns3:TrackPointExtension>
            <ns3:atemp>31.0</ns3:atemp>
            <ns3:cad>88</ns3:cad>
          </ns3:TrackPointExtension>
        </extensions>
      </trkpt>
      <trkpt lat="40.04572953097522258758544921875" lon="116.5911383740603923797607421875">
        <ele>49.59999847412109375</ele>
        <time>2015-07-26T12:56:05.000Z</time>
        <extensions>
          <ns3:TrackPointExtension>
            <ns3:atemp>31.0</ns3:atemp>
            <ns3:cad>87</ns3:cad>
          </ns3:TrackPointExtension>
        </extensions>
      </trkpt>
      <trkpt lat="40.04594276659190654754638671875" lon="116.5911346860229969024658203125">
        <ele>50</ele>
        <time>2015-07-26T12:56:12.000Z</time>
        <extensions>
          <ns3:TrackPointExtension>
            <ns3:atemp>31.0</ns3:atemp>
            <ns3:cad>88</ns3:cad>
          </ns3:TrackPointExtension>
        </extensions>
      </trkpt>
      <trkpt lat="40.04611174575984477996826171875" lon="116.59104810096323490142822265625">
        <ele>49.799999237060546875</ele>
        <time>2015-07-26T12:56:19.000Z</time>
        <extensions>
          <ns3:TrackPointExtension>
            <ns3:atemp>31.0</ns3:atemp>
            <ns3:cad>88</ns3:cad>
          </ns3:TrackPointExtension>
        </extensions>
      </trkpt>
      <trkpt lat="40.04620126448571681976318359375" lon="116.59081466495990753173828125">
        <ele>50.200000762939453125</ele>
        <time>2015-07-26T12:56:27.000Z</time>
        <extensions>
          <ns3:TrackPointExtension>
            <ns3:atemp>31.0</ns3:atemp>
            <ns3:cad>87</ns3:cad>
          </ns3:TrackPointExtension>
        </extensions>
      </trkpt>
      <trkpt lat="40.046174190938472747802734375" lon="116.59051098860800266265869140625">
        <ele>50</ele>
        <time>2015-07-26T12:56:35.000Z</time>
        <extensions>
          <ns3:TrackPointExtension>
            <ns3:atemp>31.0</ns3:atemp>
            <ns3:cad>88</ns3:cad>
          </ns3:TrackPointExtension>
        </extensions>
      </trkpt>
      <trkpt lat="40.0460472889244556427001953125" lon="116.59029431641101837158203125">
        <ele>50.200000762939453125</ele>
        <time>2015-07-26T12:56:42.000Z</time>
        <extensions>
          <ns3:TrackPointExtension>
            <ns3:atemp>31.0</ns3:atemp>
            <ns3:cad>88</ns3:cad>
          </ns3:TrackPointExtension>
        </extensions>
      </trkpt>
      <trkpt lat="40.04586565308272838592529296875" lon="116.59016699530184268951416015625">
        <ele>49.59999847412109375</ele>
        <time>2015-07-26T12:56:50.000Z</time>
        <extensions>
          <ns3:TrackPointExtension>
            <ns3:atemp>31.0</ns3:atemp>
            <ns3:cad>87</ns3:cad>
          </ns3:TrackPointExtension>
        </extensions>
      </trkpt>
      <trkpt lat="40.0456607155501842498779296875" lon="116.59015643410384654998779296875">
        <ele>50</ele>
        <time>2015-07-26T12:56:58.000Z</time>
        <extensions>
          <ns3:TrackPointExtension>
            <ns3:atemp>31.0</ns3:atemp>
            <ns3:cad>88</ns3:cad>
          </ns3:TrackPointExtension>
        </extensions>
      </trkpt>
      <trkpt lat="40.04545343108475208282470703125" lon="116.59013313241302967071533203125">
        <ele>50</ele>
        <time>2015-07-26T12:57:06.000Z</time>
        <extensions>
          <ns3:TrackPointExtension>
            <ns3:atemp>31.0</ns3:atemp>
            <ns3:cad>88</ns3:cad>
          </ns3:TrackPointExtension>
        </extensions>
      </trkpt>
      <trkpt lat="40.0452505052089691162109375" lon="116.5901721082627773284912109375">
        <ele>49.799999237060546875</ele>
        <time>2015-07-26T12:57:14.000Z</time>
        <extensions>
          <ns3:TrackPointExtension>
            <ns3:atemp>31.0</ns3:atemp>
            <ns3:cad>87</ns3:cad>
          </ns3:TrackPointExtension>
        </extensions>
      </trkpt>
      <trkpt lat="40.04505730234086513519287109375" lon="116.590227596461772918701171875">
        <ele>49.799999237060546875</ele>
        <time>2015-07-26T12:57:22.000Z</time>
        <extensions>
          <ns3:TrackPointExtension>
            <ns3:atemp>31.0</ns3:atemp>
            <ns3:cad>87</ns3:cad>
          </ns3:TrackPointExtension>
        </extensions>
      </trkpt>
      <trkpt lat="40.0449650175869464874267578125" lon="116.59031870774924755096435546875">
        <ele>50</ele>
        <time>2015-07-26T12:57:26.000Z</time>
        <extensions>
          <ns3:TrackPointExtension>
            <ns3:atemp>31.0</ns3:atemp>
            <ns3:cad>87</ns3:cad>
          </ns3:TrackPointExtension>
        </extensions>
      </trkpt>
      <trkpt lat="40.04494230262935161590576171875" lon="116.59035173244774341583251953125">
        <ele>50</ele>
        <time>2015-07-26T12:57:27.000Z</time>
        <extensions>
          <ns3:TrackPointExtension>
            <ns3:atemp>31.0</ns3:atemp>
            <ns3:cad>87</ns3:cad>
          </ns3:TrackPointExtension>
        </extensions>
      </trkpt>
      <trkpt lat="40.044924952089786529541015625" lon="116.59038685262203216552734375">
        <ele>50.200000762939453125</ele>
        <time>2015-07-26T12:57:28.000Z</time>
        <extensions>
          <ns3:TrackPointExtension>
            <ns3:atemp>31.0</ns3:atemp>
            <ns3:cad>87</ns3:cad>
          </ns3:TrackPointExtension>
        </extensions>
      </trkpt>
      <trkpt lat="40.04491112194955348968505859375" lon="116.590424068272113800048828125">
        <ele>50.200000762939453125</ele>
        <time>2015-07-26T12:57:29.000Z</time>
        <extensions>
          <ns3:TrackPointExtension>
            <ns3:atemp>31.0</ns3:atemp>
            <ns3:cad>89</ns3:cad>
          </ns3:TrackPointExtension>
        </extensions>
      </trkpt>
      <trkpt lat="40.0448989681899547576904296875" lon="116.59046321175992488861083984375">
        <ele>50.40000152587890625</ele>
        <time>2015-07-26T12:57:30.000Z</time>
        <extensions>
          <ns3:TrackPointExtension>
            <ns3:atemp>31.0</ns3:atemp>
            <ns3:cad>89</ns3:cad>
          </ns3:TrackPointExtension>
        </extensions>
      </trkpt>
      <trkpt lat="40.04484741948544979095458984375" lon="116.5907442569732666015625">
        <ele>50</ele>
        <time>2015-07-26T12:57:38.000Z</time>
        <extensions>
          <ns3:TrackPointExtension>
            <ns3:atemp>31.0</ns3:atemp>
            <ns3:cad>87</ns3:cad>
          </ns3:TrackPointExtension>
        </extensions>
      </trkpt>
      <trkpt lat="40.0449190847575664520263671875" lon="116.5909931994974613189697265625">
        <ele>50.200000762939453125</ele>
        <time>2015-07-26T12:57:46.000Z</time>
        <extensions>
          <ns3:TrackPointExtension>
            <ns3:atemp>31.0</ns3:atemp>
            <ns3:cad>87</ns3:cad>
          </ns3:TrackPointExtension>
        </extensions>
      </trkpt>
      <trkpt lat="40.0450746528804302215576171875" lon="116.5911584906280040740966796875">
        <ele>50</ele>
        <time>2015-07-26T12:57:55.000Z</time>
        <extensions>
          <ns3:TrackPointExtension>
            <ns3:atemp>31.0</ns3:atemp>
            <ns3:cad>87</ns3:cad>
          </ns3:TrackPointExtension>
        </extensions>
      </trkpt>
      <trkpt lat="40.04531445913016796112060546875" lon="116.59115354530513286590576171875">
        <ele>50.40000152587890625</ele>
        <time>2015-07-26T12:58:03.000Z</time>
        <extensions>
          <ns3:TrackPointExtension>
            <ns3:atemp>31.0</ns3:atemp>
            <ns3:cad>89</ns3:cad>
          </ns3:TrackPointExtension>
        </extensions>
      </trkpt>
      <trkpt lat="40.0455299578607082366943359375" lon="116.59113376401364803314208984375">
        <ele>49.799999237060546875</ele>
        <time>2015-07-26T12:58:11.000Z</time>
        <extensions>
          <ns3:TrackPointExtension>
            <ns3:atemp>31.0</ns3:atemp>
            <ns3:cad>88</ns3:cad>
          </ns3:TrackPointExtension>
        </extensions>
      </trkpt>
      <trkpt lat="40.04574076272547245025634765625" lon="116.59111834131181240081787109375">
        <ele>50</ele>
        <time>2015-07-26T12:58:19.000Z</time>
        <extensions>
          <ns3:TrackPointExtension>
            <ns3:atemp>31.0</ns3:atemp>
            <ns3:cad>91</ns3:cad>
          </ns3:TrackPointExtension>
        </extensions>
      </trkpt>
      <trkpt lat="40.04592365585267543792724609375" lon="116.591103337705135345458984375">
        <ele>50</ele>
        <time>2015-07-26T12:58:26.000Z</time>
        <extensions>
          <ns3:TrackPointExtension>
            <ns3:atemp>30.0</ns3:atemp>
            <ns3:cad>88</ns3:cad>
          </ns3:TrackPointExtension>
        </extensions>
      </trkpt>
      <trkpt lat="40.0461079739034175872802734375" lon="116.5909623540937900543212890625">
        <ele>50</ele>
        <time>2015-07-26T12:58:34.000Z</time>
        <extensions>
          <ns3:TrackPointExtension>
            <ns3:atemp>30.0</ns3:atemp>
            <ns3:cad>89</ns3:cad>
          </ns3:TrackPointExtension>
        </extensions>
      </trkpt>
      <trkpt lat="40.0461941398680210113525390625" lon="116.5907259844243526458740234375">
        <ele>50</ele>
        <time>2015-07-26T12:58:42.000Z</time>
        <extensions>
          <ns3:TrackPointExtension>
            <ns3:atemp>30.0</ns3:atemp>
            <ns3:cad>88</ns3:cad>
          </ns3:TrackPointExtension>
        </extensions>
      </trkpt>
      <trkpt lat="40.04614292643964290618896484375" lon="116.59045365639030933380126953125">
        <ele>49.799999237060546875</ele>
        <time>2015-07-26T12:58:50.000Z</time>
        <extensions>
          <ns3:TrackPointExtension>
            <ns3:atemp>30.0</ns3:atemp>
            <ns3:cad>89</ns3:cad>
          </ns3:TrackPointExtension>
        </extensions>
      </trkpt>
      <trkpt lat="40.04596791230142116546630859375" lon="116.590256430208683013916015625">
        <ele>50.200000762939453125</ele>
        <time>2015-07-26T12:58:58.000Z</time>
        <extensions>
          <ns3:TrackPointExtension>
            <ns3:atemp>30.0</ns3:atemp>
            <ns3:cad>88</ns3:cad>
          </ns3:TrackPointExtension>
        </extensions>
      </trkpt>
      <trkpt lat="40.04576557315886020660400390625" lon="116.590179316699504852294921875">
        <ele>50.200000762939453125</ele>
        <time>2015-07-26T12:59:06.000Z</time>
        <extensions>
          <ns3:TrackPointExtension>
            <ns3:atemp>30.0</ns3:atemp>
            <ns3:cad>86</ns3:cad>
          </ns3:TrackPointExtension>
        </extensions>
      </trkpt>
      <trkpt lat="40.04557061009109020233154296875" lon="116.59016498364508152008056640625">
        <ele>49.799999237060546875</ele>
        <time>2015-07-26T12:59:14.000Z</time>
        <extensions>
          <ns3:TrackPointExtension>
            <ns3:atemp>30.0</ns3:atemp>
            <ns3:cad>89</ns3:cad>
          </ns3:TrackPointExtension>
        </extensions>
      </trkpt>
      <trkpt lat="40.04536961205303668975830078125" lon="116.59018074162304401397705078125">
        <ele>50</ele>
        <time>2015-07-26T12:59:22.000Z</time>
        <extensions>
          <ns3:TrackPointExtension>
            <ns3:atemp>30.0</ns3:atemp>
            <ns3:cad>88</ns3:cad>
          </ns3:TrackPointExtension>
        </extensions>
      </trkpt>
      <trkpt lat="40.0451661832630634307861328125" lon="116.5901972539722919464111328125">
        <ele>49.59999847412109375</ele>
        <time>2015-07-26T12:59:30.000Z</time>
        <extensions>
          <ns3:TrackPointExtension>
            <ns3:atemp>30.0</ns3:atemp>
            <ns3:cad>89</ns3:cad>
          </ns3:TrackPointExtension>
        </extensions>
      </trkpt>
      <trkpt lat="40.04498940892517566680908203125" lon="116.59028492867946624755859375">
        <ele>50</ele>
        <time>2015-07-26T12:59:38.000Z</time>
        <extensions>
          <ns3:TrackPointExtension>
            <ns3:atemp>30.0</ns3:atemp>
            <ns3:cad>88</ns3:cad>
          </ns3:TrackPointExtension>
        </extensions>
      </trkpt>
      <trkpt lat="40.04488145001232624053955078125" lon="116.59047729335725307464599609375">
        <ele>49.799999237060546875</ele>
        <time>2015-07-26T12:59:46.000Z</time>
        <extensions>
          <ns3:TrackPointExtension>
            <ns3:atemp>30.0</ns3:atemp>
            <ns3:cad>87</ns3:cad>
          </ns3:TrackPointExtension>
        </extensions>
      </trkpt>
      <trkpt lat="40.04487021826207637786865234375" lon="116.59074702300131320953369140625">
        <ele>49.799999237060546875</ele>
        <time>2015-07-26T12:59:54.000Z</time>
        <extensions>
          <ns3:TrackPointExtension>
            <ns3:atemp>30.0</ns3:atemp>
            <ns3:cad>88</ns3:cad>
          </ns3:TrackPointExtension>
        </extensions>
      </trkpt>
      <trkpt lat="40.0449683703482151031494140625" lon="116.59099730663001537322998046875">
        <ele>49.799999237060546875</ele>
        <time>2015-07-26T13:00:02.000Z</time>
        <extensions>
          <ns3:TrackPointExtension>
            <ns3:atemp>30.0</ns3:atemp>
            <ns3:cad>88</ns3:cad>
          </ns3:TrackPointExtension>
        </extensions>
      </trkpt>
      <trkpt lat="40.04513408057391643524169921875" lon="116.59111775457859039306640625">
        <ele>49.799999237060546875</ele>
        <time>2015-07-26T13:00:10.000Z</time>
        <extensions>
          <ns3:TrackPointExtension>
            <ns3:atemp>30.0</ns3:atemp>
            <ns3:cad>88</ns3:cad>
          </ns3:TrackPointExtension>
        </extensions>
      </trkpt>
      <trkpt lat="40.04535921849310398101806640625" lon="116.591150276362895965576171875">
        <ele>49.59999847412109375</ele>
        <time>2015-07-26T13:00:18.000Z</time>
        <extensions>
          <ns3:TrackPointExtension>
            <ns3:atemp>30.0</ns3:atemp>
            <ns3:cad>88</ns3:cad>
          </ns3:TrackPointExtension>
        </extensions>
      </trkpt>
      <trkpt lat="40.04556088708341121673583984375" lon="116.5911427326500415802001953125">
        <ele>49.799999237060546875</ele>
        <time>2015-07-26T13:00:25.000Z</time>
        <extensions>
          <ns3:TrackPointExtension>
            <ns3:atemp>30.0</ns3:atemp>
            <ns3:cad>89</ns3:cad>
          </ns3:TrackPointExtension>
        </extensions>
      </trkpt>
      <trkpt lat="40.04574604332447052001953125" lon="116.591161675751209259033203125">
        <ele>49.799999237060546875</ele>
        <time>2015-07-26T13:00:32.000Z</time>
        <extensions>
          <ns3:TrackPointExtension>
            <ns3:atemp>30.0</ns3:atemp>
            <ns3:cad>88</ns3:cad>
          </ns3:TrackPointExtension>
        </extensions>
      </trkpt>
      <trkpt lat="40.045801699161529541015625" lon="116.591150946915149688720703125">
        <ele>49.59999847412109375</ele>
        <time>2015-07-26T13:00:34.000Z</time>
        <extensions>
          <ns3:TrackPointExtension>
            <ns3:atemp>30.0</ns3:atemp>
            <ns3:cad>87</ns3:cad>
          </ns3:TrackPointExtension>
        </extensions>
      </trkpt>
      <trkpt lat="40.04596791230142116546630859375" lon="116.59111398272216320037841796875">
        <ele>49.799999237060546875</ele>
        <time>2015-07-26T13:00:40.000Z</time>
        <extensions>
          <ns3:TrackPointExtension>
            <ns3:atemp>30.0</ns3:atemp>
            <ns3:cad>87</ns3:cad>
          </ns3:TrackPointExtension>
        </extensions>
      </trkpt>
      <trkpt lat="40.04614166915416717529296875" lon="116.5909868292510509490966796875">
        <ele>49.799999237060546875</ele>
        <time>2015-07-26T13:00:48.000Z</time>
        <extensions>
          <ns3:TrackPointExtension>
            <ns3:atemp>30.0</ns3:atemp>
            <ns3:cad>88</ns3:cad>
          </ns3:TrackPointExtension>
        </extensions>
      </trkpt>
      <trkpt lat="40.0462350435554981231689453125" lon="116.59073964692652225494384765625">
        <ele>49.799999237060546875</ele>
        <time>2015-07-26T13:00:56.000Z</time>
        <extensions>
          <ns3:TrackPointExtension>
            <ns3:atemp>30.0</ns3:atemp>
            <ns3:cad>87</ns3:cad>
          </ns3:TrackPointExtension>
        </extensions>
      </trkpt>
      <trkpt lat="40.04616715013980865478515625" lon="116.59046329557895660400390625">
        <ele>50</ele>
        <time>2015-07-26T13:01:03.000Z</time>
        <extensions>
          <ns3:TrackPointExtension>
            <ns3:atemp>30.0</ns3:atemp>
            <ns3:cad>88</ns3:cad>
          </ns3:TrackPointExtension>
        </extensions>
      </trkpt>
      <trkpt lat="40.0460095703601837158203125" lon="116.59027193672955036163330078125">
        <ele>49.799999237060546875</ele>
        <time>2015-07-26T13:01:10.000Z</time>
        <extensions>
          <ns3:TrackPointExtension>
            <ns3:atemp>30.0</ns3:atemp>
            <ns3:cad>88</ns3:cad>
          </ns3:TrackPointExtension>
        </extensions>
      </trkpt>
      <trkpt lat="40.045818798243999481201171875" lon="116.5901489742100238800048828125">
        <ele>49.799999237060546875</ele>
        <time>2015-07-26T13:01:18.000Z</time>
        <extensions>
          <ns3:TrackPointExtension>
            <ns3:atemp>30.0</ns3:atemp>
            <ns3:cad>88</ns3:cad>
          </ns3:TrackPointExtension>
        </extensions>
      </trkpt>
      <trkpt lat="40.045609585940837860107421875" lon="116.590125672519207000732421875">
        <ele>49.59999847412109375</ele>
        <time>2015-07-26T13:01:26.000Z</time>
        <extensions>
          <ns3:TrackPointExtension>
            <ns3:atemp>30.0</ns3:atemp>
            <ns3:cad>89</ns3:cad>
          </ns3:TrackPointExtension>
        </extensions>
      </trkpt>
      <trkpt lat="40.04538972862064838409423828125" lon="116.5901355631649494171142578125">
        <ele>49.59999847412109375</ele>
        <time>2015-07-26T13:01:34.000Z</time>
        <extensions>
          <ns3:TrackPointExtension>
            <ns3:atemp>30.0</ns3:atemp>
            <ns3:cad>88</ns3:cad>
          </ns3:TrackPointExtension>
        </extensions>
      </trkpt>
      <trkpt lat="40.045195184648036956787109375" lon="116.5901550091803073883056640625">
        <ele>49.40000152587890625</ele>
        <time>2015-07-26T13:01:42.000Z</time>
        <extensions>
          <ns3:TrackPointExtension>
            <ns3:atemp>30.0</ns3:atemp>
            <ns3:cad>88</ns3:cad>
          </ns3:TrackPointExtension>
        </extensions>
      </trkpt>
      <trkpt lat="40.0450091063976287841796875" lon="116.59024729393422603607177734375">
        <ele>49.200000762939453125</ele>
        <time>2015-07-26T13:01:50.000Z</time>
        <extensions>
          <ns3:TrackPointExtension>
            <ns3:atemp>30.0</ns3:atemp>
            <ns3:cad>89</ns3:cad>
          </ns3:TrackPointExtension>
        </extensions>
      </trkpt>
      <trkpt lat="40.0448691286146640777587890625" lon="116.59044259227812290191650390625">
        <ele>49.799999237060546875</ele>
        <time>2015-07-26T13:01:58.000Z</time>
        <extensions>
          <ns3:TrackPointExtension>
            <ns3:atemp>30.0</ns3:atemp>
            <ns3:cad>88</ns3:cad>
          </ns3:TrackPointExtension>
        </extensions>
      </trkpt>
      <trkpt lat="40.04483417607843875885009765625" lon="116.59069924615323543548583984375">
        <ele>49.200000762939453125</ele>
        <time>2015-07-26T13:02:06.000Z</time>
        <extensions>
          <ns3:TrackPointExtension>
            <ns3:atemp>30.0</ns3:atemp>
            <ns3:cad>87</ns3:cad>
          </ns3:TrackPointExtension>
        </extensions>
      </trkpt>
      <trkpt lat="40.044925622642040252685546875" lon="116.5909496136009693145751953125">
        <ele>49.59999847412109375</ele>
        <time>2015-07-26T13:02:14.000Z</time>
        <extensions>
          <ns3:TrackPointExtension>
            <ns3:atemp>30.0</ns3:atemp>
            <ns3:cad>88</ns3:cad>
          </ns3:TrackPointExtension>
        </extensions>
      </trkpt>
      <trkpt lat="40.0450729764997959136962890625" lon="116.591099984943866729736328125">
        <ele>49.40000152587890625</ele>
        <time>2015-07-26T13:02:22.000Z</time>
        <extensions>
          <ns3:TrackPointExtension>
            <ns3:atemp>30.0</ns3:atemp>
            <ns3:cad>86</ns3:cad>
          </ns3:TrackPointExtension>
        </extensions>
      </trkpt>
      <trkpt lat="40.0452934205532073974609375" lon="116.59113460220396518707275390625">
        <ele>49.200000762939453125</ele>
        <time>2015-07-26T13:02:30.000Z</time>
        <extensions>
          <ns3:TrackPointExtension>
            <ns3:atemp>30.0</ns3:atemp>
            <ns3:cad>88</ns3:cad>
          </ns3:TrackPointExtension>
        </extensions>
      </trkpt>
      <trkpt lat="40.0454977713525295257568359375" lon="116.5911189280450344085693359375">
        <ele>49.200000762939453125</ele>
        <time>2015-07-26T13:02:37.000Z</time>
        <extensions>
          <ns3:TrackPointExtension>
            <ns3:atemp>30.0</ns3:atemp>
            <ns3:cad>88</ns3:cad>
          </ns3:TrackPointExtension>
        </extensions>
      </trkpt>
      <trkpt lat="40.0457083247601985931396484375" lon="116.591074503958225250244140625">
        <ele>49.59999847412109375</ele>
        <time>2015-07-26T13:02:45.000Z</time>
        <extensions>
          <ns3:TrackPointExtension>
            <ns3:atemp>30.0</ns3:atemp>
            <ns3:cad>88</ns3:cad>
          </ns3:TrackPointExtension>
        </extensions>
      </trkpt>
      <trkpt lat="40.0458970852196216583251953125" lon="116.5910387970507144927978515625">
        <ele>49</ele>
        <time>2015-07-26T13:02:52.000Z</time>
        <extensions>
          <ns3:TrackPointExtension>
            <ns3:atemp>30.0</ns3:atemp>
            <ns3:cad>89</ns3:cad>
          </ns3:TrackPointExtension>
        </extensions>
      </trkpt>
      <trkpt lat="40.0460690818727016448974609375" lon="116.59095506183803081512451171875">
        <ele>49.200000762939453125</ele>
        <time>2015-07-26T13:02:59.000Z</time>
        <extensions>
          <ns3:TrackPointExtension>
            <ns3:atemp>30.0</ns3:atemp>
            <ns3:cad>89</ns3:cad>
          </ns3:TrackPointExtension>
        </extensions>
      </trkpt>
      <trkpt lat="40.04617343656718730926513671875" lon="116.59074065275490283966064453125">
        <ele>49.200000762939453125</ele>
        <time>2015-07-26T13:03:07.000Z</time>
        <extensions>
          <ns3:TrackPointExtension>
            <ns3:atemp>30.0</ns3:atemp>
            <ns3:cad>88</ns3:cad>
          </ns3:TrackPointExtension>
        </extensions>
      </trkpt>
      <trkpt lat="40.0461436808109283447265625" lon="116.59046337939798831939697265625">
        <ele>49</ele>
        <time>2015-07-26T13:03:15.000Z</time>
        <extensions>
          <ns3:TrackPointExtension>
            <ns3:atemp>30.0</ns3:atemp>
            <ns3:cad>89</ns3:cad>
          </ns3:TrackPointExtension>
        </extensions>
      </trkpt>
      <trkpt lat="40.04599808715283870697021484375" lon="116.59025416709482669830322265625">
        <ele>49.40000152587890625</ele>
        <time>2015-07-26T13:03:23.000Z</time>
        <extensions>
          <ns3:TrackPointExtension>
            <ns3:atemp>30.0</ns3:atemp>
            <ns3:cad>89</ns3:cad>
          </ns3:TrackPointExtension>
        </extensions>
      </trkpt>
      <trkpt lat="40.0458052195608615875244140625" lon="116.59017856232821941375732421875">
        <ele>48.59999847412109375</ele>
        <time>2015-07-26T13:03:31.000Z</time>
        <extensions>
          <ns3:TrackPointExtension>
            <ns3:atemp>30.0</ns3:atemp>
            <ns3:cad>88</ns3:cad>
          </ns3:TrackPointExtension>
        </extensions>
      </trkpt>
      <trkpt lat="40.04559977911412715911865234375" lon="116.5901801548898220062255859375">
        <ele>49</ele>
        <time>2015-07-26T13:03:39.000Z</time>
        <extensions>
          <ns3:TrackPointExtension>
            <ns3:atemp>30.0</ns3:atemp>
            <ns3:cad>88</ns3:cad>
          </ns3:TrackPointExtension>
        </extensions>
      </trkpt>
      <trkpt lat="40.04540406167507171630859375" lon="116.59019147045910358428955078125">
        <ele>49.200000762939453125</ele>
        <time>2015-07-26T13:03:47.000Z</time>
        <extensions>
          <ns3:TrackPointExtension>
            <ns3:atemp>30.0</ns3:atemp>
            <ns3:cad>89</ns3:cad>
          </ns3:TrackPointExtension>
        </extensions>
      </trkpt>
      <trkpt lat="40.0452235154807567596435546875" lon="116.5902091562747955322265625">
        <ele>48.799999237060546875</ele>
        <time>2015-07-26T13:03:55.000Z</time>
        <extensions>
          <ns3:TrackPointExtension>
            <ns3:atemp>30.0</ns3:atemp>
            <ns3:cad>88</ns3:cad>
          </ns3:TrackPointExtension>
        </extensions>
      </trkpt>
      <trkpt lat="40.04503190517425537109375" lon="116.590267159044742584228515625">
        <ele>48.799999237060546875</ele>
        <time>2015-07-26T13:04:03.000Z</time>
        <extensions>
          <ns3:TrackPointExtension>
            <ns3:atemp>30.0</ns3:atemp>
            <ns3:cad>88</ns3:cad>
          </ns3:TrackPointExtension>
        </extensions>
      </trkpt>
      <trkpt lat="40.044894106686115264892578125" lon="116.59046941436827182769775390625">
        <ele>48.59999847412109375</ele>
        <time>2015-07-26T13:04:11.000Z</time>
        <extensions>
          <ns3:TrackPointExtension>
            <ns3:atemp>30.0</ns3:atemp>
            <ns3:cad>89</ns3:cad>
          </ns3:TrackPointExtension>
        </extensions>
      </trkpt>
      <trkpt lat="40.04485580138862133026123046875" lon="116.59074199385941028594970703125">
        <ele>49</ele>
        <time>2015-07-26T13:04:19.000Z</time>
        <extensions>
          <ns3:TrackPointExtension>
            <ns3:atemp>30.0</ns3:atemp>
            <ns3:cad>88</ns3:cad>
          </ns3:TrackPointExtension>
        </extensions>
      </trkpt>
      <trkpt lat="40.04494448192417621612548828125" lon="116.59098657779395580291748046875">
        <ele>48.59999847412109375</ele>
        <time>2015-07-26T13:04:27.000Z</time>
        <extensions>
          <ns3:TrackPointExtension>
            <ns3:atemp>30.0</ns3:atemp>
            <ns3:cad>87</ns3:cad>
          </ns3:TrackPointExtension>
        </extensions>
      </trkpt>
      <trkpt lat="40.0451323203742504119873046875" lon="116.59112655557692050933837890625">
        <ele>49</ele>
        <time>2015-07-26T13:04:36.000Z</time>
        <extensions>
          <ns3:TrackPointExtension>
            <ns3:atemp>30.0</ns3:atemp>
            <ns3:cad>88</ns3:cad>
          </ns3:TrackPointExtension>
        </extensions>
      </trkpt>
      <trkpt lat="40.0453237630426883697509765625" lon="116.59115253947675228118896484375">
        <ele>48.59999847412109375</ele>
        <time>2015-07-26T13:04:44.000Z</time>
        <extensions>
          <ns3:TrackPointExtension>
            <ns3:atemp>30.0</ns3:atemp>
            <ns3:cad>88</ns3:cad>
          </ns3:TrackPointExtension>
        </extensions>
      </trkpt>
      <trkpt lat="40.04554261453449726104736328125" lon="116.59114968962967395782470703125">
        <ele>48.40000152587890625</ele>
        <time>2015-07-26T13:04:52.000Z</time>
        <extensions>
          <ns3:TrackPointExtension>
            <ns3:atemp>30.0</ns3:atemp>
            <ns3:cad>87</ns3:cad>
          </ns3:TrackPointExtension>
        </extensions>
      </trkpt>
      <trkpt lat="40.04572114907205104827880859375" lon="116.59112580120563507080078125">
        <ele>49</ele>
        <time>2015-07-26T13:04:59.000Z</time>
        <extensions>
          <ns3:TrackPointExtension>
            <ns3:atemp>30.0</ns3:atemp>
            <ns3:cad>87</ns3:cad>
          </ns3:TrackPointExtension>
        </extensions>
      </trkpt>
      <trkpt lat="40.04592700861394405364990234375" lon="116.59109051339328289031982421875">
        <ele>48.799999237060546875</ele>
        <time>2015-07-26T13:05:07.000Z</time>
        <extensions>
          <ns3:TrackPointExtension>
            <ns3:atemp>30.0</ns3:atemp>
            <ns3:cad>86</ns3:cad>
          </ns3:TrackPointExtension>
        </extensions>
      </trkpt>
      <trkpt lat="40.04610621370375156402587890625" lon="116.5909569896757602691650390625">
        <ele>48.200000762939453125</ele>
        <time>2015-07-26T13:05:15.000Z</time>
        <extensions>
          <ns3:TrackPointExtension>
            <ns3:atemp>30.0</ns3:atemp>
            <ns3:cad>89</ns3:cad>
          </ns3:TrackPointExtension>
        </extensions>
      </trkpt>
      <trkpt lat="40.0461839139461517333984375" lon="116.5907454304397106170654296875">
        <ele>48.799999237060546875</ele>
        <time>2015-07-26T13:05:23.000Z</time>
        <extensions>
          <ns3:TrackPointExtension>
            <ns3:atemp>30.0</ns3:atemp>
            <ns3:cad>88</ns3:cad>
          </ns3:TrackPointExtension>
        </extensions>
      </trkpt>
      <trkpt lat="40.0461770407855510711669921875" lon="116.5905875153839588165283203125">
        <ele>48.40000152587890625</ele>
        <time>2015-07-26T13:05:28.000Z</time>
        <extensions>
          <ns3:TrackPointExtension>
            <ns3:atemp>30.0</ns3:atemp>
            <ns3:cad>88</ns3:cad>
          </ns3:TrackPointExtension>
        </extensions>
      </trkpt>
      <trkpt lat="40.0461673177778720855712890625" lon="116.59055692143738269805908203125">
        <ele>48.200000762939453125</ele>
        <time>2015-07-26T13:05:29.000Z</time>
        <extensions>
          <ns3:TrackPointExtension>
            <ns3:atemp>30.0</ns3:atemp>
            <ns3:cad>88</ns3:cad>
          </ns3:TrackPointExtension>
        </extensions>
      </trkpt>
      <trkpt lat="40.04615105688571929931640625" lon="116.59052674658596515655517578125">
        <ele>48.200000762939453125</ele>
        <time>2015-07-26T13:05:30.000Z</time>
        <extensions>
          <ns3:TrackPointExtension>
            <ns3:atemp>30.0</ns3:atemp>
            <ns3:cad>88</ns3:cad>
          </ns3:TrackPointExtension>
        </extensions>
      </trkpt>
      <trkpt lat="40.04600680433213710784912109375" lon="116.59031149931252002716064453125">
        <ele>48.59999847412109375</ele>
        <time>2015-07-26T13:05:38.000Z</time>
        <extensions>
          <ns3:TrackPointExtension>
            <ns3:atemp>30.0</ns3:atemp>
            <ns3:cad>89</ns3:cad>
          </ns3:TrackPointExtension>
        </extensions>
      </trkpt>
      <trkpt lat="40.0458253361284732818603515625" lon="116.59020957536995410919189453125">
        <ele>48.200000762939453125</ele>
        <time>2015-07-26T13:05:46.000Z</time>
        <extensions>
          <ns3:TrackPointExtension>
            <ns3:atemp>30.0</ns3:atemp>
            <ns3:cad>88</ns3:cad>
          </ns3:TrackPointExtension>
        </extensions>
      </trkpt>
      <trkpt lat="40.04562643356621265411376953125" lon="116.59018099308013916015625">
        <ele>48.40000152587890625</ele>
        <time>2015-07-26T13:05:54.000Z</time>
        <extensions>
          <ns3:TrackPointExtension>
            <ns3:atemp>30.0</ns3:atemp>
            <ns3:cad>88</ns3:cad>
          </ns3:TrackPointExtension>
        </extensions>
      </trkpt>
      <trkpt lat="40.0454149581491947174072265625" lon="116.59017638303339481353759765625">
        <ele>48.799999237060546875</ele>
        <time>2015-07-26T13:06:02.000Z</time>
        <extensions>
          <ns3:TrackPointExtension>
            <ns3:atemp>30.0</ns3:atemp>
            <ns3:cad>88</ns3:cad>
          </ns3:TrackPointExtension>
        </extensions>
      </trkpt>
      <trkpt lat="40.04520063288509845733642578125" lon="116.59020245075225830078125">
        <ele>48.200000762939453125</ele>
        <time>2015-07-26T13:06:10.000Z</time>
        <extensions>
          <ns3:TrackPointExtension>
            <ns3:atemp>30.0</ns3:atemp>
            <ns3:cad>88</ns3:cad>
          </ns3:TrackPointExtension>
        </extensions>
      </trkpt>
      <trkpt lat="40.04501380026340484619140625" lon="116.59028886817395687103271484375">
        <ele>48.59999847412109375</ele>
        <time>2015-07-26T13:06:18.000Z</time>
        <extensions>
          <ns3:TrackPointExtension>
            <ns3:atemp>30.0</ns3:atemp>
            <ns3:cad>87</ns3:cad>
          </ns3:TrackPointExtension>
        </extensions>
      </trkpt>
      <trkpt lat="40.0448942743241786956787109375" lon="116.5904919616878032684326171875">
        <ele>48.40000152587890625</ele>
        <time>2015-07-26T13:06:26.000Z</time>
        <extensions>
          <ns3:TrackPointExtension>
            <ns3:atemp>30.0</ns3:atemp>
            <ns3:cad>87</ns3:cad>
          </ns3:TrackPointExtension>
        </extensions>
      </trkpt>
      <trkpt lat="40.0448775105178356170654296875" lon="116.5907509624958038330078125">
        <ele>48.200000762939453125</ele>
        <time>2015-07-26T13:06:34.000Z</time>
        <extensions>
          <ns3:TrackPointExtension>
            <ns3:atemp>30.0</ns3:atemp>
            <ns3:cad>88</ns3:cad>
          </ns3:TrackPointExtension>
        </extensions>
      </trkpt>
      <trkpt lat="40.0449730642139911651611328125" lon="116.59099973738193511962890625">
        <ele>48.59999847412109375</ele>
        <time>2015-07-26T13:06:42.000Z</time>
        <extensions>
          <ns3:TrackPointExtension>
            <ns3:atemp>30.0</ns3:atemp>
            <ns3:cad>88</ns3:cad>
          </ns3:TrackPointExtension>
        </extensions>
      </trkpt>
      <trkpt lat="40.04515101201832294464111328125" lon="116.5911138989031314849853515625">
        <ele>48.59999847412109375</ele>
        <time>2015-07-26T13:06:49.000Z</time>
        <extensions>
          <ns3:TrackPointExtension>
            <ns3:atemp>30.0</ns3:atemp>
            <ns3:cad>88</ns3:cad>
          </ns3:TrackPointExtension>
        </extensions>
      </trkpt>
      <trkpt lat="40.045355446636676788330078125" lon="116.59113585948944091796875">
        <ele>48.40000152587890625</ele>
        <time>2015-07-26T13:06:56.000Z</time>
        <extensions>
          <ns3:TrackPointExtension>
            <ns3:atemp>30.0</ns3:atemp>
            <ns3:cad>89</ns3:cad>
          </ns3:TrackPointExtension>
        </extensions>
      </trkpt>
      <trkpt lat="40.04555233754217624664306640625" lon="116.59111096523702144622802734375">
        <ele>48.40000152587890625</ele>
        <time>2015-07-26T13:07:04.000Z</time>
        <extensions>
          <ns3:TrackPointExtension>
            <ns3:atemp>30.0</ns3:atemp>
            <ns3:cad>89</ns3:cad>
          </ns3:TrackPointExtension>
        </extensions>
      </trkpt>
      <trkpt lat="40.04574864171445369720458984375" lon="116.5911028347909450531005859375">
        <ele>48.40000152587890625</ele>
        <time>2015-07-26T13:07:11.000Z</time>
        <extensions>
          <ns3:TrackPointExtension>
            <ns3:atemp>30.0</ns3:atemp>
            <ns3:cad>89</ns3:cad>
          </ns3:TrackPointExtension>
        </extensions>
      </trkpt>
      <trkpt lat="40.045960284769535064697265625" lon="116.59108514897525310516357421875">
        <ele>49</ele>
        <time>2015-07-26T13:07:18.000Z</time>
        <extensions>
          <ns3:TrackPointExtension>
            <ns3:atemp>30.0</ns3:atemp>
            <ns3:cad>90</ns3:cad>
          </ns3:TrackPointExtension>
        </extensions>
      </trkpt>
      <trkpt lat="40.04612021148204803466796875" lon="116.59097383730113506317138671875">
        <ele>48</ele>
        <time>2015-07-26T13:07:25.000Z</time>
        <extensions>
          <ns3:TrackPointExtension>
            <ns3:atemp>30.0</ns3:atemp>
            <ns3:cad>89</ns3:cad>
          </ns3:TrackPointExtension>
        </extensions>
      </trkpt>
      <trkpt lat="40.04617393948137760162353515625" lon="116.5907263197004795074462890625">
        <ele>47.799999237060546875</ele>
        <time>2015-07-26T13:07:32.000Z</time>
        <extensions>
          <ns3:TrackPointExtension>
            <ns3:atemp>30.0</ns3:atemp>
            <ns3:cad>91</ns3:cad>
          </ns3:TrackPointExtension>
        </extensions>
      </trkpt>
      <trkpt lat="40.046092383563518524169921875" lon="116.5904470346868038177490234375">
        <ele>48.40000152587890625</ele>
        <time>2015-07-26T13:07:40.000Z</time>
        <extensions>
          <ns3:TrackPointExtension>
            <ns3:atemp>30.0</ns3:atemp>
            <ns3:cad>88</ns3:cad>
          </ns3:TrackPointExtension>
        </extensions>
      </trkpt>
      <trkpt lat="40.045917369425296783447265625" lon="116.59024964086711406707763671875">
        <ele>48</ele>
        <time>2015-07-26T13:07:48.000Z</time>
        <extensions>
          <ns3:TrackPointExtension>
            <ns3:atemp>30.0</ns3:atemp>
            <ns3:cad>89</ns3:cad>
          </ns3:TrackPointExtension>
        </extensions>
      </trkpt>
      <trkpt lat="40.0457106716930866241455078125" lon="116.59023203887045383453369140625">
        <ele>48</ele>
        <time>2015-07-26T13:07:56.000Z</time>
        <extensions>
          <ns3:TrackPointExtension>
            <ns3:atemp>30.0</ns3:atemp>
            <ns3:cad>87</ns3:cad>
          </ns3:TrackPointExtension>
        </extensions>
      </trkpt>
      <trkpt lat="40.0455175526440143585205078125" lon="116.59024310298264026641845703125">
        <ele>48.200000762939453125</ele>
        <time>2015-07-26T13:08:03.000Z</time>
        <extensions>
          <ns3:TrackPointExtension>
            <ns3:atemp>30.0</ns3:atemp>
            <ns3:cad>90</ns3:cad>
          </ns3:TrackPointExtension>
        </extensions>
      </trkpt>
      <trkpt lat="40.045308172702789306640625" lon="116.590247713029384613037109375">
        <ele>48</ele>
        <time>2015-07-26T13:08:11.000Z</time>
        <extensions>
          <ns3:TrackPointExtension>
            <ns3:atemp>30.0</ns3:atemp>
            <ns3:cad>90</ns3:cad>
          </ns3:TrackPointExtension>
        </extensions>
      </trkpt>
      <trkpt lat="40.04509694874286651611328125" lon="116.5902790613472461700439453125">
        <ele>48</ele>
        <time>2015-07-26T13:08:19.000Z</time>
        <extensions>
          <ns3:TrackPointExtension>
            <ns3:atemp>30.0</ns3:atemp>
            <ns3:cad>87</ns3:cad>
          </ns3:TrackPointExtension>
        </extensions>
      </trkpt>
      <trkpt lat="40.04493325017392635345458984375" lon="116.590400598943233489990234375">
        <ele>47.59999847412109375</ele>
        <time>2015-07-26T13:08:27.000Z</time>
        <extensions>
          <ns3:TrackPointExtension>
            <ns3:atemp>30.0</ns3:atemp>
            <ns3:cad>88</ns3:cad>
          </ns3:TrackPointExtension>
        </extensions>
      </trkpt>
      <trkpt lat="40.04486560821533203125" lon="116.5906438417732715606689453125">
        <ele>48.200000762939453125</ele>
        <time>2015-07-26T13:08:35.000Z</time>
        <extensions>
          <ns3:TrackPointExtension>
            <ns3:atemp>30.0</ns3:atemp>
            <ns3:cad>88</ns3:cad>
          </ns3:TrackPointExtension>
        </extensions>
      </trkpt>
      <trkpt lat="40.0449274666607379913330078125" lon="116.5909281559288501739501953125">
        <ele>48.200000762939453125</ele>
        <time>2015-07-26T13:08:43.000Z</time>
        <extensions>
          <ns3:TrackPointExtension>
            <ns3:atemp>30.0</ns3:atemp>
            <ns3:cad>88</ns3:cad>
          </ns3:TrackPointExtension>
        </extensions>
      </trkpt>
      <trkpt lat="40.045076496899127960205078125" lon="116.59110811538994312286376953125">
        <ele>47.59999847412109375</ele>
        <time>2015-07-26T13:08:51.000Z</time>
        <extensions>
          <ns3:TrackPointExtension>
            <ns3:atemp>30.0</ns3:atemp>
            <ns3:cad>88</ns3:cad>
          </ns3:TrackPointExtension>
        </extensions>
      </trkpt>
      <trkpt lat="40.0452513433992862701416015625" lon="116.59112839959561824798583984375">
        <ele>48</ele>
        <time>2015-07-26T13:08:59.000Z</time>
        <extensions>
          <ns3:TrackPointExtension>
            <ns3:atemp>30.0</ns3:atemp>
            <ns3:cad>89</ns3:cad>
          </ns3:TrackPointExtension>
        </extensions>
      </trkpt>
      <trkpt lat="40.0454702787101268768310546875" lon="116.59113812260329723358154296875">
        <ele>48</ele>
        <time>2015-07-26T13:09:06.000Z</time>
        <extensions>
          <ns3:TrackPointExtension>
            <ns3:atemp>30.0</ns3:atemp>
            <ns3:cad>89</ns3:cad>
          </ns3:TrackPointExtension>
        </extensions>
      </trkpt>
      <trkpt lat="40.045677311718463897705078125" lon="116.5911216102540493011474609375">
        <ele>47.799999237060546875</ele>
        <time>2015-07-26T13:09:14.000Z</time>
        <extensions>
          <ns3:TrackPointExtension>
            <ns3:atemp>30.0</ns3:atemp>
            <ns3:cad>88</ns3:cad>
          </ns3:TrackPointExtension>
        </extensions>
      </trkpt>
      <trkpt lat="40.04586665891110897064208984375" lon="116.59108347259461879730224609375">
        <ele>48.200000762939453125</ele>
        <time>2015-07-26T13:09:21.000Z</time>
        <extensions>
          <ns3:TrackPointExtension>
            <ns3:atemp>30.0</ns3:atemp>
            <ns3:cad>89</ns3:cad>
          </ns3:TrackPointExtension>
        </extensions>
      </trkpt>
      <trkpt lat="40.04604242742061614990234375" lon="116.59100216813385486602783203125">
        <ele>47.59999847412109375</ele>
        <time>2015-07-26T13:09:28.000Z</time>
        <extensions>
          <ns3:TrackPointExtension>
            <ns3:atemp>30.0</ns3:atemp>
            <ns3:cad>88</ns3:cad>
          </ns3:TrackPointExtension>
        </extensions>
      </trkpt>
      <trkpt lat="40.0461679883301258087158203125" lon="116.59081458114087581634521484375">
        <ele>48</ele>
        <time>2015-07-26T13:09:35.000Z</time>
        <extensions>
          <ns3:TrackPointExtension>
            <ns3:atemp>30.0</ns3:atemp>
            <ns3:cad>87</ns3:cad>
          </ns3:TrackPointExtension>
        </extensions>
      </trkpt>
      <trkpt lat="40.04614443518221378326416015625" lon="116.5905466116964817047119140625">
        <ele>47.40000152587890625</ele>
        <time>2015-07-26T13:09:42.000Z</time>
        <extensions>
          <ns3:TrackPointExtension>
            <ns3:atemp>30.0</ns3:atemp>
            <ns3:cad>88</ns3:cad>
          </ns3:TrackPointExtension>
        </extensions>
      </trkpt>
      <trkpt lat="40.0460211373865604400634765625" lon="116.59032088704407215118408203125">
        <ele>47.40000152587890625</ele>
        <time>2015-07-26T13:09:49.000Z</time>
        <extensions>
          <ns3:TrackPointExtension>
            <ns3:atemp>30.0</ns3:atemp>
            <ns3:cad>89</ns3:cad>
          </ns3:TrackPointExtension>
        </extensions>
      </trkpt>
      <trkpt lat="40.0458541698753833770751953125" lon="116.59018342383205890655517578125">
        <ele>47.40000152587890625</ele>
        <time>2015-07-26T13:09:57.000Z</time>
        <extensions>
          <ns3:TrackPointExtension>
            <ns3:atemp>30.0</ns3:atemp>
            <ns3:cad>88</ns3:cad>
          </ns3:TrackPointExtension>
        </extensions>
      </trkpt>
      <trkpt lat="40.04565325565636157989501953125" lon="116.59017923288047313690185546875">
        <ele>48.200000762939453125</ele>
        <time>2015-07-26T13:10:05.000Z</time>
        <extensions>
          <ns3:TrackPointExtension>
            <ns3:atemp>30.0</ns3:atemp>
            <ns3:cad>89</ns3:cad>
          </ns3:TrackPointExtension>
        </extensions>
      </trkpt>
      <trkpt lat="40.045444630086421966552734375" lon="116.59018795005977153778076171875">
        <ele>47.40000152587890625</ele>
        <time>2015-07-26T13:10:13.000Z</time>
        <extensions>
          <ns3:TrackPointExtension>
            <ns3:atemp>30.0</ns3:atemp>
            <ns3:cad>88</ns3:cad>
          </ns3:TrackPointExtension>
        </extensions>
      </trkpt>
      <trkpt lat="40.04524053074419498443603515625" lon="116.590203456580638885498046875">
        <ele>47.799999237060546875</ele>
        <time>2015-07-26T13:10:22.000Z</time>
        <extensions>
          <ns3:TrackPointExtension>
            <ns3:atemp>30.0</ns3:atemp>
            <ns3:cad>88</ns3:cad>
          </ns3:TrackPointExtension>
        </extensions>
      </trkpt>
      <trkpt lat="40.04504372365772724151611328125" lon="116.5902988426387310028076171875">
        <ele>47.799999237060546875</ele>
        <time>2015-07-26T13:10:31.000Z</time>
        <extensions>
          <ns3:TrackPointExtension>
            <ns3:atemp>30.0</ns3:atemp>
            <ns3:cad>87</ns3:cad>
          </ns3:TrackPointExtension>
        </extensions>
      </trkpt>
      <trkpt lat="40.04493643529713153839111328125" lon="116.59050914458930492401123046875">
        <ele>47.40000152587890625</ele>
        <time>2015-07-26T13:10:39.000Z</time>
        <extensions>
          <ns3:TrackPointExtension>
            <ns3:atemp>30.0</ns3:atemp>
            <ns3:cad>88</ns3:cad>
          </ns3:TrackPointExtension>
        </extensions>
      </trkpt>
      <trkpt lat="40.04493492655456066131591796875" lon="116.5907913632690906524658203125">
        <ele>48</ele>
        <time>2015-07-26T13:10:47.000Z</time>
        <extensions>
          <ns3:TrackPointExtension>
            <ns3:atemp>30.0</ns3:atemp>
            <ns3:cad>88</ns3:cad>
          </ns3:TrackPointExtension>
        </extensions>
      </trkpt>
      <trkpt lat="40.04503902979195117950439453125" lon="116.5910307504236698150634765625">
        <ele>47.40000152587890625</ele>
        <time>2015-07-26T13:10:55.000Z</time>
        <extensions>
          <ns3:TrackPointExtension>
            <ns3:atemp>30.0</ns3:atemp>
            <ns3:cad>89</ns3:cad>
          </ns3:TrackPointExtension>
        </extensions>
      </trkpt>
      <trkpt lat="40.04525025375187397003173828125" lon="116.591112725436687469482421875">
        <ele>48</ele>
        <time>2015-07-26T13:11:03.000Z</time>
        <extensions>
          <ns3:TrackPointExtension>
            <ns3:atemp>30.0</ns3:atemp>
            <ns3:cad>88</ns3:cad>
          </ns3:TrackPointExtension>
        </extensions>
      </trkpt>
      <trkpt lat="40.04546147771179676055908203125" lon="116.591122448444366455078125">
        <ele>47.200000762939453125</ele>
        <time>2015-07-26T13:11:10.000Z</time>
        <extensions>
          <ns3:TrackPointExtension>
            <ns3:atemp>30.0</ns3:atemp>
            <ns3:cad>87</ns3:cad>
          </ns3:TrackPointExtension>
        </extensions>
      </trkpt>
      <trkpt lat="40.04565593786537647247314453125" lon="116.59111062996089458465576171875">
        <ele>47.59999847412109375</ele>
        <time>2015-07-26T13:11:17.000Z</time>
        <extensions>
          <ns3:TrackPointExtension>
            <ns3:atemp>30.0</ns3:atemp>
            <ns3:cad>87</ns3:cad>
          </ns3:TrackPointExtension>
        </extensions>
      </trkpt>
      <trkpt lat="40.0458457879722118377685546875" lon="116.59109269268810749053955078125">
        <ele>47.799999237060546875</ele>
        <time>2015-07-26T13:11:24.000Z</time>
        <extensions>
          <ns3:TrackPointExtension>
            <ns3:atemp>30.0</ns3:atemp>
            <ns3:cad>87</ns3:cad>
          </ns3:TrackPointExtension>
        </extensions>
      </trkpt>
      <trkpt lat="40.04602499306201934814453125" lon="116.591047681868076324462890625">
        <ele>47.59999847412109375</ele>
        <time>2015-07-26T13:11:31.000Z</time>
        <extensions>
          <ns3:TrackPointExtension>
            <ns3:atemp>30.0</ns3:atemp>
            <ns3:cad>87</ns3:cad>
          </ns3:TrackPointExtension>
        </extensions>
      </trkpt>
      <trkpt lat="40.04618098028004169464111328125" lon="116.59091365523636341094970703125">
        <ele>47.59999847412109375</ele>
        <time>2015-07-26T13:11:38.000Z</time>
        <extensions>
          <ns3:TrackPointExtension>
            <ns3:atemp>30.0</ns3:atemp>
            <ns3:cad>90</ns3:cad>
          </ns3:TrackPointExtension>
        </extensions>
      </trkpt>
      <trkpt lat="40.04620159976184368133544921875" lon="116.59068399108946323394775390625">
        <ele>47.799999237060546875</ele>
        <time>2015-07-26T13:11:46.000Z</time>
        <extensions>
          <ns3:TrackPointExtension>
            <ns3:atemp>30.0</ns3:atemp>
            <ns3:cad>88</ns3:cad>
          </ns3:TrackPointExtension>
        </extensions>
      </trkpt>
      <trkpt lat="40.0461284257471561431884765625" lon="116.59048349596560001373291015625">
        <ele>48.40000152587890625</ele>
        <time>2015-07-26T13:11:52.000Z</time>
        <extensions>
          <ns3:TrackPointExtension>
            <ns3:atemp>30.0</ns3:atemp>
            <ns3:cad>91</ns3:cad>
          </ns3:TrackPointExtension>
        </extensions>
      </trkpt>
      <trkpt lat="40.0460739433765411376953125" lon="116.5903794765472412109375">
        <ele>48.200000762939453125</ele>
        <time>2015-07-26T13:11:55.000Z</time>
        <extensions>
          <ns3:TrackPointExtension>
            <ns3:atemp>30.0</ns3:atemp>
            <ns3:cad>90</ns3:cad>
          </ns3:TrackPointExtension>
        </extensions>
      </trkpt>
      <trkpt lat="40.04588828422129154205322265625" lon="116.590220890939235687255859375">
        <ele>47.59999847412109375</ele>
        <time>2015-07-26T13:12:02.000Z</time>
        <extensions>
          <ns3:TrackPointExtension>
            <ns3:atemp>30.0</ns3:atemp>
            <ns3:cad>90</ns3:cad>
          </ns3:TrackPointExtension>
        </extensions>
      </trkpt>
      <trkpt lat="40.04568175412714481353759765625" lon="116.59016154706478118896484375">
        <ele>47.200000762939453125</ele>
        <time>2015-07-26T13:12:10.000Z</time>
        <extensions>
          <ns3:TrackPointExtension>
            <ns3:atemp>30.0</ns3:atemp>
            <ns3:cad>91</ns3:cad>
          </ns3:TrackPointExtension>
        </extensions>
      </trkpt>
      <trkpt lat="40.04546751268208026885986328125" lon="116.59017537720501422882080078125">
        <ele>47.59999847412109375</ele>
        <time>2015-07-26T13:12:18.000Z</time>
        <extensions>
          <ns3:TrackPointExtension>
            <ns3:atemp>30.0</ns3:atemp>
            <ns3:cad>89</ns3:cad>
          </ns3:TrackPointExtension>
        </extensions>
      </trkpt>
      <trkpt lat="40.04526031203567981719970703125" lon="116.590200774371623992919921875">
        <ele>47.59999847412109375</ele>
        <time>2015-07-26T13:12:26.000Z</time>
        <extensions>
          <ns3:TrackPointExtension>
            <ns3:atemp>30.0</ns3:atemp>
            <ns3:cad>87</ns3:cad>
          </ns3:TrackPointExtension>
        </extensions>
      </trkpt>
      <trkpt lat="40.04506400786340236663818359375" lon="116.59026078879833221435546875">
        <ele>47.200000762939453125</ele>
        <time>2015-07-26T13:12:33.000Z</time>
        <extensions>
          <ns3:TrackPointExtension>
            <ns3:atemp>30.0</ns3:atemp>
            <ns3:cad>90</ns3:cad>
          </ns3:TrackPointExtension>
        </extensions>
      </trkpt>
      <trkpt lat="40.04491866566240787506103515625" lon="116.5904440172016620635986328125">
        <ele>47.59999847412109375</ele>
        <time>2015-07-26T13:12:40.000Z</time>
        <extensions>
          <ns3:TrackPointExtension>
            <ns3:atemp>30.0</ns3:atemp>
            <ns3:cad>89</ns3:cad>
          </ns3:TrackPointExtension>
        </extensions>
      </trkpt>
      <trkpt lat="40.0448708049952983856201171875" lon="116.59071014262735843658447265625">
        <ele>47.40000152587890625</ele>
        <time>2015-07-26T13:12:47.000Z</time>
        <extensions>
          <ns3:TrackPointExtension>
            <ns3:atemp>30.0</ns3:atemp>
            <ns3:cad>91</ns3:cad>
          </ns3:TrackPointExtension>
        </extensions>
      </trkpt>
      <trkpt lat="40.04495386965572834014892578125" lon="116.59096310846507549285888671875">
        <ele>48.200000762939453125</ele>
        <time>2015-07-26T13:12:54.000Z</time>
        <extensions>
          <ns3:TrackPointExtension>
            <ns3:atemp>30.0</ns3:atemp>
            <ns3:cad>90</ns3:cad>
          </ns3:TrackPointExtension>
        </extensions>
      </trkpt>
      <trkpt lat="40.045115388929843902587890625" lon="116.5910967998206615447998046875">
        <ele>47.799999237060546875</ele>
        <time>2015-07-26T13:13:01.000Z</time>
        <extensions>
          <ns3:TrackPointExtension>
            <ns3:atemp>30.0</ns3:atemp>
            <ns3:cad>89</ns3:cad>
          </ns3:TrackPointExtension>
        </extensions>
      </trkpt>
      <trkpt lat="40.04533306695520877838134765625" lon="116.5911165811121463775634765625">
        <ele>47.40000152587890625</ele>
        <time>2015-07-26T13:13:08.000Z</time>
        <extensions>
          <ns3:TrackPointExtension>
            <ns3:atemp>30.0</ns3:atemp>
            <ns3:cad>88</ns3:cad>
          </ns3:TrackPointExtension>
        </extensions>
      </trkpt>
      <trkpt lat="40.0455591268837451934814453125" lon="116.5911112166941165924072265625">
        <ele>47.59999847412109375</ele>
        <time>2015-07-26T13:13:15.000Z</time>
        <extensions>
          <ns3:TrackPointExtension>
            <ns3:atemp>30.0</ns3:atemp>
            <ns3:cad>90</ns3:cad>
          </ns3:TrackPointExtension>
        </extensions>
      </trkpt>
      <trkpt lat="40.0457428582012653350830078125" lon="116.59108347259461879730224609375">
        <ele>48.200000762939453125</ele>
        <time>2015-07-26T13:13:22.000Z</time>
        <extensions>
          <ns3:TrackPointExtension>
            <ns3:atemp>30.0</ns3:atemp>
            <ns3:cad>89</ns3:cad>
          </ns3:TrackPointExtension>
        </extensions>
      </trkpt>
      <trkpt lat="40.04594989120960235595703125" lon="116.591055057942867279052734375">
        <ele>48.40000152587890625</ele>
        <time>2015-07-26T13:13:29.000Z</time>
        <extensions>
          <ns3:TrackPointExtension>
            <ns3:atemp>30.0</ns3:atemp>
            <ns3:cad>90</ns3:cad>
          </ns3:TrackPointExtension>
        </extensions>
      </trkpt>
      <trkpt lat="40.0461114943027496337890625" lon="116.59095020033419132232666015625">
        <ele>47.799999237060546875</ele>
        <time>2015-07-26T13:13:36.000Z</time>
        <extensions>
          <ns3:TrackPointExtension>
            <ns3:atemp>30.0</ns3:atemp>
            <ns3:cad>89</ns3:cad>
          </ns3:TrackPointExtension>
        </extensions>
      </trkpt>
      <trkpt lat="40.04620109684765338897705078125" lon="116.59073629416525363922119140625">
        <ele>47.59999847412109375</ele>
        <time>2015-07-26T13:13:43.000Z</time>
        <extensions>
          <ns3:TrackPointExtension>
            <ns3:atemp>30.0</ns3:atemp>
            <ns3:cad>90</ns3:cad>
          </ns3:TrackPointExtension>
        </extensions>
      </trkpt>
      <trkpt lat="40.04613605327904224395751953125" lon="116.59048215486109256744384765625">
        <ele>47.59999847412109375</ele>
        <time>2015-07-26T13:13:50.000Z</time>
        <extensions>
          <ns3:TrackPointExtension>
            <ns3:atemp>30.0</ns3:atemp>
            <ns3:cad>91</ns3:cad>
          </ns3:TrackPointExtension>
        </extensions>
      </trkpt>
      <trkpt lat="40.0459701754152774810791015625" lon="116.59028769470751285552978515625">
        <ele>47.59999847412109375</ele>
        <time>2015-07-26T13:13:57.000Z</time>
        <extensions>
          <ns3:TrackPointExtension>
            <ns3:atemp>30.0</ns3:atemp>
            <ns3:cad>89</ns3:cad>
          </ns3:TrackPointExtension>
        </extensions>
      </trkpt>
      <trkpt lat="40.04577328450977802276611328125" lon="116.5901969186961650848388671875">
        <ele>47.799999237060546875</ele>
        <time>2015-07-26T13:14:05.000Z</time>
        <extensions>
          <ns3:TrackPointExtension>
            <ns3:atemp>30.0</ns3:atemp>
            <ns3:cad>88</ns3:cad>
          </ns3:TrackPointExtension>
        </extensions>
      </trkpt>
      <trkpt lat="40.04557530395686626434326171875" lon="116.5901513211429119110107421875">
        <ele>48.200000762939453125</ele>
        <time>2015-07-26T13:14:13.000Z</time>
        <extensions>
          <ns3:TrackPointExtension>
            <ns3:atemp>30.0</ns3:atemp>
            <ns3:cad>88</ns3:cad>
          </ns3:TrackPointExtension>
        </extensions>
      </trkpt>
      <trkpt lat="40.04536022432148456573486328125" lon="116.5901724435389041900634765625">
        <ele>48.40000152587890625</ele>
        <time>2015-07-26T13:14:21.000Z</time>
        <extensions>
          <ns3:TrackPointExtension>
            <ns3:atemp>30.0</ns3:atemp>
            <ns3:cad>90</ns3:cad>
          </ns3:TrackPointExtension>
        </extensions>
      </trkpt>
      <trkpt lat="40.0451608188450336456298828125" lon="116.59021175466477870941162109375">
        <ele>47.799999237060546875</ele>
        <time>2015-07-26T13:14:29.000Z</time>
        <extensions>
          <ns3:TrackPointExtension>
            <ns3:atemp>30.0</ns3:atemp>
            <ns3:cad>88</ns3:cad>
          </ns3:TrackPointExtension>
        </extensions>
      </trkpt>
      <trkpt lat="40.04496392793953418731689453125" lon="116.59035860560834407806396484375">
        <ele>48</ele>
        <time>2015-07-26T13:14:37.000Z</time>
        <extensions>
          <ns3:TrackPointExtension>
            <ns3:atemp>30.0</ns3:atemp>
            <ns3:cad>89</ns3:cad>
          </ns3:TrackPointExtension>
        </extensions>
      </trkpt>
      <trkpt lat="40.0448785163462162017822265625" lon="116.59061157144606113433837890625">
        <ele>48.59999847412109375</ele>
        <time>2015-07-26T13:14:44.000Z</time>
        <extensions>
          <ns3:TrackPointExtension>
            <ns3:atemp>30.0</ns3:atemp>
            <ns3:cad>90</ns3:cad>
          </ns3:TrackPointExtension>
        </extensions>
      </trkpt>
      <trkpt lat="40.0449267961084842681884765625" lon="116.5908959694206714630126953125">
        <ele>48.59999847412109375</ele>
        <time>2015-07-26T13:14:51.000Z</time>
        <extensions>
          <ns3:TrackPointExtension>
            <ns3:atemp>30.0</ns3:atemp>
            <ns3:cad>91</ns3:cad>
          </ns3:TrackPointExtension>
        </extensions>
      </trkpt>
      <trkpt lat="40.04508479498326778411865234375" lon="116.5910914354026317596435546875">
        <ele>48.200000762939453125</ele>
        <time>2015-07-26T13:14:58.000Z</time>
        <extensions>
          <ns3:TrackPointExtension>
            <ns3:atemp>30.0</ns3:atemp>
            <ns3:cad>92</ns3:cad>
          </ns3:TrackPointExtension>
        </extensions>
      </trkpt>
      <trkpt lat="40.045265592634677886962890625" lon="116.59114818088710308074951171875">
        <ele>47.799999237060546875</ele>
        <time>2015-07-26T13:15:04.000Z</time>
        <extensions>
          <ns3:TrackPointExtension>
            <ns3:atemp>30.0</ns3:atemp>
            <ns3:cad>92</ns3:cad>
          </ns3:TrackPointExtension>
        </extensions>
      </trkpt>
      <trkpt lat="40.045463405549526214599609375" lon="116.59111901186406612396240234375">
        <ele>47.799999237060546875</ele>
        <time>2015-07-26T13:15:11.000Z</time>
        <extensions>
          <ns3:TrackPointExtension>
            <ns3:atemp>30.0</ns3:atemp>
            <ns3:cad>92</ns3:cad>
          </ns3:TrackPointExtension>
        </extensions>
      </trkpt>
      <trkpt lat="40.0456949137151241302490234375" lon="116.59110342152416706085205078125">
        <ele>47.799999237060546875</ele>
        <time>2015-07-26T13:15:18.000Z</time>
        <extensions>
          <ns3:TrackPointExtension>
            <ns3:atemp>30.0</ns3:atemp>
            <ns3:cad>90</ns3:cad>
          </ns3:TrackPointExtension>
        </extensions>
      </trkpt>
      <trkpt lat="40.04595835693180561065673828125" lon="116.59107542596757411956787109375">
        <ele>48.59999847412109375</ele>
        <time>2015-07-26T13:15:26.000Z</time>
        <extensions>
          <ns3:TrackPointExtension>
            <ns3:atemp>30.0</ns3:atemp>
            <ns3:cad>88</ns3:cad>
          </ns3:TrackPointExtension>
        </extensions>
      </trkpt>
      <trkpt lat="40.04610973410308361053466796875" lon="116.5909771062433719635009765625">
        <ele>47.799999237060546875</ele>
        <time>2015-07-26T13:15:32.000Z</time>
        <extensions>
          <ns3:TrackPointExtension>
            <ns3:atemp>30.0</ns3:atemp>
            <ns3:cad>90</ns3:cad>
          </ns3:TrackPointExtension>
        </extensions>
      </trkpt>
      <trkpt lat="40.04620662890374660491943359375" lon="116.59076512791216373443603515625">
        <ele>48</ele>
        <time>2015-07-26T13:15:39.000Z</time>
        <extensions>
          <ns3:TrackPointExtension>
            <ns3:atemp>30.0</ns3:atemp>
            <ns3:cad>90</ns3:cad>
          </ns3:TrackPointExtension>
        </extensions>
      </trkpt>
      <trkpt lat="40.04614409990608692169189453125" lon="116.590496487915515899658203125">
        <ele>48</ele>
        <time>2015-07-26T13:15:46.000Z</time>
        <extensions>
          <ns3:TrackPointExtension>
            <ns3:atemp>30.0</ns3:atemp>
            <ns3:cad>89</ns3:cad>
          </ns3:TrackPointExtension>
        </extensions>
      </trkpt>
      <trkpt lat="40.04598098807036876678466796875" lon="116.59028635360300540924072265625">
        <ele>48.40000152587890625</ele>
        <time>2015-07-26T13:15:53.000Z</time>
        <extensions>
          <ns3:TrackPointExtension>
            <ns3:atemp>30.0</ns3:atemp>
            <ns3:cad>89</ns3:cad>
          </ns3:TrackPointExtension>
        </extensions>
      </trkpt>
      <trkpt lat="40.0457693450152873992919921875" lon="116.590186022222042083740234375">
        <ele>48.59999847412109375</ele>
        <time>2015-07-26T13:16:00.000Z</time>
        <extensions>
          <ns3:TrackPointExtension>
            <ns3:atemp>30.0</ns3:atemp>
            <ns3:cad>89</ns3:cad>
          </ns3:TrackPointExtension>
        </extensions>
      </trkpt>
      <trkpt lat="40.04555904306471347808837890625" lon="116.5901533327996730804443359375">
        <ele>48.59999847412109375</ele>
        <time>2015-07-26T13:16:07.000Z</time>
        <extensions>
          <ns3:TrackPointExtension>
            <ns3:atemp>30.0</ns3:atemp>
            <ns3:cad>91</ns3:cad>
          </ns3:TrackPointExtension>
        </extensions>
      </trkpt>
      <trkpt lat="40.04536190070211887359619140625" lon="116.590202115476131439208984375">
        <ele>48.799999237060546875</ele>
        <time>2015-07-26T13:16:14.000Z</time>
        <extensions>
          <ns3:TrackPointExtension>
            <ns3:atemp>30.0</ns3:atemp>
            <ns3:cad>91</ns3:cad>
          </ns3:TrackPointExtension>
        </extensions>
      </trkpt>
      <trkpt lat="40.0451614893972873687744140625" lon="116.5902156941592693328857421875">
        <ele>48.59999847412109375</ele>
        <time>2015-07-26T13:16:21.000Z</time>
        <extensions>
          <ns3:TrackPointExtension>
            <ns3:atemp>30.0</ns3:atemp>
            <ns3:cad>91</ns3:cad>
          </ns3:TrackPointExtension>
        </extensions>
      </trkpt>
      <trkpt lat="40.044971220195293426513671875" lon="116.590316109359264373779296875">
        <ele>48.40000152587890625</ele>
        <time>2015-07-26T13:16:28.000Z</time>
        <extensions>
          <ns3:TrackPointExtension>
            <ns3:atemp>30.0</ns3:atemp>
            <ns3:cad>92</ns3:cad>
          </ns3:TrackPointExtension>
        </extensions>
      </trkpt>
      <trkpt lat="40.044855885207653045654296875" lon="116.59053797833621501922607421875">
        <ele>48.40000152587890625</ele>
        <time>2015-07-26T13:16:35.000Z</time>
        <extensions>
          <ns3:TrackPointExtension>
            <ns3:atemp>30.0</ns3:atemp>
            <ns3:cad>90</ns3:cad>
          </ns3:TrackPointExtension>
        </extensions>
      </trkpt>
      <trkpt lat="40.04486150108277797698974609375" lon="116.59080636687576770782470703125">
        <ele>48.799999237060546875</ele>
        <time>2015-07-26T13:16:42.000Z</time>
        <extensions>
          <ns3:TrackPointExtension>
            <ns3:atemp>30.0</ns3:atemp>
            <ns3:cad>90</ns3:cad>
          </ns3:TrackPointExtension>
        </extensions>
      </trkpt>
      <trkpt lat="40.04499502480030059814453125" lon="116.5910300798714160919189453125">
        <ele>48.40000152587890625</ele>
        <time>2015-07-26T13:16:49.000Z</time>
        <extensions>
          <ns3:TrackPointExtension>
            <ns3:atemp>30.0</ns3:atemp>
            <ns3:cad>89</ns3:cad>
          </ns3:TrackPointExtension>
        </extensions>
      </trkpt>
      <trkpt lat="40.0452057458460330963134765625" lon="116.59110895358026027679443359375">
        <ele>48.40000152587890625</ele>
        <time>2015-07-26T13:16:56.000Z</time>
        <extensions>
          <ns3:TrackPointExtension>
            <ns3:atemp>30.0</ns3:atemp>
            <ns3:cad>90</ns3:cad>
          </ns3:TrackPointExtension>
        </extensions>
      </trkpt>
      <trkpt lat="40.04540515132248401641845703125" lon="116.59109252505004405975341796875">
        <ele>48.40000152587890625</ele>
        <time>2015-07-26T13:17:02.000Z</time>
        <extensions>
          <ns3:TrackPointExtension>
            <ns3:atemp>30.0</ns3:atemp>
            <ns3:cad>90</ns3:cad>
          </ns3:TrackPointExtension>
        </extensions>
      </trkpt>
      <trkpt lat="40.04560732282698154449462890625" lon="116.59111909568309783935546875">
        <ele>48.799999237060546875</ele>
        <time>2015-07-26T13:17:08.000Z</time>
        <extensions>
          <ns3:TrackPointExtension>
            <ns3:atemp>30.0</ns3:atemp>
            <ns3:cad>91</ns3:cad>
          </ns3:TrackPointExtension>
        </extensions>
      </trkpt>
      <trkpt lat="40.04579298198223114013671875" lon="116.59108783118426799774169921875">
        <ele>48.59999847412109375</ele>
        <time>2015-07-26T13:17:14.000Z</time>
        <extensions>
          <ns3:TrackPointExtension>
            <ns3:atemp>30.0</ns3:atemp>
            <ns3:cad>90</ns3:cad>
          </ns3:TrackPointExtension>
        </extensions>
      </trkpt>
      <trkpt lat="40.045984424650669097900390625" lon="116.59105799160897731781005859375">
        <ele>48.40000152587890625</ele>
        <time>2015-07-26T13:17:20.000Z</time>
        <extensions>
          <ns3:TrackPointExtension>
            <ns3:atemp>30.0</ns3:atemp>
            <ns3:cad>90</ns3:cad>
          </ns3:TrackPointExtension>
        </extensions>
      </trkpt>
      <trkpt lat="40.04613722674548625946044921875" lon="116.590918600559234619140625">
        <ele>48.59999847412109375</ele>
        <time>2015-07-26T13:17:27.000Z</time>
        <extensions>
          <ns3:TrackPointExtension>
            <ns3:atemp>30.0</ns3:atemp>
            <ns3:cad>91</ns3:cad>
          </ns3:TrackPointExtension>
        </extensions>
      </trkpt>
      <trkpt lat="40.04619522951543331146240234375" lon="116.59066856838762760162353515625">
        <ele>48.59999847412109375</ele>
        <time>2015-07-26T13:17:34.000Z</time>
        <extensions>
          <ns3:TrackPointExtension>
            <ns3:atemp>30.0</ns3:atemp>
            <ns3:cad>91</ns3:cad>
          </ns3:TrackPointExtension>
        </extensions>
      </trkpt>
      <trkpt lat="40.04608668386936187744140625" lon="116.59037503413856029510498046875">
        <ele>48.40000152587890625</ele>
        <time>2015-07-26T13:17:41.000Z</time>
        <extensions>
          <ns3:TrackPointExtension>
            <ns3:atemp>30.0</ns3:atemp>
            <ns3:cad>90</ns3:cad>
          </ns3:TrackPointExtension>
        </extensions>
      </trkpt>
      <trkpt lat="40.04590404219925403594970703125" lon="116.59019515849649906158447265625">
        <ele>48.40000152587890625</ele>
        <time>2015-07-26T13:17:48.000Z</time>
        <extensions>
          <ns3:TrackPointExtension>
            <ns3:atemp>30.0</ns3:atemp>
            <ns3:cad>91</ns3:cad>
          </ns3:TrackPointExtension>
        </extensions>
      </trkpt>
      <trkpt lat="40.04572785459458827972412109375" lon="116.59014620818197727203369140625">
        <ele>48.200000762939453125</ele>
        <time>2015-07-26T13:17:55.000Z</time>
        <extensions>
          <ns3:TrackPointExtension>
            <ns3:atemp>30.0</ns3:atemp>
            <ns3:cad>91</ns3:cad>
          </ns3:TrackPointExtension>
        </extensions>
      </trkpt>
      <trkpt lat="40.04553012549877166748046875" lon="116.5901828370988368988037109375">
        <ele>48.200000762939453125</ele>
        <time>2015-07-26T13:18:02.000Z</time>
        <extensions>
          <ns3:TrackPointExtension>
            <ns3:atemp>30.0</ns3:atemp>
            <ns3:cad>91</ns3:cad>
          </ns3:TrackPointExtension>
        </extensions>
      </trkpt>
      <trkpt lat="40.04530892707407474517822265625" lon="116.590226925909519195556640625">
        <ele>48.200000762939453125</ele>
        <time>2015-07-26T13:18:09.000Z</time>
        <extensions>
          <ns3:TrackPointExtension>
            <ns3:atemp>30.0</ns3:atemp>
            <ns3:cad>90</ns3:cad>
          </ns3:TrackPointExtension>
        </extensions>
      </trkpt>
      <trkpt lat="40.04509418271481990814208984375" lon="116.59028031863272190093994140625">
        <ele>48.59999847412109375</ele>
        <time>2015-07-26T13:18:16.000Z</time>
        <extensions>
          <ns3:TrackPointExtension>
            <ns3:atemp>30.0</ns3:atemp>
            <ns3:cad>91</ns3:cad>
          </ns3:TrackPointExtension>
        </extensions>
      </trkpt>
      <trkpt lat="40.04492738284170627593994140625" lon="116.59042800776660442352294921875">
        <ele>48.59999847412109375</ele>
        <time>2015-07-26T13:18:23.000Z</time>
        <extensions>
          <ns3:TrackPointExtension>
            <ns3:atemp>30.0</ns3:atemp>
            <ns3:cad>91</ns3:cad>
          </ns3:TrackPointExtension>
        </extensions>
      </trkpt>
      <trkpt lat="40.04487340338528156280517578125" lon="116.59070645458996295928955078125">
        <ele>48.200000762939453125</ele>
        <time>2015-07-26T13:18:30.000Z</time>
        <extensions>
          <ns3:TrackPointExtension>
            <ns3:atemp>30.0</ns3:atemp>
            <ns3:cad>91</ns3:cad>
          </ns3:TrackPointExtension>
        </extensions>
      </trkpt>
      <trkpt lat="40.04493006505072116851806640625" lon="116.590943746268749237060546875">
        <ele>48</ele>
        <time>2015-07-26T13:18:36.000Z</time>
        <extensions>
          <ns3:TrackPointExtension>
            <ns3:atemp>30.0</ns3:atemp>
            <ns3:cad>91</ns3:cad>
          </ns3:TrackPointExtension>
        </extensions>
      </trkpt>
      <trkpt lat="40.045064426958560943603515625" lon="116.59111901186406612396240234375">
        <ele>48.200000762939453125</ele>
        <time>2015-07-26T13:18:43.000Z</time>
        <extensions>
          <ns3:TrackPointExtension>
            <ns3:atemp>30.0</ns3:atemp>
            <ns3:cad>91</ns3:cad>
          </ns3:TrackPointExtension>
        </extensions>
      </trkpt>
      <trkpt lat="40.0452701188623905181884765625" lon="116.59115773625671863555908203125">
        <ele>48.40000152587890625</ele>
        <time>2015-07-26T13:18:50.000Z</time>
        <extensions>
          <ns3:TrackPointExtension>
            <ns3:atemp>30.0</ns3:atemp>
            <ns3:cad>92</ns3:cad>
          </ns3:TrackPointExtension>
        </extensions>
      </trkpt>
      <trkpt lat="40.045486204326152801513671875" lon="116.59115522168576717376708984375">
        <ele>48</ele>
        <time>2015-07-26T13:18:56.000Z</time>
        <extensions>
          <ns3:TrackPointExtension>
            <ns3:atemp>30.0</ns3:atemp>
            <ns3:cad>90</ns3:cad>
          </ns3:TrackPointExtension>
        </extensions>
      </trkpt>
      <trkpt lat="40.04569382406771183013916015625" lon="116.5911296568810939788818359375">
        <ele>47.799999237060546875</ele>
        <time>2015-07-26T13:19:02.000Z</time>
        <extensions>
          <ns3:TrackPointExtension>
            <ns3:atemp>30.0</ns3:atemp>
            <ns3:cad>92</ns3:cad>
          </ns3:TrackPointExtension>
        </extensions>
      </trkpt>
      <trkpt lat="40.0458900444209575653076171875" lon="116.59109051339328289031982421875">
        <ele>49</ele>
        <time>2015-07-26T13:19:08.000Z</time>
        <extensions>
          <ns3:TrackPointExtension>
            <ns3:atemp>30.0</ns3:atemp>
            <ns3:cad>92</ns3:cad>
          </ns3:TrackPointExtension>
        </extensions>
      </trkpt>
      <trkpt lat="40.0460412539541721343994140625" lon="116.5910267271101474761962890625">
        <ele>48.799999237060546875</ele>
        <time>2015-07-26T13:19:14.000Z</time>
        <extensions>
          <ns3:TrackPointExtension>
            <ns3:atemp>30.0</ns3:atemp>
            <ns3:cad>92</ns3:cad>
          </ns3:TrackPointExtension>
        </extensions>
      </trkpt>
      <trkpt lat="40.0461807288229465484619140625" lon="116.59083654172718524932861328125">
        <ele>48.59999847412109375</ele>
        <time>2015-07-26T13:19:21.000Z</time>
        <extensions>
          <ns3:TrackPointExtension>
            <ns3:atemp>30.0</ns3:atemp>
            <ns3:cad>92</ns3:cad>
          </ns3:TrackPointExtension>
        </extensions>
      </trkpt>
      <trkpt lat="40.04617427475750446319580078125" lon="116.5905563347041606903076171875">
        <ele>48.40000152587890625</ele>
        <time>2015-07-26T13:19:28.000Z</time>
        <extensions>
          <ns3:TrackPointExtension>
            <ns3:atemp>30.0</ns3:atemp>
            <ns3:cad>92</ns3:cad>
          </ns3:TrackPointExtension>
        </extensions>
      </trkpt>
      <trkpt lat="40.04605676047503948211669921875" lon="116.590329520404338836669921875">
        <ele>48.59999847412109375</ele>
        <time>2015-07-26T13:19:34.000Z</time>
        <extensions>
          <ns3:TrackPointExtension>
            <ns3:atemp>30.0</ns3:atemp>
            <ns3:cad>92</ns3:cad>
          </ns3:TrackPointExtension>
        </extensions>
      </trkpt>
      <trkpt lat="40.04586095921695232391357421875" lon="116.59018945880234241485595703125">
        <ele>48.799999237060546875</ele>
        <time>2015-07-26T13:19:41.000Z</time>
        <extensions>
          <ns3:TrackPointExtension>
            <ns3:atemp>30.0</ns3:atemp>
            <ns3:cad>91</ns3:cad>
          </ns3:TrackPointExtension>
        </extensions>
      </trkpt>
      <trkpt lat="40.04564453847706317901611328125" lon="116.590194068849086761474609375">
        <ele>48.799999237060546875</ele>
        <time>2015-07-26T13:19:48.000Z</time>
        <extensions>
          <ns3:TrackPointExtension>
            <ns3:atemp>30.0</ns3:atemp>
            <ns3:cad>92</ns3:cad>
          </ns3:TrackPointExtension>
        </extensions>
      </trkpt>
      <trkpt lat="40.04543063230812549591064453125" lon="116.59021359868347644805908203125">
        <ele>48</ele>
        <time>2015-07-26T13:19:55.000Z</time>
        <extensions>
          <ns3:TrackPointExtension>
            <ns3:atemp>30.0</ns3:atemp>
            <ns3:cad>91</ns3:cad>
          </ns3:TrackPointExtension>
        </extensions>
      </trkpt>
      <trkpt lat="40.0452084280550479888916015625" lon="116.59024813212454319000244140625">
        <ele>48.200000762939453125</ele>
        <time>2015-07-26T13:20:02.000Z</time>
        <extensions>
          <ns3:TrackPointExtension>
            <ns3:atemp>30.0</ns3:atemp>
            <ns3:cad>92</ns3:cad>
          </ns3:TrackPointExtension>
        </extensions>
      </trkpt>
      <trkpt lat="40.04500097595155239105224609375" lon="116.5903508104383945465087890625">
        <ele>48.40000152587890625</ele>
        <time>2015-07-26T13:20:09.000Z</time>
        <extensions>
          <ns3:TrackPointExtension>
            <ns3:atemp>30.0</ns3:atemp>
            <ns3:cad>92</ns3:cad>
          </ns3:TrackPointExtension>
        </extensions>
      </trkpt>
      <trkpt lat="40.04487524740397930145263671875" lon="116.5905989147722721099853515625">
        <ele>48.59999847412109375</ele>
        <time>2015-07-26T13:20:16.000Z</time>
        <extensions>
          <ns3:TrackPointExtension>
            <ns3:atemp>30.0</ns3:atemp>
            <ns3:cad>92</ns3:cad>
          </ns3:TrackPointExtension>
        </extensions>
      </trkpt>
      <trkpt lat="40.044886730611324310302734375" lon="116.59085431136190891265869140625">
        <ele>48.40000152587890625</ele>
        <time>2015-07-26T13:20:22.000Z</time>
        <extensions>
          <ns3:TrackPointExtension>
            <ns3:atemp>30.0</ns3:atemp>
            <ns3:cad>90</ns3:cad>
          </ns3:TrackPointExtension>
        </extensions>
      </trkpt>
      <trkpt lat="40.04501271061599254608154296875" lon="116.59107559360563755035400390625">
        <ele>48.59999847412109375</ele>
        <time>2015-07-26T13:20:29.000Z</time>
        <extensions>
          <ns3:TrackPointExtension>
            <ns3:atemp>30.0</ns3:atemp>
            <ns3:cad>92</ns3:cad>
          </ns3:TrackPointExtension>
        </extensions>
      </trkpt>
      <trkpt lat="40.045192502439022064208984375" lon="116.59115773625671863555908203125">
        <ele>48.200000762939453125</ele>
        <time>2015-07-26T13:20:36.000Z</time>
        <extensions>
          <ns3:TrackPointExtension>
            <ns3:atemp>30.0</ns3:atemp>
            <ns3:cad>92</ns3:cad>
          </ns3:TrackPointExtension>
        </extensions>
      </trkpt>
      <trkpt lat="40.04541001282632350921630859375" lon="116.59113275818526744842529296875">
        <ele>48.59999847412109375</ele>
        <time>2015-07-26T13:20:42.000Z</time>
        <extensions>
          <ns3:TrackPointExtension>
            <ns3:atemp>30.0</ns3:atemp>
            <ns3:cad>89</ns3:cad>
          </ns3:TrackPointExtension>
        </extensions>
      </trkpt>
      <trkpt lat="40.04560363478958606719970703125" lon="116.5911249630153179168701171875">
        <ele>48.59999847412109375</ele>
        <time>2015-07-26T13:20:48.000Z</time>
        <extensions>
          <ns3:TrackPointExtension>
            <ns3:atemp>30.0</ns3:atemp>
            <ns3:cad>90</ns3:cad>
          </ns3:TrackPointExtension>
        </extensions>
      </trkpt>
      <trkpt lat="40.04578585736453533172607421875" lon="116.591101996600627899169921875">
        <ele>47.799999237060546875</ele>
        <time>2015-07-26T13:20:54.000Z</time>
        <extensions>
          <ns3:TrackPointExtension>
            <ns3:atemp>30.0</ns3:atemp>
            <ns3:cad>87</ns3:cad>
          </ns3:TrackPointExtension>
        </extensions>
      </trkpt>
      <trkpt lat="40.04595450125634670257568359375" lon="116.59104256890714168548583984375">
        <ele>48</ele>
        <time>2015-07-26T13:21:00.000Z</time>
        <extensions>
          <ns3:TrackPointExtension>
            <ns3:atemp>30.0</ns3:atemp>
            <ns3:cad>89</ns3:cad>
          </ns3:TrackPointExtension>
        </extensions>
      </trkpt>
      <trkpt lat="40.046114511787891387939453125" lon="116.5909154154360294342041015625">
        <ele>48</ele>
        <time>2015-07-26T13:21:07.000Z</time>
        <extensions>
          <ns3:TrackPointExtension>
            <ns3:atemp>30.0</ns3:atemp>
            <ns3:cad>87</ns3:cad>
          </ns3:TrackPointExtension>
        </extensions>
      </trkpt>
      <trkpt lat="40.04618458449840545654296875" lon="116.59067912958562374114990234375">
        <ele>48.200000762939453125</ele>
        <time>2015-07-26T13:21:14.000Z</time>
        <extensions>
          <ns3:TrackPointExtension>
            <ns3:atemp>30.0</ns3:atemp>
            <ns3:cad>89</ns3:cad>
          </ns3:TrackPointExtension>
        </extensions>
      </trkpt>
      <trkpt lat="40.046119876205921173095703125" lon="116.59041744656860828399658203125">
        <ele>48.200000762939453125</ele>
        <time>2015-07-26T13:21:21.000Z</time>
        <extensions>
          <ns3:TrackPointExtension>
            <ns3:atemp>30.0</ns3:atemp>
            <ns3:cad>90</ns3:cad>
          </ns3:TrackPointExtension>
        </extensions>
      </trkpt>
      <trkpt lat="40.045939497649669647216796875" lon="116.590215861797332763671875">
        <ele>48.40000152587890625</ele>
        <time>2015-07-26T13:21:28.000Z</time>
        <extensions>
          <ns3:TrackPointExtension>
            <ns3:atemp>30.0</ns3:atemp>
            <ns3:cad>89</ns3:cad>
          </ns3:TrackPointExtension>
        </extensions>
      </trkpt>
      <trkpt lat="40.0457639805972576141357421875" lon="116.59017303027212619781494140625">
        <ele>48.200000762939453125</ele>
        <time>2015-07-26T13:21:36.000Z</time>
        <extensions>
          <ns3:TrackPointExtension>
            <ns3:atemp>30.0</ns3:atemp>
            <ns3:cad>85</ns3:cad>
          </ns3:TrackPointExtension>
        </extensions>
      </trkpt>
      <trkpt lat="40.04559022374451160430908203125" lon="116.59017629921436309814453125">
        <ele>48.200000762939453125</ele>
        <time>2015-07-26T13:21:46.000Z</time>
        <extensions>
          <ns3:TrackPointExtension>
            <ns3:atemp>30.0</ns3:atemp>
            <ns3:cad>83</ns3:cad>
          </ns3:TrackPointExtension>
        </extensions>
      </trkpt>
      <trkpt lat="40.04546231590211391448974609375" lon="116.5901751257479190826416015625">
        <ele>48.200000762939453125</ele>
        <time>2015-07-26T13:21:52.000Z</time>
        <extensions>
          <ns3:TrackPointExtension>
            <ns3:atemp>30.0</ns3:atemp>
            <ns3:cad>85</ns3:cad>
          </ns3:TrackPointExtension>
        </extensions>
      </trkpt>
      <trkpt lat="40.04539601504802703857421875" lon="116.59017722122371196746826171875">
        <ele>48.200000762939453125</ele>
        <time>2015-07-26T13:21:55.000Z</time>
        <extensions>
          <ns3:TrackPointExtension>
            <ns3:atemp>30.0</ns3:atemp>
            <ns3:cad>85</ns3:cad>
          </ns3:TrackPointExtension>
        </extensions>
      </trkpt>
    </trkseg>
  </trk>
</gpx>
