<gpx xmlns:ns3="http://www.garmin.com/xmlschemas/TrackPointExtension/v1" xmlns="http://www.topografix.com/GPX/1/1" xmlns:xsi="http://www.w3.org/2001/XMLSchema-instance" xmlns:ns2="http://www.garmin.com/xmlschemas/GpxExtensions/v3" creator="Garmin Connect" version="1.1" xsi:schemaLocation="http://www.topografix.com/GPX/1/1 http://www.topografix.com/GPX/11.xsd">
  <extensions>
<distance>1025.0</distance>
<average_hr>117.0</average_hr>
<average_speed>0.7480000257492065</average_speed>
<start_time>2024-06-19T11:04:37+00:00</start_time>
<end_time>2024-06-19T11:34:30.661000+00:00</end_time>
<moving_time>1371.103</moving_time>
<elapsed_time>2525.909</elapsed_time>
</extensions>
<metadata>
    <link href="connect.garmin.com">
      <text>Garmin Connect</text>
    </link>
    <time>2024-06-19T11:04:37.000Z</time>
  </metadata>
  <trk>
    <name>泳池游泳</name>
    <type>lap_swimming</type>
    <trkseg/>
  </trk>
</gpx>
