<gpx xmlns:ns3="http://www.garmin.com/xmlschemas/TrackPointExtension/v1" xmlns="http://www.topografix.com/GPX/1/1" xmlns:xsi="http://www.w3.org/2001/XMLSchema-instance" xmlns:ns2="http://www.garmin.com/xmlschemas/GpxExtensions/v3" creator="Garmin Connect" version="1.1" xsi:schemaLocation="http://www.topografix.com/GPX/1/1 http://www.topografix.com/GPX/11.xsd">
  <extensions>
<distance>1164.21</distance>
<average_hr>87.0</average_hr>
<average_speed>4.988999843597412</average_speed>
<start_time>2022-11-11T09:46:26+00:00</start_time>
<end_time>2022-11-11T09:50:19.339000+00:00</end_time>
<moving_time>152.0</moving_time>
<elapsed_time>283.318</elapsed_time>
</extensions>
<metadata>
    <link href="connect.garmin.com">
      <text>Garmin Connect</text>
    </link>
    <time>2022-11-11T09:46:26.000Z</time>
  </metadata>
  <trk>
    <name>常州市 登山</name>
    <type>mountaineering</type>
    <trkseg>
      <trkpt lat="31.425357945263385772705078125" lon="119.4862406887114048004150390625">
        <ele>65.40000152587890625</ele>
        <time>2022-11-11T09:46:36.000Z</time>
        <extensions>
          <ns3:TrackPointExtension>
            <ns3:atemp>24.0</ns3:atemp>
            <ns3:hr>94</ns3:hr>
          </ns3:TrackPointExtension>
        </extensions>
      </trkpt>
      <trkpt lat="31.42546984367072582244873046875" lon="119.48622199706733226776123046875">
        <ele>65.8000030517578125</ele>
        <time>2022-11-11T09:46:38.000Z</time>
        <extensions>
          <ns3:TrackPointExtension>
            <ns3:atemp>24.0</ns3:atemp>
            <ns3:hr>91</ns3:hr>
          </ns3:TrackPointExtension>
        </extensions>
      </trkpt>
      <trkpt lat="31.42578936181962490081787109375" lon="119.4861709512770175933837890625">
        <ele>66.1999969482421875</ele>
        <time>2022-11-11T09:46:44.000Z</time>
        <extensions>
          <ns3:TrackPointExtension>
            <ns3:atemp>24.0</ns3:atemp>
            <ns3:hr>90</ns3:hr>
          </ns3:TrackPointExtension>
        </extensions>
      </trkpt>
      <trkpt lat="31.42614140175282955169677734375" lon="119.48613599874079227447509765625">
        <ele>66.59999847412109375</ele>
        <time>2022-11-11T09:46:49.000Z</time>
        <extensions>
          <ns3:TrackPointExtension>
            <ns3:atemp>24.0</ns3:atemp>
            <ns3:hr>90</ns3:hr>
          </ns3:TrackPointExtension>
        </extensions>
      </trkpt>
      <trkpt lat="31.426414065062999725341796875" lon="119.48612359352409839630126953125">
        <ele>66.59999847412109375</ele>
        <time>2022-11-11T09:46:54.000Z</time>
        <extensions>
          <ns3:TrackPointExtension>
            <ns3:atemp>24.0</ns3:atemp>
            <ns3:hr>88</ns3:hr>
          </ns3:TrackPointExtension>
        </extensions>
      </trkpt>
      <trkpt lat="31.42655127681791782379150390625" lon="119.4861401058733463287353515625">
        <ele>66</ele>
        <time>2022-11-11T09:46:58.000Z</time>
        <extensions>
          <ns3:TrackPointExtension>
            <ns3:atemp>24.0</ns3:atemp>
            <ns3:hr>87</ns3:hr>
          </ns3:TrackPointExtension>
        </extensions>
      </trkpt>
      <trkpt lat="31.42657424323260784149169921875" lon="119.4861553609371185302734375">
        <ele>65.40000152587890625</ele>
        <time>2022-11-11T09:47:01.000Z</time>
        <extensions>
          <ns3:TrackPointExtension>
            <ns3:atemp>24.0</ns3:atemp>
            <ns3:hr>84</ns3:hr>
          </ns3:TrackPointExtension>
        </extensions>
      </trkpt>
      <trkpt lat="31.42658363096415996551513671875" lon="119.48617572896182537078857421875">
        <ele>65.40000152587890625</ele>
        <time>2022-11-11T09:47:02.000Z</time>
        <extensions>
          <ns3:TrackPointExtension>
            <ns3:atemp>24.0</ns3:atemp>
            <ns3:hr>86</ns3:hr>
          </ns3:TrackPointExtension>
        </extensions>
      </trkpt>
      <trkpt lat="31.4266425557434558868408203125" lon="119.48626910336315631866455078125">
        <ele>65.40000152587890625</ele>
        <time>2022-11-11T09:47:09.000Z</time>
        <extensions>
          <ns3:TrackPointExtension>
            <ns3:atemp>24.0</ns3:atemp>
            <ns3:hr>86</ns3:hr>
          </ns3:TrackPointExtension>
        </extensions>
      </trkpt>
      <trkpt lat="31.42669376917183399200439453125" lon="119.4862614758312702178955078125">
        <ele>65.40000152587890625</ele>
        <time>2022-11-11T09:47:14.000Z</time>
        <extensions>
          <ns3:TrackPointExtension>
            <ns3:atemp>24.0</ns3:atemp>
            <ns3:hr>81</ns3:hr>
          </ns3:TrackPointExtension>
        </extensions>
      </trkpt>
      <trkpt lat="31.42670433036983013153076171875" lon="119.48625317774713039398193359375">
        <ele>65.1999969482421875</ele>
        <time>2022-11-11T09:47:16.000Z</time>
        <extensions>
          <ns3:TrackPointExtension>
            <ns3:atemp>24.0</ns3:atemp>
            <ns3:hr>81</ns3:hr>
          </ns3:TrackPointExtension>
        </extensions>
      </trkpt>
      <trkpt lat="31.4267102815210819244384765625" lon="119.48625393211841583251953125">
        <ele>65.40000152587890625</ele>
        <time>2022-11-11T09:47:18.000Z</time>
        <extensions>
          <ns3:TrackPointExtension>
            <ns3:atemp>24.0</ns3:atemp>
            <ns3:hr>84</ns3:hr>
          </ns3:TrackPointExtension>
        </extensions>
      </trkpt>
      <trkpt lat="31.426732577383518218994140625" lon="119.486255608499050140380859375">
        <ele>65.1999969482421875</ele>
        <time>2022-11-11T09:47:23.000Z</time>
        <extensions>
          <ns3:TrackPointExtension>
            <ns3:atemp>24.0</ns3:atemp>
            <ns3:hr>81</ns3:hr>
          </ns3:TrackPointExtension>
        </extensions>
      </trkpt>
      <trkpt lat="31.42673400230705738067626953125" lon="119.48625435121357440948486328125">
        <ele>65.1999969482421875</ele>
        <time>2022-11-11T09:47:24.000Z</time>
        <extensions>
          <ns3:TrackPointExtension>
            <ns3:atemp>24.0</ns3:atemp>
            <ns3:hr>80</ns3:hr>
          </ns3:TrackPointExtension>
        </extensions>
      </trkpt>
      <trkpt lat="31.426747329533100128173828125" lon="119.48626960627734661102294921875">
        <ele>65.1999969482421875</ele>
        <time>2022-11-11T09:47:26.000Z</time>
        <extensions>
          <ns3:TrackPointExtension>
            <ns3:atemp>24.0</ns3:atemp>
            <ns3:hr>77</ns3:hr>
          </ns3:TrackPointExtension>
        </extensions>
      </trkpt>
      <trkpt lat="31.426755376160144805908203125" lon="119.48627765290439128875732421875">
        <ele>65</ele>
        <time>2022-11-11T09:47:27.000Z</time>
        <extensions>
          <ns3:TrackPointExtension>
            <ns3:atemp>24.0</ns3:atemp>
            <ns3:hr>80</ns3:hr>
          </ns3:TrackPointExtension>
        </extensions>
      </trkpt>
      <trkpt lat="31.42676015384495258331298828125" lon="119.48627295903861522674560546875">
        <ele>64.59999847412109375</ele>
        <time>2022-11-11T09:47:31.000Z</time>
        <extensions>
          <ns3:TrackPointExtension>
            <ns3:atemp>24.0</ns3:atemp>
            <ns3:hr>81</ns3:hr>
          </ns3:TrackPointExtension>
        </extensions>
      </trkpt>
      <trkpt lat="31.4267612434923648834228515625" lon="119.48624161072075366973876953125">
        <ele>64.59999847412109375</ele>
        <time>2022-11-11T09:47:37.000Z</time>
        <extensions>
          <ns3:TrackPointExtension>
            <ns3:atemp>24.0</ns3:atemp>
          </ns3:TrackPointExtension>
        </extensions>
      </trkpt>
      <trkpt lat="31.42691270448267459869384765625" lon="119.48624714277684688568115234375">
        <ele>64.59999847412109375</ele>
        <time>2022-11-11T09:47:41.000Z</time>
        <extensions>
          <ns3:TrackPointExtension>
            <ns3:atemp>24.0</ns3:atemp>
          </ns3:TrackPointExtension>
        </extensions>
      </trkpt>
      <trkpt lat="31.42702636308968067169189453125" lon="119.486240185797214508056640625">
        <ele>64.59999847412109375</ele>
        <time>2022-11-11T09:47:43.000Z</time>
        <extensions>
          <ns3:TrackPointExtension>
            <ns3:atemp>24.0</ns3:atemp>
          </ns3:TrackPointExtension>
        </extensions>
      </trkpt>
      <trkpt lat="31.42715267837047576904296875" lon="119.48622099123895168304443359375">
        <ele>64.59999847412109375</ele>
        <time>2022-11-11T09:47:45.000Z</time>
        <extensions>
          <ns3:TrackPointExtension>
            <ns3:atemp>24.0</ns3:atemp>
          </ns3:TrackPointExtension>
        </extensions>
      </trkpt>
      <trkpt lat="31.4274908043444156646728515625" lon="119.4861682690680027008056640625">
        <ele>65.8000030517578125</ele>
        <time>2022-11-11T09:47:49.000Z</time>
        <extensions>
          <ns3:TrackPointExtension>
            <ns3:atemp>24.0</ns3:atemp>
          </ns3:TrackPointExtension>
        </extensions>
      </trkpt>
      <trkpt lat="31.42795474268496036529541015625" lon="119.486102052032947540283203125">
        <ele>66</ele>
        <time>2022-11-11T09:47:55.000Z</time>
        <extensions>
          <ns3:TrackPointExtension>
            <ns3:atemp>24.0</ns3:atemp>
          </ns3:TrackPointExtension>
        </extensions>
      </trkpt>
      <trkpt lat="31.4280248992145061492919921875" lon="119.4860884733498096466064453125">
        <ele>65.59999847412109375</ele>
        <time>2022-11-11T09:47:56.000Z</time>
        <extensions>
          <ns3:TrackPointExtension>
            <ns3:atemp>24.0</ns3:atemp>
          </ns3:TrackPointExtension>
        </extensions>
      </trkpt>
      <trkpt lat="31.42850317060947418212890625" lon="119.48598302900791168212890625">
        <ele>65</ele>
        <time>2022-11-11T09:48:02.000Z</time>
        <extensions>
          <ns3:TrackPointExtension>
            <ns3:atemp>24.0</ns3:atemp>
          </ns3:TrackPointExtension>
        </extensions>
      </trkpt>
      <trkpt lat="31.42858891747891902923583984375" lon="119.48596157133579254150390625">
        <ele>65.1999969482421875</ele>
        <time>2022-11-11T09:48:03.000Z</time>
        <extensions>
          <ns3:TrackPointExtension>
            <ns3:atemp>24.0</ns3:atemp>
          </ns3:TrackPointExtension>
        </extensions>
      </trkpt>
      <trkpt lat="31.42906584776937961578369140625" lon="119.48586056940257549285888671875">
        <ele>65.1999969482421875</ele>
        <time>2022-11-11T09:48:09.000Z</time>
        <extensions>
          <ns3:TrackPointExtension>
            <ns3:atemp>24.0</ns3:atemp>
          </ns3:TrackPointExtension>
        </extensions>
      </trkpt>
      <trkpt lat="31.42914497293531894683837890625" lon="119.485835172235965728759765625">
        <ele>65.1999969482421875</ele>
        <time>2022-11-11T09:48:10.000Z</time>
        <extensions>
          <ns3:TrackPointExtension>
            <ns3:atemp>24.0</ns3:atemp>
          </ns3:TrackPointExtension>
        </extensions>
      </trkpt>
      <trkpt lat="31.4296184666454792022705078125" lon="119.48569527827203273773193359375">
        <ele>65.40000152587890625</ele>
        <time>2022-11-11T09:48:16.000Z</time>
        <extensions>
          <ns3:TrackPointExtension>
            <ns3:atemp>24.0</ns3:atemp>
          </ns3:TrackPointExtension>
        </extensions>
      </trkpt>
      <trkpt lat="31.4296831749379634857177734375" lon="119.48568664491176605224609375">
        <ele>65.40000152587890625</ele>
        <time>2022-11-11T09:48:17.000Z</time>
        <extensions>
          <ns3:TrackPointExtension>
            <ns3:atemp>24.0</ns3:atemp>
          </ns3:TrackPointExtension>
        </extensions>
      </trkpt>
      <trkpt lat="31.4299158565700054168701171875" lon="119.4856653548777103424072265625">
        <ele>65</ele>
        <time>2022-11-11T09:48:21.000Z</time>
        <extensions>
          <ns3:TrackPointExtension>
            <ns3:atemp>24.0</ns3:atemp>
          </ns3:TrackPointExtension>
        </extensions>
      </trkpt>
      <trkpt lat="31.4299567602574825286865234375" lon="119.485660828649997711181640625">
        <ele>64.59999847412109375</ele>
        <time>2022-11-11T09:48:23.000Z</time>
        <extensions>
          <ns3:TrackPointExtension>
            <ns3:atemp>24.0</ns3:atemp>
          </ns3:TrackPointExtension>
        </extensions>
      </trkpt>
      <trkpt lat="31.42995935864746570587158203125" lon="119.48566778562963008880615234375">
        <ele>64.40000152587890625</ele>
        <time>2022-11-11T09:48:24.000Z</time>
        <extensions>
          <ns3:TrackPointExtension>
            <ns3:atemp>24.0</ns3:atemp>
          </ns3:TrackPointExtension>
        </extensions>
      </trkpt>
      <trkpt lat="31.42994980327785015106201171875" lon="119.48568035848438739776611328125">
        <ele>64.1999969482421875</ele>
        <time>2022-11-11T09:48:27.000Z</time>
        <extensions>
          <ns3:TrackPointExtension>
            <ns3:atemp>24.0</ns3:atemp>
          </ns3:TrackPointExtension>
        </extensions>
      </trkpt>
      <trkpt lat="31.42995500005781650543212890625" lon="119.4856680370867252349853515625">
        <ele>64.8000030517578125</ele>
        <time>2022-11-11T09:48:30.000Z</time>
        <extensions>
          <ns3:TrackPointExtension>
            <ns3:atemp>24.0</ns3:atemp>
          </ns3:TrackPointExtension>
        </extensions>
      </trkpt>
      <trkpt lat="31.4299648068845272064208984375" lon="119.48560408316552639007568359375">
        <ele>64.8000030517578125</ele>
        <time>2022-11-11T09:48:34.000Z</time>
        <extensions>
          <ns3:TrackPointExtension>
            <ns3:atemp>24.0</ns3:atemp>
          </ns3:TrackPointExtension>
        </extensions>
      </trkpt>
      <trkpt lat="31.43001585267484188079833984375" lon="119.485560916364192962646484375">
        <ele>65</ele>
        <time>2022-11-11T09:48:36.000Z</time>
        <extensions>
          <ns3:TrackPointExtension>
            <ns3:atemp>24.0</ns3:atemp>
          </ns3:TrackPointExtension>
        </extensions>
      </trkpt>
      <trkpt lat="31.43005005083978176116943359375" lon="119.48553912341594696044921875">
        <ele>65.1999969482421875</ele>
        <time>2022-11-11T09:48:37.000Z</time>
        <extensions>
          <ns3:TrackPointExtension>
            <ns3:atemp>24.0</ns3:atemp>
          </ns3:TrackPointExtension>
        </extensions>
      </trkpt>
      <trkpt lat="31.43023529089987277984619140625" lon="119.4854997284710407257080078125">
        <ele>65</ele>
        <time>2022-11-11T09:48:41.000Z</time>
        <extensions>
          <ns3:TrackPointExtension>
            <ns3:atemp>24.0</ns3:atemp>
          </ns3:TrackPointExtension>
        </extensions>
      </trkpt>
      <trkpt lat="31.43033302389085292816162109375" lon="119.4854893349111080169677734375">
        <ele>65</ele>
        <time>2022-11-11T09:48:43.000Z</time>
        <extensions>
          <ns3:TrackPointExtension>
            <ns3:atemp>24.0</ns3:atemp>
          </ns3:TrackPointExtension>
        </extensions>
      </trkpt>
      <trkpt lat="31.43044601194560527801513671875" lon="119.48547701351344585418701171875">
        <ele>65</ele>
        <time>2022-11-11T09:48:45.000Z</time>
        <extensions>
          <ns3:TrackPointExtension>
            <ns3:atemp>24.0</ns3:atemp>
          </ns3:TrackPointExtension>
        </extensions>
      </trkpt>
      <trkpt lat="31.43050904385745525360107421875" lon="119.4854591600596904754638671875">
        <ele>65</ele>
        <time>2022-11-11T09:48:46.000Z</time>
        <extensions>
          <ns3:TrackPointExtension>
            <ns3:atemp>24.0</ns3:atemp>
          </ns3:TrackPointExtension>
        </extensions>
      </trkpt>
      <trkpt lat="31.430862508714199066162109375" lon="119.48529160581529140472412109375">
        <ele>65.40000152587890625</ele>
        <time>2022-11-11T09:48:52.000Z</time>
        <extensions>
          <ns3:TrackPointExtension>
            <ns3:atemp>24.0</ns3:atemp>
          </ns3:TrackPointExtension>
        </extensions>
      </trkpt>
      <trkpt lat="31.4309166558086872100830078125" lon="119.48526260443031787872314453125">
        <ele>65.59999847412109375</ele>
        <time>2022-11-11T09:48:53.000Z</time>
        <extensions>
          <ns3:TrackPointExtension>
            <ns3:atemp>24.0</ns3:atemp>
          </ns3:TrackPointExtension>
        </extensions>
      </trkpt>
      <trkpt lat="31.4312629960477352142333984375" lon="119.4850688986480236053466796875">
        <ele>66.1999969482421875</ele>
        <time>2022-11-11T09:48:59.000Z</time>
        <extensions>
          <ns3:TrackPointExtension>
            <ns3:atemp>24.0</ns3:atemp>
          </ns3:TrackPointExtension>
        </extensions>
      </trkpt>
      <trkpt lat="31.43144178204238414764404296875" lon="119.485017098486423492431640625">
        <ele>66.1999969482421875</ele>
        <time>2022-11-11T09:49:03.000Z</time>
        <extensions>
          <ns3:TrackPointExtension>
            <ns3:atemp>24.0</ns3:atemp>
          </ns3:TrackPointExtension>
        </extensions>
      </trkpt>
      <trkpt lat="31.431587375700473785400390625" lon="119.48493068106472492218017578125">
        <ele>66.1999969482421875</ele>
        <time>2022-11-11T09:49:08.000Z</time>
        <extensions>
          <ns3:TrackPointExtension>
            <ns3:atemp>24.0</ns3:atemp>
          </ns3:TrackPointExtension>
        </extensions>
      </trkpt>
      <trkpt lat="31.43170011229813098907470703125" lon="119.4848489575088024139404296875">
        <ele>66</ele>
        <time>2022-11-11T09:49:12.000Z</time>
        <extensions>
          <ns3:TrackPointExtension>
            <ns3:atemp>24.0</ns3:atemp>
          </ns3:TrackPointExtension>
        </extensions>
      </trkpt>
      <trkpt lat="31.4317541755735874176025390625" lon="119.48480562306940555572509765625">
        <ele>66</ele>
        <time>2022-11-11T09:49:14.000Z</time>
        <extensions>
          <ns3:TrackPointExtension>
            <ns3:atemp>24.0</ns3:atemp>
          </ns3:TrackPointExtension>
        </extensions>
      </trkpt>
      <trkpt lat="31.43180471844971179962158203125" lon="119.48473705910146236419677734375">
        <ele>65.8000030517578125</ele>
        <time>2022-11-11T09:49:17.000Z</time>
        <extensions>
          <ns3:TrackPointExtension>
            <ns3:atemp>24.0</ns3:atemp>
          </ns3:TrackPointExtension>
        </extensions>
      </trkpt>
      <trkpt lat="31.43189758993685245513916015625" lon="119.4846377335488796234130859375">
        <ele>65.40000152587890625</ele>
        <time>2022-11-11T09:49:21.000Z</time>
        <extensions>
          <ns3:TrackPointExtension>
            <ns3:atemp>24.0</ns3:atemp>
          </ns3:TrackPointExtension>
        </extensions>
      </trkpt>
      <trkpt lat="31.43203563988208770751953125" lon="119.48449616320431232452392578125">
        <ele>65.59999847412109375</ele>
        <time>2022-11-11T09:49:27.000Z</time>
        <extensions>
          <ns3:TrackPointExtension>
            <ns3:atemp>24.0</ns3:atemp>
          </ns3:TrackPointExtension>
        </extensions>
      </trkpt>
      <trkpt lat="31.43204594962298870086669921875" lon="119.4844811595976352691650390625">
        <ele>65.40000152587890625</ele>
        <time>2022-11-11T09:49:28.000Z</time>
        <extensions>
          <ns3:TrackPointExtension>
            <ns3:atemp>24.0</ns3:atemp>
          </ns3:TrackPointExtension>
        </extensions>
      </trkpt>
      <trkpt lat="31.4320773817598819732666015625" lon="119.4844563491642475128173828125">
        <ele>65.40000152587890625</ele>
        <time>2022-11-11T09:49:32.000Z</time>
        <extensions>
          <ns3:TrackPointExtension>
            <ns3:atemp>24.0</ns3:atemp>
          </ns3:TrackPointExtension>
        </extensions>
      </trkpt>
      <trkpt lat="31.4320860989391803741455078125" lon="119.48445593006908893585205078125">
        <ele>65.1999969482421875</ele>
        <time>2022-11-11T09:49:34.000Z</time>
        <extensions>
          <ns3:TrackPointExtension>
            <ns3:atemp>24.0</ns3:atemp>
          </ns3:TrackPointExtension>
        </extensions>
      </trkpt>
      <trkpt lat="31.432156004011631011962890625" lon="119.48438443243503570556640625">
        <ele>65.40000152587890625</ele>
        <time>2022-11-11T09:49:40.000Z</time>
        <extensions>
          <ns3:TrackPointExtension>
            <ns3:atemp>24.0</ns3:atemp>
          </ns3:TrackPointExtension>
        </extensions>
      </trkpt>
      <trkpt lat="31.432307548820972442626953125" lon="119.484162144362926483154296875">
        <ele>65.1999969482421875</ele>
        <time>2022-11-11T09:49:45.000Z</time>
        <extensions>
          <ns3:TrackPointExtension>
            <ns3:atemp>24.0</ns3:atemp>
          </ns3:TrackPointExtension>
        </extensions>
      </trkpt>
      <trkpt lat="31.432527489960193634033203125" lon="119.4839168898761272430419921875">
        <ele>65.8000030517578125</ele>
        <time>2022-11-11T09:49:49.000Z</time>
        <extensions>
          <ns3:TrackPointExtension>
            <ns3:atemp>24.0</ns3:atemp>
          </ns3:TrackPointExtension>
        </extensions>
      </trkpt>
      <trkpt lat="31.43275874666869640350341796875" lon="119.4836459867656230926513671875">
        <ele>66</ele>
        <time>2022-11-11T09:49:54.000Z</time>
        <extensions>
          <ns3:TrackPointExtension>
            <ns3:atemp>24.0</ns3:atemp>
          </ns3:TrackPointExtension>
        </extensions>
      </trkpt>
      <trkpt lat="31.4328371174633502960205078125" lon="119.483554624021053314208984375">
        <ele>65.59999847412109375</ele>
        <time>2022-11-11T09:49:56.000Z</time>
        <extensions>
          <ns3:TrackPointExtension>
            <ns3:atemp>24.0</ns3:atemp>
          </ns3:TrackPointExtension>
        </extensions>
      </trkpt>
      <trkpt lat="31.43291397951543331146240234375" lon="119.4834947772324085235595703125">
        <ele>65.40000152587890625</ele>
        <time>2022-11-11T09:49:58.000Z</time>
        <extensions>
          <ns3:TrackPointExtension>
            <ns3:atemp>24.0</ns3:atemp>
          </ns3:TrackPointExtension>
        </extensions>
      </trkpt>
      <trkpt lat="31.4329786039888858795166015625" lon="119.48350961320102214813232421875">
        <ele>65.40000152587890625</ele>
        <time>2022-11-11T09:50:00.000Z</time>
        <extensions>
          <ns3:TrackPointExtension>
            <ns3:atemp>24.0</ns3:atemp>
          </ns3:TrackPointExtension>
        </extensions>
      </trkpt>
      <trkpt lat="31.4330188371241092681884765625" lon="119.4835329987108707427978515625">
        <ele>65.40000152587890625</ele>
        <time>2022-11-11T09:50:01.000Z</time>
        <extensions>
          <ns3:TrackPointExtension>
            <ns3:atemp>24.0</ns3:atemp>
          </ns3:TrackPointExtension>
        </extensions>
      </trkpt>
      <trkpt lat="31.4332575537264347076416015625" lon="119.4837452284991741180419921875">
        <ele>66.1999969482421875</ele>
        <time>2022-11-11T09:50:06.000Z</time>
        <extensions>
          <ns3:TrackPointExtension>
            <ns3:atemp>24.0</ns3:atemp>
          </ns3:TrackPointExtension>
        </extensions>
      </trkpt>
      <trkpt lat="31.43357631750404834747314453125" lon="119.48403599672019481658935546875">
        <ele>65.8000030517578125</ele>
        <time>2022-11-11T09:50:12.000Z</time>
        <extensions>
          <ns3:TrackPointExtension>
            <ns3:atemp>24.0</ns3:atemp>
          </ns3:TrackPointExtension>
        </extensions>
      </trkpt>
      <trkpt lat="31.43389734439551830291748046875" lon="119.48430740274488925933837890625">
        <ele>64.8000030517578125</ele>
        <time>2022-11-11T09:50:18.000Z</time>
        <extensions>
          <ns3:TrackPointExtension>
            <ns3:atemp>24.0</ns3:atemp>
          </ns3:TrackPointExtension>
        </extensions>
      </trkpt>
      <trkpt lat="31.43400563858449459075927734375" lon="119.48437948711216449737548828125">
        <ele>64.40000152587890625</ele>
        <time>2022-11-11T09:50:20.000Z</time>
        <extensions>
          <ns3:TrackPointExtension>
            <ns3:atemp>24.0</ns3:atemp>
          </ns3:TrackPointExtension>
        </extensions>
      </trkpt>
      <trkpt lat="31.43405542708933353424072265625" lon="119.4843931496143341064453125">
        <ele>64.1999969482421875</ele>
        <time>2022-11-11T09:50:21.000Z</time>
        <extensions>
          <ns3:TrackPointExtension>
            <ns3:atemp>24.0</ns3:atemp>
          </ns3:TrackPointExtension>
        </extensions>
      </trkpt>
      <trkpt lat="31.43416933715343475341796875" lon="119.48442022316157817840576171875">
        <ele>64.1999969482421875</ele>
        <time>2022-11-11T09:50:23.000Z</time>
        <extensions>
          <ns3:TrackPointExtension>
            <ns3:atemp>24.0</ns3:atemp>
          </ns3:TrackPointExtension>
        </extensions>
      </trkpt>
      <trkpt lat="31.43422088585793972015380859375" lon="119.48443447239696979522705078125">
        <ele>64.1999969482421875</ele>
        <time>2022-11-11T09:50:24.000Z</time>
        <extensions>
          <ns3:TrackPointExtension>
            <ns3:atemp>24.0</ns3:atemp>
          </ns3:TrackPointExtension>
        </extensions>
      </trkpt>
      <trkpt lat="31.435574479401111602783203125" lon="119.48399274609982967376708984375">
        <ele>63.200000762939453125</ele>
        <time>2022-11-11T09:51:10.000Z</time>
        <extensions>
          <ns3:TrackPointExtension>
            <ns3:atemp>24.0</ns3:atemp>
          </ns3:TrackPointExtension>
        </extensions>
      </trkpt>
      <trkpt lat="31.43556534312665462493896484375" lon="119.4839527644217014312744140625">
        <ele>63.40000152587890625</ele>
        <time>2022-11-11T09:51:11.000Z</time>
        <extensions>
          <ns3:TrackPointExtension>
            <ns3:atemp>24.0</ns3:atemp>
          </ns3:TrackPointExtension>
        </extensions>
      </trkpt>
      <trkpt lat="31.4355558715760707855224609375" lon="119.4839195720851421356201171875">
        <ele>63.59999847412109375</ele>
        <time>2022-11-11T09:51:12.000Z</time>
        <extensions>
          <ns3:TrackPointExtension>
            <ns3:atemp>24.0</ns3:atemp>
          </ns3:TrackPointExtension>
        </extensions>
      </trkpt>
    </trkseg>
  </trk>
</gpx>
