<gpx xmlns:ns3="http://www.garmin.com/xmlschemas/TrackPointExtension/v1" xmlns="http://www.topografix.com/GPX/1/1" xmlns:xsi="http://www.w3.org/2001/XMLSchema-instance" xmlns:ns2="http://www.garmin.com/xmlschemas/GpxExtensions/v3" creator="Garmin Connect" version="1.1" xsi:schemaLocation="http://www.topografix.com/GPX/1/1 http://www.topografix.com/GPX/11.xsd">
  <extensions>
<distance>1025.0</distance>
<average_hr>137.0</average_hr>
<average_speed>0.5540774160333645</average_speed>
<start_time>2024-11-18T09:38:41+00:00</start_time>
<end_time>2024-11-18T10:09:30.922000+00:00</end_time>
<moving_time>143.0</moving_time>
<elapsed_time>2514.654</elapsed_time>
</extensions>
<metadata>
    <link href="connect.garmin.com">
      <text>Garmin Connect</text>
    </link>
    <time>2024-11-18T09:38:41.000Z</time>
  </metadata>
  <trk>
    <name>游泳</name>
    <type>swimming</type>
    <trkseg/>
  </trk>
</gpx>
