<gpx xmlns:ns3="http://www.garmin.com/xmlschemas/TrackPointExtension/v1" xmlns="http://www.topografix.com/GPX/1/1" xmlns:xsi="http://www.w3.org/2001/XMLSchema-instance" xmlns:ns2="http://www.garmin.com/xmlschemas/GpxExtensions/v3" creator="Garmin Connect" version="1.1" xsi:schemaLocation="http://www.topografix.com/GPX/1/1 http://www.topografix.com/GPX/11.xsd">
  <extensions>
<distance>128.9</distance>
<average_hr>63.0</average_hr>
<average_speed>0.07633705123419002</average_speed>
<start_time>2024-12-20T08:32:52+00:00</start_time>
<end_time>2024-12-20T09:01:00.564000+00:00</end_time>
<moving_time>0.0</moving_time>
<elapsed_time>1688.564</elapsed_time>
</extensions>
<metadata>
    <link href="connect.garmin.com">
      <text>Garmin Connect</text>
    </link>
    <time>2024-12-20T08:32:52.000Z</time>
  </metadata>
  <trk>
    <name>力量训练</name>
    <type>strength_training</type>
    <trkseg/>
  </trk>
</gpx>
