<gpx xmlns:ns3="http://www.garmin.com/xmlschemas/TrackPointExtension/v1" xmlns="http://www.topografix.com/GPX/1/1" xmlns:xsi="http://www.w3.org/2001/XMLSchema-instance" xmlns:ns2="http://www.garmin.com/xmlschemas/GpxExtensions/v3" creator="Garmin Connect" version="1.1" xsi:schemaLocation="http://www.topografix.com/GPX/1/1 http://www.topografix.com/GPX/11.xsd">
  <extensions>
<distance>1018.37</distance>
<average_hr>150.0</average_hr>
<average_speed>10.375</average_speed>
<start_time>2025-01-06T23:26:28+00:00</start_time>
<end_time>2025-01-06T23:32:21+00:00</end_time>
<moving_time>351.0</moving_time>
<elapsed_time>360.0</elapsed_time>
</extensions>
<metadata>
    <link href="connect.garmin.com">
      <text>Garmin Connect</text>
    </link>
    <time>2025-01-06T23:26:28.000Z</time>
  </metadata>
  <trk>
    <name>常州市 街道路跑</name>
    <type>street_running</type>
    <trkseg>
      <trkpt lat="31.40341915190219879150390625" lon="119.49299440719187259674072265625">
        <ele>9.6000003814697265625</ele>
        <time>2025-01-06T23:26:29.000Z</time>
        <extensions>
          <ns3:TrackPointExtension>
            <ns3:hr>98</ns3:hr>
            <ns3:cad>100</ns3:cad>
          </ns3:TrackPointExtension>
        </extensions>
      </trkpt>
      <trkpt lat="31.403518058359622955322265625" lon="119.49295677244663238525390625">
        <ele>10</ele>
        <time>2025-01-06T23:26:34.000Z</time>
        <extensions>
          <ns3:TrackPointExtension>
            <ns3:cad>94</ns3:cad>
          </ns3:TrackPointExtension>
        </extensions>
      </trkpt>
      <trkpt lat="31.40362710691988468170166015625" lon="119.4929264299571514129638671875">
        <ele>9.3999996185302734375</ele>
        <time>2025-01-06T23:26:37.000Z</time>
        <extensions>
          <ns3:TrackPointExtension>
            <ns3:cad>82</ns3:cad>
          </ns3:TrackPointExtension>
        </extensions>
      </trkpt>
      <trkpt lat="31.403725929558277130126953125" lon="119.49289935640990734100341796875">
        <ele>9.19999980926513671875</ele>
        <time>2025-01-06T23:26:41.000Z</time>
        <extensions>
          <ns3:TrackPointExtension>
            <ns3:cad>105</ns3:cad>
          </ns3:TrackPointExtension>
        </extensions>
      </trkpt>
      <trkpt lat="31.4038353972136974334716796875" lon="119.4928633980453014373779296875">
        <ele>9</ele>
        <time>2025-01-06T23:26:45.000Z</time>
        <extensions>
          <ns3:TrackPointExtension>
            <ns3:cad>94</ns3:cad>
          </ns3:TrackPointExtension>
        </extensions>
      </trkpt>
      <trkpt lat="31.403933130204677581787109375" lon="119.49284613132476806640625">
        <ele>9.3999996185302734375</ele>
        <time>2025-01-06T23:26:49.000Z</time>
        <extensions>
          <ns3:TrackPointExtension>
            <ns3:cad>82</ns3:cad>
          </ns3:TrackPointExtension>
        </extensions>
      </trkpt>
      <trkpt lat="31.40403765253722667694091796875" lon="119.49280648492276668548583984375">
        <ele>9.80000019073486328125</ele>
        <time>2025-01-06T23:26:53.000Z</time>
        <extensions>
          <ns3:TrackPointExtension>
            <ns3:cad>94</ns3:cad>
          </ns3:TrackPointExtension>
        </extensions>
      </trkpt>
      <trkpt lat="31.40409699641168117523193359375" lon="119.4927225820720195770263671875">
        <ele>9.6000003814697265625</ele>
        <time>2025-01-06T23:26:58.000Z</time>
        <extensions>
          <ns3:TrackPointExtension>
            <ns3:cad>94</ns3:cad>
          </ns3:TrackPointExtension>
        </extensions>
      </trkpt>
      <trkpt lat="31.40409900806844234466552734375" lon="119.49260531924664974212646484375">
        <ele>9.19999980926513671875</ele>
        <time>2025-01-06T23:27:02.000Z</time>
        <extensions>
          <ns3:TrackPointExtension>
            <ns3:cad>94</ns3:cad>
          </ns3:TrackPointExtension>
        </extensions>
      </trkpt>
      <trkpt lat="31.40415080823004245758056640625" lon="119.4924758188426494598388671875">
        <ele>8.3999996185302734375</ele>
        <time>2025-01-06T23:27:06.000Z</time>
        <extensions>
          <ns3:TrackPointExtension>
            <ns3:cad>94</ns3:cad>
          </ns3:TrackPointExtension>
        </extensions>
      </trkpt>
      <trkpt lat="31.40415868721902370452880859375" lon="119.4923671893775463104248046875">
        <ele>8</ele>
        <time>2025-01-06T23:27:10.000Z</time>
        <extensions>
          <ns3:TrackPointExtension>
            <ns3:hr>131</ns3:hr>
            <ns3:cad>94</ns3:cad>
          </ns3:TrackPointExtension>
        </extensions>
      </trkpt>
      <trkpt lat="31.4041649736464023590087890625" lon="119.4922394491732120513916015625">
        <ele>7.599999904632568359375</ele>
        <time>2025-01-06T23:27:14.000Z</time>
        <extensions>
          <ns3:TrackPointExtension>
            <ns3:cad>94</ns3:cad>
          </ns3:TrackPointExtension>
        </extensions>
      </trkpt>
      <trkpt lat="31.40418198890984058380126953125" lon="119.49213023297488689422607421875">
        <ele>7</ele>
        <time>2025-01-06T23:27:17.000Z</time>
        <extensions>
          <ns3:TrackPointExtension>
            <ns3:hr>138</ns3:hr>
            <ns3:cad>94</ns3:cad>
          </ns3:TrackPointExtension>
        </extensions>
      </trkpt>
      <trkpt lat="31.40420143492519855499267578125" lon="119.49201808311045169830322265625">
        <ele>6.599999904632568359375</ele>
        <time>2025-01-06T23:27:21.000Z</time>
        <extensions>
          <ns3:TrackPointExtension>
            <ns3:cad>94</ns3:cad>
          </ns3:TrackPointExtension>
        </extensions>
      </trkpt>
      <trkpt lat="31.40425910241901874542236328125" lon="119.49212989769876003265380859375">
        <ele>6.80000019073486328125</ele>
        <time>2025-01-06T23:27:27.000Z</time>
        <extensions>
          <ns3:TrackPointExtension>
            <ns3:cad>94</ns3:cad>
          </ns3:TrackPointExtension>
        </extensions>
      </trkpt>
      <trkpt lat="31.40426899306476116180419921875" lon="119.49224724434316158294677734375">
        <ele>7.19999980926513671875</ele>
        <time>2025-01-06T23:27:32.000Z</time>
        <extensions>
          <ns3:TrackPointExtension>
            <ns3:cad>94</ns3:cad>
          </ns3:TrackPointExtension>
        </extensions>
      </trkpt>
      <trkpt lat="31.4042271673679351806640625" lon="119.4923541136085987091064453125">
        <ele>7.599999904632568359375</ele>
        <time>2025-01-06T23:27:36.000Z</time>
        <extensions>
          <ns3:TrackPointExtension>
            <ns3:cad>94</ns3:cad>
          </ns3:TrackPointExtension>
        </extensions>
      </trkpt>
      <trkpt lat="31.40423831529915332794189453125" lon="119.49249149300158023834228515625">
        <ele>8.19999980926513671875</ele>
        <time>2025-01-06T23:27:40.000Z</time>
        <extensions>
          <ns3:TrackPointExtension>
            <ns3:hr>147</ns3:hr>
            <ns3:cad>94</ns3:cad>
          </ns3:TrackPointExtension>
        </extensions>
      </trkpt>
      <trkpt lat="31.40420327894389629364013671875" lon="119.49258905835449695587158203125">
        <ele>8.6000003814697265625</ele>
        <time>2025-01-06T23:27:43.000Z</time>
        <extensions>
          <ns3:TrackPointExtension>
            <ns3:cad>94</ns3:cad>
          </ns3:TrackPointExtension>
        </extensions>
      </trkpt>
      <trkpt lat="31.40417327173054218292236328125" lon="119.492690227925777435302734375">
        <ele>9.3999996185302734375</ele>
        <time>2025-01-06T23:27:47.000Z</time>
        <extensions>
          <ns3:TrackPointExtension>
            <ns3:cad>94</ns3:cad>
          </ns3:TrackPointExtension>
        </extensions>
      </trkpt>
      <trkpt lat="31.40421719290316104888916015625" lon="119.4927822612226009368896484375">
        <ele>9.80000019073486328125</ele>
        <time>2025-01-06T23:27:50.000Z</time>
        <extensions>
          <ns3:TrackPointExtension>
            <ns3:hr>149</ns3:hr>
            <ns3:cad>94</ns3:cad>
          </ns3:TrackPointExtension>
        </extensions>
      </trkpt>
      <trkpt lat="31.4043275825679302215576171875" lon="119.4928278587758541107177734375">
        <ele>10</ele>
        <time>2025-01-06T23:27:55.000Z</time>
        <extensions>
          <ns3:TrackPointExtension>
            <ns3:cad>94</ns3:cad>
          </ns3:TrackPointExtension>
        </extensions>
      </trkpt>
      <trkpt lat="31.40442959032952785491943359375" lon="119.49278284795582294464111328125">
        <ele>9</ele>
        <time>2025-01-06T23:27:59.000Z</time>
        <extensions>
          <ns3:TrackPointExtension>
            <ns3:hr>149</ns3:hr>
            <ns3:cad>94</ns3:cad>
          </ns3:TrackPointExtension>
        </extensions>
      </trkpt>
      <trkpt lat="31.404535286128520965576171875" lon="119.4927616417407989501953125">
        <ele>8</ele>
        <time>2025-01-06T23:28:03.000Z</time>
        <extensions>
          <ns3:TrackPointExtension>
            <ns3:cad>94</ns3:cad>
          </ns3:TrackPointExtension>
        </extensions>
      </trkpt>
      <trkpt lat="31.40462405048310756683349609375" lon="119.492740519344806671142578125">
        <ele>7.599999904632568359375</ele>
        <time>2025-01-06T23:28:06.000Z</time>
        <extensions>
          <ns3:TrackPointExtension>
            <ns3:cad>94</ns3:cad>
          </ns3:TrackPointExtension>
        </extensions>
      </trkpt>
      <trkpt lat="31.40472731553018093109130859375" lon="119.4927165471017360687255859375">
        <ele>7.19999980926513671875</ele>
        <time>2025-01-06T23:28:10.000Z</time>
        <extensions>
          <ns3:TrackPointExtension>
            <ns3:cad>94</ns3:cad>
          </ns3:TrackPointExtension>
        </extensions>
      </trkpt>
      <trkpt lat="31.40483024530112743377685546875" lon="119.492684863507747650146484375">
        <ele>6.80000019073486328125</ele>
        <time>2025-01-06T23:28:14.000Z</time>
        <extensions>
          <ns3:TrackPointExtension>
            <ns3:cad>94</ns3:cad>
          </ns3:TrackPointExtension>
        </extensions>
      </trkpt>
      <trkpt lat="31.404941640794277191162109375" lon="119.49266374111175537109375">
        <ele>6.19999980926513671875</ele>
        <time>2025-01-06T23:28:18.000Z</time>
        <extensions>
          <ns3:TrackPointExtension>
            <ns3:hr>155</ns3:hr>
            <ns3:cad>94</ns3:cad>
          </ns3:TrackPointExtension>
        </extensions>
      </trkpt>
      <trkpt lat="31.405054628849029541015625" lon="119.49263180606067180633544921875">
        <ele>6.19999980926513671875</ele>
        <time>2025-01-06T23:28:22.000Z</time>
        <extensions>
          <ns3:TrackPointExtension>
            <ns3:cad>94</ns3:cad>
          </ns3:TrackPointExtension>
        </extensions>
      </trkpt>
      <trkpt lat="31.40515730716288089752197265625" lon="119.49262225069105625152587890625">
        <ele>6.599999904632568359375</ele>
        <time>2025-01-06T23:28:26.000Z</time>
        <extensions>
          <ns3:TrackPointExtension>
            <ns3:cad>105</ns3:cad>
          </ns3:TrackPointExtension>
        </extensions>
      </trkpt>
      <trkpt lat="31.4052710495889186859130859375" lon="119.49260649271309375762939453125">
        <ele>7.19999980926513671875</ele>
        <time>2025-01-06T23:28:30.000Z</time>
        <extensions>
          <ns3:TrackPointExtension>
            <ns3:cad>94</ns3:cad>
          </ns3:TrackPointExtension>
        </extensions>
      </trkpt>
      <trkpt lat="31.4053696207702159881591796875" lon="119.4926052354276180267333984375">
        <ele>7.599999904632568359375</ele>
        <time>2025-01-06T23:28:34.000Z</time>
        <extensions>
          <ns3:TrackPointExtension>
            <ns3:cad>94</ns3:cad>
          </ns3:TrackPointExtension>
        </extensions>
      </trkpt>
      <trkpt lat="31.4054728858172893524169921875" lon="119.4925765693187713623046875">
        <ele>8</ele>
        <time>2025-01-06T23:28:38.000Z</time>
        <extensions>
          <ns3:TrackPointExtension>
            <ns3:cad>94</ns3:cad>
          </ns3:TrackPointExtension>
        </extensions>
      </trkpt>
      <trkpt lat="31.4055790007114410400390625" lon="119.492564499378204345703125">
        <ele>7.599999904632568359375</ele>
        <time>2025-01-06T23:28:42.000Z</time>
        <extensions>
          <ns3:TrackPointExtension>
            <ns3:cad>94</ns3:cad>
          </ns3:TrackPointExtension>
        </extensions>
      </trkpt>
      <trkpt lat="31.4056807570159435272216796875" lon="119.49253474362194538116455078125">
        <ele>7.400000095367431640625</ele>
        <time>2025-01-06T23:28:46.000Z</time>
        <extensions>
          <ns3:TrackPointExtension>
            <ns3:cad>94</ns3:cad>
          </ns3:TrackPointExtension>
        </extensions>
      </trkpt>
      <trkpt lat="31.40576876699924468994140625" lon="119.49251010082662105560302734375">
        <ele>7.19999980926513671875</ele>
        <time>2025-01-06T23:28:49.000Z</time>
        <extensions>
          <ns3:TrackPointExtension>
            <ns3:cad>94</ns3:cad>
          </ns3:TrackPointExtension>
        </extensions>
      </trkpt>
      <trkpt lat="31.40586876310408115386962890625" lon="119.49250557459890842437744140625">
        <ele>6.80000019073486328125</ele>
        <time>2025-01-06T23:28:53.000Z</time>
        <extensions>
          <ns3:TrackPointExtension>
            <ns3:cad>94</ns3:cad>
          </ns3:TrackPointExtension>
        </extensions>
      </trkpt>
      <trkpt lat="31.4059617184102535247802734375" lon="119.4924882240593433380126953125">
        <ele>6.400000095367431640625</ele>
        <time>2025-01-06T23:28:57.000Z</time>
        <extensions>
          <ns3:TrackPointExtension>
            <ns3:cad>94</ns3:cad>
          </ns3:TrackPointExtension>
        </extensions>
      </trkpt>
      <trkpt lat="31.406065486371517181396484375" lon="119.4924654252827167510986328125">
        <ele>5.80000019073486328125</ele>
        <time>2025-01-06T23:29:01.000Z</time>
        <extensions>
          <ns3:TrackPointExtension>
            <ns3:hr>157</ns3:hr>
            <ns3:cad>94</ns3:cad>
          </ns3:TrackPointExtension>
        </extensions>
      </trkpt>
      <trkpt lat="31.40616330318152904510498046875" lon="119.4924396090209484100341796875">
        <ele>5.599999904632568359375</ele>
        <time>2025-01-06T23:29:05.000Z</time>
        <extensions>
          <ns3:TrackPointExtension>
            <ns3:cad>94</ns3:cad>
          </ns3:TrackPointExtension>
        </extensions>
      </trkpt>
      <trkpt lat="31.40626036562025547027587890625" lon="119.49242158792912960052490234375">
        <ele>6</ele>
        <time>2025-01-06T23:29:09.000Z</time>
        <extensions>
          <ns3:TrackPointExtension>
            <ns3:cad>94</ns3:cad>
          </ns3:TrackPointExtension>
        </extensions>
      </trkpt>
      <trkpt lat="31.40635726042091846466064453125" lon="119.49239241890609264373779296875">
        <ele>6.19999980926513671875</ele>
        <time>2025-01-06T23:29:13.000Z</time>
        <extensions>
          <ns3:TrackPointExtension>
            <ns3:cad>94</ns3:cad>
          </ns3:TrackPointExtension>
        </extensions>
      </trkpt>
      <trkpt lat="31.406449042260646820068359375" lon="119.49238286353647708892822265625">
        <ele>6.400000095367431640625</ele>
        <time>2025-01-06T23:29:17.000Z</time>
        <extensions>
          <ns3:TrackPointExtension>
            <ns3:cad>94</ns3:cad>
          </ns3:TrackPointExtension>
        </extensions>
      </trkpt>
      <trkpt lat="31.40655172057449817657470703125" lon="119.49235972948372364044189453125">
        <ele>6.599999904632568359375</ele>
        <time>2025-01-06T23:29:21.000Z</time>
        <extensions>
          <ns3:TrackPointExtension>
            <ns3:hr>157</ns3:hr>
            <ns3:cad>94</ns3:cad>
          </ns3:TrackPointExtension>
        </extensions>
      </trkpt>
      <trkpt lat="31.4066403172910213470458984375" lon="119.492321424186229705810546875">
        <ele>6.80000019073486328125</ele>
        <time>2025-01-06T23:29:25.000Z</time>
        <extensions>
          <ns3:TrackPointExtension>
            <ns3:cad>94</ns3:cad>
          </ns3:TrackPointExtension>
        </extensions>
      </trkpt>
      <trkpt lat="31.40674701891839504241943359375" lon="119.49228781275451183319091796875">
        <ele>7</ele>
        <time>2025-01-06T23:29:30.000Z</time>
        <extensions>
          <ns3:TrackPointExtension>
            <ns3:cad>94</ns3:cad>
          </ns3:TrackPointExtension>
        </extensions>
      </trkpt>
      <trkpt lat="31.4068512059748172760009765625" lon="119.492272473871707916259765625">
        <ele>7</ele>
        <time>2025-01-06T23:29:34.000Z</time>
        <extensions>
          <ns3:TrackPointExtension>
            <ns3:hr>157</ns3:hr>
            <ns3:cad>94</ns3:cad>
          </ns3:TrackPointExtension>
        </extensions>
      </trkpt>
      <trkpt lat="31.40695187263190746307373046875" lon="119.49226132594048976898193359375">
        <ele>7.400000095367431640625</ele>
        <time>2025-01-06T23:29:38.000Z</time>
        <extensions>
          <ns3:TrackPointExtension>
            <ns3:cad>94</ns3:cad>
          </ns3:TrackPointExtension>
        </extensions>
      </trkpt>
      <trkpt lat="31.40707089565694332122802734375" lon="119.49223383329808712005615234375">
        <ele>7.80000019073486328125</ele>
        <time>2025-01-06T23:29:43.000Z</time>
        <extensions>
          <ns3:TrackPointExtension>
            <ns3:cad>82</ns3:cad>
          </ns3:TrackPointExtension>
        </extensions>
      </trkpt>
      <trkpt lat="31.40715991146862506866455078125" lon="119.4922055862843990325927734375">
        <ele>8</ele>
        <time>2025-01-06T23:29:46.000Z</time>
        <extensions>
          <ns3:TrackPointExtension>
            <ns3:cad>94</ns3:cad>
          </ns3:TrackPointExtension>
        </extensions>
      </trkpt>
      <trkpt lat="31.40725529752671718597412109375" lon="119.49216912500560283660888671875">
        <ele>8.3999996185302734375</ele>
        <time>2025-01-06T23:29:50.000Z</time>
        <extensions>
          <ns3:TrackPointExtension>
            <ns3:cad>94</ns3:cad>
          </ns3:TrackPointExtension>
        </extensions>
      </trkpt>
      <trkpt lat="31.40735127031803131103515625" lon="119.49216283857822418212890625">
        <ele>8.6000003814697265625</ele>
        <time>2025-01-06T23:29:54.000Z</time>
        <extensions>
          <ns3:TrackPointExtension>
            <ns3:cad>94</ns3:cad>
          </ns3:TrackPointExtension>
        </extensions>
      </trkpt>
      <trkpt lat="31.40747071243822574615478515625" lon="119.49212604202330112457275390625">
        <ele>8</ele>
        <time>2025-01-06T23:29:58.000Z</time>
        <extensions>
          <ns3:TrackPointExtension>
            <ns3:cad>94</ns3:cad>
          </ns3:TrackPointExtension>
        </extensions>
      </trkpt>
      <trkpt lat="31.40758034773170948028564453125" lon="119.49210324324667453765869140625">
        <ele>7.400000095367431640625</ele>
        <time>2025-01-06T23:30:02.000Z</time>
        <extensions>
          <ns3:TrackPointExtension>
            <ns3:hr>153</ns3:hr>
            <ns3:cad>94</ns3:cad>
          </ns3:TrackPointExtension>
        </extensions>
      </trkpt>
      <trkpt lat="31.40767841599881649017333984375" lon="119.49208103120326995849609375">
        <ele>7</ele>
        <time>2025-01-06T23:30:06.000Z</time>
        <extensions>
          <ns3:TrackPointExtension>
            <ns3:cad>94</ns3:cad>
          </ns3:TrackPointExtension>
        </extensions>
      </trkpt>
      <trkpt lat="31.40779190696775913238525390625" lon="119.49204750359058380126953125">
        <ele>6.599999904632568359375</ele>
        <time>2025-01-06T23:30:10.000Z</time>
        <extensions>
          <ns3:TrackPointExtension>
            <ns3:cad>82</ns3:cad>
          </ns3:TrackPointExtension>
        </extensions>
      </trkpt>
      <trkpt lat="31.40789399854838848114013671875" lon="119.49202780611813068389892578125">
        <ele>6.19999980926513671875</ele>
        <time>2025-01-06T23:30:14.000Z</time>
        <extensions>
          <ns3:TrackPointExtension>
            <ns3:cad>94</ns3:cad>
          </ns3:TrackPointExtension>
        </extensions>
      </trkpt>
      <trkpt lat="31.40799365937709808349609375" lon="119.49200031347572803497314453125">
        <ele>6.19999980926513671875</ele>
        <time>2025-01-06T23:30:18.000Z</time>
        <extensions>
          <ns3:TrackPointExtension>
            <ns3:cad>94</ns3:cad>
          </ns3:TrackPointExtension>
        </extensions>
      </trkpt>
      <trkpt lat="31.40810404904186725616455078125" lon="119.49199109338223934173583984375">
        <ele>6.599999904632568359375</ele>
        <time>2025-01-06T23:30:22.000Z</time>
        <extensions>
          <ns3:TrackPointExtension>
            <ns3:cad>94</ns3:cad>
          </ns3:TrackPointExtension>
        </extensions>
      </trkpt>
      <trkpt lat="31.4081110060214996337890625" lon="119.4921194203197956085205078125">
        <ele>6.19999980926513671875</ele>
        <time>2025-01-06T23:30:25.000Z</time>
        <extensions>
          <ns3:TrackPointExtension>
            <ns3:cad>94</ns3:cad>
          </ns3:TrackPointExtension>
        </extensions>
      </trkpt>
      <trkpt lat="31.4080957509577274322509765625" lon="119.492261409759521484375">
        <ele>5.599999904632568359375</ele>
        <time>2025-01-06T23:30:30.000Z</time>
        <extensions>
          <ns3:TrackPointExtension>
            <ns3:cad>82</ns3:cad>
          </ns3:TrackPointExtension>
        </extensions>
      </trkpt>
      <trkpt lat="31.40810765326023101806640625" lon="119.49239711277186870574951171875">
        <ele>4.80000019073486328125</ele>
        <time>2025-01-06T23:30:34.000Z</time>
        <extensions>
          <ns3:TrackPointExtension>
            <ns3:hr>157</ns3:hr>
            <ns3:cad>94</ns3:cad>
          </ns3:TrackPointExtension>
        </extensions>
      </trkpt>
      <trkpt lat="31.40809868462383747100830078125" lon="119.49251554906368255615234375">
        <ele>4.19999980926513671875</ele>
        <time>2025-01-06T23:30:38.000Z</time>
        <extensions>
          <ns3:TrackPointExtension>
            <ns3:cad>94</ns3:cad>
          </ns3:TrackPointExtension>
        </extensions>
      </trkpt>
      <trkpt lat="31.40808284282684326171875" lon="119.49263415299355983734130859375">
        <ele>4</ele>
        <time>2025-01-06T23:30:42.000Z</time>
        <extensions>
          <ns3:TrackPointExtension>
            <ns3:cad>94</ns3:cad>
          </ns3:TrackPointExtension>
        </extensions>
      </trkpt>
      <trkpt lat="31.40807471238076686859130859375" lon="119.4927708618342876434326171875">
        <ele>4</ele>
        <time>2025-01-06T23:30:46.000Z</time>
        <extensions>
          <ns3:TrackPointExtension>
            <ns3:cad>94</ns3:cad>
          </ns3:TrackPointExtension>
        </extensions>
      </trkpt>
      <trkpt lat="31.40805543400347232818603515625" lon="119.49288845993578433990478515625">
        <ele>4</ele>
        <time>2025-01-06T23:30:50.000Z</time>
        <extensions>
          <ns3:TrackPointExtension>
            <ns3:cad>94</ns3:cad>
          </ns3:TrackPointExtension>
        </extensions>
      </trkpt>
      <trkpt lat="31.4080374129116535186767578125" lon="119.4930042140185832977294921875">
        <ele>4.400000095367431640625</ele>
        <time>2025-01-06T23:30:54.000Z</time>
        <extensions>
          <ns3:TrackPointExtension>
            <ns3:cad>94</ns3:cad>
          </ns3:TrackPointExtension>
        </extensions>
      </trkpt>
      <trkpt lat="31.40801972709596157073974609375" lon="119.49311376549303531646728515625">
        <ele>4.80000019073486328125</ele>
        <time>2025-01-06T23:30:57.000Z</time>
        <extensions>
          <ns3:TrackPointExtension>
            <ns3:hr>156</ns3:hr>
            <ns3:cad>94</ns3:cad>
          </ns3:TrackPointExtension>
        </extensions>
      </trkpt>
      <trkpt lat="31.40800732187926769256591796875" lon="119.493243433535099029541015625">
        <ele>6</ele>
        <time>2025-01-06T23:31:01.000Z</time>
        <extensions>
          <ns3:TrackPointExtension>
            <ns3:cad>94</ns3:cad>
          </ns3:TrackPointExtension>
        </extensions>
      </trkpt>
      <trkpt lat="31.4079908095300197601318359375" lon="119.4933693297207355499267578125">
        <ele>7.599999904632568359375</ele>
        <time>2025-01-06T23:31:05.000Z</time>
        <extensions>
          <ns3:TrackPointExtension>
            <ns3:hr>157</ns3:hr>
            <ns3:cad>94</ns3:cad>
          </ns3:TrackPointExtension>
        </extensions>
      </trkpt>
      <trkpt lat="31.407979913055896759033203125" lon="119.4935044459998607635498046875">
        <ele>8.6000003814697265625</ele>
        <time>2025-01-06T23:31:09.000Z</time>
        <extensions>
          <ns3:TrackPointExtension>
            <ns3:cad>94</ns3:cad>
          </ns3:TrackPointExtension>
        </extensions>
      </trkpt>
      <trkpt lat="31.407962478697299957275390625" lon="119.4936227984726428985595703125">
        <ele>9.6000003814697265625</ele>
        <time>2025-01-06T23:31:13.000Z</time>
        <extensions>
          <ns3:TrackPointExtension>
            <ns3:cad>94</ns3:cad>
          </ns3:TrackPointExtension>
        </extensions>
      </trkpt>
      <trkpt lat="31.4079445414245128631591796875" lon="119.493757076561450958251953125">
        <ele>9.3999996185302734375</ele>
        <time>2025-01-06T23:31:17.000Z</time>
        <extensions>
          <ns3:TrackPointExtension>
            <ns3:cad>94</ns3:cad>
          </ns3:TrackPointExtension>
        </extensions>
      </trkpt>
      <trkpt lat="31.4079418592154979705810546875" lon="119.49388355948030948638916015625">
        <ele>8.19999980926513671875</ele>
        <time>2025-01-06T23:31:21.000Z</time>
        <extensions>
          <ns3:TrackPointExtension>
            <ns3:cad>94</ns3:cad>
          </ns3:TrackPointExtension>
        </extensions>
      </trkpt>
      <trkpt lat="31.40791210345923900604248046875" lon="119.49400476180016994476318359375">
        <ele>7.400000095367431640625</ele>
        <time>2025-01-06T23:31:25.000Z</time>
        <extensions>
          <ns3:TrackPointExtension>
            <ns3:cad>94</ns3:cad>
          </ns3:TrackPointExtension>
        </extensions>
      </trkpt>
      <trkpt lat="31.40790523029863834381103515625" lon="119.4941280595958232879638671875">
        <ele>6.599999904632568359375</ele>
        <time>2025-01-06T23:31:29.000Z</time>
        <extensions>
          <ns3:TrackPointExtension>
            <ns3:hr>156</ns3:hr>
            <ns3:cad>94</ns3:cad>
          </ns3:TrackPointExtension>
        </extensions>
      </trkpt>
      <trkpt lat="31.40787891112267971038818359375" lon="119.494253285229206085205078125">
        <ele>5.599999904632568359375</ele>
        <time>2025-01-06T23:31:33.000Z</time>
        <extensions>
          <ns3:TrackPointExtension>
            <ns3:cad>94</ns3:cad>
          </ns3:TrackPointExtension>
        </extensions>
      </trkpt>
      <trkpt lat="31.40786097384989261627197265625" lon="119.494380019605159759521484375">
        <ele>5.80000019073486328125</ele>
        <time>2025-01-06T23:31:37.000Z</time>
        <extensions>
          <ns3:TrackPointExtension>
            <ns3:cad>94</ns3:cad>
          </ns3:TrackPointExtension>
        </extensions>
      </trkpt>
      <trkpt lat="31.40784873627126216888427734375" lon="119.49450918473303318023681640625">
        <ele>6</ele>
        <time>2025-01-06T23:31:41.000Z</time>
        <extensions>
          <ns3:TrackPointExtension>
            <ns3:cad>94</ns3:cad>
          </ns3:TrackPointExtension>
        </extensions>
      </trkpt>
      <trkpt lat="31.40784479677677154541015625" lon="119.494635164737701416015625">
        <ele>6</ele>
        <time>2025-01-06T23:31:45.000Z</time>
        <extensions>
          <ns3:TrackPointExtension>
            <ns3:cad>94</ns3:cad>
          </ns3:TrackPointExtension>
        </extensions>
      </trkpt>
      <trkpt lat="31.40783247537910938262939453125" lon="119.49476349167525768280029296875">
        <ele>6</ele>
        <time>2025-01-06T23:31:49.000Z</time>
        <extensions>
          <ns3:TrackPointExtension>
            <ns3:hr>158</ns3:hr>
            <ns3:cad>94</ns3:cad>
          </ns3:TrackPointExtension>
        </extensions>
      </trkpt>
      <trkpt lat="31.40781085006892681121826171875" lon="119.4948884658515453338623046875">
        <ele>6.599999904632568359375</ele>
        <time>2025-01-06T23:31:53.000Z</time>
        <extensions>
          <ns3:TrackPointExtension>
            <ns3:cad>94</ns3:cad>
          </ns3:TrackPointExtension>
        </extensions>
      </trkpt>
      <trkpt lat="31.40779928304255008697509765625" lon="119.495004303753376007080078125">
        <ele>7</ele>
        <time>2025-01-06T23:31:57.000Z</time>
        <extensions>
          <ns3:TrackPointExtension>
            <ns3:cad>94</ns3:cad>
          </ns3:TrackPointExtension>
        </extensions>
      </trkpt>
      <trkpt lat="31.407779753208160400390625" lon="119.4951275177299976348876953125">
        <ele>7.19999980926513671875</ele>
        <time>2025-01-06T23:32:01.000Z</time>
        <extensions>
          <ns3:TrackPointExtension>
            <ns3:cad>94</ns3:cad>
          </ns3:TrackPointExtension>
        </extensions>
      </trkpt>
      <trkpt lat="31.407763659954071044921875" lon="119.49525048024952411651611328125">
        <ele>7</ele>
        <time>2025-01-06T23:32:05.000Z</time>
        <extensions>
          <ns3:TrackPointExtension>
            <ns3:cad>82</ns3:cad>
          </ns3:TrackPointExtension>
        </extensions>
      </trkpt>
      <trkpt lat="31.4077457226812839508056640625" lon="119.495357014238834381103515625">
        <ele>6.599999904632568359375</ele>
        <time>2025-01-06T23:32:08.000Z</time>
        <extensions>
          <ns3:TrackPointExtension>
            <ns3:cad>94</ns3:cad>
          </ns3:TrackPointExtension>
        </extensions>
      </trkpt>
      <trkpt lat="31.40773491002619266510009765625" lon="119.49548684991896152496337890625">
        <ele>6.400000095367431640625</ele>
        <time>2025-01-06T23:32:12.000Z</time>
        <extensions>
          <ns3:TrackPointExtension>
            <ns3:hr>159</ns3:hr>
            <ns3:cad>94</ns3:cad>
          </ns3:TrackPointExtension>
        </extensions>
      </trkpt>
      <trkpt lat="31.4077209122478961944580078125" lon="119.49560469947755336761474609375">
        <ele>6</ele>
        <time>2025-01-06T23:32:16.000Z</time>
        <extensions>
          <ns3:TrackPointExtension>
            <ns3:cad>94</ns3:cad>
          </ns3:TrackPointExtension>
        </extensions>
      </trkpt>
      <trkpt lat="31.40769098885357379913330078125" lon="119.49572908692061901092529296875">
        <ele>5.599999904632568359375</ele>
        <time>2025-01-06T23:32:20.000Z</time>
        <extensions>
          <ns3:TrackPointExtension/>
        </extensions>
      </trkpt>
    </trkseg>
  </trk>
</gpx>
