<gpx xmlns:ns3="http://www.garmin.com/xmlschemas/TrackPointExtension/v1" xmlns="http://www.topografix.com/GPX/1/1" xmlns:xsi="http://www.w3.org/2001/XMLSchema-instance" xmlns:ns2="http://www.garmin.com/xmlschemas/GpxExtensions/v3" creator="Garmin Connect" version="1.1" xsi:schemaLocation="http://www.topografix.com/GPX/1/1 http://www.topografix.com/GPX/11.xsd">
  <extensions>
<distance>1300.0</distance>
<average_hr>112.0</average_hr>
<average_speed>0.5851923091083192</average_speed>
<start_time>2025-02-04T01:45:30+00:00</start_time>
<end_time>2025-02-04T02:22:31.492000+00:00</end_time>
<moving_time>229.0</moving_time>
<elapsed_time>3471.889</elapsed_time>
</extensions>
<metadata>
    <link href="connect.garmin.com">
      <text>Garmin Connect</text>
    </link>
    <time>2025-02-04T01:45:30.000Z</time>
  </metadata>
  <trk>
    <name>游泳</name>
    <type>swimming</type>
    <trkseg/>
  </trk>
</gpx>
