<gpx xmlns:ns3="http://www.garmin.com/xmlschemas/TrackPointExtension/v1" xmlns="http://www.topografix.com/GPX/1/1" xmlns:xsi="http://www.w3.org/2001/XMLSchema-instance" xmlns:ns2="http://www.garmin.com/xmlschemas/GpxExtensions/v3" creator="Garmin Connect" version="1.1" xsi:schemaLocation="http://www.topografix.com/GPX/1/1 http://www.topografix.com/GPX/11.xsd">
  <extensions>
<distance>1528.84</distance>
<average_hr>101.0</average_hr>
<average_speed>2.6500000953674316</average_speed>
<start_time>2020-09-11T12:31:44+00:00</start_time>
<end_time>2020-09-11T12:41:20.865000+00:00</end_time>
<moving_time>576.0</moving_time>
<elapsed_time>576.865</elapsed_time>
</extensions>
<metadata>
    <link href="connect.garmin.com">
      <text>Garmin Connect</text>
    </link>
    <time>2020-09-11T12:31:44.000Z</time>
  </metadata>
  <trk>
    <name>常州市 自行车</name>
    <type>cycling</type>
    <trkseg>
      <trkpt lat="31.42412756569683551788330078125" lon="119.48338539339601993560791015625">
        <ele>12</ele>
        <time>2020-09-11T12:31:44.000Z</time>
        <extensions>
          <ns3:TrackPointExtension>
            <ns3:atemp>29.0</ns3:atemp>
            <ns3:hr>99</ns3:hr>
          </ns3:TrackPointExtension>
        </extensions>
      </trkpt>
      <trkpt lat="31.42413158901035785675048828125" lon="119.4833734072744846343994140625">
        <ele>12</ele>
        <time>2020-09-11T12:31:45.000Z</time>
        <extensions>
          <ns3:TrackPointExtension>
            <ns3:atemp>29.0</ns3:atemp>
            <ns3:hr>99</ns3:hr>
          </ns3:TrackPointExtension>
        </extensions>
      </trkpt>
      <trkpt lat="31.42414650879800319671630859375" lon="119.4833658635616302490234375">
        <ele>10.3999996185302734375</ele>
        <time>2020-09-11T12:31:48.000Z</time>
        <extensions>
          <ns3:TrackPointExtension>
            <ns3:atemp>29.0</ns3:atemp>
            <ns3:hr>98</ns3:hr>
          </ns3:TrackPointExtension>
        </extensions>
      </trkpt>
      <trkpt lat="31.42416226677596569061279296875" lon="119.48340416885912418365478515625">
        <ele>10</ele>
        <time>2020-09-11T12:31:50.000Z</time>
        <extensions>
          <ns3:TrackPointExtension>
            <ns3:atemp>29.0</ns3:atemp>
            <ns3:hr>99</ns3:hr>
          </ns3:TrackPointExtension>
        </extensions>
      </trkpt>
      <trkpt lat="31.42420182935893535614013671875" lon="119.48341883718967437744140625">
        <ele>10</ele>
        <time>2020-09-11T12:31:54.000Z</time>
        <extensions>
          <ns3:TrackPointExtension>
            <ns3:atemp>29.0</ns3:atemp>
            <ns3:hr>96</ns3:hr>
          </ns3:TrackPointExtension>
        </extensions>
      </trkpt>
      <trkpt lat="31.42423099838197231292724609375" lon="119.4834568910300731658935546875">
        <ele>9.80000019073486328125</ele>
        <time>2020-09-11T12:31:58.000Z</time>
        <extensions>
          <ns3:TrackPointExtension>
            <ns3:atemp>29.0</ns3:atemp>
            <ns3:hr>96</ns3:hr>
          </ns3:TrackPointExtension>
        </extensions>
      </trkpt>
      <trkpt lat="31.42424943856894969940185546875" lon="119.48346845805644989013671875">
        <ele>9.6000003814697265625</ele>
        <time>2020-09-11T12:31:59.000Z</time>
        <extensions>
          <ns3:TrackPointExtension>
            <ns3:atemp>29.0</ns3:atemp>
            <ns3:hr>96</ns3:hr>
          </ns3:TrackPointExtension>
        </extensions>
      </trkpt>
      <trkpt lat="31.42429688014090061187744140625" lon="119.48351313360035419464111328125">
        <ele>9.3999996185302734375</ele>
        <time>2020-09-11T12:32:02.000Z</time>
        <extensions>
          <ns3:TrackPointExtension>
            <ns3:atemp>29.0</ns3:atemp>
            <ns3:hr>94</ns3:hr>
          </ns3:TrackPointExtension>
        </extensions>
      </trkpt>
      <trkpt lat="31.42430945299565792083740234375" lon="119.4835222698748111724853515625">
        <ele>9.3999996185302734375</ele>
        <time>2020-09-11T12:32:03.000Z</time>
        <extensions>
          <ns3:TrackPointExtension>
            <ns3:atemp>29.0</ns3:atemp>
            <ns3:hr>94</ns3:hr>
          </ns3:TrackPointExtension>
        </extensions>
      </trkpt>
      <trkpt lat="31.4243274740874767303466796875" lon="119.48352889157831668853759765625">
        <ele>9.80000019073486328125</ele>
        <time>2020-09-11T12:32:06.000Z</time>
        <extensions>
          <ns3:TrackPointExtension>
            <ns3:atemp>29.0</ns3:atemp>
            <ns3:hr>92</ns3:hr>
          </ns3:TrackPointExtension>
        </extensions>
      </trkpt>
      <trkpt lat="31.42434834502637386322021484375" lon="119.4835321605205535888671875">
        <ele>9.80000019073486328125</ele>
        <time>2020-09-11T12:32:08.000Z</time>
        <extensions>
          <ns3:TrackPointExtension>
            <ns3:atemp>29.0</ns3:atemp>
            <ns3:hr>92</ns3:hr>
          </ns3:TrackPointExtension>
        </extensions>
      </trkpt>
      <trkpt lat="31.42446770332753658294677734375" lon="119.4835058413445949554443359375">
        <ele>9.3999996185302734375</ele>
        <time>2020-09-11T12:32:15.000Z</time>
        <extensions>
          <ns3:TrackPointExtension>
            <ns3:atemp>29.0</ns3:atemp>
            <ns3:hr>91</ns3:hr>
          </ns3:TrackPointExtension>
        </extensions>
      </trkpt>
      <trkpt lat="31.4245091937482357025146484375" lon="119.48350726626813411712646484375">
        <ele>9.3999996185302734375</ele>
        <time>2020-09-11T12:32:17.000Z</time>
        <extensions>
          <ns3:TrackPointExtension>
            <ns3:atemp>29.0</ns3:atemp>
            <ns3:hr>96</ns3:hr>
          </ns3:TrackPointExtension>
        </extensions>
      </trkpt>
      <trkpt lat="31.424532830715179443359375" lon="119.48351464234292507171630859375">
        <ele>9.3999996185302734375</ele>
        <time>2020-09-11T12:32:18.000Z</time>
        <extensions>
          <ns3:TrackPointExtension>
            <ns3:atemp>29.0</ns3:atemp>
            <ns3:hr>98</ns3:hr>
          </ns3:TrackPointExtension>
        </extensions>
      </trkpt>
      <trkpt lat="31.4245551265776157379150390625" lon="119.48355873115360736846923828125">
        <ele>9.3999996185302734375</ele>
        <time>2020-09-11T12:32:20.000Z</time>
        <extensions>
          <ns3:TrackPointExtension>
            <ns3:atemp>29.0</ns3:atemp>
            <ns3:hr>101</ns3:hr>
          </ns3:TrackPointExtension>
        </extensions>
      </trkpt>
      <trkpt lat="31.42457909882068634033203125" lon="119.48370038531720638275146484375">
        <ele>9.6000003814697265625</ele>
        <time>2020-09-11T12:32:26.000Z</time>
        <extensions>
          <ns3:TrackPointExtension>
            <ns3:atemp>29.0</ns3:atemp>
            <ns3:hr>101</ns3:hr>
          </ns3:TrackPointExtension>
        </extensions>
      </trkpt>
      <trkpt lat="31.4246640913188457489013671875" lon="119.48376978747546672821044921875">
        <ele>9.6000003814697265625</ele>
        <time>2020-09-11T12:32:31.000Z</time>
        <extensions>
          <ns3:TrackPointExtension>
            <ns3:atemp>29.0</ns3:atemp>
            <ns3:hr>98</ns3:hr>
          </ns3:TrackPointExtension>
        </extensions>
      </trkpt>
      <trkpt lat="31.424703486263751983642578125" lon="119.4837737269699573516845703125">
        <ele>9.80000019073486328125</ele>
        <time>2020-09-11T12:32:33.000Z</time>
        <extensions>
          <ns3:TrackPointExtension>
            <ns3:atemp>29.0</ns3:atemp>
            <ns3:hr>95</ns3:hr>
          </ns3:TrackPointExtension>
        </extensions>
      </trkpt>
      <trkpt lat="31.42479677684605121612548828125" lon="119.48376081883907318115234375">
        <ele>10.19999980926513671875</ele>
        <time>2020-09-11T12:32:38.000Z</time>
        <extensions>
          <ns3:TrackPointExtension>
            <ns3:atemp>29.0</ns3:atemp>
            <ns3:hr>95</ns3:hr>
          </ns3:TrackPointExtension>
        </extensions>
      </trkpt>
      <trkpt lat="31.4249534346163272857666015625" lon="119.48378219269216060638427734375">
        <ele>9.80000019073486328125</ele>
        <time>2020-09-11T12:32:45.000Z</time>
        <extensions>
          <ns3:TrackPointExtension>
            <ns3:atemp>29.0</ns3:atemp>
            <ns3:hr>98</ns3:hr>
          </ns3:TrackPointExtension>
        </extensions>
      </trkpt>
      <trkpt lat="31.425074972212314605712890625" lon="119.48380867950618267059326171875">
        <ele>10</ele>
        <time>2020-09-11T12:32:50.000Z</time>
        <extensions>
          <ns3:TrackPointExtension>
            <ns3:atemp>29.0</ns3:atemp>
            <ns3:hr>99</ns3:hr>
          </ns3:TrackPointExtension>
        </extensions>
      </trkpt>
      <trkpt lat="31.42512182705104351043701171875" lon="119.48380851186811923980712890625">
        <ele>10.3999996185302734375</ele>
        <time>2020-09-11T12:32:52.000Z</time>
        <extensions>
          <ns3:TrackPointExtension>
            <ns3:atemp>29.0</ns3:atemp>
            <ns3:hr>99</ns3:hr>
          </ns3:TrackPointExtension>
        </extensions>
      </trkpt>
      <trkpt lat="31.42519290558993816375732421875" lon="119.48382695205509662628173828125">
        <ele>10.3999996185302734375</ele>
        <time>2020-09-11T12:32:55.000Z</time>
        <extensions>
          <ns3:TrackPointExtension>
            <ns3:atemp>29.0</ns3:atemp>
            <ns3:hr>98</ns3:hr>
          </ns3:TrackPointExtension>
        </extensions>
      </trkpt>
      <trkpt lat="31.42531310208141803741455078125" lon="119.48384656570851802825927734375">
        <ele>9.80000019073486328125</ele>
        <time>2020-09-11T12:32:59.000Z</time>
        <extensions>
          <ns3:TrackPointExtension>
            <ns3:atemp>29.0</ns3:atemp>
            <ns3:hr>95</ns3:hr>
          </ns3:TrackPointExtension>
        </extensions>
      </trkpt>
      <trkpt lat="31.42533623613417148590087890625" lon="119.48384539224207401275634765625">
        <ele>9.80000019073486328125</ele>
        <time>2020-09-11T12:33:00.000Z</time>
        <extensions>
          <ns3:TrackPointExtension>
            <ns3:atemp>29.0</ns3:atemp>
            <ns3:hr>95</ns3:hr>
          </ns3:TrackPointExtension>
        </extensions>
      </trkpt>
      <trkpt lat="31.42540195025503635406494140625" lon="119.4838380999863147735595703125">
        <ele>9.3999996185302734375</ele>
        <time>2020-09-11T12:33:03.000Z</time>
        <extensions>
          <ns3:TrackPointExtension>
            <ns3:atemp>29.0</ns3:atemp>
            <ns3:hr>95</ns3:hr>
          </ns3:TrackPointExtension>
        </extensions>
      </trkpt>
      <trkpt lat="31.425451152026653289794921875" lon="119.4838406145572662353515625">
        <ele>9.3999996185302734375</ele>
        <time>2020-09-11T12:33:05.000Z</time>
        <extensions>
          <ns3:TrackPointExtension>
            <ns3:atemp>29.0</ns3:atemp>
            <ns3:hr>94</ns3:hr>
          </ns3:TrackPointExtension>
        </extensions>
      </trkpt>
      <trkpt lat="31.42548057250678539276123046875" lon="119.48384262621402740478515625">
        <ele>9.19999980926513671875</ele>
        <time>2020-09-11T12:33:06.000Z</time>
        <extensions>
          <ns3:TrackPointExtension>
            <ns3:atemp>29.0</ns3:atemp>
            <ns3:hr>91</ns3:hr>
          </ns3:TrackPointExtension>
        </extensions>
      </trkpt>
      <trkpt lat="31.42558199353516101837158203125" lon="119.4838461466133594512939453125">
        <ele>9</ele>
        <time>2020-09-11T12:33:09.000Z</time>
        <extensions>
          <ns3:TrackPointExtension>
            <ns3:atemp>29.0</ns3:atemp>
            <ns3:hr>97</ns3:hr>
          </ns3:TrackPointExtension>
        </extensions>
      </trkpt>
      <trkpt lat="31.4256149344146251678466796875" lon="119.48384036310017108917236328125">
        <ele>9</ele>
        <time>2020-09-11T12:33:10.000Z</time>
        <extensions>
          <ns3:TrackPointExtension>
            <ns3:atemp>29.0</ns3:atemp>
            <ns3:hr>98</ns3:hr>
          </ns3:TrackPointExtension>
        </extensions>
      </trkpt>
      <trkpt lat="31.425766982138156890869140625" lon="119.4838515110313892364501953125">
        <ele>8.6000003814697265625</ele>
        <time>2020-09-11T12:33:15.000Z</time>
        <extensions>
          <ns3:TrackPointExtension>
            <ns3:atemp>29.0</ns3:atemp>
            <ns3:hr>97</ns3:hr>
          </ns3:TrackPointExtension>
        </extensions>
      </trkpt>
      <trkpt lat="31.42598918639123439788818359375" lon="119.48388847522437572479248046875">
        <ele>8.6000003814697265625</ele>
        <time>2020-09-11T12:33:22.000Z</time>
        <extensions>
          <ns3:TrackPointExtension>
            <ns3:atemp>29.0</ns3:atemp>
            <ns3:hr>98</ns3:hr>
          </ns3:TrackPointExtension>
        </extensions>
      </trkpt>
      <trkpt lat="31.42622706480324268341064453125" lon="119.48390339501202106475830078125">
        <ele>8.6000003814697265625</ele>
        <time>2020-09-11T12:33:30.000Z</time>
        <extensions>
          <ns3:TrackPointExtension>
            <ns3:atemp>29.0</ns3:atemp>
            <ns3:hr>101</ns3:hr>
          </ns3:TrackPointExtension>
        </extensions>
      </trkpt>
      <trkpt lat="31.42640375532209873199462890625" lon="119.48390842415392398834228515625">
        <ele>9.3999996185302734375</ele>
        <time>2020-09-11T12:33:37.000Z</time>
        <extensions>
          <ns3:TrackPointExtension>
            <ns3:atemp>29.0</ns3:atemp>
            <ns3:hr>102</ns3:hr>
          </ns3:TrackPointExtension>
        </extensions>
      </trkpt>
      <trkpt lat="31.42655814997851848602294921875" lon="119.48389601893723011016845703125">
        <ele>9.19999980926513671875</ele>
        <time>2020-09-11T12:33:44.000Z</time>
        <extensions>
          <ns3:TrackPointExtension>
            <ns3:atemp>29.0</ns3:atemp>
            <ns3:hr>104</ns3:hr>
          </ns3:TrackPointExtension>
        </extensions>
      </trkpt>
      <trkpt lat="31.4267067611217498779296875" lon="119.4839004613459110260009765625">
        <ele>8.80000019073486328125</ele>
        <time>2020-09-11T12:33:50.000Z</time>
        <extensions>
          <ns3:TrackPointExtension>
            <ns3:atemp>29.0</ns3:atemp>
            <ns3:hr>105</ns3:hr>
          </ns3:TrackPointExtension>
        </extensions>
      </trkpt>
      <trkpt lat="31.4267297275364398956298828125" lon="119.483905993402004241943359375">
        <ele>8.80000019073486328125</ele>
        <time>2020-09-11T12:33:51.000Z</time>
        <extensions>
          <ns3:TrackPointExtension>
            <ns3:atemp>29.0</ns3:atemp>
            <ns3:hr>102</ns3:hr>
          </ns3:TrackPointExtension>
        </extensions>
      </trkpt>
      <trkpt lat="31.42684154212474822998046875" lon="119.4839333184063434600830078125">
        <ele>8.6000003814697265625</ele>
        <time>2020-09-11T12:33:55.000Z</time>
        <extensions>
          <ns3:TrackPointExtension>
            <ns3:atemp>29.0</ns3:atemp>
            <ns3:hr>101</ns3:hr>
          </ns3:TrackPointExtension>
        </extensions>
      </trkpt>
      <trkpt lat="31.427030302584171295166015625" lon="119.48395770974457263946533203125">
        <ele>8.6000003814697265625</ele>
        <time>2020-09-11T12:34:02.000Z</time>
        <extensions>
          <ns3:TrackPointExtension>
            <ns3:atemp>29.0</ns3:atemp>
            <ns3:hr>102</ns3:hr>
          </ns3:TrackPointExtension>
        </extensions>
      </trkpt>
      <trkpt lat="31.42707933671772480010986328125" lon="119.483966343104839324951171875">
        <ele>8.80000019073486328125</ele>
        <time>2020-09-11T12:34:04.000Z</time>
        <extensions>
          <ns3:TrackPointExtension>
            <ns3:atemp>29.0</ns3:atemp>
            <ns3:hr>105</ns3:hr>
          </ns3:TrackPointExtension>
        </extensions>
      </trkpt>
      <trkpt lat="31.427113451063632965087890625" lon="119.48396374471485614776611328125">
        <ele>8.80000019073486328125</ele>
        <time>2020-09-11T12:34:06.000Z</time>
        <extensions>
          <ns3:TrackPointExtension>
            <ns3:atemp>29.0</ns3:atemp>
            <ns3:hr>106</ns3:hr>
          </ns3:TrackPointExtension>
        </extensions>
      </trkpt>
      <trkpt lat="31.427146308124065399169921875" lon="119.48396357707679271697998046875">
        <ele>8.6000003814697265625</ele>
        <time>2020-09-11T12:34:08.000Z</time>
        <extensions>
          <ns3:TrackPointExtension>
            <ns3:atemp>29.0</ns3:atemp>
            <ns3:hr>106</ns3:hr>
          </ns3:TrackPointExtension>
        </extensions>
      </trkpt>
      <trkpt lat="31.42726440913975238800048828125" lon="119.48398184962570667266845703125">
        <ele>8.80000019073486328125</ele>
        <time>2020-09-11T12:34:15.000Z</time>
        <extensions>
          <ns3:TrackPointExtension>
            <ns3:atemp>29.0</ns3:atemp>
            <ns3:hr>110</ns3:hr>
          </ns3:TrackPointExtension>
        </extensions>
      </trkpt>
      <trkpt lat="31.42729961313307285308837890625" lon="119.483986794948577880859375">
        <ele>9</ele>
        <time>2020-09-11T12:34:17.000Z</time>
        <extensions>
          <ns3:TrackPointExtension>
            <ns3:atemp>29.0</ns3:atemp>
            <ns3:hr>109</ns3:hr>
          </ns3:TrackPointExtension>
        </extensions>
      </trkpt>
      <trkpt lat="31.42737203277647495269775390625" lon="119.48401219211518764495849609375">
        <ele>9.19999980926513671875</ele>
        <time>2020-09-11T12:34:21.000Z</time>
        <extensions>
          <ns3:TrackPointExtension>
            <ns3:atemp>29.0</ns3:atemp>
            <ns3:hr>111</ns3:hr>
          </ns3:TrackPointExtension>
        </extensions>
      </trkpt>
      <trkpt lat="31.42746171914041042327880859375" lon="119.48404320515692234039306640625">
        <ele>9</ele>
        <time>2020-09-11T12:34:25.000Z</time>
        <extensions>
          <ns3:TrackPointExtension>
            <ns3:atemp>29.0</ns3:atemp>
            <ns3:hr>115</ns3:hr>
          </ns3:TrackPointExtension>
        </extensions>
      </trkpt>
      <trkpt lat="31.42747563309967517852783203125" lon="119.4840556941926479339599609375">
        <ele>9</ele>
        <time>2020-09-11T12:34:26.000Z</time>
        <extensions>
          <ns3:TrackPointExtension>
            <ns3:atemp>29.0</ns3:atemp>
            <ns3:hr>113</ns3:hr>
          </ns3:TrackPointExtension>
        </extensions>
      </trkpt>
      <trkpt lat="31.42750798724591732025146484375" lon="119.48407757095992565155029296875">
        <ele>9.19999980926513671875</ele>
        <time>2020-09-11T12:34:28.000Z</time>
        <extensions>
          <ns3:TrackPointExtension>
            <ns3:atemp>29.0</ns3:atemp>
            <ns3:hr>109</ns3:hr>
          </ns3:TrackPointExtension>
        </extensions>
      </trkpt>
      <trkpt lat="31.42753246240317821502685546875" lon="119.48410070501267910003662109375">
        <ele>9.3999996185302734375</ele>
        <time>2020-09-11T12:34:30.000Z</time>
        <extensions>
          <ns3:TrackPointExtension>
            <ns3:atemp>29.0</ns3:atemp>
            <ns3:hr>105</ns3:hr>
          </ns3:TrackPointExtension>
        </extensions>
      </trkpt>
      <trkpt lat="31.42756599001586437225341796875" lon="119.48410741053521633148193359375">
        <ele>9.3999996185302734375</ele>
        <time>2020-09-11T12:34:33.000Z</time>
        <extensions>
          <ns3:TrackPointExtension>
            <ns3:atemp>29.0</ns3:atemp>
            <ns3:hr>103</ns3:hr>
          </ns3:TrackPointExtension>
        </extensions>
      </trkpt>
      <trkpt lat="31.42758317291736602783203125" lon="119.48411646299064159393310546875">
        <ele>9.19999980926513671875</ele>
        <time>2020-09-11T12:34:34.000Z</time>
        <extensions>
          <ns3:TrackPointExtension>
            <ns3:atemp>29.0</ns3:atemp>
            <ns3:hr>103</ns3:hr>
          </ns3:TrackPointExtension>
        </extensions>
      </trkpt>
      <trkpt lat="31.4276482164859771728515625" lon="119.48414714075624942779541015625">
        <ele>9.19999980926513671875</ele>
        <time>2020-09-11T12:34:37.000Z</time>
        <extensions>
          <ns3:TrackPointExtension>
            <ns3:atemp>29.0</ns3:atemp>
            <ns3:hr>103</ns3:hr>
          </ns3:TrackPointExtension>
        </extensions>
      </trkpt>
      <trkpt lat="31.42766322009265422821044921875" lon="119.48416222818195819854736328125">
        <ele>9.19999980926513671875</ele>
        <time>2020-09-11T12:34:38.000Z</time>
        <extensions>
          <ns3:TrackPointExtension>
            <ns3:atemp>29.0</ns3:atemp>
            <ns3:hr>103</ns3:hr>
          </ns3:TrackPointExtension>
        </extensions>
      </trkpt>
      <trkpt lat="31.4277550019323825836181640625" lon="119.48419525288045406341552734375">
        <ele>9.3999996185302734375</ele>
        <time>2020-09-11T12:34:41.000Z</time>
        <extensions>
          <ns3:TrackPointExtension>
            <ns3:atemp>29.0</ns3:atemp>
            <ns3:hr>103</ns3:hr>
          </ns3:TrackPointExtension>
        </extensions>
      </trkpt>
      <trkpt lat="31.4277710951864719390869140625" lon="119.48421017266809940338134765625">
        <ele>9.3999996185302734375</ele>
        <time>2020-09-11T12:34:42.000Z</time>
        <extensions>
          <ns3:TrackPointExtension>
            <ns3:atemp>29.0</ns3:atemp>
            <ns3:hr>103</ns3:hr>
          </ns3:TrackPointExtension>
        </extensions>
      </trkpt>
      <trkpt lat="31.4279209636151790618896484375" lon="119.48429684154689311981201171875">
        <ele>9.6000003814697265625</ele>
        <time>2020-09-11T12:34:45.000Z</time>
        <extensions>
          <ns3:TrackPointExtension>
            <ns3:atemp>29.0</ns3:atemp>
            <ns3:hr>103</ns3:hr>
          </ns3:TrackPointExtension>
        </extensions>
      </trkpt>
      <trkpt lat="31.428104527294635772705078125" lon="119.48434554040431976318359375">
        <ele>9.19999980926513671875</ele>
        <time>2020-09-11T12:34:51.000Z</time>
        <extensions>
          <ns3:TrackPointExtension>
            <ns3:atemp>29.0</ns3:atemp>
            <ns3:hr>102</ns3:hr>
          </ns3:TrackPointExtension>
        </extensions>
      </trkpt>
      <trkpt lat="31.42826621420681476593017578125" lon="119.48433740995824337005615234375">
        <ele>9.19999980926513671875</ele>
        <time>2020-09-11T12:34:56.000Z</time>
        <extensions>
          <ns3:TrackPointExtension>
            <ns3:atemp>29.0</ns3:atemp>
            <ns3:hr>103</ns3:hr>
          </ns3:TrackPointExtension>
        </extensions>
      </trkpt>
      <trkpt lat="31.4283321797847747802734375" lon="119.4842099212110042572021484375">
        <ele>9</ele>
        <time>2020-09-11T12:35:01.000Z</time>
        <extensions>
          <ns3:TrackPointExtension>
            <ns3:atemp>29.0</ns3:atemp>
            <ns3:hr>101</ns3:hr>
          </ns3:TrackPointExtension>
        </extensions>
      </trkpt>
      <trkpt lat="31.4283970557153224945068359375" lon="119.48406047187745571136474609375">
        <ele>9</ele>
        <time>2020-09-11T12:35:08.000Z</time>
        <extensions>
          <ns3:TrackPointExtension>
            <ns3:atemp>29.0</ns3:atemp>
            <ns3:hr>99</ns3:hr>
          </ns3:TrackPointExtension>
        </extensions>
      </trkpt>
      <trkpt lat="31.42851951532065868377685546875" lon="119.48391077108681201934814453125">
        <ele>9.19999980926513671875</ele>
        <time>2020-09-11T12:35:17.000Z</time>
        <extensions>
          <ns3:TrackPointExtension>
            <ns3:atemp>29.0</ns3:atemp>
            <ns3:hr>100</ns3:hr>
          </ns3:TrackPointExtension>
        </extensions>
      </trkpt>
      <trkpt lat="31.4285975508391857147216796875" lon="119.48380532674491405487060546875">
        <ele>9.19999980926513671875</ele>
        <time>2020-09-11T12:35:24.000Z</time>
        <extensions>
          <ns3:TrackPointExtension>
            <ns3:atemp>29.0</ns3:atemp>
            <ns3:hr>101</ns3:hr>
          </ns3:TrackPointExtension>
        </extensions>
      </trkpt>
      <trkpt lat="31.4286900870501995086669921875" lon="119.48368663899600505828857421875">
        <ele>9.19999980926513671875</ele>
        <time>2020-09-11T12:35:31.000Z</time>
        <extensions>
          <ns3:TrackPointExtension>
            <ns3:atemp>29.0</ns3:atemp>
            <ns3:hr>100</ns3:hr>
          </ns3:TrackPointExtension>
        </extensions>
      </trkpt>
      <trkpt lat="31.4288007281720638275146484375" lon="119.48358186520636081695556640625">
        <ele>9.19999980926513671875</ele>
        <time>2020-09-11T12:35:38.000Z</time>
        <extensions>
          <ns3:TrackPointExtension>
            <ns3:atemp>29.0</ns3:atemp>
            <ns3:hr>102</ns3:hr>
          </ns3:TrackPointExtension>
        </extensions>
      </trkpt>
      <trkpt lat="31.42894573509693145751953125" lon="119.48347709141671657562255859375">
        <ele>9.19999980926513671875</ele>
        <time>2020-09-11T12:35:44.000Z</time>
        <extensions>
          <ns3:TrackPointExtension>
            <ns3:atemp>29.0</ns3:atemp>
            <ns3:hr>103</ns3:hr>
          </ns3:TrackPointExtension>
        </extensions>
      </trkpt>
      <trkpt lat="31.42907045781612396240234375" lon="119.48337013833224773406982421875">
        <ele>9.19999980926513671875</ele>
        <time>2020-09-11T12:35:51.000Z</time>
        <extensions>
          <ns3:TrackPointExtension>
            <ns3:atemp>29.0</ns3:atemp>
            <ns3:hr>104</ns3:hr>
          </ns3:TrackPointExtension>
        </extensions>
      </trkpt>
      <trkpt lat="31.42914866097271442413330078125" lon="119.4832470081746578216552734375">
        <ele>9.19999980926513671875</ele>
        <time>2020-09-11T12:35:59.000Z</time>
        <extensions>
          <ns3:TrackPointExtension>
            <ns3:atemp>29.0</ns3:atemp>
            <ns3:hr>105</ns3:hr>
          </ns3:TrackPointExtension>
        </extensions>
      </trkpt>
      <trkpt lat="31.42921571619808673858642578125" lon="119.483142234385013580322265625">
        <ele>9.19999980926513671875</ele>
        <time>2020-09-11T12:36:06.000Z</time>
        <extensions>
          <ns3:TrackPointExtension>
            <ns3:atemp>29.0</ns3:atemp>
            <ns3:hr>107</ns3:hr>
          </ns3:TrackPointExtension>
        </extensions>
      </trkpt>
      <trkpt lat="31.4292843639850616455078125" lon="119.48303930461406707763671875">
        <ele>9.19999980926513671875</ele>
        <time>2020-09-11T12:36:13.000Z</time>
        <extensions>
          <ns3:TrackPointExtension>
            <ns3:atemp>29.0</ns3:atemp>
            <ns3:hr>104</ns3:hr>
          </ns3:TrackPointExtension>
        </extensions>
      </trkpt>
      <trkpt lat="31.42929517664015293121337890625" lon="119.48302228935062885284423828125">
        <ele>9.19999980926513671875</ele>
        <time>2020-09-11T12:36:14.000Z</time>
        <extensions>
          <ns3:TrackPointExtension>
            <ns3:atemp>29.0</ns3:atemp>
            <ns3:hr>103</ns3:hr>
          </ns3:TrackPointExtension>
        </extensions>
      </trkpt>
      <trkpt lat="31.42936558462679386138916015625" lon="119.48292941786348819732666015625">
        <ele>10.6000003814697265625</ele>
        <time>2020-09-11T12:36:20.000Z</time>
        <extensions>
          <ns3:TrackPointExtension>
            <ns3:atemp>29.0</ns3:atemp>
            <ns3:hr>104</ns3:hr>
          </ns3:TrackPointExtension>
        </extensions>
      </trkpt>
      <trkpt lat="31.4293881319463253021240234375" lon="119.4828986562788486480712890625">
        <ele>10.80000019073486328125</ele>
        <time>2020-09-11T12:36:22.000Z</time>
        <extensions>
          <ns3:TrackPointExtension>
            <ns3:atemp>29.0</ns3:atemp>
            <ns3:hr>104</ns3:hr>
          </ns3:TrackPointExtension>
        </extensions>
      </trkpt>
      <trkpt lat="31.42953045666217803955078125" lon="119.48281374759972095489501953125">
        <ele>11</ele>
        <time>2020-09-11T12:36:28.000Z</time>
        <extensions>
          <ns3:TrackPointExtension>
            <ns3:atemp>29.0</ns3:atemp>
            <ns3:hr>107</ns3:hr>
          </ns3:TrackPointExtension>
        </extensions>
      </trkpt>
      <trkpt lat="31.4296898804605007171630859375" lon="119.48280888609588146209716796875">
        <ele>10.80000019073486328125</ele>
        <time>2020-09-11T12:36:34.000Z</time>
        <extensions>
          <ns3:TrackPointExtension>
            <ns3:atemp>29.0</ns3:atemp>
            <ns3:hr>109</ns3:hr>
          </ns3:TrackPointExtension>
        </extensions>
      </trkpt>
      <trkpt lat="31.42983932979404926300048828125" lon="119.4827963970601558685302734375">
        <ele>11</ele>
        <time>2020-09-11T12:36:40.000Z</time>
        <extensions>
          <ns3:TrackPointExtension>
            <ns3:atemp>29.0</ns3:atemp>
            <ns3:hr>107</ns3:hr>
          </ns3:TrackPointExtension>
        </extensions>
      </trkpt>
      <trkpt lat="31.42985492013394832611083984375" lon="119.48278474621474742889404296875">
        <ele>10.80000019073486328125</ele>
        <time>2020-09-11T12:36:41.000Z</time>
        <extensions>
          <ns3:TrackPointExtension>
            <ns3:atemp>29.0</ns3:atemp>
            <ns3:hr>107</ns3:hr>
          </ns3:TrackPointExtension>
        </extensions>
      </trkpt>
      <trkpt lat="31.4298689179122447967529296875" lon="119.48277250863611698150634765625">
        <ele>10.80000019073486328125</ele>
        <time>2020-09-11T12:36:42.000Z</time>
        <extensions>
          <ns3:TrackPointExtension>
            <ns3:atemp>29.0</ns3:atemp>
            <ns3:hr>107</ns3:hr>
          </ns3:TrackPointExtension>
        </extensions>
      </trkpt>
      <trkpt lat="31.4299453608691692352294921875" lon="119.482754655182361602783203125">
        <ele>10.6000003814697265625</ele>
        <time>2020-09-11T12:36:45.000Z</time>
        <extensions>
          <ns3:TrackPointExtension>
            <ns3:atemp>29.0</ns3:atemp>
            <ns3:hr>105</ns3:hr>
          </ns3:TrackPointExtension>
        </extensions>
      </trkpt>
      <trkpt lat="31.43008835613727569580078125" lon="119.4827974028885364532470703125">
        <ele>10.6000003814697265625</ele>
        <time>2020-09-11T12:36:50.000Z</time>
        <extensions>
          <ns3:TrackPointExtension>
            <ns3:atemp>29.0</ns3:atemp>
            <ns3:hr>103</ns3:hr>
          </ns3:TrackPointExtension>
        </extensions>
      </trkpt>
      <trkpt lat="31.4302350394427776336669921875" lon="119.482902847230434417724609375">
        <ele>10.19999980926513671875</ele>
        <time>2020-09-11T12:36:55.000Z</time>
        <extensions>
          <ns3:TrackPointExtension>
            <ns3:atemp>29.0</ns3:atemp>
            <ns3:hr>102</ns3:hr>
          </ns3:TrackPointExtension>
        </extensions>
      </trkpt>
      <trkpt lat="31.43032413907349109649658203125" lon="119.4829643703997135162353515625">
        <ele>9.80000019073486328125</ele>
        <time>2020-09-11T12:36:58.000Z</time>
        <extensions>
          <ns3:TrackPointExtension>
            <ns3:atemp>29.0</ns3:atemp>
            <ns3:hr>99</ns3:hr>
          </ns3:TrackPointExtension>
        </extensions>
      </trkpt>
      <trkpt lat="31.4303808845579624176025390625" lon="119.4830089621245861053466796875">
        <ele>9.6000003814697265625</ele>
        <time>2020-09-11T12:37:00.000Z</time>
        <extensions>
          <ns3:TrackPointExtension>
            <ns3:atemp>29.0</ns3:atemp>
            <ns3:hr>99</ns3:hr>
          </ns3:TrackPointExtension>
        </extensions>
      </trkpt>
      <trkpt lat="31.43049663864076137542724609375" lon="119.48308892548084259033203125">
        <ele>9.3999996185302734375</ele>
        <time>2020-09-11T12:37:04.000Z</time>
        <extensions>
          <ns3:TrackPointExtension>
            <ns3:atemp>29.0</ns3:atemp>
            <ns3:hr>99</ns3:hr>
          </ns3:TrackPointExtension>
        </extensions>
      </trkpt>
      <trkpt lat="31.4306229539215564727783203125" lon="119.483136199414730072021484375">
        <ele>9.3999996185302734375</ele>
        <time>2020-09-11T12:37:08.000Z</time>
        <extensions>
          <ns3:TrackPointExtension>
            <ns3:atemp>29.0</ns3:atemp>
            <ns3:hr>102</ns3:hr>
          </ns3:TrackPointExtension>
        </extensions>
      </trkpt>
      <trkpt lat="31.430703587830066680908203125" lon="119.48319763876497745513916015625">
        <ele>9.19999980926513671875</ele>
        <time>2020-09-11T12:37:11.000Z</time>
        <extensions>
          <ns3:TrackPointExtension>
            <ns3:atemp>29.0</ns3:atemp>
            <ns3:hr>103</ns3:hr>
          </ns3:TrackPointExtension>
        </extensions>
      </trkpt>
      <trkpt lat="31.4309206791222095489501953125" lon="119.4833509437739849090576171875">
        <ele>9.19999980926513671875</ele>
        <time>2020-09-11T12:37:19.000Z</time>
        <extensions>
          <ns3:TrackPointExtension>
            <ns3:atemp>29.0</ns3:atemp>
            <ns3:hr>100</ns3:hr>
          </ns3:TrackPointExtension>
        </extensions>
      </trkpt>
      <trkpt lat="31.43110248260200023651123046875" lon="119.4835267961025238037109375">
        <ele>9</ele>
        <time>2020-09-11T12:37:26.000Z</time>
        <extensions>
          <ns3:TrackPointExtension>
            <ns3:atemp>29.0</ns3:atemp>
            <ns3:hr>101</ns3:hr>
          </ns3:TrackPointExtension>
        </extensions>
      </trkpt>
      <trkpt lat="31.431287638843059539794921875" lon="119.48367188684642314910888671875">
        <ele>9.19999980926513671875</ele>
        <time>2020-09-11T12:37:33.000Z</time>
        <extensions>
          <ns3:TrackPointExtension>
            <ns3:atemp>29.0</ns3:atemp>
            <ns3:hr>103</ns3:hr>
          </ns3:TrackPointExtension>
        </extensions>
      </trkpt>
      <trkpt lat="31.4314722083508968353271484375" lon="119.483828209340572357177734375">
        <ele>9</ele>
        <time>2020-09-11T12:37:40.000Z</time>
        <extensions>
          <ns3:TrackPointExtension>
            <ns3:atemp>29.0</ns3:atemp>
            <ns3:hr>101</ns3:hr>
          </ns3:TrackPointExtension>
        </extensions>
      </trkpt>
      <trkpt lat="31.43164998851716518402099609375" lon="119.4839510880410671234130859375">
        <ele>9.3999996185302734375</ele>
        <time>2020-09-11T12:37:47.000Z</time>
        <extensions>
          <ns3:TrackPointExtension>
            <ns3:atemp>29.0</ns3:atemp>
            <ns3:hr>101</ns3:hr>
          </ns3:TrackPointExtension>
        </extensions>
      </trkpt>
      <trkpt lat="31.43177370540797710418701171875" lon="119.48405359871685504913330078125">
        <ele>9.80000019073486328125</ele>
        <time>2020-09-11T12:37:52.000Z</time>
        <extensions>
          <ns3:TrackPointExtension>
            <ns3:atemp>29.0</ns3:atemp>
            <ns3:hr>102</ns3:hr>
          </ns3:TrackPointExtension>
        </extensions>
      </trkpt>
      <trkpt lat="31.43194754607975482940673828125" lon="119.48417999781668186187744140625">
        <ele>10.3999996185302734375</ele>
        <time>2020-09-11T12:37:59.000Z</time>
        <extensions>
          <ns3:TrackPointExtension>
            <ns3:atemp>29.0</ns3:atemp>
            <ns3:hr>104</ns3:hr>
          </ns3:TrackPointExtension>
        </extensions>
      </trkpt>
      <trkpt lat="31.431968249380588531494140625" lon="119.48419667780399322509765625">
        <ele>10.6000003814697265625</ele>
        <time>2020-09-11T12:38:00.000Z</time>
        <extensions>
          <ns3:TrackPointExtension>
            <ns3:atemp>29.0</ns3:atemp>
            <ns3:hr>104</ns3:hr>
          </ns3:TrackPointExtension>
        </extensions>
      </trkpt>
      <trkpt lat="31.432069838047027587890625" lon="119.4843074865639209747314453125">
        <ele>11.19999980926513671875</ele>
        <time>2020-09-11T12:38:05.000Z</time>
        <extensions>
          <ns3:TrackPointExtension>
            <ns3:atemp>29.0</ns3:atemp>
            <ns3:hr>105</ns3:hr>
          </ns3:TrackPointExtension>
        </extensions>
      </trkpt>
      <trkpt lat="31.432137228548526763916015625" lon="119.484394490718841552734375">
        <ele>11.19999980926513671875</ele>
        <time>2020-09-11T12:38:10.000Z</time>
        <extensions>
          <ns3:TrackPointExtension>
            <ns3:atemp>29.0</ns3:atemp>
            <ns3:hr>108</ns3:hr>
          </ns3:TrackPointExtension>
        </extensions>
      </trkpt>
      <trkpt lat="31.43215273506939411163330078125" lon="119.48441301472485065460205078125">
        <ele>11.19999980926513671875</ele>
        <time>2020-09-11T12:38:11.000Z</time>
        <extensions>
          <ns3:TrackPointExtension>
            <ns3:atemp>29.0</ns3:atemp>
            <ns3:hr>110</ns3:hr>
          </ns3:TrackPointExtension>
        </extensions>
      </trkpt>
      <trkpt lat="31.4322745241224765777587890625" lon="119.48449364863336086273193359375">
        <ele>10.80000019073486328125</ele>
        <time>2020-09-11T12:38:17.000Z</time>
        <extensions>
          <ns3:TrackPointExtension>
            <ns3:atemp>29.0</ns3:atemp>
            <ns3:hr>113</ns3:hr>
          </ns3:TrackPointExtension>
        </extensions>
      </trkpt>
      <trkpt lat="31.4322916232049465179443359375" lon="119.48450789786875247955322265625">
        <ele>11</ele>
        <time>2020-09-11T12:38:18.000Z</time>
        <extensions>
          <ns3:TrackPointExtension>
            <ns3:atemp>29.0</ns3:atemp>
            <ns3:hr>112</ns3:hr>
          </ns3:TrackPointExtension>
        </extensions>
      </trkpt>
      <trkpt lat="31.4323367178440093994140625" lon="119.48455701582133769989013671875">
        <ele>11.80000019073486328125</ele>
        <time>2020-09-11T12:38:21.000Z</time>
        <extensions>
          <ns3:TrackPointExtension>
            <ns3:atemp>29.0</ns3:atemp>
            <ns3:hr>111</ns3:hr>
          </ns3:TrackPointExtension>
        </extensions>
      </trkpt>
      <trkpt lat="31.43242816440761089324951171875" lon="119.48465726338326930999755859375">
        <ele>12.19999980926513671875</ele>
        <time>2020-09-11T12:38:27.000Z</time>
        <extensions>
          <ns3:TrackPointExtension>
            <ns3:atemp>29.0</ns3:atemp>
            <ns3:hr>113</ns3:hr>
          </ns3:TrackPointExtension>
        </extensions>
      </trkpt>
      <trkpt lat="31.43253721296787261962890625" lon="119.4847929663956165313720703125">
        <ele>11.6000003814697265625</ele>
        <time>2020-09-11T12:38:35.000Z</time>
        <extensions>
          <ns3:TrackPointExtension>
            <ns3:atemp>29.0</ns3:atemp>
            <ns3:hr>113</ns3:hr>
          </ns3:TrackPointExtension>
        </extensions>
      </trkpt>
      <trkpt lat="31.4325987361371517181396484375" lon="119.48484987951815128326416015625">
        <ele>11.80000019073486328125</ele>
        <time>2020-09-11T12:38:39.000Z</time>
        <extensions>
          <ns3:TrackPointExtension>
            <ns3:atemp>29.0</ns3:atemp>
            <ns3:hr>110</ns3:hr>
          </ns3:TrackPointExtension>
        </extensions>
      </trkpt>
      <trkpt lat="31.43264508806169033050537109375" lon="119.48489950038492679595947265625">
        <ele>12.19999980926513671875</ele>
        <time>2020-09-11T12:38:42.000Z</time>
        <extensions>
          <ns3:TrackPointExtension>
            <ns3:atemp>29.0</ns3:atemp>
            <ns3:hr>109</ns3:hr>
          </ns3:TrackPointExtension>
        </extensions>
      </trkpt>
      <trkpt lat="31.4328159950673580169677734375" lon="119.48507644236087799072265625">
        <ele>12.3999996185302734375</ele>
        <time>2020-09-11T12:38:50.000Z</time>
        <extensions>
          <ns3:TrackPointExtension>
            <ns3:atemp>29.0</ns3:atemp>
            <ns3:hr>108</ns3:hr>
          </ns3:TrackPointExtension>
        </extensions>
      </trkpt>
      <trkpt lat="31.43294063396751880645751953125" lon="119.48520250618457794189453125">
        <ele>11.3999996185302734375</ele>
        <time>2020-09-11T12:38:55.000Z</time>
        <extensions>
          <ns3:TrackPointExtension>
            <ns3:atemp>29.0</ns3:atemp>
            <ns3:hr>105</ns3:hr>
          </ns3:TrackPointExtension>
        </extensions>
      </trkpt>
      <trkpt lat="31.43296460621058940887451171875" lon="119.485232345759868621826171875">
        <ele>11</ele>
        <time>2020-09-11T12:38:56.000Z</time>
        <extensions>
          <ns3:TrackPointExtension>
            <ns3:atemp>29.0</ns3:atemp>
            <ns3:hr>106</ns3:hr>
          </ns3:TrackPointExtension>
        </extensions>
      </trkpt>
      <trkpt lat="31.432988829910755157470703125" lon="119.485257826745510101318359375">
        <ele>10.6000003814697265625</ele>
        <time>2020-09-11T12:38:57.000Z</time>
        <extensions>
          <ns3:TrackPointExtension>
            <ns3:atemp>29.0</ns3:atemp>
            <ns3:hr>108</ns3:hr>
          </ns3:TrackPointExtension>
        </extensions>
      </trkpt>
      <trkpt lat="31.43306720070540904998779296875" lon="119.48534600436687469482421875">
        <ele>9.80000019073486328125</ele>
        <time>2020-09-11T12:39:00.000Z</time>
        <extensions>
          <ns3:TrackPointExtension>
            <ns3:atemp>29.0</ns3:atemp>
            <ns3:hr>111</ns3:hr>
          </ns3:TrackPointExtension>
        </extensions>
      </trkpt>
      <trkpt lat="31.433144398033618927001953125" lon="119.4854400493204593658447265625">
        <ele>9.3999996185302734375</ele>
        <time>2020-09-11T12:39:03.000Z</time>
        <extensions>
          <ns3:TrackPointExtension>
            <ns3:atemp>29.0</ns3:atemp>
            <ns3:hr>110</ns3:hr>
          </ns3:TrackPointExtension>
        </extensions>
      </trkpt>
      <trkpt lat="31.43317180685698986053466796875" lon="119.485473074018955230712890625">
        <ele>9.3999996185302734375</ele>
        <time>2020-09-11T12:39:04.000Z</time>
        <extensions>
          <ns3:TrackPointExtension>
            <ns3:atemp>29.0</ns3:atemp>
            <ns3:hr>110</ns3:hr>
          </ns3:TrackPointExtension>
        </extensions>
      </trkpt>
      <trkpt lat="31.43322880379855632781982421875" lon="119.4855366088449954986572265625">
        <ele>9</ele>
        <time>2020-09-11T12:39:06.000Z</time>
        <extensions>
          <ns3:TrackPointExtension>
            <ns3:atemp>29.0</ns3:atemp>
            <ns3:hr>107</ns3:hr>
          </ns3:TrackPointExtension>
        </extensions>
      </trkpt>
      <trkpt lat="31.433306671679019927978515625" lon="119.48562906123697757720947265625">
        <ele>8.80000019073486328125</ele>
        <time>2020-09-11T12:39:09.000Z</time>
        <extensions>
          <ns3:TrackPointExtension>
            <ns3:atemp>29.0</ns3:atemp>
            <ns3:hr>106</ns3:hr>
          </ns3:TrackPointExtension>
        </extensions>
      </trkpt>
      <trkpt lat="31.43345394171774387359619140625" lon="119.48578848503530025482177734375">
        <ele>8.6000003814697265625</ele>
        <time>2020-09-11T12:39:15.000Z</time>
        <extensions>
          <ns3:TrackPointExtension>
            <ns3:atemp>29.0</ns3:atemp>
            <ns3:hr>103</ns3:hr>
          </ns3:TrackPointExtension>
        </extensions>
      </trkpt>
      <trkpt lat="31.4335026405751705169677734375" lon="119.485840536653995513916015625">
        <ele>8.6000003814697265625</ele>
        <time>2020-09-11T12:39:17.000Z</time>
        <extensions>
          <ns3:TrackPointExtension>
            <ns3:atemp>29.0</ns3:atemp>
            <ns3:hr>103</ns3:hr>
          </ns3:TrackPointExtension>
        </extensions>
      </trkpt>
      <trkpt lat="31.43357397057116031646728515625" lon="119.4859087653458118438720703125">
        <ele>8.80000019073486328125</ele>
        <time>2020-09-11T12:39:20.000Z</time>
        <extensions>
          <ns3:TrackPointExtension>
            <ns3:atemp>29.0</ns3:atemp>
            <ns3:hr>100</ns3:hr>
          </ns3:TrackPointExtension>
        </extensions>
      </trkpt>
      <trkpt lat="31.4336464740335941314697265625" lon="119.4859691150486469268798828125">
        <ele>8.6000003814697265625</ele>
        <time>2020-09-11T12:39:23.000Z</time>
        <extensions>
          <ns3:TrackPointExtension>
            <ns3:atemp>29.0</ns3:atemp>
            <ns3:hr>97</ns3:hr>
          </ns3:TrackPointExtension>
        </extensions>
      </trkpt>
      <trkpt lat="31.43366851843893527984619140625" lon="119.48598965071141719818115234375">
        <ele>8.6000003814697265625</ele>
        <time>2020-09-11T12:39:24.000Z</time>
        <extensions>
          <ns3:TrackPointExtension>
            <ns3:atemp>29.0</ns3:atemp>
            <ns3:hr>97</ns3:hr>
          </ns3:TrackPointExtension>
        </extensions>
      </trkpt>
      <trkpt lat="31.43379206769168376922607421875" lon="119.486038684844970703125">
        <ele>8.3999996185302734375</ele>
        <time>2020-09-11T12:39:29.000Z</time>
        <extensions>
          <ns3:TrackPointExtension>
            <ns3:atemp>29.0</ns3:atemp>
            <ns3:hr>99</ns3:hr>
          </ns3:TrackPointExtension>
        </extensions>
      </trkpt>
      <trkpt lat="31.43383950926363468170166015625" lon="119.486016221344470977783203125">
        <ele>8.6000003814697265625</ele>
        <time>2020-09-11T12:39:31.000Z</time>
        <extensions>
          <ns3:TrackPointExtension>
            <ns3:atemp>29.0</ns3:atemp>
            <ns3:hr>98</ns3:hr>
          </ns3:TrackPointExtension>
        </extensions>
      </trkpt>
      <trkpt lat="31.4338714443147182464599609375" lon="119.485964588820934295654296875">
        <ele>8.80000019073486328125</ele>
        <time>2020-09-11T12:39:33.000Z</time>
        <extensions>
          <ns3:TrackPointExtension>
            <ns3:atemp>29.0</ns3:atemp>
            <ns3:hr>97</ns3:hr>
          </ns3:TrackPointExtension>
        </extensions>
      </trkpt>
      <trkpt lat="31.43395383842289447784423828125" lon="119.485814385116100311279296875">
        <ele>8.6000003814697265625</ele>
        <time>2020-09-11T12:39:39.000Z</time>
        <extensions>
          <ns3:TrackPointExtension>
            <ns3:atemp>29.0</ns3:atemp>
            <ns3:hr>95</ns3:hr>
          </ns3:TrackPointExtension>
        </extensions>
      </trkpt>
      <trkpt lat="31.43400966189801692962646484375" lon="119.48569460771977901458740234375">
        <ele>8.6000003814697265625</ele>
        <time>2020-09-11T12:39:44.000Z</time>
        <extensions>
          <ns3:TrackPointExtension>
            <ns3:atemp>29.0</ns3:atemp>
            <ns3:hr>96</ns3:hr>
          </ns3:TrackPointExtension>
        </extensions>
      </trkpt>
      <trkpt lat="31.43402458168566226959228515625" lon="119.4856687076389789581298828125">
        <ele>8.6000003814697265625</ele>
        <time>2020-09-11T12:39:45.000Z</time>
        <extensions>
          <ns3:TrackPointExtension>
            <ns3:atemp>29.0</ns3:atemp>
            <ns3:hr>97</ns3:hr>
          </ns3:TrackPointExtension>
        </extensions>
      </trkpt>
      <trkpt lat="31.43409046344459056854248046875" lon="119.4855319149792194366455078125">
        <ele>8.3999996185302734375</ele>
        <time>2020-09-11T12:39:50.000Z</time>
        <extensions>
          <ns3:TrackPointExtension>
            <ns3:atemp>29.0</ns3:atemp>
            <ns3:hr>100</ns3:hr>
          </ns3:TrackPointExtension>
        </extensions>
      </trkpt>
      <trkpt lat="31.4341061376035213470458984375" lon="119.48550693690776824951171875">
        <ele>8.3999996185302734375</ele>
        <time>2020-09-11T12:39:51.000Z</time>
        <extensions>
          <ns3:TrackPointExtension>
            <ns3:atemp>29.0</ns3:atemp>
            <ns3:hr>100</ns3:hr>
          </ns3:TrackPointExtension>
        </extensions>
      </trkpt>
      <trkpt lat="31.43416397273540496826171875" lon="119.4853991456329822540283203125">
        <ele>8.6000003814697265625</ele>
        <time>2020-09-11T12:39:56.000Z</time>
        <extensions>
          <ns3:TrackPointExtension>
            <ns3:atemp>29.0</ns3:atemp>
            <ns3:hr>100</ns3:hr>
          </ns3:TrackPointExtension>
        </extensions>
      </trkpt>
      <trkpt lat="31.43417092971503734588623046875" lon="119.48533200658857822418212890625">
        <ele>9.6000003814697265625</ele>
        <time>2020-09-11T12:39:59.000Z</time>
        <extensions>
          <ns3:TrackPointExtension>
            <ns3:atemp>29.0</ns3:atemp>
            <ns3:hr>99</ns3:hr>
          </ns3:TrackPointExtension>
        </extensions>
      </trkpt>
      <trkpt lat="31.43416975624859333038330078125" lon="119.48525422252714633941650390625">
        <ele>9.6000003814697265625</ele>
        <time>2020-09-11T12:40:02.000Z</time>
        <extensions>
          <ns3:TrackPointExtension>
            <ns3:atemp>29.0</ns3:atemp>
            <ns3:hr>98</ns3:hr>
          </ns3:TrackPointExtension>
        </extensions>
      </trkpt>
      <trkpt lat="31.43416439183056354522705078125" lon="119.4851175136864185333251953125">
        <ele>9</ele>
        <time>2020-09-11T12:40:08.000Z</time>
        <extensions>
          <ns3:TrackPointExtension>
            <ns3:atemp>29.0</ns3:atemp>
            <ns3:hr>98</ns3:hr>
          </ns3:TrackPointExtension>
        </extensions>
      </trkpt>
      <trkpt lat="31.43412533216178417205810546875" lon="119.4849699921905994415283203125">
        <ele>9</ele>
        <time>2020-09-11T12:40:15.000Z</time>
        <extensions>
          <ns3:TrackPointExtension>
            <ns3:atemp>29.0</ns3:atemp>
            <ns3:hr>100</ns3:hr>
          </ns3:TrackPointExtension>
        </extensions>
      </trkpt>
      <trkpt lat="31.43413052894175052642822265625" lon="119.48490000329911708831787109375">
        <ele>8.80000019073486328125</ele>
        <time>2020-09-11T12:40:18.000Z</time>
        <extensions>
          <ns3:TrackPointExtension>
            <ns3:atemp>29.0</ns3:atemp>
            <ns3:hr>99</ns3:hr>
          </ns3:TrackPointExtension>
        </extensions>
      </trkpt>
      <trkpt lat="31.43413002602756023406982421875" lon="119.4848586805164813995361328125">
        <ele>8.80000019073486328125</ele>
        <time>2020-09-11T12:40:20.000Z</time>
        <extensions>
          <ns3:TrackPointExtension>
            <ns3:atemp>29.0</ns3:atemp>
            <ns3:hr>98</ns3:hr>
          </ns3:TrackPointExtension>
        </extensions>
      </trkpt>
      <trkpt lat="31.434124745428562164306640625" lon="119.48471694253385066986083984375">
        <ele>9</ele>
        <time>2020-09-11T12:40:27.000Z</time>
        <extensions>
          <ns3:TrackPointExtension>
            <ns3:atemp>29.0</ns3:atemp>
            <ns3:hr>97</ns3:hr>
          </ns3:TrackPointExtension>
        </extensions>
      </trkpt>
      <trkpt lat="31.43411762081086635589599609375" lon="119.48457880876958370208740234375">
        <ele>9</ele>
        <time>2020-09-11T12:40:33.000Z</time>
        <extensions>
          <ns3:TrackPointExtension>
            <ns3:atemp>29.0</ns3:atemp>
            <ns3:hr>96</ns3:hr>
          </ns3:TrackPointExtension>
        </extensions>
      </trkpt>
      <trkpt lat="31.43412776291370391845703125" lon="119.4844982586801052093505859375">
        <ele>9.19999980926513671875</ele>
        <time>2020-09-11T12:40:37.000Z</time>
        <extensions>
          <ns3:TrackPointExtension>
            <ns3:atemp>29.0</ns3:atemp>
            <ns3:hr>97</ns3:hr>
          </ns3:TrackPointExtension>
        </extensions>
      </trkpt>
      <trkpt lat="31.43414511345326900482177734375" lon="119.48445358313620090484619140625">
        <ele>9</ele>
        <time>2020-09-11T12:40:39.000Z</time>
        <extensions>
          <ns3:TrackPointExtension>
            <ns3:atemp>29.0</ns3:atemp>
            <ns3:hr>97</ns3:hr>
          </ns3:TrackPointExtension>
        </extensions>
      </trkpt>
      <trkpt lat="31.43417679704725742340087890625" lon="119.48441703803837299346923828125">
        <ele>9.19999980926513671875</ele>
        <time>2020-09-11T12:40:42.000Z</time>
        <extensions>
          <ns3:TrackPointExtension>
            <ns3:atemp>29.0</ns3:atemp>
            <ns3:hr>94</ns3:hr>
          </ns3:TrackPointExtension>
        </extensions>
      </trkpt>
      <trkpt lat="31.43419079482555389404296875" lon="119.48441217653453350067138671875">
        <ele>9.19999980926513671875</ele>
        <time>2020-09-11T12:40:43.000Z</time>
        <extensions>
          <ns3:TrackPointExtension>
            <ns3:atemp>29.0</ns3:atemp>
            <ns3:hr>92</ns3:hr>
          </ns3:TrackPointExtension>
        </extensions>
      </trkpt>
      <trkpt lat="31.4342110790312290191650390625" lon="119.4844094105064868927001953125">
        <ele>9.19999980926513671875</ele>
        <time>2020-09-11T12:40:44.000Z</time>
        <extensions>
          <ns3:TrackPointExtension>
            <ns3:atemp>29.0</ns3:atemp>
            <ns3:hr>92</ns3:hr>
          </ns3:TrackPointExtension>
        </extensions>
      </trkpt>
      <trkpt lat="31.434310488402843475341796875" lon="119.484421312808990478515625">
        <ele>9</ele>
        <time>2020-09-11T12:40:48.000Z</time>
        <extensions>
          <ns3:TrackPointExtension>
            <ns3:atemp>29.0</ns3:atemp>
            <ns3:hr>95</ns3:hr>
          </ns3:TrackPointExtension>
        </extensions>
      </trkpt>
      <trkpt lat="31.4343552477657794952392578125" lon="119.48443061672151088714599609375">
        <ele>9</ele>
        <time>2020-09-11T12:40:50.000Z</time>
        <extensions>
          <ns3:TrackPointExtension>
            <ns3:atemp>29.0</ns3:atemp>
            <ns3:hr>95</ns3:hr>
          </ns3:TrackPointExtension>
        </extensions>
      </trkpt>
      <trkpt lat="31.434429846704006195068359375" lon="119.48444721288979053497314453125">
        <ele>9</ele>
        <time>2020-09-11T12:40:53.000Z</time>
        <extensions>
          <ns3:TrackPointExtension>
            <ns3:atemp>29.0</ns3:atemp>
            <ns3:hr>98</ns3:hr>
          </ns3:TrackPointExtension>
        </extensions>
      </trkpt>
      <trkpt lat="31.4345383085310459136962890625" lon="119.48446112684905529022216796875">
        <ele>8.80000019073486328125</ele>
        <time>2020-09-11T12:40:58.000Z</time>
        <extensions>
          <ns3:TrackPointExtension>
            <ns3:atemp>29.0</ns3:atemp>
            <ns3:hr>99</ns3:hr>
          </ns3:TrackPointExtension>
        </extensions>
      </trkpt>
      <trkpt lat="31.43465288914740085601806640625" lon="119.4844922237098217010498046875">
        <ele>8.6000003814697265625</ele>
        <time>2020-09-11T12:41:03.000Z</time>
        <extensions>
          <ns3:TrackPointExtension>
            <ns3:atemp>29.0</ns3:atemp>
            <ns3:hr>98</ns3:hr>
          </ns3:TrackPointExtension>
        </extensions>
      </trkpt>
      <trkpt lat="31.434730589389801025390625" lon="119.484538324177265167236328125">
        <ele>8.6000003814697265625</ele>
        <time>2020-09-11T12:41:07.000Z</time>
        <extensions>
          <ns3:TrackPointExtension>
            <ns3:atemp>29.0</ns3:atemp>
            <ns3:hr>95</ns3:hr>
          </ns3:TrackPointExtension>
        </extensions>
      </trkpt>
      <trkpt lat="31.43476721830666065216064453125" lon="119.48455500416457653045654296875">
        <ele>8.3999996185302734375</ele>
        <time>2020-09-11T12:41:09.000Z</time>
        <extensions>
          <ns3:TrackPointExtension>
            <ns3:atemp>29.0</ns3:atemp>
            <ns3:hr>92</ns3:hr>
          </ns3:TrackPointExtension>
        </extensions>
      </trkpt>
      <trkpt lat="31.43478817306458950042724609375" lon="119.48455299250781536102294921875">
        <ele>8.3999996185302734375</ele>
        <time>2020-09-11T12:41:12.000Z</time>
        <extensions>
          <ns3:TrackPointExtension>
            <ns3:atemp>29.0</ns3:atemp>
            <ns3:hr>94</ns3:hr>
          </ns3:TrackPointExtension>
        </extensions>
      </trkpt>
      <trkpt lat="31.43479621969163417816162109375" lon="119.48455207049846649169921875">
        <ele>8.3999996185302734375</ele>
        <time>2020-09-11T12:41:13.000Z</time>
        <extensions>
          <ns3:TrackPointExtension>
            <ns3:atemp>29.0</ns3:atemp>
            <ns3:hr>92</ns3:hr>
          </ns3:TrackPointExtension>
        </extensions>
      </trkpt>
      <trkpt lat="31.43486327491700649261474609375" lon="119.48456279933452606201171875">
        <ele>8.6000003814697265625</ele>
        <time>2020-09-11T12:41:19.000Z</time>
        <extensions>
          <ns3:TrackPointExtension>
            <ns3:atemp>29.0</ns3:atemp>
            <ns3:hr>91</ns3:hr>
          </ns3:TrackPointExtension>
        </extensions>
      </trkpt>
      <trkpt lat="31.4348947070538997650146484375" lon="119.484565146267414093017578125">
        <ele>8.6000003814697265625</ele>
        <time>2020-09-11T12:41:21.000Z</time>
        <extensions>
          <ns3:TrackPointExtension>
            <ns3:atemp>29.0</ns3:atemp>
            <ns3:hr>92</ns3:hr>
          </ns3:TrackPointExtension>
        </extensions>
      </trkpt>
    </trkseg>
  </trk>
</gpx>
