<gpx xmlns:ns3="http://www.garmin.com/xmlschemas/TrackPointExtension/v1" xmlns="http://www.topografix.com/GPX/1/1" xmlns:xsi="http://www.w3.org/2001/XMLSchema-instance" xmlns:ns2="http://www.garmin.com/xmlschemas/GpxExtensions/v3" creator="Garmin Connect" version="1.1" xsi:schemaLocation="http://www.topografix.com/GPX/1/1 http://www.topografix.com/GPX/11.xsd">
  <extensions>
<distance>4479.2</distance>
<average_hr>114.0</average_hr>
<average_speed>2.757999897003174</average_speed>
<start_time>2017-05-07T21:36:21+00:00</start_time>
<end_time>2017-05-07T22:03:25.354000+00:00</end_time>
<moving_time>1601.46</moving_time>
<elapsed_time>2214.262</elapsed_time>
</extensions>
<metadata>
    <link href="connect.garmin.com">
      <text>Garmin Connect</text>
    </link>
    <time>2017-05-07T21:36:21.000Z</time>
  </metadata>
  <trk>
    <name>常州市 跑步</name>
    <type>running</type>
    <trkseg>
      <trkpt lat="31.4060188829898834228515625" lon="119.48317886330187320709228515625">
        <ele>11.3999996185302734375</ele>
        <time>2017-05-07T21:36:21.000Z</time>
        <extensions>
          <ns3:TrackPointExtension>
            <ns3:hr>140</ns3:hr>
            <ns3:cad>93</ns3:cad>
          </ns3:TrackPointExtension>
        </extensions>
      </trkpt>
      <trkpt lat="31.40600823797285556793212890625" lon="119.48317500762641429901123046875">
        <ele>11.19999980926513671875</ele>
        <time>2017-05-07T21:36:22.000Z</time>
        <extensions>
          <ns3:TrackPointExtension>
            <ns3:hr>140</ns3:hr>
            <ns3:cad>0</ns3:cad>
          </ns3:TrackPointExtension>
        </extensions>
      </trkpt>
      <trkpt lat="31.40600739978253841400146484375" lon="119.48317517526447772979736328125">
        <ele>11.19999980926513671875</ele>
        <time>2017-05-07T21:36:26.000Z</time>
        <extensions>
          <ns3:TrackPointExtension>
            <ns3:cad>0</ns3:cad>
          </ns3:TrackPointExtension>
        </extensions>
      </trkpt>
      <trkpt lat="31.40598862431943416595458984375" lon="119.48316193185746669769287109375">
        <ele>11.19999980926513671875</ele>
        <time>2017-05-07T21:36:35.000Z</time>
        <extensions>
          <ns3:TrackPointExtension>
            <ns3:hr>139</ns3:hr>
            <ns3:cad>0</ns3:cad>
          </ns3:TrackPointExtension>
        </extensions>
      </trkpt>
      <trkpt lat="31.4059813320636749267578125" lon="119.48316293768584728240966796875">
        <ele>11.19999980926513671875</ele>
        <time>2017-05-07T21:36:36.000Z</time>
        <extensions>
          <ns3:TrackPointExtension>
            <ns3:hr>139</ns3:hr>
            <ns3:cad>60</ns3:cad>
          </ns3:TrackPointExtension>
        </extensions>
      </trkpt>
      <trkpt lat="31.40590966679155826568603515625" lon="119.48319277726113796234130859375">
        <ele>10.80000019073486328125</ele>
        <time>2017-05-07T21:36:41.000Z</time>
        <extensions>
          <ns3:TrackPointExtension>
            <ns3:hr>137</ns3:hr>
            <ns3:cad>94</ns3:cad>
          </ns3:TrackPointExtension>
        </extensions>
      </trkpt>
      <trkpt lat="31.405726857483386993408203125" lon="119.48317634873092174530029296875">
        <ele>9</ele>
        <time>2017-05-07T21:36:49.000Z</time>
        <extensions>
          <ns3:TrackPointExtension>
            <ns3:hr>136</ns3:hr>
            <ns3:cad>92</ns3:cad>
          </ns3:TrackPointExtension>
        </extensions>
      </trkpt>
      <trkpt lat="31.405543796718120574951171875" lon="119.48317735455930233001708984375">
        <ele>6.19999980926513671875</ele>
        <time>2017-05-07T21:36:57.000Z</time>
        <extensions>
          <ns3:TrackPointExtension>
            <ns3:hr>134</ns3:hr>
            <ns3:cad>92</ns3:cad>
          </ns3:TrackPointExtension>
        </extensions>
      </trkpt>
      <trkpt lat="31.40534690581262111663818359375" lon="119.4831740856170654296875">
        <ele>4.80000019073486328125</ele>
        <time>2017-05-07T21:37:06.000Z</time>
        <extensions>
          <ns3:TrackPointExtension>
            <ns3:hr>131</ns3:hr>
            <ns3:cad>91</ns3:cad>
          </ns3:TrackPointExtension>
        </extensions>
      </trkpt>
      <trkpt lat="31.40520751476287841796875" lon="119.48316981084644794464111328125">
        <ele>4</ele>
        <time>2017-05-07T21:37:13.000Z</time>
        <extensions>
          <ns3:TrackPointExtension>
            <ns3:hr>128</ns3:hr>
            <ns3:cad>87</ns3:cad>
          </ns3:TrackPointExtension>
        </extensions>
      </trkpt>
      <trkpt lat="31.4050398766994476318359375" lon="119.4831652007997035980224609375">
        <ele>3.599999904632568359375</ele>
        <time>2017-05-07T21:37:21.000Z</time>
        <extensions>
          <ns3:TrackPointExtension>
            <ns3:hr>125</ns3:hr>
            <ns3:cad>60</ns3:cad>
          </ns3:TrackPointExtension>
        </extensions>
      </trkpt>
      <trkpt lat="31.40485270880162715911865234375" lon="119.48318322189152240753173828125">
        <ele>3.599999904632568359375</ele>
        <time>2017-05-07T21:37:30.000Z</time>
        <extensions>
          <ns3:TrackPointExtension>
            <ns3:hr>122</ns3:hr>
            <ns3:cad>90</ns3:cad>
          </ns3:TrackPointExtension>
        </extensions>
      </trkpt>
      <trkpt lat="31.40466076321899890899658203125" lon="119.4832121394574642181396484375">
        <ele>3.599999904632568359375</ele>
        <time>2017-05-07T21:37:38.000Z</time>
        <extensions>
          <ns3:TrackPointExtension>
            <ns3:hr>119</ns3:hr>
            <ns3:cad>91</ns3:cad>
          </ns3:TrackPointExtension>
        </extensions>
      </trkpt>
      <trkpt lat="31.4044710807502269744873046875" lon="119.48321322910487651824951171875">
        <ele>4.19999980926513671875</ele>
        <time>2017-05-07T21:37:46.000Z</time>
        <extensions>
          <ns3:TrackPointExtension>
            <ns3:hr>117</ns3:hr>
            <ns3:cad>90</ns3:cad>
          </ns3:TrackPointExtension>
        </extensions>
      </trkpt>
      <trkpt lat="31.40427921898663043975830078125" lon="119.4832156598567962646484375">
        <ele>3.599999904632568359375</ele>
        <time>2017-05-07T21:37:53.000Z</time>
        <extensions>
          <ns3:TrackPointExtension>
            <ns3:hr>115</ns3:hr>
            <ns3:cad>93</ns3:cad>
          </ns3:TrackPointExtension>
        </extensions>
      </trkpt>
      <trkpt lat="31.40409381128847599029541015625" lon="119.48323233984410762786865234375">
        <ele>3</ele>
        <time>2017-05-07T21:38:00.000Z</time>
        <extensions>
          <ns3:TrackPointExtension>
            <ns3:hr>113</ns3:hr>
            <ns3:cad>92</ns3:cad>
          </ns3:TrackPointExtension>
        </extensions>
      </trkpt>
      <trkpt lat="31.40390723012387752532958984375" lon="119.4832245446741580963134765625">
        <ele>3.400000095367431640625</ele>
        <time>2017-05-07T21:38:07.000Z</time>
        <extensions>
          <ns3:TrackPointExtension>
            <ns3:hr>111</ns3:hr>
            <ns3:cad>93</ns3:cad>
          </ns3:TrackPointExtension>
        </extensions>
      </trkpt>
      <trkpt lat="31.4037364907562732696533203125" lon="119.4831834733486175537109375">
        <ele>4.80000019073486328125</ele>
        <time>2017-05-07T21:38:16.000Z</time>
        <extensions>
          <ns3:TrackPointExtension>
            <ns3:hr>109</ns3:hr>
            <ns3:cad>93</ns3:cad>
          </ns3:TrackPointExtension>
        </extensions>
      </trkpt>
      <trkpt lat="31.40356524847447872161865234375" lon="119.4831269793212413787841796875">
        <ele>6</ele>
        <time>2017-05-07T21:38:25.000Z</time>
        <extensions>
          <ns3:TrackPointExtension>
            <ns3:hr>108</ns3:hr>
            <ns3:cad>94</ns3:cad>
          </ns3:TrackPointExtension>
        </extensions>
      </trkpt>
      <trkpt lat="31.403360478579998016357421875" lon="119.48316193185746669769287109375">
        <ele>6.80000019073486328125</ele>
        <time>2017-05-07T21:38:32.000Z</time>
        <extensions>
          <ns3:TrackPointExtension>
            <ns3:hr>107</ns3:hr>
            <ns3:cad>93</ns3:cad>
          </ns3:TrackPointExtension>
        </extensions>
      </trkpt>
      <trkpt lat="31.40316509641706943511962890625" lon="119.483139552175998687744140625">
        <ele>6</ele>
        <time>2017-05-07T21:38:39.000Z</time>
        <extensions>
          <ns3:TrackPointExtension>
            <ns3:hr>106</ns3:hr>
            <ns3:cad>93</ns3:cad>
          </ns3:TrackPointExtension>
        </extensions>
      </trkpt>
      <trkpt lat="31.40295437537133693695068359375" lon="119.48319193907082080841064453125">
        <ele>3.599999904632568359375</ele>
        <time>2017-05-07T21:38:47.000Z</time>
        <extensions>
          <ns3:TrackPointExtension>
            <ns3:hr>105</ns3:hr>
            <ns3:cad>92</ns3:cad>
          </ns3:TrackPointExtension>
        </extensions>
      </trkpt>
      <trkpt lat="31.4027578197419643402099609375" lon="119.48319428600370883941650390625">
        <ele>2.599999904632568359375</ele>
        <time>2017-05-07T21:38:55.000Z</time>
        <extensions>
          <ns3:TrackPointExtension>
            <ns3:hr>104</ns3:hr>
            <ns3:cad>93</ns3:cad>
          </ns3:TrackPointExtension>
        </extensions>
      </trkpt>
      <trkpt lat="31.40256243757903575897216796875" lon="119.48311314918100833892822265625">
        <ele>2.2000000476837158203125</ele>
        <time>2017-05-07T21:39:04.000Z</time>
        <extensions>
          <ns3:TrackPointExtension>
            <ns3:hr>103</ns3:hr>
            <ns3:cad>93</ns3:cad>
          </ns3:TrackPointExtension>
        </extensions>
      </trkpt>
      <trkpt lat="31.40236831270158290863037109375" lon="119.483062438666820526123046875">
        <ele>2</ele>
        <time>2017-05-07T21:39:13.000Z</time>
        <extensions>
          <ns3:TrackPointExtension>
            <ns3:hr>102</ns3:hr>
            <ns3:cad>92</ns3:cad>
          </ns3:TrackPointExtension>
        </extensions>
      </trkpt>
      <trkpt lat="31.40217368490993976593017578125" lon="119.48306134901940822601318359375">
        <ele>2</ele>
        <time>2017-05-07T21:39:22.000Z</time>
        <extensions>
          <ns3:TrackPointExtension>
            <ns3:hr>102</ns3:hr>
            <ns3:cad>92</ns3:cad>
          </ns3:TrackPointExtension>
        </extensions>
      </trkpt>
      <trkpt lat="31.40197821892797946929931640625" lon="119.4830290786921977996826171875">
        <ele>2.2000000476837158203125</ele>
        <time>2017-05-07T21:39:31.000Z</time>
        <extensions>
          <ns3:TrackPointExtension>
            <ns3:hr>101</ns3:hr>
            <ns3:cad>92</ns3:cad>
          </ns3:TrackPointExtension>
        </extensions>
      </trkpt>
      <trkpt lat="31.401777304708957672119140625" lon="119.48300602845847606658935546875">
        <ele>3.400000095367431640625</ele>
        <time>2017-05-07T21:39:39.000Z</time>
        <extensions>
          <ns3:TrackPointExtension>
            <ns3:hr>101</ns3:hr>
            <ns3:cad>93</ns3:cad>
          </ns3:TrackPointExtension>
        </extensions>
      </trkpt>
      <trkpt lat="31.4015763066709041595458984375" lon="119.48299882002174854278564453125">
        <ele>4.80000019073486328125</ele>
        <time>2017-05-07T21:39:47.000Z</time>
        <extensions>
          <ns3:TrackPointExtension>
            <ns3:hr>101</ns3:hr>
            <ns3:cad>93</ns3:cad>
          </ns3:TrackPointExtension>
        </extensions>
      </trkpt>
      <trkpt lat="31.40138880349695682525634765625" lon="119.483007453382015228271484375">
        <ele>6.80000019073486328125</ele>
        <time>2017-05-07T21:39:55.000Z</time>
        <extensions>
          <ns3:TrackPointExtension>
            <ns3:hr>100</ns3:hr>
            <ns3:cad>92</ns3:cad>
          </ns3:TrackPointExtension>
        </extensions>
      </trkpt>
      <trkpt lat="31.4012048207223415374755859375" lon="119.48296646587550640106201171875">
        <ele>7.400000095367431640625</ele>
        <time>2017-05-07T21:40:02.000Z</time>
        <extensions>
          <ns3:TrackPointExtension>
            <ns3:hr>100</ns3:hr>
            <ns3:cad>93</ns3:cad>
          </ns3:TrackPointExtension>
        </extensions>
      </trkpt>
      <trkpt lat="31.40100776217877864837646484375" lon="119.4830049388110637664794921875">
        <ele>6.80000019073486328125</ele>
        <time>2017-05-07T21:40:09.000Z</time>
        <extensions>
          <ns3:TrackPointExtension>
            <ns3:hr>100</ns3:hr>
            <ns3:cad>94</ns3:cad>
          </ns3:TrackPointExtension>
        </extensions>
      </trkpt>
      <trkpt lat="31.40082218684256076812744140625" lon="119.48298633098602294921875">
        <ele>6</ele>
        <time>2017-05-07T21:40:18.000Z</time>
        <extensions>
          <ns3:TrackPointExtension>
            <ns3:hr>100</ns3:hr>
            <ns3:cad>92</ns3:cad>
          </ns3:TrackPointExtension>
        </extensions>
      </trkpt>
      <trkpt lat="31.400640048086643218994140625" lon="119.48297250084578990936279296875">
        <ele>6</ele>
        <time>2017-05-07T21:40:25.000Z</time>
        <extensions>
          <ns3:TrackPointExtension>
            <ns3:hr>100</ns3:hr>
            <ns3:cad>94</ns3:cad>
          </ns3:TrackPointExtension>
        </extensions>
      </trkpt>
      <trkpt lat="31.400416083633899688720703125" lon="119.48296512477099895477294921875">
        <ele>7</ele>
        <time>2017-05-07T21:40:32.000Z</time>
        <extensions>
          <ns3:TrackPointExtension>
            <ns3:hr>99</ns3:hr>
            <ns3:cad>92</ns3:cad>
          </ns3:TrackPointExtension>
        </extensions>
      </trkpt>
      <trkpt lat="31.40021701343357563018798828125" lon="119.48301122523844242095947265625">
        <ele>6</ele>
        <time>2017-05-07T21:40:38.000Z</time>
        <extensions>
          <ns3:TrackPointExtension>
            <ns3:hr>99</ns3:hr>
            <ns3:cad>92</ns3:cad>
          </ns3:TrackPointExtension>
        </extensions>
      </trkpt>
      <trkpt lat="31.4000394009053707122802734375" lon="119.48294869624078273773193359375">
        <ele>5.19999980926513671875</ele>
        <time>2017-05-07T21:40:46.000Z</time>
        <extensions>
          <ns3:TrackPointExtension>
            <ns3:hr>99</ns3:hr>
            <ns3:cad>93</ns3:cad>
          </ns3:TrackPointExtension>
        </extensions>
      </trkpt>
      <trkpt lat="31.399855501949787139892578125" lon="119.482912905514240264892578125">
        <ele>5</ele>
        <time>2017-05-07T21:40:54.000Z</time>
        <extensions>
          <ns3:TrackPointExtension>
            <ns3:hr>99</ns3:hr>
            <ns3:cad>92</ns3:cad>
          </ns3:TrackPointExtension>
        </extensions>
      </trkpt>
      <trkpt lat="31.39968576841056346893310546875" lon="119.4827849976718425750732421875">
        <ele>5</ele>
        <time>2017-05-07T21:41:02.000Z</time>
        <extensions>
          <ns3:TrackPointExtension>
            <ns3:hr>99</ns3:hr>
            <ns3:cad>92</ns3:cad>
          </ns3:TrackPointExtension>
        </extensions>
      </trkpt>
      <trkpt lat="31.39963262714445590972900390625" lon="119.4825700856745243072509765625">
        <ele>5</ele>
        <time>2017-05-07T21:41:10.000Z</time>
        <extensions>
          <ns3:TrackPointExtension>
            <ns3:hr>99</ns3:hr>
            <ns3:cad>92</ns3:cad>
          </ns3:TrackPointExtension>
        </extensions>
      </trkpt>
      <trkpt lat="31.3996404223144054412841796875" lon="119.4823370687663555145263671875">
        <ele>5.599999904632568359375</ele>
        <time>2017-05-07T21:41:18.000Z</time>
        <extensions>
          <ns3:TrackPointExtension>
            <ns3:hr>99</ns3:hr>
            <ns3:cad>91</ns3:cad>
          </ns3:TrackPointExtension>
        </extensions>
      </trkpt>
      <trkpt lat="31.39964997768402099609375" lon="119.4821132719516754150390625">
        <ele>6.19999980926513671875</ele>
        <time>2017-05-07T21:41:26.000Z</time>
        <extensions>
          <ns3:TrackPointExtension>
            <ns3:hr>99</ns3:hr>
            <ns3:cad>91</ns3:cad>
          </ns3:TrackPointExtension>
        </extensions>
      </trkpt>
      <trkpt lat="31.39967168681323528289794921875" lon="119.481895677745342254638671875">
        <ele>6.19999980926513671875</ele>
        <time>2017-05-07T21:41:34.000Z</time>
        <extensions>
          <ns3:TrackPointExtension>
            <ns3:hr>99</ns3:hr>
            <ns3:cad>90</ns3:cad>
          </ns3:TrackPointExtension>
        </extensions>
      </trkpt>
      <trkpt lat="31.39968124218285083770751953125" lon="119.4816708751022815704345703125">
        <ele>7</ele>
        <time>2017-05-07T21:41:42.000Z</time>
        <extensions>
          <ns3:TrackPointExtension>
            <ns3:hr>99</ns3:hr>
            <ns3:cad>91</ns3:cad>
          </ns3:TrackPointExtension>
        </extensions>
      </trkpt>
      <trkpt lat="31.39969549141824245452880859375" lon="119.4814516045153141021728515625">
        <ele>7</ele>
        <time>2017-05-07T21:41:50.000Z</time>
        <extensions>
          <ns3:TrackPointExtension>
            <ns3:hr>98</ns3:hr>
            <ns3:cad>90</ns3:cad>
          </ns3:TrackPointExtension>
        </extensions>
      </trkpt>
      <trkpt lat="31.39971041120588779449462890625" lon="119.48123308829963207244873046875">
        <ele>6.400000095367431640625</ele>
        <time>2017-05-07T21:41:58.000Z</time>
        <extensions>
          <ns3:TrackPointExtension>
            <ns3:hr>98</ns3:hr>
            <ns3:cad>92</ns3:cad>
          </ns3:TrackPointExtension>
        </extensions>
      </trkpt>
      <trkpt lat="31.39973538927733898162841796875" lon="119.4810056872665882110595703125">
        <ele>6.19999980926513671875</ele>
        <time>2017-05-07T21:42:06.000Z</time>
        <extensions>
          <ns3:TrackPointExtension>
            <ns3:hr>98</ns3:hr>
            <ns3:cad>91</ns3:cad>
          </ns3:TrackPointExtension>
        </extensions>
      </trkpt>
      <trkpt lat="31.39976858161389827728271484375" lon="119.48079035617411136627197265625">
        <ele>6.19999980926513671875</ele>
        <time>2017-05-07T21:42:14.000Z</time>
        <extensions>
          <ns3:TrackPointExtension>
            <ns3:hr>98</ns3:hr>
            <ns3:cad>90</ns3:cad>
          </ns3:TrackPointExtension>
        </extensions>
      </trkpt>
      <trkpt lat="31.3997980020940303802490234375" lon="119.48057024739682674407958984375">
        <ele>7</ele>
        <time>2017-05-07T21:42:22.000Z</time>
        <extensions>
          <ns3:TrackPointExtension>
            <ns3:hr>98</ns3:hr>
            <ns3:cad>91</ns3:cad>
          </ns3:TrackPointExtension>
        </extensions>
      </trkpt>
      <trkpt lat="31.39982172288000583648681640625" lon="119.48034443892538547515869140625">
        <ele>7.19999980926513671875</ele>
        <time>2017-05-07T21:42:29.000Z</time>
        <extensions>
          <ns3:TrackPointExtension>
            <ns3:hr>98</ns3:hr>
            <ns3:cad>91</ns3:cad>
          </ns3:TrackPointExtension>
        </extensions>
      </trkpt>
      <trkpt lat="31.399845443665981292724609375" lon="119.48012667708098888397216796875">
        <ele>8</ele>
        <time>2017-05-07T21:42:38.000Z</time>
        <extensions>
          <ns3:TrackPointExtension>
            <ns3:hr>98</ns3:hr>
            <ns3:cad>91</ns3:cad>
          </ns3:TrackPointExtension>
        </extensions>
      </trkpt>
      <trkpt lat="31.39986983500421047210693359375" lon="119.47991042397916316986083984375">
        <ele>8</ele>
        <time>2017-05-07T21:42:46.000Z</time>
        <extensions>
          <ns3:TrackPointExtension>
            <ns3:hr>98</ns3:hr>
            <ns3:cad>89</ns3:cad>
          </ns3:TrackPointExtension>
        </extensions>
      </trkpt>
      <trkpt lat="31.39989146031439304351806640625" lon="119.4796803407371044158935546875">
        <ele>7.80000019073486328125</ele>
        <time>2017-05-07T21:42:54.000Z</time>
        <extensions>
          <ns3:TrackPointExtension>
            <ns3:hr>98</ns3:hr>
            <ns3:cad>90</ns3:cad>
          </ns3:TrackPointExtension>
        </extensions>
      </trkpt>
      <trkpt lat="31.39990403316915035247802734375" lon="119.47946014814078807830810546875">
        <ele>7</ele>
        <time>2017-05-07T21:43:02.000Z</time>
        <extensions>
          <ns3:TrackPointExtension>
            <ns3:hr>98</ns3:hr>
            <ns3:cad>92</ns3:cad>
          </ns3:TrackPointExtension>
        </extensions>
      </trkpt>
      <trkpt lat="31.3999247364699840545654296875" lon="119.4792451523244380950927734375">
        <ele>7.599999904632568359375</ele>
        <time>2017-05-07T21:43:10.000Z</time>
        <extensions>
          <ns3:TrackPointExtension>
            <ns3:hr>98</ns3:hr>
            <ns3:cad>90</ns3:cad>
          </ns3:TrackPointExtension>
        </extensions>
      </trkpt>
      <trkpt lat="31.39994527213275432586669921875" lon="119.47902495972812175750732421875">
        <ele>8.3999996185302734375</ele>
        <time>2017-05-07T21:43:18.000Z</time>
        <extensions>
          <ns3:TrackPointExtension>
            <ns3:hr>98</ns3:hr>
            <ns3:cad>91</ns3:cad>
          </ns3:TrackPointExtension>
        </extensions>
      </trkpt>
      <trkpt lat="31.39997125603258609771728515625" lon="119.47878934442996978759765625">
        <ele>9.3999996185302734375</ele>
        <time>2017-05-07T21:43:26.000Z</time>
        <extensions>
          <ns3:TrackPointExtension>
            <ns3:hr>98</ns3:hr>
            <ns3:cad>90</ns3:cad>
          </ns3:TrackPointExtension>
        </extensions>
      </trkpt>
      <trkpt lat="31.40000981278717517852783203125" lon="119.47857686318457126617431640625">
        <ele>9.6000003814697265625</ele>
        <time>2017-05-07T21:43:34.000Z</time>
        <extensions>
          <ns3:TrackPointExtension>
            <ns3:hr>98</ns3:hr>
            <ns3:cad>88</ns3:cad>
          </ns3:TrackPointExtension>
        </extensions>
      </trkpt>
      <trkpt lat="31.40003026463091373443603515625" lon="119.4783214665949344635009765625">
        <ele>9</ele>
        <time>2017-05-07T21:43:42.000Z</time>
        <extensions>
          <ns3:TrackPointExtension>
            <ns3:hr>98</ns3:hr>
            <ns3:cad>92</ns3:cad>
          </ns3:TrackPointExtension>
        </extensions>
      </trkpt>
      <trkpt lat="31.40004971064627170562744140625" lon="119.47808736003935337066650390625">
        <ele>9.80000019073486328125</ele>
        <time>2017-05-07T21:43:51.000Z</time>
        <extensions>
          <ns3:TrackPointExtension>
            <ns3:hr>98</ns3:hr>
            <ns3:cad>91</ns3:cad>
          </ns3:TrackPointExtension>
        </extensions>
      </trkpt>
      <trkpt lat="31.40005943365395069122314453125" lon="119.47784730233252048492431640625">
        <ele>9</ele>
        <time>2017-05-07T21:43:58.000Z</time>
        <extensions>
          <ns3:TrackPointExtension>
            <ns3:hr>98</ns3:hr>
            <ns3:cad>92</ns3:cad>
          </ns3:TrackPointExtension>
        </extensions>
      </trkpt>
      <trkpt lat="31.4000799693167209625244140625" lon="119.47761847637593746185302734375">
        <ele>9</ele>
        <time>2017-05-07T21:44:04.000Z</time>
        <extensions>
          <ns3:TrackPointExtension>
            <ns3:hr>98</ns3:hr>
            <ns3:cad>95</ns3:cad>
          </ns3:TrackPointExtension>
        </extensions>
      </trkpt>
      <trkpt lat="31.4001185260713100433349609375" lon="119.4774038158357143402099609375">
        <ele>9.6000003814697265625</ele>
        <time>2017-05-07T21:44:11.000Z</time>
        <extensions>
          <ns3:TrackPointExtension>
            <ns3:hr>98</ns3:hr>
            <ns3:cad>96</ns3:cad>
          </ns3:TrackPointExtension>
        </extensions>
      </trkpt>
      <trkpt lat="31.40013688243925571441650390625" lon="119.47717976756393909454345703125">
        <ele>9</ele>
        <time>2017-05-07T21:44:19.000Z</time>
        <extensions>
          <ns3:TrackPointExtension>
            <ns3:hr>98</ns3:hr>
            <ns3:cad>92</ns3:cad>
          </ns3:TrackPointExtension>
        </extensions>
      </trkpt>
      <trkpt lat="31.40014878474175930023193359375" lon="119.47696619667112827301025390625">
        <ele>9.6000003814697265625</ele>
        <time>2017-05-07T21:44:27.000Z</time>
        <extensions>
          <ns3:TrackPointExtension>
            <ns3:hr>98</ns3:hr>
            <ns3:cad>92</ns3:cad>
          </ns3:TrackPointExtension>
        </extensions>
      </trkpt>
      <trkpt lat="31.40014912001788616180419921875" lon="119.47673351503908634185791015625">
        <ele>9.6000003814697265625</ele>
        <time>2017-05-07T21:44:35.000Z</time>
        <extensions>
          <ns3:TrackPointExtension>
            <ns3:hr>98</ns3:hr>
            <ns3:cad>92</ns3:cad>
          </ns3:TrackPointExtension>
        </extensions>
      </trkpt>
      <trkpt lat="31.4001617766916751861572265625" lon="119.4764975644648075103759765625">
        <ele>9.3999996185302734375</ele>
        <time>2017-05-07T21:44:43.000Z</time>
        <extensions>
          <ns3:TrackPointExtension>
            <ns3:hr>98</ns3:hr>
            <ns3:cad>91</ns3:cad>
          </ns3:TrackPointExtension>
        </extensions>
      </trkpt>
      <trkpt lat="31.40019756741821765899658203125" lon="119.47627385146915912628173828125">
        <ele>8.80000019073486328125</ele>
        <time>2017-05-07T21:44:51.000Z</time>
        <extensions>
          <ns3:TrackPointExtension>
            <ns3:hr>98</ns3:hr>
            <ns3:cad>91</ns3:cad>
          </ns3:TrackPointExtension>
        </extensions>
      </trkpt>
      <trkpt lat="31.40022070147097110748291015625" lon="119.47604200802743434906005859375">
        <ele>8</ele>
        <time>2017-05-07T21:44:59.000Z</time>
        <extensions>
          <ns3:TrackPointExtension>
            <ns3:hr>98</ns3:hr>
            <ns3:cad>90</ns3:cad>
          </ns3:TrackPointExtension>
        </extensions>
      </trkpt>
      <trkpt lat="31.40025791712105274200439453125" lon="119.47583229281008243560791015625">
        <ele>7</ele>
        <time>2017-05-07T21:45:07.000Z</time>
        <extensions>
          <ns3:TrackPointExtension>
            <ns3:hr>98</ns3:hr>
            <ns3:cad>92</ns3:cad>
          </ns3:TrackPointExtension>
        </extensions>
      </trkpt>
      <trkpt lat="31.400285996496677398681640625" lon="119.47561704553663730621337890625">
        <ele>7.80000019073486328125</ele>
        <time>2017-05-07T21:45:15.000Z</time>
        <extensions>
          <ns3:TrackPointExtension>
            <ns3:hr>98</ns3:hr>
            <ns3:cad>93</ns3:cad>
          </ns3:TrackPointExtension>
        </extensions>
      </trkpt>
      <trkpt lat="31.40030837617814540863037109375" lon="119.47540699504315853118896484375">
        <ele>9</ele>
        <time>2017-05-07T21:45:23.000Z</time>
        <extensions>
          <ns3:TrackPointExtension>
            <ns3:hr>98</ns3:hr>
            <ns3:cad>92</ns3:cad>
          </ns3:TrackPointExtension>
        </extensions>
      </trkpt>
      <trkpt lat="31.4003250561654567718505859375" lon="119.47519174776971340179443359375">
        <ele>10.6000003814697265625</ele>
        <time>2017-05-07T21:45:31.000Z</time>
        <extensions>
          <ns3:TrackPointExtension>
            <ns3:hr>98</ns3:hr>
            <ns3:cad>91</ns3:cad>
          </ns3:TrackPointExtension>
        </extensions>
      </trkpt>
      <trkpt lat="31.40033922158181667327880859375" lon="119.47497013024985790252685546875">
        <ele>10.80000019073486328125</ele>
        <time>2017-05-07T21:45:40.000Z</time>
        <extensions>
          <ns3:TrackPointExtension>
            <ns3:hr>98</ns3:hr>
            <ns3:cad>89</ns3:cad>
          </ns3:TrackPointExtension>
        </extensions>
      </trkpt>
      <trkpt lat="31.400357075035572052001953125" lon="119.47472034953534603118896484375">
        <ele>11.19999980926513671875</ele>
        <time>2017-05-07T21:45:49.000Z</time>
        <extensions>
          <ns3:TrackPointExtension>
            <ns3:hr>98</ns3:hr>
            <ns3:cad>90</ns3:cad>
          </ns3:TrackPointExtension>
        </extensions>
      </trkpt>
      <trkpt lat="31.40039068646728992462158203125" lon="119.47448909282684326171875">
        <ele>11.3999996185302734375</ele>
        <time>2017-05-07T21:45:57.000Z</time>
        <extensions>
          <ns3:TrackPointExtension>
            <ns3:hr>98</ns3:hr>
            <ns3:cad>92</ns3:cad>
          </ns3:TrackPointExtension>
        </extensions>
      </trkpt>
      <trkpt lat="31.40042086131870746612548828125" lon="119.474278874695301055908203125">
        <ele>11.80000019073486328125</ele>
        <time>2017-05-07T21:46:06.000Z</time>
        <extensions>
          <ns3:TrackPointExtension>
            <ns3:hr>98</ns3:hr>
            <ns3:cad>92</ns3:cad>
          </ns3:TrackPointExtension>
        </extensions>
      </trkpt>
      <trkpt lat="31.40044500119984149932861328125" lon="119.47406136430799961090087890625">
        <ele>13.3999996185302734375</ele>
        <time>2017-05-07T21:46:13.000Z</time>
        <extensions>
          <ns3:TrackPointExtension>
            <ns3:hr>98</ns3:hr>
            <ns3:cad>93</ns3:cad>
          </ns3:TrackPointExtension>
        </extensions>
      </trkpt>
      <trkpt lat="31.400474421679973602294921875" lon="119.47384226135909557342529296875">
        <ele>13.80000019073486328125</ele>
        <time>2017-05-07T21:46:22.000Z</time>
        <extensions>
          <ns3:TrackPointExtension>
            <ns3:hr>98</ns3:hr>
            <ns3:cad>92</ns3:cad>
          </ns3:TrackPointExtension>
        </extensions>
      </trkpt>
      <trkpt lat="31.40049956738948822021484375" lon="119.473618380725383758544921875">
        <ele>11.19999980926513671875</ele>
        <time>2017-05-07T21:46:31.000Z</time>
        <extensions>
          <ns3:TrackPointExtension>
            <ns3:hr>98</ns3:hr>
            <ns3:cad>93</ns3:cad>
          </ns3:TrackPointExtension>
        </extensions>
      </trkpt>
      <trkpt lat="31.400523371994495391845703125" lon="119.47340480983257293701171875">
        <ele>9.6000003814697265625</ele>
        <time>2017-05-07T21:46:38.000Z</time>
        <extensions>
          <ns3:TrackPointExtension>
            <ns3:hr>98</ns3:hr>
            <ns3:cad>93</ns3:cad>
          </ns3:TrackPointExtension>
        </extensions>
      </trkpt>
      <trkpt lat="31.40054608695209026336669921875" lon="119.4731917418539524078369140625">
        <ele>10</ele>
        <time>2017-05-07T21:46:47.000Z</time>
        <extensions>
          <ns3:TrackPointExtension>
            <ns3:hr>98</ns3:hr>
            <ns3:cad>93</ns3:cad>
          </ns3:TrackPointExtension>
        </extensions>
      </trkpt>
      <trkpt lat="31.4005672931671142578125" lon="119.47296501137316226959228515625">
        <ele>11.3999996185302734375</ele>
        <time>2017-05-07T21:46:54.000Z</time>
        <extensions>
          <ns3:TrackPointExtension>
            <ns3:hr>98</ns3:hr>
            <ns3:cad>93</ns3:cad>
          </ns3:TrackPointExtension>
        </extensions>
      </trkpt>
      <trkpt lat="31.4005869068205356597900390625" lon="119.47274825535714626312255859375">
        <ele>12.80000019073486328125</ele>
        <time>2017-05-07T21:47:02.000Z</time>
        <extensions>
          <ns3:TrackPointExtension>
            <ns3:hr>98</ns3:hr>
            <ns3:cad>92</ns3:cad>
          </ns3:TrackPointExtension>
        </extensions>
      </trkpt>
      <trkpt lat="31.40062353573739528656005859375" lon="119.47252831421792507171630859375">
        <ele>14</ele>
        <time>2017-05-07T21:47:11.000Z</time>
        <extensions>
          <ns3:TrackPointExtension>
            <ns3:hr>98</ns3:hr>
            <ns3:cad>92</ns3:cad>
          </ns3:TrackPointExtension>
        </extensions>
      </trkpt>
      <trkpt lat="31.40063761733472347259521484375" lon="119.47228691540658473968505859375">
        <ele>14.3999996185302734375</ele>
        <time>2017-05-07T21:47:18.000Z</time>
        <extensions>
          <ns3:TrackPointExtension>
            <ns3:hr>98</ns3:hr>
            <ns3:cad>93</ns3:cad>
          </ns3:TrackPointExtension>
        </extensions>
      </trkpt>
      <trkpt lat="31.40065823681652545928955078125" lon="119.47205456905066967010498046875">
        <ele>15.19999980926513671875</ele>
        <time>2017-05-07T21:47:27.000Z</time>
        <extensions>
          <ns3:TrackPointExtension>
            <ns3:hr>98</ns3:hr>
            <ns3:cad>92</ns3:cad>
          </ns3:TrackPointExtension>
        </extensions>
      </trkpt>
      <trkpt lat="31.4007129706442356109619140625" lon="119.47181702591478824615478515625">
        <ele>17</ele>
        <time>2017-05-07T21:47:35.000Z</time>
        <extensions>
          <ns3:TrackPointExtension>
            <ns3:hr>98</ns3:hr>
            <ns3:cad>89</ns3:cad>
          </ns3:TrackPointExtension>
        </extensions>
      </trkpt>
      <trkpt lat="31.4007387869060039520263671875" lon="119.4715844281017780303955078125">
        <ele>18</ele>
        <time>2017-05-07T21:47:44.000Z</time>
        <extensions>
          <ns3:TrackPointExtension>
            <ns3:hr>98</ns3:hr>
            <ns3:cad>90</ns3:cad>
          </ns3:TrackPointExtension>
        </extensions>
      </trkpt>
      <trkpt lat="31.4008118771016597747802734375" lon="119.4714003615081310272216796875">
        <ele>20</ele>
        <time>2017-05-07T21:47:52.000Z</time>
        <extensions>
          <ns3:TrackPointExtension>
            <ns3:hr>98</ns3:hr>
            <ns3:cad>89</ns3:cad>
          </ns3:TrackPointExtension>
        </extensions>
      </trkpt>
      <trkpt lat="31.400997452437877655029296875" lon="119.4713281095027923583984375">
        <ele>22.200000762939453125</ele>
        <time>2017-05-07T21:47:59.000Z</time>
        <extensions>
          <ns3:TrackPointExtension>
            <ns3:hr>98</ns3:hr>
            <ns3:cad>90</ns3:cad>
          </ns3:TrackPointExtension>
        </extensions>
      </trkpt>
      <trkpt lat="31.401202641427516937255859375" lon="119.47132115252315998077392578125">
        <ele>23.6000003814697265625</ele>
        <time>2017-05-07T21:48:07.000Z</time>
        <extensions>
          <ns3:TrackPointExtension>
            <ns3:hr>98</ns3:hr>
            <ns3:cad>91</ns3:cad>
          </ns3:TrackPointExtension>
        </extensions>
      </trkpt>
      <trkpt lat="31.4013868756592273712158203125" lon="119.4713359884917736053466796875">
        <ele>24</ele>
        <time>2017-05-07T21:48:14.000Z</time>
        <extensions>
          <ns3:TrackPointExtension>
            <ns3:hr>98</ns3:hr>
            <ns3:cad>91</ns3:cad>
          </ns3:TrackPointExtension>
        </extensions>
      </trkpt>
      <trkpt lat="31.4015769772231578826904296875" lon="119.4713611342012882232666015625">
        <ele>23.200000762939453125</ele>
        <time>2017-05-07T21:48:22.000Z</time>
        <extensions>
          <ns3:TrackPointExtension>
            <ns3:hr>98</ns3:hr>
            <ns3:cad>90</ns3:cad>
          </ns3:TrackPointExtension>
        </extensions>
      </trkpt>
      <trkpt lat="31.40177219174802303314208984375" lon="119.47140748612582683563232421875">
        <ele>21.3999996185302734375</ele>
        <time>2017-05-07T21:48:31.000Z</time>
        <extensions>
          <ns3:TrackPointExtension>
            <ns3:hr>98</ns3:hr>
            <ns3:cad>91</ns3:cad>
          </ns3:TrackPointExtension>
        </extensions>
      </trkpt>
      <trkpt lat="31.40200638212263584136962890625" lon="119.4714273512363433837890625">
        <ele>18.3999996185302734375</ele>
        <time>2017-05-07T21:48:40.000Z</time>
        <extensions>
          <ns3:TrackPointExtension>
            <ns3:hr>98</ns3:hr>
            <ns3:cad>91</ns3:cad>
          </ns3:TrackPointExtension>
        </extensions>
      </trkpt>
      <trkpt lat="31.40218525193631649017333984375" lon="119.47145123966038227081298828125">
        <ele>15.6000003814697265625</ele>
        <time>2017-05-07T21:48:47.000Z</time>
        <extensions>
          <ns3:TrackPointExtension>
            <ns3:hr>98</ns3:hr>
            <ns3:cad>91</ns3:cad>
          </ns3:TrackPointExtension>
        </extensions>
      </trkpt>
      <trkpt lat="31.40237619169056415557861328125" lon="119.471509158611297607421875">
        <ele>14.3999996185302734375</ele>
        <time>2017-05-07T21:48:55.000Z</time>
        <extensions>
          <ns3:TrackPointExtension>
            <ns3:hr>98</ns3:hr>
            <ns3:cad>92</ns3:cad>
          </ns3:TrackPointExtension>
        </extensions>
      </trkpt>
      <trkpt lat="31.4025683887302875518798828125" lon="119.4715911336243152618408203125">
        <ele>13.80000019073486328125</ele>
        <time>2017-05-07T21:49:03.000Z</time>
        <extensions>
          <ns3:TrackPointExtension>
            <ns3:hr>98</ns3:hr>
            <ns3:cad>92</ns3:cad>
          </ns3:TrackPointExtension>
        </extensions>
      </trkpt>
      <trkpt lat="31.40261314809322357177734375" lon="119.47160781361162662506103515625">
        <ele>13.80000019073486328125</ele>
        <time>2017-05-07T21:49:05.000Z</time>
        <extensions>
          <ns3:TrackPointExtension>
            <ns3:hr>98</ns3:hr>
            <ns3:cad>92</ns3:cad>
          </ns3:TrackPointExtension>
        </extensions>
      </trkpt>
      <trkpt lat="31.402796208858489990234375" lon="119.47167319245636463165283203125">
        <ele>13.80000019073486328125</ele>
        <time>2017-05-07T21:49:13.000Z</time>
        <extensions>
          <ns3:TrackPointExtension>
            <ns3:hr>98</ns3:hr>
            <ns3:cad>92</ns3:cad>
          </ns3:TrackPointExtension>
        </extensions>
      </trkpt>
      <trkpt lat="31.40298622660338878631591796875" lon="119.4717252440750598907470703125">
        <ele>13</ele>
        <time>2017-05-07T21:49:21.000Z</time>
        <extensions>
          <ns3:TrackPointExtension>
            <ns3:hr>98</ns3:hr>
            <ns3:cad>91</ns3:cad>
          </ns3:TrackPointExtension>
        </extensions>
      </trkpt>
      <trkpt lat="31.4030283875763416290283203125" lon="119.471723735332489013671875">
        <ele>12.80000019073486328125</ele>
        <time>2017-05-07T21:49:23.000Z</time>
        <extensions>
          <ns3:TrackPointExtension>
            <ns3:hr>98</ns3:hr>
            <ns3:cad>90</ns3:cad>
          </ns3:TrackPointExtension>
        </extensions>
      </trkpt>
      <trkpt lat="31.40305914916098117828369140625" lon="119.4716880284249782562255859375">
        <ele>12.6000003814697265625</ele>
        <time>2017-05-07T21:49:25.000Z</time>
        <extensions>
          <ns3:TrackPointExtension>
            <ns3:hr>98</ns3:hr>
            <ns3:cad>89</ns3:cad>
          </ns3:TrackPointExtension>
        </extensions>
      </trkpt>
      <trkpt lat="31.40311916358768939971923828125" lon="119.47147118858993053436279296875">
        <ele>12.6000003814697265625</ele>
        <time>2017-05-07T21:49:33.000Z</time>
        <extensions>
          <ns3:TrackPointExtension>
            <ns3:hr>98</ns3:hr>
            <ns3:cad>90</ns3:cad>
          </ns3:TrackPointExtension>
        </extensions>
      </trkpt>
      <trkpt lat="31.4031772501766681671142578125" lon="119.4712612219154834747314453125">
        <ele>11.3999996185302734375</ele>
        <time>2017-05-07T21:49:41.000Z</time>
        <extensions>
          <ns3:TrackPointExtension>
            <ns3:hr>98</ns3:hr>
            <ns3:cad>91</ns3:cad>
          </ns3:TrackPointExtension>
        </extensions>
      </trkpt>
      <trkpt lat="31.40322695486247539520263671875" lon="119.47104589082300662994384765625">
        <ele>10.6000003814697265625</ele>
        <time>2017-05-07T21:49:49.000Z</time>
        <extensions>
          <ns3:TrackPointExtension>
            <ns3:hr>98</ns3:hr>
            <ns3:cad>88</ns3:cad>
          </ns3:TrackPointExtension>
        </extensions>
      </trkpt>
      <trkpt lat="31.40328328125178813934326171875" lon="119.47084070183336734771728515625">
        <ele>11</ele>
        <time>2017-05-07T21:49:56.000Z</time>
        <extensions>
          <ns3:TrackPointExtension>
            <ns3:hr>98</ns3:hr>
            <ns3:cad>90</ns3:cad>
          </ns3:TrackPointExtension>
        </extensions>
      </trkpt>
      <trkpt lat="31.4033817686140537261962890625" lon="119.47064842097461223602294921875">
        <ele>12</ele>
        <time>2017-05-07T21:50:05.000Z</time>
        <extensions>
          <ns3:TrackPointExtension>
            <ns3:hr>98</ns3:hr>
            <ns3:cad>92</ns3:cad>
          </ns3:TrackPointExtension>
        </extensions>
      </trkpt>
      <trkpt lat="31.40352384187281131744384765625" lon="119.4705138914287090301513671875">
        <ele>13.19999980926513671875</ele>
        <time>2017-05-07T21:50:12.000Z</time>
        <extensions>
          <ns3:TrackPointExtension>
            <ns3:hr>98</ns3:hr>
            <ns3:cad>92</ns3:cad>
          </ns3:TrackPointExtension>
        </extensions>
      </trkpt>
      <trkpt lat="31.4036828465759754180908203125" lon="119.47036293335258960723876953125">
        <ele>14</ele>
        <time>2017-05-07T21:50:20.000Z</time>
        <extensions>
          <ns3:TrackPointExtension>
            <ns3:hr>98</ns3:hr>
            <ns3:cad>91</ns3:cad>
          </ns3:TrackPointExtension>
        </extensions>
      </trkpt>
      <trkpt lat="31.40383045189082622528076171875" lon="119.47027090005576610565185546875">
        <ele>13.3999996185302734375</ele>
        <time>2017-05-07T21:50:27.000Z</time>
        <extensions>
          <ns3:TrackPointExtension>
            <ns3:hr>98</ns3:hr>
            <ns3:cad>91</ns3:cad>
          </ns3:TrackPointExtension>
        </extensions>
      </trkpt>
      <trkpt lat="31.40399306081235408782958984375" lon="119.4701504521071910858154296875">
        <ele>11</ele>
        <time>2017-05-07T21:50:35.000Z</time>
        <extensions>
          <ns3:TrackPointExtension>
            <ns3:hr>98</ns3:hr>
            <ns3:cad>91</ns3:cad>
          </ns3:TrackPointExtension>
        </extensions>
      </trkpt>
      <trkpt lat="31.4041964896023273468017578125" lon="119.4700460135936737060546875">
        <ele>9.3999996185302734375</ele>
        <time>2017-05-07T21:50:44.000Z</time>
        <extensions>
          <ns3:TrackPointExtension>
            <ns3:hr>98</ns3:hr>
            <ns3:cad>90</ns3:cad>
          </ns3:TrackPointExtension>
        </extensions>
      </trkpt>
      <trkpt lat="31.40436974354088306427001953125" lon="119.46987611241638660430908203125">
        <ele>10.6000003814697265625</ele>
        <time>2017-05-07T21:50:52.000Z</time>
        <extensions>
          <ns3:TrackPointExtension>
            <ns3:hr>98</ns3:hr>
            <ns3:cad>92</ns3:cad>
          </ns3:TrackPointExtension>
        </extensions>
      </trkpt>
      <trkpt lat="31.404471583664417266845703125" lon="119.4696458615362644195556640625">
        <ele>11.3999996185302734375</ele>
        <time>2017-05-07T21:51:01.000Z</time>
        <extensions>
          <ns3:TrackPointExtension>
            <ns3:hr>98</ns3:hr>
            <ns3:cad>93</ns3:cad>
          </ns3:TrackPointExtension>
        </extensions>
      </trkpt>
      <trkpt lat="31.40449966304004192352294921875" lon="119.469411335885524749755859375">
        <ele>9.80000019073486328125</ele>
        <time>2017-05-07T21:51:09.000Z</time>
        <extensions>
          <ns3:TrackPointExtension>
            <ns3:hr>98</ns3:hr>
            <ns3:cad>93</ns3:cad>
          </ns3:TrackPointExtension>
        </extensions>
      </trkpt>
      <trkpt lat="31.404546014964580535888671875" lon="119.46918628178536891937255859375">
        <ele>10.6000003814697265625</ele>
        <time>2017-05-07T21:51:17.000Z</time>
        <extensions>
          <ns3:TrackPointExtension>
            <ns3:hr>98</ns3:hr>
            <ns3:cad>94</ns3:cad>
          </ns3:TrackPointExtension>
        </extensions>
      </trkpt>
      <trkpt lat="31.4045954681932926177978515625" lon="119.46895502507686614990234375">
        <ele>13</ele>
        <time>2017-05-07T21:51:26.000Z</time>
        <extensions>
          <ns3:TrackPointExtension>
            <ns3:hr>98</ns3:hr>
            <ns3:cad>93</ns3:cad>
          </ns3:TrackPointExtension>
        </extensions>
      </trkpt>
      <trkpt lat="31.4046179316937923431396484375" lon="119.468740113079547882080078125">
        <ele>14.19999980926513671875</ele>
        <time>2017-05-07T21:51:34.000Z</time>
        <extensions>
          <ns3:TrackPointExtension>
            <ns3:hr>98</ns3:hr>
            <ns3:cad>92</ns3:cad>
          </ns3:TrackPointExtension>
        </extensions>
      </trkpt>
      <trkpt lat="31.40455548651516437530517578125" lon="119.4685421325266361236572265625">
        <ele>14.80000019073486328125</ele>
        <time>2017-05-07T21:51:42.000Z</time>
        <extensions>
          <ns3:TrackPointExtension>
            <ns3:hr>98</ns3:hr>
            <ns3:cad>93</ns3:cad>
          </ns3:TrackPointExtension>
        </extensions>
      </trkpt>
      <trkpt lat="31.40444870106875896453857421875" lon="119.46835379116237163543701171875">
        <ele>15.6000003814697265625</ele>
        <time>2017-05-07T21:51:51.000Z</time>
        <extensions>
          <ns3:TrackPointExtension>
            <ns3:hr>98</ns3:hr>
            <ns3:cad>91</ns3:cad>
          </ns3:TrackPointExtension>
        </extensions>
      </trkpt>
      <trkpt lat="31.4043235592544078826904296875" lon="119.46818447671830654144287109375">
        <ele>16</ele>
        <time>2017-05-07T21:51:59.000Z</time>
        <extensions>
          <ns3:TrackPointExtension>
            <ns3:hr>98</ns3:hr>
            <ns3:cad>91</ns3:cad>
          </ns3:TrackPointExtension>
        </extensions>
      </trkpt>
      <trkpt lat="31.4041636325418949127197265625" lon="119.46804114617407321929931640625">
        <ele>16</ele>
        <time>2017-05-07T21:52:07.000Z</time>
        <extensions>
          <ns3:TrackPointExtension>
            <ns3:hr>98</ns3:hr>
            <ns3:cad>90</ns3:cad>
          </ns3:TrackPointExtension>
        </extensions>
      </trkpt>
      <trkpt lat="31.404031030833721160888671875" lon="119.46786143817007541656494140625">
        <ele>16.200000762939453125</ele>
        <time>2017-05-07T21:52:15.000Z</time>
        <extensions>
          <ns3:TrackPointExtension>
            <ns3:hr>98</ns3:hr>
            <ns3:cad>91</ns3:cad>
          </ns3:TrackPointExtension>
        </extensions>
      </trkpt>
      <trkpt lat="31.40396724455058574676513671875" lon="119.467636384069919586181640625">
        <ele>15.19999980926513671875</ele>
        <time>2017-05-07T21:52:23.000Z</time>
        <extensions>
          <ns3:TrackPointExtension>
            <ns3:hr>98</ns3:hr>
            <ns3:cad>92</ns3:cad>
          </ns3:TrackPointExtension>
        </extensions>
      </trkpt>
      <trkpt lat="31.403925418853759765625" lon="119.46740495972335338592529296875">
        <ele>14.19999980926513671875</ele>
        <time>2017-05-07T21:52:31.000Z</time>
        <extensions>
          <ns3:TrackPointExtension>
            <ns3:hr>98</ns3:hr>
            <ns3:cad>92</ns3:cad>
          </ns3:TrackPointExtension>
        </extensions>
      </trkpt>
      <trkpt lat="31.4038570225238800048828125" lon="119.4672094099223613739013671875">
        <ele>14</ele>
        <time>2017-05-07T21:52:38.000Z</time>
        <extensions>
          <ns3:TrackPointExtension>
            <ns3:hr>98</ns3:hr>
            <ns3:cad>92</ns3:cad>
          </ns3:TrackPointExtension>
        </extensions>
      </trkpt>
      <trkpt lat="31.40371729619801044464111328125" lon="119.467040263116359710693359375">
        <ele>14.3999996185302734375</ele>
        <time>2017-05-07T21:52:46.000Z</time>
        <extensions>
          <ns3:TrackPointExtension>
            <ns3:hr>98</ns3:hr>
            <ns3:cad>92</ns3:cad>
          </ns3:TrackPointExtension>
        </extensions>
      </trkpt>
      <trkpt lat="31.40352082438766956329345703125" lon="119.4669861160218715667724609375">
        <ele>15.80000019073486328125</ele>
        <time>2017-05-07T21:52:54.000Z</time>
        <extensions>
          <ns3:TrackPointExtension>
            <ns3:hr>98</ns3:hr>
            <ns3:cad>94</ns3:cad>
          </ns3:TrackPointExtension>
        </extensions>
      </trkpt>
      <trkpt lat="31.40333256684243679046630859375" lon="119.46701017208397388458251953125">
        <ele>17.6000003814697265625</ele>
        <time>2017-05-07T21:53:02.000Z</time>
        <extensions>
          <ns3:TrackPointExtension>
            <ns3:hr>98</ns3:hr>
            <ns3:cad>94</ns3:cad>
          </ns3:TrackPointExtension>
        </extensions>
      </trkpt>
      <trkpt lat="31.40315227210521697998046875" lon="119.46705526672303676605224609375">
        <ele>18.6000003814697265625</ele>
        <time>2017-05-07T21:53:10.000Z</time>
        <extensions>
          <ns3:TrackPointExtension>
            <ns3:hr>98</ns3:hr>
            <ns3:cad>93</ns3:cad>
          </ns3:TrackPointExtension>
        </extensions>
      </trkpt>
      <trkpt lat="31.4029727317392826080322265625" lon="119.46711544878780841827392578125">
        <ele>21</ele>
        <time>2017-05-07T21:53:19.000Z</time>
        <extensions>
          <ns3:TrackPointExtension>
            <ns3:hr>98</ns3:hr>
            <ns3:cad>94</ns3:cad>
          </ns3:TrackPointExtension>
        </extensions>
      </trkpt>
      <trkpt lat="31.4027760922908782958984375" lon="119.46714646182954311370849609375">
        <ele>24</ele>
        <time>2017-05-07T21:53:31.000Z</time>
        <extensions>
          <ns3:TrackPointExtension>
            <ns3:hr>98</ns3:hr>
            <ns3:cad>94</ns3:cad>
          </ns3:TrackPointExtension>
        </extensions>
      </trkpt>
      <trkpt lat="31.4025861583650112152099609375" lon="119.467129446566104888916015625">
        <ele>26.200000762939453125</ele>
        <time>2017-05-07T21:53:38.000Z</time>
        <extensions>
          <ns3:TrackPointExtension>
            <ns3:hr>98</ns3:hr>
            <ns3:cad>87</ns3:cad>
          </ns3:TrackPointExtension>
        </extensions>
      </trkpt>
      <trkpt lat="31.4024067856371402740478515625" lon="119.46704470552504062652587890625">
        <ele>27</ele>
        <time>2017-05-07T21:53:47.000Z</time>
        <extensions>
          <ns3:TrackPointExtension>
            <ns3:hr>98</ns3:hr>
            <ns3:cad>94</ns3:cad>
          </ns3:TrackPointExtension>
        </extensions>
      </trkpt>
      <trkpt lat="31.402244009077548980712890625" lon="119.4669344834983348846435546875">
        <ele>26.6000003814697265625</ele>
        <time>2017-05-07T21:53:55.000Z</time>
        <extensions>
          <ns3:TrackPointExtension>
            <ns3:hr>98</ns3:hr>
            <ns3:cad>93</ns3:cad>
          </ns3:TrackPointExtension>
        </extensions>
      </trkpt>
      <trkpt lat="31.40210797078907489776611328125" lon="119.4667950086295604705810546875">
        <ele>24.3999996185302734375</ele>
        <time>2017-05-07T21:54:03.000Z</time>
        <extensions>
          <ns3:TrackPointExtension>
            <ns3:hr>98</ns3:hr>
            <ns3:cad>91</ns3:cad>
          </ns3:TrackPointExtension>
        </extensions>
      </trkpt>
      <trkpt lat="31.4020892791450023651123046875" lon="119.46677933447062969207763671875">
        <ele>24.200000762939453125</ele>
        <time>2017-05-07T21:54:04.000Z</time>
        <extensions>
          <ns3:TrackPointExtension>
            <ns3:hr>98</ns3:hr>
            <ns3:cad>91</ns3:cad>
          </ns3:TrackPointExtension>
        </extensions>
      </trkpt>
      <trkpt lat="31.402044184505939483642578125" lon="119.46673038415610790252685546875">
        <ele>23.3999996185302734375</ele>
        <time>2017-05-07T21:54:07.000Z</time>
        <extensions>
          <ns3:TrackPointExtension>
            <ns3:hr>98</ns3:hr>
            <ns3:cad>90</ns3:cad>
          </ns3:TrackPointExtension>
        </extensions>
      </trkpt>
      <trkpt lat="31.40199565328657627105712890625" lon="119.466681182384490966796875">
        <ele>22.3999996185302734375</ele>
        <time>2017-05-07T21:54:09.000Z</time>
        <extensions>
          <ns3:TrackPointExtension>
            <ns3:hr>99</ns3:hr>
            <ns3:cad>90</ns3:cad>
          </ns3:TrackPointExtension>
        </extensions>
      </trkpt>
      <trkpt lat="31.40186883509159088134765625" lon="119.46652083657681941986083984375">
        <ele>21.6000003814697265625</ele>
        <time>2017-05-07T21:54:19.000Z</time>
        <extensions>
          <ns3:TrackPointExtension>
            <ns3:hr>122</ns3:hr>
            <ns3:cad>90</ns3:cad>
          </ns3:TrackPointExtension>
        </extensions>
      </trkpt>
      <trkpt lat="31.40184067189693450927734375" lon="119.46648202836513519287109375">
        <ele>21.6000003814697265625</ele>
        <time>2017-05-07T21:54:20.000Z</time>
        <extensions>
          <ns3:TrackPointExtension>
            <ns3:hr>123</ns3:hr>
            <ns3:cad>89</ns3:cad>
          </ns3:TrackPointExtension>
        </extensions>
      </trkpt>
      <trkpt lat="31.40184067189693450927734375" lon="119.46648202836513519287109375">
        <ele>21.6000003814697265625</ele>
        <time>2017-05-07T21:54:21.000Z</time>
        <extensions>
          <ns3:TrackPointExtension>
            <ns3:hr>125</ns3:hr>
            <ns3:cad>89</ns3:cad>
          </ns3:TrackPointExtension>
        </extensions>
      </trkpt>
      <trkpt lat="31.401828266680240631103515625" lon="119.46646249853074550628662109375">
        <ele>21.6000003814697265625</ele>
        <time>2017-05-07T21:54:22.000Z</time>
        <extensions>
          <ns3:TrackPointExtension>
            <ns3:hr>126</ns3:hr>
            <ns3:cad>89</ns3:cad>
          </ns3:TrackPointExtension>
        </extensions>
      </trkpt>
      <trkpt lat="31.4017593674361705780029296875" lon="119.46630022488534450531005859375">
        <ele>21.799999237060546875</ele>
        <time>2017-05-07T21:54:28.000Z</time>
        <extensions>
          <ns3:TrackPointExtension>
            <ns3:hr>128</ns3:hr>
            <ns3:cad>89</ns3:cad>
          </ns3:TrackPointExtension>
        </extensions>
      </trkpt>
      <trkpt lat="31.4017208106815814971923828125" lon="119.46606896817684173583984375">
        <ele>22.3999996185302734375</ele>
        <time>2017-05-07T21:54:36.000Z</time>
        <extensions>
          <ns3:TrackPointExtension>
            <ns3:hr>126</ns3:hr>
            <ns3:cad>89</ns3:cad>
          </ns3:TrackPointExtension>
        </extensions>
      </trkpt>
      <trkpt lat="31.40170111320912837982177734375" lon="119.46584944613277912139892578125">
        <ele>22.6000003814697265625</ele>
        <time>2017-05-07T21:54:44.000Z</time>
        <extensions>
          <ns3:TrackPointExtension>
            <ns3:hr>125</ns3:hr>
            <ns3:cad>91</ns3:cad>
          </ns3:TrackPointExtension>
        </extensions>
      </trkpt>
      <trkpt lat="31.4017141051590442657470703125" lon="119.46566018275916576385498046875">
        <ele>21.200000762939453125</ele>
        <time>2017-05-07T21:54:49.000Z</time>
        <extensions>
          <ns3:TrackPointExtension>
            <ns3:hr>118</ns3:hr>
            <ns3:cad>91</ns3:cad>
          </ns3:TrackPointExtension>
        </extensions>
      </trkpt>
      <trkpt lat="31.4017141051590442657470703125" lon="119.46566018275916576385498046875">
        <ele>21.200000762939453125</ele>
        <time>2017-05-07T21:54:50.000Z</time>
        <extensions>
          <ns3:TrackPointExtension>
            <ns3:hr>118</ns3:hr>
            <ns3:cad>92</ns3:cad>
          </ns3:TrackPointExtension>
        </extensions>
      </trkpt>
      <trkpt lat="31.4017861895263195037841796875" lon="119.46550478227436542510986328125">
        <ele>20.200000762939453125</ele>
        <time>2017-05-07T21:54:55.000Z</time>
        <extensions>
          <ns3:TrackPointExtension>
            <ns3:hr>121</ns3:hr>
            <ns3:cad>91</ns3:cad>
          </ns3:TrackPointExtension>
        </extensions>
      </trkpt>
      <trkpt lat="31.40180152840912342071533203125" lon="119.4654783792793750762939453125">
        <ele>20</ele>
        <time>2017-05-07T21:54:57.000Z</time>
        <extensions>
          <ns3:TrackPointExtension>
            <ns3:hr>124</ns3:hr>
            <ns3:cad>92</ns3:cad>
          </ns3:TrackPointExtension>
        </extensions>
      </trkpt>
      <trkpt lat="31.4018757082521915435791015625" lon="119.46539246477186679840087890625">
        <ele>19.3999996185302734375</ele>
        <time>2017-05-07T21:55:00.000Z</time>
        <extensions>
          <ns3:TrackPointExtension>
            <ns3:hr>128</ns3:hr>
            <ns3:cad>93</ns3:cad>
          </ns3:TrackPointExtension>
        </extensions>
      </trkpt>
      <trkpt lat="31.40195961110293865203857421875" lon="119.46534116752445697784423828125">
        <ele>19</ele>
        <time>2017-05-07T21:55:04.000Z</time>
        <extensions>
          <ns3:TrackPointExtension>
            <ns3:hr>131</ns3:hr>
            <ns3:cad>93</ns3:cad>
          </ns3:TrackPointExtension>
        </extensions>
      </trkpt>
      <trkpt lat="31.4020242355763912200927734375" lon="119.4653184525668621063232421875">
        <ele>18.3999996185302734375</ele>
        <time>2017-05-07T21:55:08.000Z</time>
        <extensions>
          <ns3:TrackPointExtension>
            <ns3:hr>134</ns3:hr>
            <ns3:cad>92</ns3:cad>
          </ns3:TrackPointExtension>
        </extensions>
      </trkpt>
      <trkpt lat="31.4022119902074337005615234375" lon="119.46526162326335906982421875">
        <ele>17</ele>
        <time>2017-05-07T21:55:15.000Z</time>
        <extensions>
          <ns3:TrackPointExtension>
            <ns3:hr>136</ns3:hr>
            <ns3:cad>93</ns3:cad>
          </ns3:TrackPointExtension>
        </extensions>
      </trkpt>
      <trkpt lat="31.40239186584949493408203125" lon="119.465226419270038604736328125">
        <ele>15.80000019073486328125</ele>
        <time>2017-05-07T21:55:22.000Z</time>
        <extensions>
          <ns3:TrackPointExtension>
            <ns3:hr>137</ns3:hr>
            <ns3:cad>94</ns3:cad>
          </ns3:TrackPointExtension>
        </extensions>
      </trkpt>
      <trkpt lat="31.40259428881108760833740234375" lon="119.4652128405869007110595703125">
        <ele>15.19999980926513671875</ele>
        <time>2017-05-07T21:55:30.000Z</time>
        <extensions>
          <ns3:TrackPointExtension>
            <ns3:hr>138</ns3:hr>
            <ns3:cad>93</ns3:cad>
          </ns3:TrackPointExtension>
        </extensions>
      </trkpt>
      <trkpt lat="31.40272554941475391387939453125" lon="119.46524125523865222930908203125">
        <ele>15</ele>
        <time>2017-05-07T21:55:35.000Z</time>
        <extensions>
          <ns3:TrackPointExtension>
            <ns3:hr>138</ns3:hr>
            <ns3:cad>94</ns3:cad>
          </ns3:TrackPointExtension>
        </extensions>
      </trkpt>
      <trkpt lat="31.402920596301555633544921875" lon="119.465323984622955322265625">
        <ele>14.80000019073486328125</ele>
        <time>2017-05-07T21:55:43.000Z</time>
        <extensions>
          <ns3:TrackPointExtension>
            <ns3:hr>138</ns3:hr>
            <ns3:cad>92</ns3:cad>
          </ns3:TrackPointExtension>
        </extensions>
      </trkpt>
      <trkpt lat="31.40312251634895801544189453125" lon="119.46540403179824352264404296875">
        <ele>14</ele>
        <time>2017-05-07T21:55:52.000Z</time>
        <extensions>
          <ns3:TrackPointExtension>
            <ns3:hr>138</ns3:hr>
            <ns3:cad>93</ns3:cad>
          </ns3:TrackPointExtension>
        </extensions>
      </trkpt>
      <trkpt lat="31.403307504951953887939453125" lon="119.4654093123972415924072265625">
        <ele>13</ele>
        <time>2017-05-07T21:56:00.000Z</time>
        <extensions>
          <ns3:TrackPointExtension>
            <ns3:hr>138</ns3:hr>
            <ns3:cad>92</ns3:cad>
          </ns3:TrackPointExtension>
        </extensions>
      </trkpt>
      <trkpt lat="31.40350992791354656219482421875" lon="119.465364553034305572509765625">
        <ele>12</ele>
        <time>2017-05-07T21:56:08.000Z</time>
        <extensions>
          <ns3:TrackPointExtension>
            <ns3:hr>139</ns3:hr>
            <ns3:cad>93</ns3:cad>
          </ns3:TrackPointExtension>
        </extensions>
      </trkpt>
      <trkpt lat="31.40364990569651126861572265625" lon="119.465210326015949249267578125">
        <ele>11.80000019073486328125</ele>
        <time>2017-05-07T21:56:16.000Z</time>
        <extensions>
          <ns3:TrackPointExtension>
            <ns3:hr>139</ns3:hr>
            <ns3:cad>93</ns3:cad>
          </ns3:TrackPointExtension>
        </extensions>
      </trkpt>
      <trkpt lat="31.4037408493459224700927734375" lon="119.4649739563465118408203125">
        <ele>11.3999996185302734375</ele>
        <time>2017-05-07T21:56:24.000Z</time>
        <extensions>
          <ns3:TrackPointExtension>
            <ns3:hr>139</ns3:hr>
            <ns3:cad>93</ns3:cad>
          </ns3:TrackPointExtension>
        </extensions>
      </trkpt>
      <trkpt lat="31.40379407443106174468994140625" lon="119.464749656617641448974609375">
        <ele>10.6000003814697265625</ele>
        <time>2017-05-07T21:56:33.000Z</time>
        <extensions>
          <ns3:TrackPointExtension>
            <ns3:hr>139</ns3:hr>
            <ns3:cad>93</ns3:cad>
          </ns3:TrackPointExtension>
        </extensions>
      </trkpt>
      <trkpt lat="31.4037961699068546295166015625" lon="119.46451873518526554107666015625">
        <ele>11.3999996185302734375</ele>
        <time>2017-05-07T21:56:41.000Z</time>
        <extensions>
          <ns3:TrackPointExtension>
            <ns3:hr>139</ns3:hr>
            <ns3:cad>94</ns3:cad>
          </ns3:TrackPointExtension>
        </extensions>
      </trkpt>
      <trkpt lat="31.40376792289316654205322265625" lon="119.4643079303205013275146484375">
        <ele>13</ele>
        <time>2017-05-07T21:56:49.000Z</time>
        <extensions>
          <ns3:TrackPointExtension>
            <ns3:hr>139</ns3:hr>
            <ns3:cad>91</ns3:cad>
          </ns3:TrackPointExtension>
        </extensions>
      </trkpt>
      <trkpt lat="31.403713189065456390380859375" lon="119.46410416625440120697021484375">
        <ele>15.19999980926513671875</ele>
        <time>2017-05-07T21:56:57.000Z</time>
        <extensions>
          <ns3:TrackPointExtension>
            <ns3:hr>139</ns3:hr>
            <ns3:cad>94</ns3:cad>
          </ns3:TrackPointExtension>
        </extensions>
      </trkpt>
      <trkpt lat="31.40364839695394039154052734375" lon="119.46390216238796710968017578125">
        <ele>16.3999996185302734375</ele>
        <time>2017-05-07T21:57:05.000Z</time>
        <extensions>
          <ns3:TrackPointExtension>
            <ns3:hr>139</ns3:hr>
            <ns3:cad>93</ns3:cad>
          </ns3:TrackPointExtension>
        </extensions>
      </trkpt>
      <trkpt lat="31.403553597629070281982421875" lon="119.46370334364473819732666015625">
        <ele>17</ele>
        <time>2017-05-07T21:57:13.000Z</time>
        <extensions>
          <ns3:TrackPointExtension>
            <ns3:hr>139</ns3:hr>
            <ns3:cad>92</ns3:cad>
          </ns3:TrackPointExtension>
        </extensions>
      </trkpt>
      <trkpt lat="31.40344806946814060211181640625" lon="119.46350402198731899261474609375">
        <ele>17</ele>
        <time>2017-05-07T21:57:21.000Z</time>
        <extensions>
          <ns3:TrackPointExtension>
            <ns3:hr>139</ns3:hr>
            <ns3:cad>92</ns3:cad>
          </ns3:TrackPointExtension>
        </extensions>
      </trkpt>
      <trkpt lat="31.40335477888584136962890625" lon="119.4633217155933380126953125">
        <ele>17.200000762939453125</ele>
        <time>2017-05-07T21:57:28.000Z</time>
        <extensions>
          <ns3:TrackPointExtension>
            <ns3:hr>139</ns3:hr>
            <ns3:cad>92</ns3:cad>
          </ns3:TrackPointExtension>
        </extensions>
      </trkpt>
      <trkpt lat="31.40322200953960418701171875" lon="119.463156759738922119140625">
        <ele>17</ele>
        <time>2017-05-07T21:57:36.000Z</time>
        <extensions>
          <ns3:TrackPointExtension>
            <ns3:hr>139</ns3:hr>
            <ns3:cad>93</ns3:cad>
          </ns3:TrackPointExtension>
        </extensions>
      </trkpt>
      <trkpt lat="31.40321823768317699432373046875" lon="119.46314561180770397186279296875">
        <ele>17</ele>
        <time>2017-05-07T21:57:41.000Z</time>
        <extensions>
          <ns3:TrackPointExtension>
            <ns3:hr>139</ns3:hr>
            <ns3:cad>89</ns3:cad>
          </ns3:TrackPointExtension>
        </extensions>
      </trkpt>
      <trkpt lat="31.4033613167703151702880859375" lon="119.46329816244542598724365234375">
        <ele>17.200000762939453125</ele>
        <time>2017-05-07T21:57:48.000Z</time>
        <extensions>
          <ns3:TrackPointExtension>
            <ns3:hr>140</ns3:hr>
            <ns3:cad>91</ns3:cad>
          </ns3:TrackPointExtension>
        </extensions>
      </trkpt>
      <trkpt lat="31.4034716226160526275634765625" lon="119.463467895984649658203125">
        <ele>17</ele>
        <time>2017-05-07T21:57:54.000Z</time>
        <extensions>
          <ns3:TrackPointExtension>
            <ns3:hr>140</ns3:hr>
            <ns3:cad>93</ns3:cad>
          </ns3:TrackPointExtension>
        </extensions>
      </trkpt>
      <trkpt lat="31.40357949770987033843994140625" lon="119.4636558182537555694580078125">
        <ele>17</ele>
        <time>2017-05-07T21:58:01.000Z</time>
        <extensions>
          <ns3:TrackPointExtension>
            <ns3:hr>140</ns3:hr>
            <ns3:cad>93</ns3:cad>
          </ns3:TrackPointExtension>
        </extensions>
      </trkpt>
      <trkpt lat="31.40368225984275341033935546875" lon="119.4638593308627605438232421875">
        <ele>16.200000762939453125</ele>
        <time>2017-05-07T21:58:08.000Z</time>
        <extensions>
          <ns3:TrackPointExtension>
            <ns3:hr>140</ns3:hr>
            <ns3:cad>93</ns3:cad>
          </ns3:TrackPointExtension>
        </extensions>
      </trkpt>
      <trkpt lat="31.4037416875362396240234375" lon="119.46406141854822635650634765625">
        <ele>15.19999980926513671875</ele>
        <time>2017-05-07T21:58:15.000Z</time>
        <extensions>
          <ns3:TrackPointExtension>
            <ns3:hr>140</ns3:hr>
            <ns3:cad>92</ns3:cad>
          </ns3:TrackPointExtension>
        </extensions>
      </trkpt>
      <trkpt lat="31.40377814881503582000732421875" lon="119.464280940592288970947265625">
        <ele>13.19999980926513671875</ele>
        <time>2017-05-07T21:58:21.000Z</time>
        <extensions>
          <ns3:TrackPointExtension>
            <ns3:hr>140</ns3:hr>
            <ns3:cad>91</ns3:cad>
          </ns3:TrackPointExtension>
        </extensions>
      </trkpt>
      <trkpt lat="31.4038141071796417236328125" lon="119.464553855359554290771484375">
        <ele>11</ele>
        <time>2017-05-07T21:58:29.000Z</time>
        <extensions>
          <ns3:TrackPointExtension>
            <ns3:hr>140</ns3:hr>
            <ns3:cad>93</ns3:cad>
          </ns3:TrackPointExtension>
        </extensions>
      </trkpt>
      <trkpt lat="31.4037934876978397369384765625" lon="119.464818052947521209716796875">
        <ele>10.80000019073486328125</ele>
        <time>2017-05-07T21:58:36.000Z</time>
        <extensions>
          <ns3:TrackPointExtension>
            <ns3:hr>140</ns3:hr>
            <ns3:cad>94</ns3:cad>
          </ns3:TrackPointExtension>
        </extensions>
      </trkpt>
      <trkpt lat="31.40374596230685710906982421875" lon="119.46504930965602397918701171875">
        <ele>11.3999996185302734375</ele>
        <time>2017-05-07T21:58:44.000Z</time>
        <extensions>
          <ns3:TrackPointExtension>
            <ns3:hr>140</ns3:hr>
            <ns3:cad>95</ns3:cad>
          </ns3:TrackPointExtension>
        </extensions>
      </trkpt>
      <trkpt lat="31.4036577008664608001708984375" lon="119.4652604497969150543212890625">
        <ele>11.80000019073486328125</ele>
        <time>2017-05-07T21:58:51.000Z</time>
        <extensions>
          <ns3:TrackPointExtension>
            <ns3:hr>140</ns3:hr>
            <ns3:cad>96</ns3:cad>
          </ns3:TrackPointExtension>
        </extensions>
      </trkpt>
      <trkpt lat="31.40352367423474788665771484375" lon="119.4654180295765399932861328125">
        <ele>11.6000003814697265625</ele>
        <time>2017-05-07T21:58:58.000Z</time>
        <extensions>
          <ns3:TrackPointExtension>
            <ns3:hr>140</ns3:hr>
            <ns3:cad>95</ns3:cad>
          </ns3:TrackPointExtension>
        </extensions>
      </trkpt>
      <trkpt lat="31.40333441086113452911376953125" lon="119.46547812782227993011474609375">
        <ele>12.80000019073486328125</ele>
        <time>2017-05-07T21:59:05.000Z</time>
        <extensions>
          <ns3:TrackPointExtension>
            <ns3:hr>140</ns3:hr>
            <ns3:cad>95</ns3:cad>
          </ns3:TrackPointExtension>
        </extensions>
      </trkpt>
      <trkpt lat="31.40321404673159122467041015625" lon="119.46551852859556674957275390625">
        <ele>13.80000019073486328125</ele>
        <time>2017-05-07T21:59:10.000Z</time>
        <extensions>
          <ns3:TrackPointExtension>
            <ns3:hr>140</ns3:hr>
            <ns3:cad>96</ns3:cad>
          </ns3:TrackPointExtension>
        </extensions>
      </trkpt>
      <trkpt lat="31.403249837458133697509765625" lon="119.4657357037067413330078125">
        <ele>14.19999980926513671875</ele>
        <time>2017-05-07T21:59:18.000Z</time>
        <extensions>
          <ns3:TrackPointExtension>
            <ns3:hr>140</ns3:hr>
            <ns3:cad>93</ns3:cad>
          </ns3:TrackPointExtension>
        </extensions>
      </trkpt>
      <trkpt lat="31.4032959379255771636962890625" lon="119.46596444584429264068603515625">
        <ele>13.6000003814697265625</ele>
        <time>2017-05-07T21:59:25.000Z</time>
        <extensions>
          <ns3:TrackPointExtension>
            <ns3:hr>140</ns3:hr>
            <ns3:cad>92</ns3:cad>
          </ns3:TrackPointExtension>
        </extensions>
      </trkpt>
      <trkpt lat="31.40334078110754489898681640625" lon="119.46616929955780506134033203125">
        <ele>12.80000019073486328125</ele>
        <time>2017-05-07T21:59:31.000Z</time>
        <extensions>
          <ns3:TrackPointExtension>
            <ns3:hr>141</ns3:hr>
            <ns3:cad>93</ns3:cad>
          </ns3:TrackPointExtension>
        </extensions>
      </trkpt>
      <trkpt lat="31.40339107252657413482666015625" lon="119.46640416048467159271240234375">
        <ele>12.80000019073486328125</ele>
        <time>2017-05-07T21:59:38.000Z</time>
        <extensions>
          <ns3:TrackPointExtension>
            <ns3:hr>141</ns3:hr>
            <ns3:cad>94</ns3:cad>
          </ns3:TrackPointExtension>
        </extensions>
      </trkpt>
      <trkpt lat="31.40344304032623767852783203125" lon="119.4666250236332416534423828125">
        <ele>13.80000019073486328125</ele>
        <time>2017-05-07T21:59:45.000Z</time>
        <extensions>
          <ns3:TrackPointExtension>
            <ns3:hr>141</ns3:hr>
            <ns3:cad>97</ns3:cad>
          </ns3:TrackPointExtension>
        </extensions>
      </trkpt>
      <trkpt lat="31.403503976762294769287109375" lon="119.4668493233621120452880859375">
        <ele>15</ele>
        <time>2017-05-07T21:59:53.000Z</time>
        <extensions>
          <ns3:TrackPointExtension>
            <ns3:hr>141</ns3:hr>
            <ns3:cad>93</ns3:cad>
          </ns3:TrackPointExtension>
        </extensions>
      </trkpt>
      <trkpt lat="31.4036375842988491058349609375" lon="119.4670206494629383087158203125">
        <ele>15</ele>
        <time>2017-05-07T22:00:01.000Z</time>
        <extensions>
          <ns3:TrackPointExtension>
            <ns3:hr>141</ns3:hr>
            <ns3:cad>94</ns3:cad>
          </ns3:TrackPointExtension>
        </extensions>
      </trkpt>
      <trkpt lat="31.403822489082813262939453125" lon="119.46711846627295017242431640625">
        <ele>13.80000019073486328125</ele>
        <time>2017-05-07T22:00:09.000Z</time>
        <extensions>
          <ns3:TrackPointExtension>
            <ns3:hr>141</ns3:hr>
            <ns3:cad>93</ns3:cad>
          </ns3:TrackPointExtension>
        </extensions>
      </trkpt>
      <trkpt lat="31.4039148576557636260986328125" lon="119.46730722673237323760986328125">
        <ele>14</ele>
        <time>2017-05-07T22:00:16.000Z</time>
        <extensions>
          <ns3:TrackPointExtension>
            <ns3:hr>141</ns3:hr>
            <ns3:cad>96</ns3:cad>
          </ns3:TrackPointExtension>
        </extensions>
      </trkpt>
      <trkpt lat="31.40395299531519412994384765625" lon="119.46753747761249542236328125">
        <ele>14.6000003814697265625</ele>
        <time>2017-05-07T22:00:23.000Z</time>
        <extensions>
          <ns3:TrackPointExtension>
            <ns3:hr>141</ns3:hr>
            <ns3:cad>94</ns3:cad>
          </ns3:TrackPointExtension>
        </extensions>
      </trkpt>
      <trkpt lat="31.40400848351418972015380859375" lon="119.467773847281932830810546875">
        <ele>16</ele>
        <time>2017-05-07T22:00:29.000Z</time>
        <extensions>
          <ns3:TrackPointExtension>
            <ns3:hr>141</ns3:hr>
            <ns3:cad>96</ns3:cad>
          </ns3:TrackPointExtension>
        </extensions>
      </trkpt>
      <trkpt lat="31.40410990454256534576416015625" lon="119.46795330382883548736572265625">
        <ele>15.80000019073486328125</ele>
        <time>2017-05-07T22:00:36.000Z</time>
        <extensions>
          <ns3:TrackPointExtension>
            <ns3:hr>141</ns3:hr>
            <ns3:cad>96</ns3:cad>
          </ns3:TrackPointExtension>
        </extensions>
      </trkpt>
      <trkpt lat="31.40425558201968669891357421875" lon="119.4681042619049549102783203125">
        <ele>16</ele>
        <time>2017-05-07T22:00:43.000Z</time>
        <extensions>
          <ns3:TrackPointExtension>
            <ns3:hr>141</ns3:hr>
            <ns3:cad>94</ns3:cad>
          </ns3:TrackPointExtension>
        </extensions>
      </trkpt>
      <trkpt lat="31.40441852621734142303466796875" lon="119.468239881098270416259765625">
        <ele>16</ele>
        <time>2017-05-07T22:00:50.000Z</time>
        <extensions>
          <ns3:TrackPointExtension>
            <ns3:hr>141</ns3:hr>
            <ns3:cad>95</ns3:cad>
          </ns3:TrackPointExtension>
        </extensions>
      </trkpt>
      <trkpt lat="31.40452614985406398773193359375" lon="119.468430317938327789306640625">
        <ele>14.80000019073486328125</ele>
        <time>2017-05-07T22:00:58.000Z</time>
        <extensions>
          <ns3:TrackPointExtension>
            <ns3:hr>141</ns3:hr>
            <ns3:cad>97</ns3:cad>
          </ns3:TrackPointExtension>
        </extensions>
      </trkpt>
      <trkpt lat="31.404580213129520416259765625" lon="119.46863257326185703277587890625">
        <ele>14.6000003814697265625</ele>
        <time>2017-05-07T22:01:05.000Z</time>
        <extensions>
          <ns3:TrackPointExtension>
            <ns3:hr>142</ns3:hr>
            <ns3:cad>94</ns3:cad>
          </ns3:TrackPointExtension>
        </extensions>
      </trkpt>
      <trkpt lat="31.40459530055522918701171875" lon="119.46886307559907436370849609375">
        <ele>14.19999980926513671875</ele>
        <time>2017-05-07T22:01:12.000Z</time>
        <extensions>
          <ns3:TrackPointExtension>
            <ns3:hr>142</ns3:hr>
            <ns3:cad>94</ns3:cad>
          </ns3:TrackPointExtension>
        </extensions>
      </trkpt>
      <trkpt lat="31.40458591282367706298828125" lon="119.4689789973199367523193359375">
        <ele>12.80000019073486328125</ele>
        <time>2017-05-07T22:01:15.000Z</time>
        <extensions>
          <ns3:TrackPointExtension>
            <ns3:hr>142</ns3:hr>
            <ns3:cad>93</ns3:cad>
          </ns3:TrackPointExtension>
        </extensions>
      </trkpt>
      <trkpt lat="31.40455347485840320587158203125" lon="119.46919214911758899688720703125">
        <ele>10.6000003814697265625</ele>
        <time>2017-05-07T22:01:21.000Z</time>
        <extensions>
          <ns3:TrackPointExtension>
            <ns3:hr>142</ns3:hr>
            <ns3:cad>93</ns3:cad>
          </ns3:TrackPointExtension>
        </extensions>
      </trkpt>
      <trkpt lat="31.40452430583536624908447265625" lon="119.46940253488719463348388671875">
        <ele>9.80000019073486328125</ele>
        <time>2017-05-07T22:01:27.000Z</time>
        <extensions>
          <ns3:TrackPointExtension>
            <ns3:hr>142</ns3:hr>
            <ns3:cad>94</ns3:cad>
          </ns3:TrackPointExtension>
        </extensions>
      </trkpt>
      <trkpt lat="31.4044781215488910675048828125" lon="119.4696391560137271881103515625">
        <ele>11.19999980926513671875</ele>
        <time>2017-05-07T22:01:34.000Z</time>
        <extensions>
          <ns3:TrackPointExtension>
            <ns3:hr>142</ns3:hr>
            <ns3:cad>94</ns3:cad>
          </ns3:TrackPointExtension>
        </extensions>
      </trkpt>
      <trkpt lat="31.404422633349895477294921875" lon="119.4698621146380901336669921875">
        <ele>10.3999996185302734375</ele>
        <time>2017-05-07T22:01:41.000Z</time>
        <extensions>
          <ns3:TrackPointExtension>
            <ns3:hr>142</ns3:hr>
            <ns3:cad>94</ns3:cad>
          </ns3:TrackPointExtension>
        </extensions>
      </trkpt>
      <trkpt lat="31.404313333332538604736328125" lon="119.47005607187747955322265625">
        <ele>9</ele>
        <time>2017-05-07T22:01:48.000Z</time>
        <extensions>
          <ns3:TrackPointExtension>
            <ns3:hr>142</ns3:hr>
            <ns3:cad>96</ns3:cad>
          </ns3:TrackPointExtension>
        </extensions>
      </trkpt>
      <trkpt lat="31.40414041467010974884033203125" lon="119.470150955021381378173828125">
        <ele>8.19999980926513671875</ele>
        <time>2017-05-07T22:01:55.000Z</time>
        <extensions>
          <ns3:TrackPointExtension>
            <ns3:hr>142</ns3:hr>
            <ns3:cad>95</ns3:cad>
          </ns3:TrackPointExtension>
        </extensions>
      </trkpt>
      <trkpt lat="31.403961293399333953857421875" lon="119.470248520374298095703125">
        <ele>11</ele>
        <time>2017-05-07T22:02:03.000Z</time>
        <extensions>
          <ns3:TrackPointExtension>
            <ns3:hr>142</ns3:hr>
            <ns3:cad>96</ns3:cad>
          </ns3:TrackPointExtension>
        </extensions>
      </trkpt>
      <trkpt lat="31.40379440970718860626220703125" lon="119.470380283892154693603515625">
        <ele>12.6000003814697265625</ele>
        <time>2017-05-07T22:02:11.000Z</time>
        <extensions>
          <ns3:TrackPointExtension>
            <ns3:hr>142</ns3:hr>
            <ns3:cad>94</ns3:cad>
          </ns3:TrackPointExtension>
        </extensions>
      </trkpt>
      <trkpt lat="31.40363909304141998291015625" lon="119.47051648981869220733642578125">
        <ele>12.80000019073486328125</ele>
        <time>2017-05-07T22:02:18.000Z</time>
        <extensions>
          <ns3:TrackPointExtension>
            <ns3:hr>142</ns3:hr>
            <ns3:cad>94</ns3:cad>
          </ns3:TrackPointExtension>
        </extensions>
      </trkpt>
      <trkpt lat="31.403482854366302490234375" lon="119.47064389474689960479736328125">
        <ele>12</ele>
        <time>2017-05-07T22:02:25.000Z</time>
        <extensions>
          <ns3:TrackPointExtension>
            <ns3:hr>142</ns3:hr>
            <ns3:cad>96</ns3:cad>
          </ns3:TrackPointExtension>
        </extensions>
      </trkpt>
      <trkpt lat="31.403324268758296966552734375" lon="119.47078554891049861907958984375">
        <ele>11.19999980926513671875</ele>
        <time>2017-05-07T22:02:33.000Z</time>
        <extensions>
          <ns3:TrackPointExtension>
            <ns3:hr>143</ns3:hr>
            <ns3:cad>94</ns3:cad>
          </ns3:TrackPointExtension>
        </extensions>
      </trkpt>
      <trkpt lat="31.4032540284097194671630859375" lon="119.47100884281098842620849609375">
        <ele>10.6000003814697265625</ele>
        <time>2017-05-07T22:02:41.000Z</time>
        <extensions>
          <ns3:TrackPointExtension>
            <ns3:hr>143</ns3:hr>
            <ns3:cad>94</ns3:cad>
          </ns3:TrackPointExtension>
        </extensions>
      </trkpt>
      <trkpt lat="31.4031993784010410308837890625" lon="119.47122819721698760986328125">
        <ele>11.19999980926513671875</ele>
        <time>2017-05-07T22:02:48.000Z</time>
        <extensions>
          <ns3:TrackPointExtension>
            <ns3:hr>143</ns3:hr>
            <ns3:cad>94</ns3:cad>
          </ns3:TrackPointExtension>
        </extensions>
      </trkpt>
      <trkpt lat="31.4031557925045490264892578125" lon="119.4714546762406826019287109375">
        <ele>12.19999980926513671875</ele>
        <time>2017-05-07T22:02:55.000Z</time>
        <extensions>
          <ns3:TrackPointExtension>
            <ns3:hr>143</ns3:hr>
            <ns3:cad>94</ns3:cad>
          </ns3:TrackPointExtension>
        </extensions>
      </trkpt>
      <trkpt lat="31.4031065069139003753662109375" lon="119.47168693877756595611572265625">
        <ele>12.19999980926513671875</ele>
        <time>2017-05-07T22:03:02.000Z</time>
        <extensions>
          <ns3:TrackPointExtension>
            <ns3:hr>143</ns3:hr>
            <ns3:cad>93</ns3:cad>
          </ns3:TrackPointExtension>
        </extensions>
      </trkpt>
      <trkpt lat="31.40311748720705509185791015625" lon="119.471931941807270050048828125">
        <ele>11.3999996185302734375</ele>
        <time>2017-05-07T22:03:09.000Z</time>
        <extensions>
          <ns3:TrackPointExtension>
            <ns3:hr>143</ns3:hr>
            <ns3:cad>93</ns3:cad>
          </ns3:TrackPointExtension>
        </extensions>
      </trkpt>
      <trkpt lat="31.40313257463276386260986328125" lon="119.472155906260013580322265625">
        <ele>11.6000003814697265625</ele>
        <time>2017-05-07T22:03:16.000Z</time>
        <extensions>
          <ns3:TrackPointExtension>
            <ns3:hr>143</ns3:hr>
            <ns3:cad>93</ns3:cad>
          </ns3:TrackPointExtension>
        </extensions>
      </trkpt>
      <trkpt lat="31.40325327403843402862548828125" lon="119.47233184240758419036865234375">
        <ele>11.19999980926513671875</ele>
        <time>2017-05-07T22:03:23.000Z</time>
        <extensions>
          <ns3:TrackPointExtension>
            <ns3:hr>143</ns3:hr>
            <ns3:cad>93</ns3:cad>
          </ns3:TrackPointExtension>
        </extensions>
      </trkpt>
      <trkpt lat="31.40342879109084606170654296875" lon="119.47240057401359081268310546875">
        <ele>9.6000003814697265625</ele>
        <time>2017-05-07T22:03:29.000Z</time>
        <extensions>
          <ns3:TrackPointExtension>
            <ns3:hr>143</ns3:hr>
            <ns3:cad>93</ns3:cad>
          </ns3:TrackPointExtension>
        </extensions>
      </trkpt>
      <trkpt lat="31.403617300093173980712890625" lon="119.472447596490383148193359375">
        <ele>7.80000019073486328125</ele>
        <time>2017-05-07T22:03:35.000Z</time>
        <extensions>
          <ns3:TrackPointExtension>
            <ns3:hr>143</ns3:hr>
            <ns3:cad>95</ns3:cad>
          </ns3:TrackPointExtension>
        </extensions>
      </trkpt>
      <trkpt lat="31.40380983240902423858642578125" lon="119.4724957086145877838134765625">
        <ele>6.400000095367431640625</ele>
        <time>2017-05-07T22:03:42.000Z</time>
        <extensions>
          <ns3:TrackPointExtension>
            <ns3:hr>143</ns3:hr>
            <ns3:cad>95</ns3:cad>
          </ns3:TrackPointExtension>
        </extensions>
      </trkpt>
      <trkpt lat="31.40395425260066986083984375" lon="119.47255865670740604400634765625">
        <ele>6.599999904632568359375</ele>
        <time>2017-05-07T22:03:56.000Z</time>
        <extensions>
          <ns3:TrackPointExtension>
            <ns3:cad>0</ns3:cad>
          </ns3:TrackPointExtension>
        </extensions>
      </trkpt>
      <trkpt lat="31.40399959869682788848876953125" lon="119.47253786958754062652587890625">
        <ele>7</ele>
        <time>2017-05-07T22:13:10.000Z</time>
        <extensions>
          <ns3:TrackPointExtension>
            <ns3:hr>62</ns3:hr>
            <ns3:cad>0</ns3:cad>
          </ns3:TrackPointExtension>
        </extensions>
      </trkpt>
      <trkpt lat="31.40400110743939876556396484375" lon="119.47254247963428497314453125">
        <ele>7</ele>
        <time>2017-05-07T22:13:11.000Z</time>
        <extensions>
          <ns3:TrackPointExtension>
            <ns3:hr>62</ns3:hr>
            <ns3:cad>0</ns3:cad>
          </ns3:TrackPointExtension>
        </extensions>
      </trkpt>
      <trkpt lat="31.40400093980133533477783203125" lon="119.4725446589291095733642578125">
        <ele>7</ele>
        <time>2017-05-07T22:13:15.000Z</time>
        <extensions>
          <ns3:TrackPointExtension>
            <ns3:hr>63</ns3:hr>
            <ns3:cad>0</ns3:cad>
          </ns3:TrackPointExtension>
        </extensions>
      </trkpt>
      <trkpt lat="31.404000855982303619384765625" lon="119.47254507802426815032958984375">
        <ele>7</ele>
        <time>2017-05-07T22:13:16.000Z</time>
        <extensions>
          <ns3:TrackPointExtension>
            <ns3:hr>63</ns3:hr>
            <ns3:cad>0</ns3:cad>
          </ns3:TrackPointExtension>
        </extensions>
      </trkpt>
    </trkseg>
  </trk>
</gpx>
