<gpx xmlns:ns3="http://www.garmin.com/xmlschemas/TrackPointExtension/v1" xmlns="http://www.topografix.com/GPX/1/1" xmlns:xsi="http://www.w3.org/2001/XMLSchema-instance" xmlns:ns2="http://www.garmin.com/xmlschemas/GpxExtensions/v3" creator="Garmin Connect" version="1.1" xsi:schemaLocation="http://www.topografix.com/GPX/1/1 http://www.topografix.com/GPX/11.xsd">
  <extensions>
<distance>1011.57</distance>
<average_hr></average_hr>
<average_speed>4.436710558439556</average_speed>
<start_time>2016-06-06T21:44:37+00:00</start_time>
<end_time>2016-06-06T21:48:25+00:00</end_time>
<moving_time>228.0</moving_time>
<elapsed_time>228.0</elapsed_time>
</extensions>
<metadata>
    <link href="connect.garmin.com">
      <text>Garmin Connect</text>
    </link>
    <time>2016-06-06T21:44:37.000Z</time>
  </metadata>
  <trk>
    <name>常州市 跑步</name>
    <type>running</type>
    <trkseg>
      <trkpt lat="31.42373596318066120147705078125" lon="119.48216783814132213592529296875">
        <ele>22</ele>
        <time>2016-06-06T21:44:37.000Z</time>
        <extensions>
          <ns3:TrackPointExtension>
            <ns3:atemp>25.0</ns3:atemp>
            <ns3:cad>0</ns3:cad>
          </ns3:TrackPointExtension>
        </extensions>
      </trkpt>
      <trkpt lat="31.42368818633258342742919921875" lon="119.48213162831962108612060546875">
        <ele>6.599999904632568359375</ele>
        <time>2016-06-06T21:44:40.000Z</time>
        <extensions>
          <ns3:TrackPointExtension>
            <ns3:atemp>25.0</ns3:atemp>
            <ns3:cad>0</ns3:cad>
          </ns3:TrackPointExtension>
        </extensions>
      </trkpt>
      <trkpt lat="31.42365599982440471649169921875" lon="119.48210765607655048370361328125">
        <ele>6.599999904632568359375</ele>
        <time>2016-06-06T21:44:41.000Z</time>
        <extensions>
          <ns3:TrackPointExtension>
            <ns3:atemp>25.0</ns3:atemp>
            <ns3:cad>0</ns3:cad>
          </ns3:TrackPointExtension>
        </extensions>
      </trkpt>
      <trkpt lat="31.423615179955959320068359375" lon="119.48208066634833812713623046875">
        <ele>6.599999904632568359375</ele>
        <time>2016-06-06T21:44:42.000Z</time>
        <extensions>
          <ns3:TrackPointExtension>
            <ns3:atemp>25.0</ns3:atemp>
            <ns3:cad>0</ns3:cad>
          </ns3:TrackPointExtension>
        </extensions>
      </trkpt>
      <trkpt lat="31.42357134260237216949462890625" lon="119.48205870576202869415283203125">
        <ele>12.19999980926513671875</ele>
        <time>2016-06-06T21:44:43.000Z</time>
        <extensions>
          <ns3:TrackPointExtension>
            <ns3:atemp>25.0</ns3:atemp>
            <ns3:cad>0</ns3:cad>
          </ns3:TrackPointExtension>
        </extensions>
      </trkpt>
      <trkpt lat="31.4235261641442775726318359375" lon="119.4820467196404933929443359375">
        <ele>12.19999980926513671875</ele>
        <time>2016-06-06T21:44:44.000Z</time>
        <extensions>
          <ns3:TrackPointExtension>
            <ns3:atemp>25.0</ns3:atemp>
            <ns3:cad>0</ns3:cad>
          </ns3:TrackPointExtension>
        </extensions>
      </trkpt>
      <trkpt lat="31.42341543920338153839111328125" lon="119.4820205681025981903076171875">
        <ele>17.799999237060546875</ele>
        <time>2016-06-06T21:44:46.000Z</time>
        <extensions>
          <ns3:TrackPointExtension>
            <ns3:atemp>25.0</ns3:atemp>
            <ns3:cad>0</ns3:cad>
          </ns3:TrackPointExtension>
        </extensions>
      </trkpt>
      <trkpt lat="31.42336581833660602569580078125" lon="119.48201210238039493560791015625">
        <ele>19.6000003814697265625</ele>
        <time>2016-06-06T21:44:47.000Z</time>
        <extensions>
          <ns3:TrackPointExtension>
            <ns3:atemp>25.0</ns3:atemp>
            <ns3:cad>0</ns3:cad>
          </ns3:TrackPointExtension>
        </extensions>
      </trkpt>
      <trkpt lat="31.42331133596599102020263671875" lon="119.48200288228690624237060546875">
        <ele>19.6000003814697265625</ele>
        <time>2016-06-06T21:44:48.000Z</time>
        <extensions>
          <ns3:TrackPointExtension>
            <ns3:atemp>25.0</ns3:atemp>
            <ns3:cad>0</ns3:cad>
          </ns3:TrackPointExtension>
        </extensions>
      </trkpt>
      <trkpt lat="31.42326347529888153076171875" lon="119.48199969716370105743408203125">
        <ele>19.799999237060546875</ele>
        <time>2016-06-06T21:44:49.000Z</time>
        <extensions>
          <ns3:TrackPointExtension>
            <ns3:atemp>25.0</ns3:atemp>
            <ns3:cad>96</ns3:cad>
          </ns3:TrackPointExtension>
        </extensions>
      </trkpt>
      <trkpt lat="31.42321930266916751861572265625" lon="119.48199550621211528778076171875">
        <ele>20.200000762939453125</ele>
        <time>2016-06-06T21:44:50.000Z</time>
        <extensions>
          <ns3:TrackPointExtension>
            <ns3:atemp>25.0</ns3:atemp>
            <ns3:cad>95</ns3:cad>
          </ns3:TrackPointExtension>
        </extensions>
      </trkpt>
      <trkpt lat="31.42317588441073894500732421875" lon="119.48199131526052951812744140625">
        <ele>20.200000762939453125</ele>
        <time>2016-06-06T21:44:51.000Z</time>
        <extensions>
          <ns3:TrackPointExtension>
            <ns3:atemp>25.0</ns3:atemp>
            <ns3:cad>95</ns3:cad>
          </ns3:TrackPointExtension>
        </extensions>
      </trkpt>
      <trkpt lat="31.4230830967426300048828125" lon="119.48198460973799228668212890625">
        <ele>20.6000003814697265625</ele>
        <time>2016-06-06T21:44:53.000Z</time>
        <extensions>
          <ns3:TrackPointExtension>
            <ns3:atemp>25.0</ns3:atemp>
            <ns3:cad>96</ns3:cad>
          </ns3:TrackPointExtension>
        </extensions>
      </trkpt>
      <trkpt lat="31.42303875647485256195068359375" lon="119.481982849538326263427734375">
        <ele>20.6000003814697265625</ele>
        <time>2016-06-06T21:44:54.000Z</time>
        <extensions>
          <ns3:TrackPointExtension>
            <ns3:atemp>25.0</ns3:atemp>
            <ns3:cad>97</ns3:cad>
          </ns3:TrackPointExtension>
        </extensions>
      </trkpt>
      <trkpt lat="31.4229940809309482574462890625" lon="119.48197983205318450927734375">
        <ele>21</ele>
        <time>2016-06-06T21:44:55.000Z</time>
        <extensions>
          <ns3:TrackPointExtension>
            <ns3:atemp>25.0</ns3:atemp>
            <ns3:cad>97</ns3:cad>
          </ns3:TrackPointExtension>
        </extensions>
      </trkpt>
      <trkpt lat="31.42295124940574169158935546875" lon="119.4819724559783935546875">
        <ele>21.6000003814697265625</ele>
        <time>2016-06-06T21:44:56.000Z</time>
        <extensions>
          <ns3:TrackPointExtension>
            <ns3:atemp>25.0</ns3:atemp>
            <ns3:cad>97</ns3:cad>
          </ns3:TrackPointExtension>
        </extensions>
      </trkpt>
      <trkpt lat="31.42290816642343997955322265625" lon="119.48196776211261749267578125">
        <ele>21.6000003814697265625</ele>
        <time>2016-06-06T21:44:57.000Z</time>
        <extensions>
          <ns3:TrackPointExtension>
            <ns3:atemp>25.0</ns3:atemp>
            <ns3:cad>97</ns3:cad>
          </ns3:TrackPointExtension>
        </extensions>
      </trkpt>
      <trkpt lat="31.4228639937937259674072265625" lon="119.4819632358849048614501953125">
        <ele>21.200000762939453125</ele>
        <time>2016-06-06T21:44:58.000Z</time>
        <extensions>
          <ns3:TrackPointExtension>
            <ns3:atemp>25.0</ns3:atemp>
            <ns3:cad>96</ns3:cad>
          </ns3:TrackPointExtension>
        </extensions>
      </trkpt>
      <trkpt lat="31.422821916639804840087890625" lon="119.48195812292397022247314453125">
        <ele>21.200000762939453125</ele>
        <time>2016-06-06T21:44:59.000Z</time>
        <extensions>
          <ns3:TrackPointExtension>
            <ns3:atemp>25.0</ns3:atemp>
            <ns3:cad>96</ns3:cad>
          </ns3:TrackPointExtension>
        </extensions>
      </trkpt>
      <trkpt lat="31.42277891747653484344482421875" lon="119.481949321925640106201171875">
        <ele>21.200000762939453125</ele>
        <time>2016-06-06T21:45:00.000Z</time>
        <extensions>
          <ns3:TrackPointExtension>
            <ns3:atemp>25.0</ns3:atemp>
            <ns3:cad>96</ns3:cad>
          </ns3:TrackPointExtension>
        </extensions>
      </trkpt>
      <trkpt lat="31.422736756503582000732421875" lon="119.4819444604218006134033203125">
        <ele>20.799999237060546875</ele>
        <time>2016-06-06T21:45:01.000Z</time>
        <extensions>
          <ns3:TrackPointExtension>
            <ns3:atemp>25.0</ns3:atemp>
            <ns3:cad>97</ns3:cad>
          </ns3:TrackPointExtension>
        </extensions>
      </trkpt>
      <trkpt lat="31.42269551753997802734375" lon="119.48194571770727634429931640625">
        <ele>20.6000003814697265625</ele>
        <time>2016-06-06T21:45:02.000Z</time>
        <extensions>
          <ns3:TrackPointExtension>
            <ns3:atemp>25.0</ns3:atemp>
            <ns3:cad>98</ns3:cad>
          </ns3:TrackPointExtension>
        </extensions>
      </trkpt>
      <trkpt lat="31.4226541109383106231689453125" lon="119.4819461368024349212646484375">
        <ele>20.6000003814697265625</ele>
        <time>2016-06-06T21:45:03.000Z</time>
        <extensions>
          <ns3:TrackPointExtension>
            <ns3:atemp>25.0</ns3:atemp>
            <ns3:cad>98</ns3:cad>
          </ns3:TrackPointExtension>
        </extensions>
      </trkpt>
      <trkpt lat="31.42261362634599208831787109375" lon="119.48194638825953006744384765625">
        <ele>21</ele>
        <time>2016-06-06T21:45:04.000Z</time>
        <extensions>
          <ns3:TrackPointExtension>
            <ns3:atemp>25.0</ns3:atemp>
            <ns3:cad>98</ns3:cad>
          </ns3:TrackPointExtension>
        </extensions>
      </trkpt>
      <trkpt lat="31.42257154919207096099853515625" lon="119.48194563388824462890625">
        <ele>21.3999996185302734375</ele>
        <time>2016-06-06T21:45:05.000Z</time>
        <extensions>
          <ns3:TrackPointExtension>
            <ns3:atemp>25.0</ns3:atemp>
            <ns3:cad>98</ns3:cad>
          </ns3:TrackPointExtension>
        </extensions>
      </trkpt>
      <trkpt lat="31.4225273765623569488525390625" lon="119.4819501601159572601318359375">
        <ele>21.3999996185302734375</ele>
        <time>2016-06-06T21:45:06.000Z</time>
        <extensions>
          <ns3:TrackPointExtension>
            <ns3:atemp>25.0</ns3:atemp>
            <ns3:cad>97</ns3:cad>
          </ns3:TrackPointExtension>
        </extensions>
      </trkpt>
      <trkpt lat="31.42248571850359439849853515625" lon="119.4819618947803974151611328125">
        <ele>21.3999996185302734375</ele>
        <time>2016-06-06T21:45:07.000Z</time>
        <extensions>
          <ns3:TrackPointExtension>
            <ns3:atemp>25.0</ns3:atemp>
            <ns3:cad>97</ns3:cad>
          </ns3:TrackPointExtension>
        </extensions>
      </trkpt>
      <trkpt lat="31.4224435575306415557861328125" lon="119.48197505436837673187255859375">
        <ele>21.6000003814697265625</ele>
        <time>2016-06-06T21:45:08.000Z</time>
        <extensions>
          <ns3:TrackPointExtension>
            <ns3:atemp>25.0</ns3:atemp>
            <ns3:cad>98</ns3:cad>
          </ns3:TrackPointExtension>
        </extensions>
      </trkpt>
      <trkpt lat="31.42240357585251331329345703125" lon="119.4819952547550201416015625">
        <ele>21.6000003814697265625</ele>
        <time>2016-06-06T21:45:09.000Z</time>
        <extensions>
          <ns3:TrackPointExtension>
            <ns3:atemp>25.0</ns3:atemp>
            <ns3:cad>98</ns3:cad>
          </ns3:TrackPointExtension>
        </extensions>
      </trkpt>
      <trkpt lat="31.42236669547855854034423828125" lon="119.48201796971261501312255859375">
        <ele>21.3999996185302734375</ele>
        <time>2016-06-06T21:45:10.000Z</time>
        <extensions>
          <ns3:TrackPointExtension>
            <ns3:atemp>25.0</ns3:atemp>
            <ns3:cad>98</ns3:cad>
          </ns3:TrackPointExtension>
        </extensions>
      </trkpt>
      <trkpt lat="31.422333084046840667724609375" lon="119.48204562999308109283447265625">
        <ele>21.200000762939453125</ele>
        <time>2016-06-06T21:45:11.000Z</time>
        <extensions>
          <ns3:TrackPointExtension>
            <ns3:atemp>25.0</ns3:atemp>
            <ns3:cad>98</ns3:cad>
          </ns3:TrackPointExtension>
        </extensions>
      </trkpt>
      <trkpt lat="31.4223017357289791107177734375" lon="119.4820795767009258270263671875">
        <ele>21.6000003814697265625</ele>
        <time>2016-06-06T21:45:12.000Z</time>
        <extensions>
          <ns3:TrackPointExtension>
            <ns3:atemp>25.0</ns3:atemp>
            <ns3:cad>98</ns3:cad>
          </ns3:TrackPointExtension>
        </extensions>
      </trkpt>
      <trkpt lat="31.42227633856236934661865234375" lon="119.4821213185787200927734375">
        <ele>21.3999996185302734375</ele>
        <time>2016-06-06T21:45:13.000Z</time>
        <extensions>
          <ns3:TrackPointExtension>
            <ns3:atemp>25.0</ns3:atemp>
            <ns3:cad>98</ns3:cad>
          </ns3:TrackPointExtension>
        </extensions>
      </trkpt>
      <trkpt lat="31.4222551323473453521728515625" lon="119.48217068798840045928955078125">
        <ele>21.200000762939453125</ele>
        <time>2016-06-06T21:45:14.000Z</time>
        <extensions>
          <ns3:TrackPointExtension>
            <ns3:atemp>25.0</ns3:atemp>
            <ns3:cad>98</ns3:cad>
          </ns3:TrackPointExtension>
        </extensions>
      </trkpt>
      <trkpt lat="31.42223644070327281951904296875" lon="119.4822193868458271026611328125">
        <ele>21.3999996185302734375</ele>
        <time>2016-06-06T21:45:15.000Z</time>
        <extensions>
          <ns3:TrackPointExtension>
            <ns3:atemp>25.0</ns3:atemp>
            <ns3:cad>98</ns3:cad>
          </ns3:TrackPointExtension>
        </extensions>
      </trkpt>
      <trkpt lat="31.4222229458391666412353515625" lon="119.48226540349423885345458984375">
        <ele>21.6000003814697265625</ele>
        <time>2016-06-06T21:45:16.000Z</time>
        <extensions>
          <ns3:TrackPointExtension>
            <ns3:atemp>25.0</ns3:atemp>
            <ns3:cad>98</ns3:cad>
          </ns3:TrackPointExtension>
        </extensions>
      </trkpt>
      <trkpt lat="31.4222167432308197021484375" lon="119.4823171198368072509765625">
        <ele>21.3999996185302734375</ele>
        <time>2016-06-06T21:45:17.000Z</time>
        <extensions>
          <ns3:TrackPointExtension>
            <ns3:atemp>25.0</ns3:atemp>
            <ns3:cad>98</ns3:cad>
          </ns3:TrackPointExtension>
        </extensions>
      </trkpt>
      <trkpt lat="31.42221649177372455596923828125" lon="119.4823652319610118865966796875">
        <ele>21.200000762939453125</ele>
        <time>2016-06-06T21:45:18.000Z</time>
        <extensions>
          <ns3:TrackPointExtension>
            <ns3:atemp>25.0</ns3:atemp>
            <ns3:cad>98</ns3:cad>
          </ns3:TrackPointExtension>
        </extensions>
      </trkpt>
      <trkpt lat="31.4222212694585323333740234375" lon="119.48241158388555049896240234375">
        <ele>21.3999996185302734375</ele>
        <time>2016-06-06T21:45:19.000Z</time>
        <extensions>
          <ns3:TrackPointExtension>
            <ns3:atemp>25.0</ns3:atemp>
            <ns3:cad>98</ns3:cad>
          </ns3:TrackPointExtension>
        </extensions>
      </trkpt>
      <trkpt lat="31.42222956754267215728759765625" lon="119.48245994746685028076171875">
        <ele>21.3999996185302734375</ele>
        <time>2016-06-06T21:45:20.000Z</time>
        <extensions>
          <ns3:TrackPointExtension>
            <ns3:atemp>25.0</ns3:atemp>
            <ns3:cad>90</ns3:cad>
          </ns3:TrackPointExtension>
        </extensions>
      </trkpt>
      <trkpt lat="31.4222420565783977508544921875" lon="119.48250562883913516998291015625">
        <ele>21.3999996185302734375</ele>
        <time>2016-06-06T21:45:21.000Z</time>
        <extensions>
          <ns3:TrackPointExtension>
            <ns3:atemp>25.0</ns3:atemp>
            <ns3:cad>90</ns3:cad>
          </ns3:TrackPointExtension>
        </extensions>
      </trkpt>
      <trkpt lat="31.42226041294634342193603515625" lon="119.4825506396591663360595703125">
        <ele>21.200000762939453125</ele>
        <time>2016-06-06T21:45:22.000Z</time>
        <extensions>
          <ns3:TrackPointExtension>
            <ns3:atemp>25.0</ns3:atemp>
            <ns3:cad>90</ns3:cad>
          </ns3:TrackPointExtension>
        </extensions>
      </trkpt>
      <trkpt lat="31.42228220589458942413330078125" lon="119.482592381536960601806640625">
        <ele>21.799999237060546875</ele>
        <time>2016-06-06T21:45:23.000Z</time>
        <extensions>
          <ns3:TrackPointExtension>
            <ns3:atemp>25.0</ns3:atemp>
            <ns3:cad>90</ns3:cad>
          </ns3:TrackPointExtension>
        </extensions>
      </trkpt>
      <trkpt lat="31.42230886034667491912841796875" lon="119.4826334528625011444091796875">
        <ele>21.3999996185302734375</ele>
        <time>2016-06-06T21:45:24.000Z</time>
        <extensions>
          <ns3:TrackPointExtension>
            <ns3:atemp>25.0</ns3:atemp>
            <ns3:cad>98</ns3:cad>
          </ns3:TrackPointExtension>
        </extensions>
      </trkpt>
      <trkpt lat="31.42234004102647304534912109375" lon="119.4826726801693439483642578125">
        <ele>21.3999996185302734375</ele>
        <time>2016-06-06T21:45:25.000Z</time>
        <extensions>
          <ns3:TrackPointExtension>
            <ns3:atemp>25.0</ns3:atemp>
            <ns3:cad>98</ns3:cad>
          </ns3:TrackPointExtension>
        </extensions>
      </trkpt>
      <trkpt lat="31.42237239517271518707275390625" lon="119.48270939290523529052734375">
        <ele>21.3999996185302734375</ele>
        <time>2016-06-06T21:45:26.000Z</time>
        <extensions>
          <ns3:TrackPointExtension>
            <ns3:atemp>25.0</ns3:atemp>
            <ns3:cad>98</ns3:cad>
          </ns3:TrackPointExtension>
        </extensions>
      </trkpt>
      <trkpt lat="31.42240860499441623687744140625" lon="119.482742249965667724609375">
        <ele>21.6000003814697265625</ele>
        <time>2016-06-06T21:45:27.000Z</time>
        <extensions>
          <ns3:TrackPointExtension>
            <ns3:atemp>25.0</ns3:atemp>
            <ns3:cad>98</ns3:cad>
          </ns3:TrackPointExtension>
        </extensions>
      </trkpt>
      <trkpt lat="31.42244875431060791015625" lon="119.4827715866267681121826171875">
        <ele>21.6000003814697265625</ele>
        <time>2016-06-06T21:45:28.000Z</time>
        <extensions>
          <ns3:TrackPointExtension>
            <ns3:atemp>25.0</ns3:atemp>
            <ns3:cad>98</ns3:cad>
          </ns3:TrackPointExtension>
        </extensions>
      </trkpt>
      <trkpt lat="31.42248722724616527557373046875" lon="119.48279748670756816864013671875">
        <ele>21.3999996185302734375</ele>
        <time>2016-06-06T21:45:29.000Z</time>
        <extensions>
          <ns3:TrackPointExtension>
            <ns3:atemp>25.0</ns3:atemp>
            <ns3:cad>98</ns3:cad>
          </ns3:TrackPointExtension>
        </extensions>
      </trkpt>
      <trkpt lat="31.42253014259040355682373046875" lon="119.48281961493194103240966796875">
        <ele>21.6000003814697265625</ele>
        <time>2016-06-06T21:45:30.000Z</time>
        <extensions>
          <ns3:TrackPointExtension>
            <ns3:atemp>25.0</ns3:atemp>
            <ns3:cad>98</ns3:cad>
          </ns3:TrackPointExtension>
        </extensions>
      </trkpt>
      <trkpt lat="31.42257255502045154571533203125" lon="119.48283570818603038787841796875">
        <ele>22</ele>
        <time>2016-06-06T21:45:31.000Z</time>
        <extensions>
          <ns3:TrackPointExtension>
            <ns3:atemp>25.0</ns3:atemp>
            <ns3:cad>98</ns3:cad>
          </ns3:TrackPointExtension>
        </extensions>
      </trkpt>
      <trkpt lat="31.42261572182178497314453125" lon="119.482847191393375396728515625">
        <ele>21.799999237060546875</ele>
        <time>2016-06-06T21:45:32.000Z</time>
        <extensions>
          <ns3:TrackPointExtension>
            <ns3:atemp>25.0</ns3:atemp>
            <ns3:cad>98</ns3:cad>
          </ns3:TrackPointExtension>
        </extensions>
      </trkpt>
      <trkpt lat="31.42265863716602325439453125" lon="119.4828520528972148895263671875">
        <ele>21.6000003814697265625</ele>
        <time>2016-06-06T21:45:33.000Z</time>
        <extensions>
          <ns3:TrackPointExtension>
            <ns3:atemp>25.0</ns3:atemp>
            <ns3:cad>98</ns3:cad>
          </ns3:TrackPointExtension>
        </extensions>
      </trkpt>
      <trkpt lat="31.42270130105316638946533203125" lon="119.482853896915912628173828125">
        <ele>21.6000003814697265625</ele>
        <time>2016-06-06T21:45:34.000Z</time>
        <extensions>
          <ns3:TrackPointExtension>
            <ns3:atemp>25.0</ns3:atemp>
            <ns3:cad>98</ns3:cad>
          </ns3:TrackPointExtension>
        </extensions>
      </trkpt>
      <trkpt lat="31.42274136655032634735107421875" lon="119.48285884223878383636474609375">
        <ele>21.799999237060546875</ele>
        <time>2016-06-06T21:45:35.000Z</time>
        <extensions>
          <ns3:TrackPointExtension>
            <ns3:atemp>25.0</ns3:atemp>
            <ns3:cad>97</ns3:cad>
          </ns3:TrackPointExtension>
        </extensions>
      </trkpt>
      <trkpt lat="31.4227845333516597747802734375" lon="119.48286169208586215972900390625">
        <ele>21.6000003814697265625</ele>
        <time>2016-06-06T21:45:36.000Z</time>
        <extensions>
          <ns3:TrackPointExtension>
            <ns3:atemp>25.0</ns3:atemp>
            <ns3:cad>97</ns3:cad>
          </ns3:TrackPointExtension>
        </extensions>
      </trkpt>
      <trkpt lat="31.42282635904848575592041015625" lon="119.482863284647464752197265625">
        <ele>21.3999996185302734375</ele>
        <time>2016-06-06T21:45:37.000Z</time>
        <extensions>
          <ns3:TrackPointExtension>
            <ns3:atemp>25.0</ns3:atemp>
            <ns3:cad>97</ns3:cad>
          </ns3:TrackPointExtension>
        </extensions>
      </trkpt>
      <trkpt lat="31.4228656701743602752685546875" lon="119.4828627817332744598388671875">
        <ele>21.6000003814697265625</ele>
        <time>2016-06-06T21:45:38.000Z</time>
        <extensions>
          <ns3:TrackPointExtension>
            <ns3:atemp>25.0</ns3:atemp>
            <ns3:cad>97</ns3:cad>
          </ns3:TrackPointExtension>
        </extensions>
      </trkpt>
      <trkpt lat="31.42290598712861537933349609375" lon="119.48286638595163822174072265625">
        <ele>21.799999237060546875</ele>
        <time>2016-06-06T21:45:39.000Z</time>
        <extensions>
          <ns3:TrackPointExtension>
            <ns3:atemp>25.0</ns3:atemp>
            <ns3:cad>97</ns3:cad>
          </ns3:TrackPointExtension>
        </extensions>
      </trkpt>
      <trkpt lat="31.4229478128254413604736328125" lon="119.48287091217935085296630859375">
        <ele>22</ele>
        <time>2016-06-06T21:45:40.000Z</time>
        <extensions>
          <ns3:TrackPointExtension>
            <ns3:atemp>25.0</ns3:atemp>
            <ns3:cad>97</ns3:cad>
          </ns3:TrackPointExtension>
        </extensions>
      </trkpt>
      <trkpt lat="31.422990895807743072509765625" lon="119.48287434875965118408203125">
        <ele>21.799999237060546875</ele>
        <time>2016-06-06T21:45:41.000Z</time>
        <extensions>
          <ns3:TrackPointExtension>
            <ns3:atemp>25.0</ns3:atemp>
            <ns3:cad>97</ns3:cad>
          </ns3:TrackPointExtension>
        </extensions>
      </trkpt>
      <trkpt lat="31.4230336435139179229736328125" lon="119.4828768633306026458740234375">
        <ele>21.3999996185302734375</ele>
        <time>2016-06-06T21:45:42.000Z</time>
        <extensions>
          <ns3:TrackPointExtension>
            <ns3:atemp>25.0</ns3:atemp>
            <ns3:cad>97</ns3:cad>
          </ns3:TrackPointExtension>
        </extensions>
      </trkpt>
      <trkpt lat="31.423073709011077880859375" lon="119.48287728242576122283935546875">
        <ele>21.799999237060546875</ele>
        <time>2016-06-06T21:45:43.000Z</time>
        <extensions>
          <ns3:TrackPointExtension>
            <ns3:atemp>25.0</ns3:atemp>
            <ns3:cad>97</ns3:cad>
          </ns3:TrackPointExtension>
        </extensions>
      </trkpt>
      <trkpt lat="31.4231144450604915618896484375" lon="119.48287795297801494598388671875">
        <ele>22</ele>
        <time>2016-06-06T21:45:44.000Z</time>
        <extensions>
          <ns3:TrackPointExtension>
            <ns3:atemp>25.0</ns3:atemp>
            <ns3:cad>97</ns3:cad>
          </ns3:TrackPointExtension>
        </extensions>
      </trkpt>
      <trkpt lat="31.423155181109905242919921875" lon="119.48288013227283954620361328125">
        <ele>21.799999237060546875</ele>
        <time>2016-06-06T21:45:45.000Z</time>
        <extensions>
          <ns3:TrackPointExtension>
            <ns3:atemp>25.0</ns3:atemp>
            <ns3:cad>97</ns3:cad>
          </ns3:TrackPointExtension>
        </extensions>
      </trkpt>
      <trkpt lat="31.42319415695965290069580078125" lon="119.48288239538669586181640625">
        <ele>21.3999996185302734375</ele>
        <time>2016-06-06T21:45:46.000Z</time>
        <extensions>
          <ns3:TrackPointExtension>
            <ns3:atemp>25.0</ns3:atemp>
            <ns3:cad>97</ns3:cad>
          </ns3:TrackPointExtension>
        </extensions>
      </trkpt>
      <trkpt lat="31.42323589883744716644287109375" lon="119.48288641870021820068359375">
        <ele>21.200000762939453125</ele>
        <time>2016-06-06T21:45:47.000Z</time>
        <extensions>
          <ns3:TrackPointExtension>
            <ns3:atemp>25.0</ns3:atemp>
            <ns3:cad>97</ns3:cad>
          </ns3:TrackPointExtension>
        </extensions>
      </trkpt>
      <trkpt lat="31.42327009700238704681396484375" lon="119.48288331739604473114013671875">
        <ele>21.6000003814697265625</ele>
        <time>2016-06-06T21:45:48.000Z</time>
        <extensions>
          <ns3:TrackPointExtension>
            <ns3:atemp>25.0</ns3:atemp>
            <ns3:cad>96</ns3:cad>
          </ns3:TrackPointExtension>
        </extensions>
      </trkpt>
      <trkpt lat="31.4233082346618175506591796875" lon="119.4828768633306026458740234375">
        <ele>21.799999237060546875</ele>
        <time>2016-06-06T21:45:49.000Z</time>
        <extensions>
          <ns3:TrackPointExtension>
            <ns3:atemp>25.0</ns3:atemp>
            <ns3:cad>96</ns3:cad>
          </ns3:TrackPointExtension>
        </extensions>
      </trkpt>
      <trkpt lat="31.42334804870188236236572265625" lon="119.48287677951157093048095703125">
        <ele>22</ele>
        <time>2016-06-06T21:45:50.000Z</time>
        <extensions>
          <ns3:TrackPointExtension>
            <ns3:atemp>25.0</ns3:atemp>
            <ns3:cad>96</ns3:cad>
          </ns3:TrackPointExtension>
        </extensions>
      </trkpt>
      <trkpt lat="31.42338157631456851959228515625" lon="119.482879377901554107666015625">
        <ele>21.6000003814697265625</ele>
        <time>2016-06-06T21:45:51.000Z</time>
        <extensions>
          <ns3:TrackPointExtension>
            <ns3:atemp>25.0</ns3:atemp>
            <ns3:cad>96</ns3:cad>
          </ns3:TrackPointExtension>
        </extensions>
      </trkpt>
      <trkpt lat="31.42341963015496730804443359375" lon="119.4828792102634906768798828125">
        <ele>21.3999996185302734375</ele>
        <time>2016-06-06T21:45:52.000Z</time>
        <extensions>
          <ns3:TrackPointExtension>
            <ns3:atemp>25.0</ns3:atemp>
            <ns3:cad>96</ns3:cad>
          </ns3:TrackPointExtension>
        </extensions>
      </trkpt>
      <trkpt lat="31.4234577678143978118896484375" lon="119.482879377901554107666015625">
        <ele>21.6000003814697265625</ele>
        <time>2016-06-06T21:45:53.000Z</time>
        <extensions>
          <ns3:TrackPointExtension>
            <ns3:atemp>25.0</ns3:atemp>
            <ns3:cad>95</ns3:cad>
          </ns3:TrackPointExtension>
        </extensions>
      </trkpt>
      <trkpt lat="31.42349909059703350067138671875" lon="119.48287325911223888397216796875">
        <ele>21.799999237060546875</ele>
        <time>2016-06-06T21:45:54.000Z</time>
        <extensions>
          <ns3:TrackPointExtension>
            <ns3:atemp>25.0</ns3:atemp>
            <ns3:cad>95</ns3:cad>
          </ns3:TrackPointExtension>
        </extensions>
      </trkpt>
      <trkpt lat="31.42354133538901805877685546875" lon="119.48286437429487705230712890625">
        <ele>21.799999237060546875</ele>
        <time>2016-06-06T21:45:55.000Z</time>
        <extensions>
          <ns3:TrackPointExtension>
            <ns3:atemp>25.0</ns3:atemp>
            <ns3:cad>95</ns3:cad>
          </ns3:TrackPointExtension>
        </extensions>
      </trkpt>
      <trkpt lat="31.4235766232013702392578125" lon="119.4828508794307708740234375">
        <ele>21.200000762939453125</ele>
        <time>2016-06-06T21:45:56.000Z</time>
        <extensions>
          <ns3:TrackPointExtension>
            <ns3:atemp>25.0</ns3:atemp>
            <ns3:cad>95</ns3:cad>
          </ns3:TrackPointExtension>
        </extensions>
      </trkpt>
      <trkpt lat="31.42361207865178585052490234375" lon="119.48283067904412746429443359375">
        <ele>21</ele>
        <time>2016-06-06T21:45:57.000Z</time>
        <extensions>
          <ns3:TrackPointExtension>
            <ns3:atemp>25.0</ns3:atemp>
            <ns3:cad>95</ns3:cad>
          </ns3:TrackPointExtension>
        </extensions>
      </trkpt>
      <trkpt lat="31.42364376224577426910400390625" lon="119.48280737735331058502197265625">
        <ele>21.3999996185302734375</ele>
        <time>2016-06-06T21:45:58.000Z</time>
        <extensions>
          <ns3:TrackPointExtension>
            <ns3:atemp>25.0</ns3:atemp>
            <ns3:cad>95</ns3:cad>
          </ns3:TrackPointExtension>
        </extensions>
      </trkpt>
      <trkpt lat="31.4236713387072086334228515625" lon="119.48278172872960567474365234375">
        <ele>21.799999237060546875</ele>
        <time>2016-06-06T21:45:59.000Z</time>
        <extensions>
          <ns3:TrackPointExtension>
            <ns3:atemp>25.0</ns3:atemp>
            <ns3:cad>95</ns3:cad>
          </ns3:TrackPointExtension>
        </extensions>
      </trkpt>
      <trkpt lat="31.42369589768350124359130859375" lon="119.48275239206850528717041015625">
        <ele>21.799999237060546875</ele>
        <time>2016-06-06T21:46:00.000Z</time>
        <extensions>
          <ns3:TrackPointExtension>
            <ns3:atemp>25.0</ns3:atemp>
            <ns3:cad>95</ns3:cad>
          </ns3:TrackPointExtension>
        </extensions>
      </trkpt>
      <trkpt lat="31.42372204922139644622802734375" lon="119.4827202893793582916259765625">
        <ele>21.6000003814697265625</ele>
        <time>2016-06-06T21:46:01.000Z</time>
        <extensions>
          <ns3:TrackPointExtension>
            <ns3:atemp>25.0</ns3:atemp>
            <ns3:cad>96</ns3:cad>
          </ns3:TrackPointExtension>
        </extensions>
      </trkpt>
      <trkpt lat="31.42374694347381591796875" lon="119.48268483392894268035888671875">
        <ele>21.3999996185302734375</ele>
        <time>2016-06-06T21:46:02.000Z</time>
        <extensions>
          <ns3:TrackPointExtension>
            <ns3:atemp>25.0</ns3:atemp>
            <ns3:cad>96</ns3:cad>
          </ns3:TrackPointExtension>
        </extensions>
      </trkpt>
      <trkpt lat="31.42376798205077648162841796875" lon="119.4826492108404636383056640625">
        <ele>21.6000003814697265625</ele>
        <time>2016-06-06T21:46:03.000Z</time>
        <extensions>
          <ns3:TrackPointExtension>
            <ns3:atemp>25.0</ns3:atemp>
            <ns3:cad>96</ns3:cad>
          </ns3:TrackPointExtension>
        </extensions>
      </trkpt>
      <trkpt lat="31.4237831532955169677734375" lon="119.48261308483779430389404296875">
        <ele>21.200000762939453125</ele>
        <time>2016-06-06T21:46:04.000Z</time>
        <extensions>
          <ns3:TrackPointExtension>
            <ns3:atemp>25.0</ns3:atemp>
            <ns3:cad>96</ns3:cad>
          </ns3:TrackPointExtension>
        </extensions>
      </trkpt>
      <trkpt lat="31.42379698343575000762939453125" lon="119.4825704209506511688232421875">
        <ele>21</ele>
        <time>2016-06-06T21:46:05.000Z</time>
        <extensions>
          <ns3:TrackPointExtension>
            <ns3:atemp>25.0</ns3:atemp>
            <ns3:cad>96</ns3:cad>
          </ns3:TrackPointExtension>
        </extensions>
      </trkpt>
      <trkpt lat="31.42380871810019016265869140625" lon="119.48252507485449314117431640625">
        <ele>21</ele>
        <time>2016-06-06T21:46:06.000Z</time>
        <extensions>
          <ns3:TrackPointExtension>
            <ns3:atemp>25.0</ns3:atemp>
            <ns3:cad>96</ns3:cad>
          </ns3:TrackPointExtension>
        </extensions>
      </trkpt>
      <trkpt lat="31.42382648773491382598876953125" lon="119.48243170045316219329833984375">
        <ele>21.200000762939453125</ele>
        <time>2016-06-06T21:46:08.000Z</time>
        <extensions>
          <ns3:TrackPointExtension>
            <ns3:atemp>25.0</ns3:atemp>
            <ns3:cad>96</ns3:cad>
          </ns3:TrackPointExtension>
        </extensions>
      </trkpt>
      <trkpt lat="31.42382539808750152587890625" lon="119.48238350450992584228515625">
        <ele>20.799999237060546875</ele>
        <time>2016-06-06T21:46:09.000Z</time>
        <extensions>
          <ns3:TrackPointExtension>
            <ns3:atemp>25.0</ns3:atemp>
            <ns3:cad>97</ns3:cad>
          </ns3:TrackPointExtension>
        </extensions>
      </trkpt>
      <trkpt lat="31.42381626181304454803466796875" lon="119.48233430273830890655517578125">
        <ele>20.799999237060546875</ele>
        <time>2016-06-06T21:46:10.000Z</time>
        <extensions>
          <ns3:TrackPointExtension>
            <ns3:atemp>25.0</ns3:atemp>
            <ns3:cad>97</ns3:cad>
          </ns3:TrackPointExtension>
        </extensions>
      </trkpt>
      <trkpt lat="31.42380268312990665435791015625" lon="119.4822849333286285400390625">
        <ele>21</ele>
        <time>2016-06-06T21:46:11.000Z</time>
        <extensions>
          <ns3:TrackPointExtension>
            <ns3:atemp>25.0</ns3:atemp>
            <ns3:cad>97</ns3:cad>
          </ns3:TrackPointExtension>
        </extensions>
      </trkpt>
      <trkpt lat="31.42378943972289562225341796875" lon="119.48223908431828022003173828125">
        <ele>21.6000003814697265625</ele>
        <time>2016-06-06T21:46:12.000Z</time>
        <extensions>
          <ns3:TrackPointExtension>
            <ns3:atemp>25.0</ns3:atemp>
            <ns3:cad>97</ns3:cad>
          </ns3:TrackPointExtension>
        </extensions>
      </trkpt>
      <trkpt lat="31.42377250827848911285400390625" lon="119.4821952469646930694580078125">
        <ele>21.799999237060546875</ele>
        <time>2016-06-06T21:46:13.000Z</time>
        <extensions>
          <ns3:TrackPointExtension>
            <ns3:atemp>25.0</ns3:atemp>
            <ns3:cad>97</ns3:cad>
          </ns3:TrackPointExtension>
        </extensions>
      </trkpt>
      <trkpt lat="31.42375373281538486480712890625" lon="119.48215358890593051910400390625">
        <ele>21.799999237060546875</ele>
        <time>2016-06-06T21:46:14.000Z</time>
        <extensions>
          <ns3:TrackPointExtension>
            <ns3:atemp>25.0</ns3:atemp>
            <ns3:cad>97</ns3:cad>
          </ns3:TrackPointExtension>
        </extensions>
      </trkpt>
      <trkpt lat="31.4237313531339168548583984375" lon="119.482118301093578338623046875">
        <ele>21.6000003814697265625</ele>
        <time>2016-06-06T21:46:15.000Z</time>
        <extensions>
          <ns3:TrackPointExtension>
            <ns3:atemp>25.0</ns3:atemp>
            <ns3:cad>97</ns3:cad>
          </ns3:TrackPointExtension>
        </extensions>
      </trkpt>
      <trkpt lat="31.4237031899392604827880859375" lon="119.48208175599575042724609375">
        <ele>21.3999996185302734375</ele>
        <time>2016-06-06T21:46:16.000Z</time>
        <extensions>
          <ns3:TrackPointExtension>
            <ns3:atemp>25.0</ns3:atemp>
            <ns3:cad>97</ns3:cad>
          </ns3:TrackPointExtension>
        </extensions>
      </trkpt>
      <trkpt lat="31.42367460764944553375244140625" lon="119.4820507429540157318115234375">
        <ele>21.6000003814697265625</ele>
        <time>2016-06-06T21:46:17.000Z</time>
        <extensions>
          <ns3:TrackPointExtension>
            <ns3:atemp>25.0</ns3:atemp>
            <ns3:cad>96</ns3:cad>
          </ns3:TrackPointExtension>
        </extensions>
      </trkpt>
      <trkpt lat="31.423644013702869415283203125" lon="119.4820245914161205291748046875">
        <ele>21.799999237060546875</ele>
        <time>2016-06-06T21:46:18.000Z</time>
        <extensions>
          <ns3:TrackPointExtension>
            <ns3:atemp>25.0</ns3:atemp>
            <ns3:cad>95</ns3:cad>
          </ns3:TrackPointExtension>
        </extensions>
      </trkpt>
      <trkpt lat="31.423608474433422088623046875" lon="119.4819981046020984649658203125">
        <ele>22.3999996185302734375</ele>
        <time>2016-06-06T21:46:19.000Z</time>
        <extensions>
          <ns3:TrackPointExtension>
            <ns3:atemp>25.0</ns3:atemp>
            <ns3:cad>95</ns3:cad>
          </ns3:TrackPointExtension>
        </extensions>
      </trkpt>
      <trkpt lat="31.42356798984110355377197265625" lon="119.48197488673031330108642578125">
        <ele>22.200000762939453125</ele>
        <time>2016-06-06T21:46:20.000Z</time>
        <extensions>
          <ns3:TrackPointExtension>
            <ns3:atemp>25.0</ns3:atemp>
            <ns3:cad>95</ns3:cad>
          </ns3:TrackPointExtension>
        </extensions>
      </trkpt>
      <trkpt lat="31.42352658323943614959716796875" lon="119.4819575361907482147216796875">
        <ele>21.3999996185302734375</ele>
        <time>2016-06-06T21:46:21.000Z</time>
        <extensions>
          <ns3:TrackPointExtension>
            <ns3:atemp>25.0</ns3:atemp>
            <ns3:cad>95</ns3:cad>
          </ns3:TrackPointExtension>
        </extensions>
      </trkpt>
      <trkpt lat="31.42348433844745159149169921875" lon="119.4819458015263080596923828125">
        <ele>21.3999996185302734375</ele>
        <time>2016-06-06T21:46:22.000Z</time>
        <extensions>
          <ns3:TrackPointExtension>
            <ns3:atemp>25.0</ns3:atemp>
            <ns3:cad>96</ns3:cad>
          </ns3:TrackPointExtension>
        </extensions>
      </trkpt>
      <trkpt lat="31.42344393767416477203369140625" lon="119.48194094002246856689453125">
        <ele>21.3999996185302734375</ele>
        <time>2016-06-06T21:46:23.000Z</time>
        <extensions>
          <ns3:TrackPointExtension>
            <ns3:atemp>25.0</ns3:atemp>
            <ns3:cad>96</ns3:cad>
          </ns3:TrackPointExtension>
        </extensions>
      </trkpt>
      <trkpt lat="31.4234074763953685760498046875" lon="119.48194018565118312835693359375">
        <ele>21.6000003814697265625</ele>
        <time>2016-06-06T21:46:24.000Z</time>
        <extensions>
          <ns3:TrackPointExtension>
            <ns3:atemp>25.0</ns3:atemp>
            <ns3:cad>95</ns3:cad>
          </ns3:TrackPointExtension>
        </extensions>
      </trkpt>
      <trkpt lat="31.42337185330688953399658203125" lon="119.4819444604218006134033203125">
        <ele>21.799999237060546875</ele>
        <time>2016-06-06T21:46:25.000Z</time>
        <extensions>
          <ns3:TrackPointExtension>
            <ns3:atemp>25.0</ns3:atemp>
            <ns3:cad>95</ns3:cad>
          </ns3:TrackPointExtension>
        </extensions>
      </trkpt>
      <trkpt lat="31.423334889113903045654296875" lon="119.4819458015263080596923828125">
        <ele>22</ele>
        <time>2016-06-06T21:46:26.000Z</time>
        <extensions>
          <ns3:TrackPointExtension>
            <ns3:atemp>25.0</ns3:atemp>
            <ns3:cad>95</ns3:cad>
          </ns3:TrackPointExtension>
        </extensions>
      </trkpt>
      <trkpt lat="31.42329876311123371124267578125" lon="119.48194806464016437530517578125">
        <ele>21.799999237060546875</ele>
        <time>2016-06-06T21:46:27.000Z</time>
        <extensions>
          <ns3:TrackPointExtension>
            <ns3:atemp>25.0</ns3:atemp>
            <ns3:cad>95</ns3:cad>
          </ns3:TrackPointExtension>
        </extensions>
      </trkpt>
      <trkpt lat="31.4232582785189151763916015625" lon="119.48194722644984722137451171875">
        <ele>21.3999996185302734375</ele>
        <time>2016-06-06T21:46:28.000Z</time>
        <extensions>
          <ns3:TrackPointExtension>
            <ns3:atemp>25.0</ns3:atemp>
            <ns3:cad>95</ns3:cad>
          </ns3:TrackPointExtension>
        </extensions>
      </trkpt>
      <trkpt lat="31.4232210628688335418701171875" lon="119.48194387368857860565185546875">
        <ele>21.200000762939453125</ele>
        <time>2016-06-06T21:46:29.000Z</time>
        <extensions>
          <ns3:TrackPointExtension>
            <ns3:atemp>25.0</ns3:atemp>
            <ns3:cad>95</ns3:cad>
          </ns3:TrackPointExtension>
        </extensions>
      </trkpt>
      <trkpt lat="31.42318493686616420745849609375" lon="119.481939934194087982177734375">
        <ele>21.3999996185302734375</ele>
        <time>2016-06-06T21:46:30.000Z</time>
        <extensions>
          <ns3:TrackPointExtension>
            <ns3:atemp>25.0</ns3:atemp>
            <ns3:cad>95</ns3:cad>
          </ns3:TrackPointExtension>
        </extensions>
      </trkpt>
      <trkpt lat="31.423147805035114288330078125" lon="119.48193683288991451263427734375">
        <ele>21.799999237060546875</ele>
        <time>2016-06-06T21:46:31.000Z</time>
        <extensions>
          <ns3:TrackPointExtension>
            <ns3:atemp>25.0</ns3:atemp>
            <ns3:cad>95</ns3:cad>
          </ns3:TrackPointExtension>
        </extensions>
      </trkpt>
      <trkpt lat="31.42311302013695240020751953125" lon="119.48193691670894622802734375">
        <ele>21.799999237060546875</ele>
        <time>2016-06-06T21:46:32.000Z</time>
        <extensions>
          <ns3:TrackPointExtension>
            <ns3:atemp>25.0</ns3:atemp>
            <ns3:cad>95</ns3:cad>
          </ns3:TrackPointExtension>
        </extensions>
      </trkpt>
      <trkpt lat="31.4230775646865367889404296875" lon="119.48193616233766078948974609375">
        <ele>21.6000003814697265625</ele>
        <time>2016-06-06T21:46:33.000Z</time>
        <extensions>
          <ns3:TrackPointExtension>
            <ns3:atemp>25.0</ns3:atemp>
            <ns3:cad>95</ns3:cad>
          </ns3:TrackPointExtension>
        </extensions>
      </trkpt>
      <trkpt lat="31.42304143868386745452880859375" lon="119.48193616233766078948974609375">
        <ele>21.3999996185302734375</ele>
        <time>2016-06-06T21:46:34.000Z</time>
        <extensions>
          <ns3:TrackPointExtension>
            <ns3:atemp>25.0</ns3:atemp>
            <ns3:cad>96</ns3:cad>
          </ns3:TrackPointExtension>
        </extensions>
      </trkpt>
      <trkpt lat="31.42300355248153209686279296875" lon="119.48193700052797794342041015625">
        <ele>21.3999996185302734375</ele>
        <time>2016-06-06T21:46:35.000Z</time>
        <extensions>
          <ns3:TrackPointExtension>
            <ns3:atemp>25.0</ns3:atemp>
            <ns3:cad>96</ns3:cad>
          </ns3:TrackPointExtension>
        </extensions>
      </trkpt>
      <trkpt lat="31.42296566627919673919677734375" lon="119.481936581432819366455078125">
        <ele>21.799999237060546875</ele>
        <time>2016-06-06T21:46:36.000Z</time>
        <extensions>
          <ns3:TrackPointExtension>
            <ns3:atemp>25.0</ns3:atemp>
            <ns3:cad>96</ns3:cad>
          </ns3:TrackPointExtension>
        </extensions>
      </trkpt>
      <trkpt lat="31.42292610369622707366943359375" lon="119.48193381540477275848388671875">
        <ele>21.799999237060546875</ele>
        <time>2016-06-06T21:46:37.000Z</time>
        <extensions>
          <ns3:TrackPointExtension>
            <ns3:atemp>25.0</ns3:atemp>
            <ns3:cad>96</ns3:cad>
          </ns3:TrackPointExtension>
        </extensions>
      </trkpt>
      <trkpt lat="31.42288587056100368499755859375" lon="119.48193029500544071197509765625">
        <ele>22.3999996185302734375</ele>
        <time>2016-06-06T21:46:38.000Z</time>
        <extensions>
          <ns3:TrackPointExtension>
            <ns3:atemp>25.0</ns3:atemp>
            <ns3:cad>96</ns3:cad>
          </ns3:TrackPointExtension>
        </extensions>
      </trkpt>
      <trkpt lat="31.42284815199673175811767578125" lon="119.48193046264350414276123046875">
        <ele>22.200000762939453125</ele>
        <time>2016-06-06T21:46:39.000Z</time>
        <extensions>
          <ns3:TrackPointExtension>
            <ns3:atemp>25.0</ns3:atemp>
            <ns3:cad>95</ns3:cad>
          </ns3:TrackPointExtension>
        </extensions>
      </trkpt>
      <trkpt lat="31.42281160689890384674072265625" lon="119.4819295406341552734375">
        <ele>21.799999237060546875</ele>
        <time>2016-06-06T21:46:40.000Z</time>
        <extensions>
          <ns3:TrackPointExtension>
            <ns3:atemp>25.0</ns3:atemp>
            <ns3:cad>95</ns3:cad>
          </ns3:TrackPointExtension>
        </extensions>
      </trkpt>
      <trkpt lat="31.42277623526751995086669921875" lon="119.48192895390093326568603515625">
        <ele>21</ele>
        <time>2016-06-06T21:46:41.000Z</time>
        <extensions>
          <ns3:TrackPointExtension>
            <ns3:atemp>25.0</ns3:atemp>
            <ns3:cad>95</ns3:cad>
          </ns3:TrackPointExtension>
        </extensions>
      </trkpt>
      <trkpt lat="31.4227422885596752166748046875" lon="119.48192979209125041961669921875">
        <ele>20.6000003814697265625</ele>
        <time>2016-06-06T21:46:42.000Z</time>
        <extensions>
          <ns3:TrackPointExtension>
            <ns3:atemp>25.0</ns3:atemp>
            <ns3:cad>95</ns3:cad>
          </ns3:TrackPointExtension>
        </extensions>
      </trkpt>
      <trkpt lat="31.422709263861179351806640625" lon="119.4819310493767261505126953125">
        <ele>20.799999237060546875</ele>
        <time>2016-06-06T21:46:43.000Z</time>
        <extensions>
          <ns3:TrackPointExtension>
            <ns3:atemp>25.0</ns3:atemp>
            <ns3:cad>95</ns3:cad>
          </ns3:TrackPointExtension>
        </extensions>
      </trkpt>
      <trkpt lat="31.4226752333343029022216796875" lon="119.48193364776670932769775390625">
        <ele>21</ele>
        <time>2016-06-06T21:46:44.000Z</time>
        <extensions>
          <ns3:TrackPointExtension>
            <ns3:atemp>25.0</ns3:atemp>
            <ns3:cad>93</ns3:cad>
          </ns3:TrackPointExtension>
        </extensions>
      </trkpt>
      <trkpt lat="31.422642208635807037353515625" lon="119.48193632997572422027587890625">
        <ele>21.799999237060546875</ele>
        <time>2016-06-06T21:46:45.000Z</time>
        <extensions>
          <ns3:TrackPointExtension>
            <ns3:atemp>25.0</ns3:atemp>
            <ns3:cad>93</ns3:cad>
          </ns3:TrackPointExtension>
        </extensions>
      </trkpt>
      <trkpt lat="31.42260407097637653350830078125" lon="119.48194135911762714385986328125">
        <ele>22</ele>
        <time>2016-06-06T21:46:46.000Z</time>
        <extensions>
          <ns3:TrackPointExtension>
            <ns3:atemp>25.0</ns3:atemp>
            <ns3:cad>92</ns3:cad>
          </ns3:TrackPointExtension>
        </extensions>
      </trkpt>
      <trkpt lat="31.42256417311728000640869140625" lon="119.48194907046854496002197265625">
        <ele>22.200000762939453125</ele>
        <time>2016-06-06T21:46:47.000Z</time>
        <extensions>
          <ns3:TrackPointExtension>
            <ns3:atemp>25.0</ns3:atemp>
            <ns3:cad>92</ns3:cad>
          </ns3:TrackPointExtension>
        </extensions>
      </trkpt>
      <trkpt lat="31.42252393998205661773681640625" lon="119.4819565303623676300048828125">
        <ele>22</ele>
        <time>2016-06-06T21:46:48.000Z</time>
        <extensions>
          <ns3:TrackPointExtension>
            <ns3:atemp>25.0</ns3:atemp>
            <ns3:cad>94</ns3:cad>
          </ns3:TrackPointExtension>
        </extensions>
      </trkpt>
      <trkpt lat="31.4224881492555141448974609375" lon="119.48197153396904468536376953125">
        <ele>21.6000003814697265625</ele>
        <time>2016-06-06T21:46:49.000Z</time>
        <extensions>
          <ns3:TrackPointExtension>
            <ns3:atemp>25.0</ns3:atemp>
            <ns3:cad>94</ns3:cad>
          </ns3:TrackPointExtension>
        </extensions>
      </trkpt>
      <trkpt lat="31.422453112900257110595703125" lon="119.48198662139475345611572265625">
        <ele>21.3999996185302734375</ele>
        <time>2016-06-06T21:46:50.000Z</time>
        <extensions>
          <ns3:TrackPointExtension>
            <ns3:atemp>25.0</ns3:atemp>
            <ns3:cad>94</ns3:cad>
          </ns3:TrackPointExtension>
        </extensions>
      </trkpt>
      <trkpt lat="31.4224210940301418304443359375" lon="119.4820027984678745269775390625">
        <ele>21.3999996185302734375</ele>
        <time>2016-06-06T21:46:51.000Z</time>
        <extensions>
          <ns3:TrackPointExtension>
            <ns3:atemp>25.0</ns3:atemp>
            <ns3:cad>94</ns3:cad>
          </ns3:TrackPointExtension>
        </extensions>
      </trkpt>
      <trkpt lat="31.42239083535969257354736328125" lon="119.48202584870159626007080078125">
        <ele>21.799999237060546875</ele>
        <time>2016-06-06T21:46:52.000Z</time>
        <extensions>
          <ns3:TrackPointExtension>
            <ns3:atemp>25.0</ns3:atemp>
            <ns3:cad>94</ns3:cad>
          </ns3:TrackPointExtension>
        </extensions>
      </trkpt>
      <trkpt lat="31.42236133106052875518798828125" lon="119.4820515811443328857421875">
        <ele>22.200000762939453125</ele>
        <time>2016-06-06T21:46:53.000Z</time>
        <extensions>
          <ns3:TrackPointExtension>
            <ns3:atemp>25.0</ns3:atemp>
            <ns3:cad>94</ns3:cad>
          </ns3:TrackPointExtension>
        </extensions>
      </trkpt>
      <trkpt lat="31.422338783740997314453125" lon="119.48208854533731937408447265625">
        <ele>22.200000762939453125</ele>
        <time>2016-06-06T21:46:54.000Z</time>
        <extensions>
          <ns3:TrackPointExtension>
            <ns3:atemp>25.0</ns3:atemp>
            <ns3:cad>94</ns3:cad>
          </ns3:TrackPointExtension>
        </extensions>
      </trkpt>
      <trkpt lat="31.42231388948857784271240234375" lon="119.48212089948356151580810546875">
        <ele>22.200000762939453125</ele>
        <time>2016-06-06T21:46:55.000Z</time>
        <extensions>
          <ns3:TrackPointExtension>
            <ns3:atemp>25.0</ns3:atemp>
            <ns3:cad>94</ns3:cad>
          </ns3:TrackPointExtension>
        </extensions>
      </trkpt>
      <trkpt lat="31.42229377292096614837646484375" lon="119.482159875333309173583984375">
        <ele>21.799999237060546875</ele>
        <time>2016-06-06T21:46:56.000Z</time>
        <extensions>
          <ns3:TrackPointExtension>
            <ns3:atemp>25.0</ns3:atemp>
            <ns3:cad>94</ns3:cad>
          </ns3:TrackPointExtension>
        </extensions>
      </trkpt>
      <trkpt lat="31.42227633856236934661865234375" lon="119.48219600133597850799560546875">
        <ele>21.3999996185302734375</ele>
        <time>2016-06-06T21:46:57.000Z</time>
        <extensions>
          <ns3:TrackPointExtension>
            <ns3:atemp>25.0</ns3:atemp>
            <ns3:cad>94</ns3:cad>
          </ns3:TrackPointExtension>
        </extensions>
      </trkpt>
      <trkpt lat="31.42226435244083404541015625" lon="119.48223539628088474273681640625">
        <ele>21.200000762939453125</ele>
        <time>2016-06-06T21:46:58.000Z</time>
        <extensions>
          <ns3:TrackPointExtension>
            <ns3:atemp>25.0</ns3:atemp>
            <ns3:cad>93</ns3:cad>
          </ns3:TrackPointExtension>
        </extensions>
      </trkpt>
      <trkpt lat="31.4222564734518527984619140625" lon="119.48227822780609130859375">
        <ele>21.3999996185302734375</ele>
        <time>2016-06-06T21:46:59.000Z</time>
        <extensions>
          <ns3:TrackPointExtension>
            <ns3:atemp>25.0</ns3:atemp>
            <ns3:cad>93</ns3:cad>
          </ns3:TrackPointExtension>
        </extensions>
      </trkpt>
      <trkpt lat="31.4222531206905841827392578125" lon="119.4823196344077587127685546875">
        <ele>21.799999237060546875</ele>
        <time>2016-06-06T21:47:00.000Z</time>
        <extensions>
          <ns3:TrackPointExtension>
            <ns3:atemp>25.0</ns3:atemp>
            <ns3:cad>93</ns3:cad>
          </ns3:TrackPointExtension>
        </extensions>
      </trkpt>
      <trkpt lat="31.42225353978574275970458984375" lon="119.482362382113933563232421875">
        <ele>21.799999237060546875</ele>
        <time>2016-06-06T21:47:01.000Z</time>
        <extensions>
          <ns3:TrackPointExtension>
            <ns3:atemp>25.0</ns3:atemp>
            <ns3:cad>93</ns3:cad>
          </ns3:TrackPointExtension>
        </extensions>
      </trkpt>
      <trkpt lat="31.42225806601345539093017578125" lon="119.48240571655333042144775390625">
        <ele>22.200000762939453125</ele>
        <time>2016-06-06T21:47:02.000Z</time>
        <extensions>
          <ns3:TrackPointExtension>
            <ns3:atemp>25.0</ns3:atemp>
            <ns3:cad>94</ns3:cad>
          </ns3:TrackPointExtension>
        </extensions>
      </trkpt>
      <trkpt lat="31.4222698844969272613525390625" lon="119.4824485480785369873046875">
        <ele>22</ele>
        <time>2016-06-06T21:47:03.000Z</time>
        <extensions>
          <ns3:TrackPointExtension>
            <ns3:atemp>25.0</ns3:atemp>
            <ns3:cad>94</ns3:cad>
          </ns3:TrackPointExtension>
        </extensions>
      </trkpt>
      <trkpt lat="31.42228220589458942413330078125" lon="119.482487104833126068115234375">
        <ele>21.6000003814697265625</ele>
        <time>2016-06-06T21:47:04.000Z</time>
        <extensions>
          <ns3:TrackPointExtension>
            <ns3:atemp>25.0</ns3:atemp>
            <ns3:cad>94</ns3:cad>
          </ns3:TrackPointExtension>
        </extensions>
      </trkpt>
      <trkpt lat="31.422296874225139617919921875" lon="119.4825271703302860260009765625">
        <ele>21.200000762939453125</ele>
        <time>2016-06-06T21:47:05.000Z</time>
        <extensions>
          <ns3:TrackPointExtension>
            <ns3:atemp>25.0</ns3:atemp>
            <ns3:cad>94</ns3:cad>
          </ns3:TrackPointExtension>
        </extensions>
      </trkpt>
      <trkpt lat="31.4223174937069416046142578125" lon="119.482570253312587738037109375">
        <ele>21</ele>
        <time>2016-06-06T21:47:06.000Z</time>
        <extensions>
          <ns3:TrackPointExtension>
            <ns3:atemp>25.0</ns3:atemp>
            <ns3:cad>94</ns3:cad>
          </ns3:TrackPointExtension>
        </extensions>
      </trkpt>
      <trkpt lat="31.4223402924835681915283203125" lon="119.48260889388620853424072265625">
        <ele>21.200000762939453125</ele>
        <time>2016-06-06T21:47:07.000Z</time>
        <extensions>
          <ns3:TrackPointExtension>
            <ns3:atemp>25.0</ns3:atemp>
            <ns3:cad>94</ns3:cad>
          </ns3:TrackPointExtension>
        </extensions>
      </trkpt>
      <trkpt lat="31.4223610796034336090087890625" lon="119.4826435111463069915771484375">
        <ele>21.6000003814697265625</ele>
        <time>2016-06-06T21:47:08.000Z</time>
        <extensions>
          <ns3:TrackPointExtension>
            <ns3:atemp>25.0</ns3:atemp>
            <ns3:cad>95</ns3:cad>
          </ns3:TrackPointExtension>
        </extensions>
      </trkpt>
      <trkpt lat="31.42238429747521877288818359375" lon="119.48267712257802486419677734375">
        <ele>22</ele>
        <time>2016-06-06T21:47:09.000Z</time>
        <extensions>
          <ns3:TrackPointExtension>
            <ns3:atemp>25.0</ns3:atemp>
            <ns3:cad>95</ns3:cad>
          </ns3:TrackPointExtension>
        </extensions>
      </trkpt>
      <trkpt lat="31.422410868108272552490234375" lon="119.48271073400974273681640625">
        <ele>22</ele>
        <time>2016-06-06T21:47:10.000Z</time>
        <extensions>
          <ns3:TrackPointExtension>
            <ns3:atemp>25.0</ns3:atemp>
            <ns3:cad>95</ns3:cad>
          </ns3:TrackPointExtension>
        </extensions>
      </trkpt>
      <trkpt lat="31.42244313843548297882080078125" lon="119.482741914689540863037109375">
        <ele>21.6000003814697265625</ele>
        <time>2016-06-06T21:47:11.000Z</time>
        <extensions>
          <ns3:TrackPointExtension>
            <ns3:atemp>25.0</ns3:atemp>
            <ns3:cad>94</ns3:cad>
          </ns3:TrackPointExtension>
        </extensions>
      </trkpt>
      <trkpt lat="31.4224760793149471282958984375" lon="119.48276580311357975006103515625">
        <ele>21.200000762939453125</ele>
        <time>2016-06-06T21:47:12.000Z</time>
        <extensions>
          <ns3:TrackPointExtension>
            <ns3:atemp>25.0</ns3:atemp>
            <ns3:cad>93</ns3:cad>
          </ns3:TrackPointExtension>
        </extensions>
      </trkpt>
      <trkpt lat="31.42250985838472843170166015625" lon="119.4827918708324432373046875">
        <ele>21</ele>
        <time>2016-06-06T21:47:13.000Z</time>
        <extensions>
          <ns3:TrackPointExtension>
            <ns3:atemp>25.0</ns3:atemp>
            <ns3:cad>93</ns3:cad>
          </ns3:TrackPointExtension>
        </extensions>
      </trkpt>
      <trkpt lat="31.4225454814732074737548828125" lon="119.48281391523778438568115234375">
        <ele>21.3999996185302734375</ele>
        <time>2016-06-06T21:47:14.000Z</time>
        <extensions>
          <ns3:TrackPointExtension>
            <ns3:atemp>25.0</ns3:atemp>
            <ns3:cad>93</ns3:cad>
          </ns3:TrackPointExtension>
        </extensions>
      </trkpt>
      <trkpt lat="31.42258353531360626220703125" lon="119.48283151723444461822509765625">
        <ele>21.799999237060546875</ele>
        <time>2016-06-06T21:47:15.000Z</time>
        <extensions>
          <ns3:TrackPointExtension>
            <ns3:atemp>25.0</ns3:atemp>
            <ns3:cad>93</ns3:cad>
          </ns3:TrackPointExtension>
        </extensions>
      </trkpt>
      <trkpt lat="31.4226232655346393585205078125" lon="119.48284274898469448089599609375">
        <ele>22</ele>
        <time>2016-06-06T21:47:16.000Z</time>
        <extensions>
          <ns3:TrackPointExtension>
            <ns3:atemp>25.0</ns3:atemp>
            <ns3:cad>93</ns3:cad>
          </ns3:TrackPointExtension>
        </extensions>
      </trkpt>
      <trkpt lat="31.42266307957470417022705078125" lon="119.48284886777400970458984375">
        <ele>22</ele>
        <time>2016-06-06T21:47:17.000Z</time>
        <extensions>
          <ns3:TrackPointExtension>
            <ns3:atemp>25.0</ns3:atemp>
            <ns3:cad>93</ns3:cad>
          </ns3:TrackPointExtension>
        </extensions>
      </trkpt>
      <trkpt lat="31.422701887786388397216796875" lon="119.48285364545881748199462890625">
        <ele>22</ele>
        <time>2016-06-06T21:47:18.000Z</time>
        <extensions>
          <ns3:TrackPointExtension>
            <ns3:atemp>25.0</ns3:atemp>
            <ns3:cad>93</ns3:cad>
          </ns3:TrackPointExtension>
        </extensions>
      </trkpt>
      <trkpt lat="31.42274404875934123992919921875" lon="119.4828597642481327056884765625">
        <ele>22</ele>
        <time>2016-06-06T21:47:19.000Z</time>
        <extensions>
          <ns3:TrackPointExtension>
            <ns3:atemp>25.0</ns3:atemp>
            <ns3:cad>93</ns3:cad>
          </ns3:TrackPointExtension>
        </extensions>
      </trkpt>
      <trkpt lat="31.4227868802845478057861328125" lon="119.4828617759048938751220703125">
        <ele>22</ele>
        <time>2016-06-06T21:47:20.000Z</time>
        <extensions>
          <ns3:TrackPointExtension>
            <ns3:atemp>25.0</ns3:atemp>
            <ns3:cad>93</ns3:cad>
          </ns3:TrackPointExtension>
        </extensions>
      </trkpt>
      <trkpt lat="31.42282619141042232513427734375" lon="119.48286185972392559051513671875">
        <ele>21.799999237060546875</ele>
        <time>2016-06-06T21:47:21.000Z</time>
        <extensions>
          <ns3:TrackPointExtension>
            <ns3:atemp>25.0</ns3:atemp>
            <ns3:cad>93</ns3:cad>
          </ns3:TrackPointExtension>
        </extensions>
      </trkpt>
      <trkpt lat="31.42286374233663082122802734375" lon="119.48286353610455989837646484375">
        <ele>21.200000762939453125</ele>
        <time>2016-06-06T21:47:22.000Z</time>
        <extensions>
          <ns3:TrackPointExtension>
            <ns3:atemp>25.0</ns3:atemp>
            <ns3:cad>93</ns3:cad>
          </ns3:TrackPointExtension>
        </extensions>
      </trkpt>
      <trkpt lat="31.422905065119266510009765625" lon="119.4828607700765132904052734375">
        <ele>21.200000762939453125</ele>
        <time>2016-06-06T21:47:23.000Z</time>
        <extensions>
          <ns3:TrackPointExtension>
            <ns3:atemp>25.0</ns3:atemp>
            <ns3:cad>93</ns3:cad>
          </ns3:TrackPointExtension>
        </extensions>
      </trkpt>
      <trkpt lat="31.42294521443545818328857421875" lon="119.482862614095211029052734375">
        <ele>21.3999996185302734375</ele>
        <time>2016-06-06T21:47:24.000Z</time>
        <extensions>
          <ns3:TrackPointExtension>
            <ns3:atemp>25.0</ns3:atemp>
            <ns3:cad>93</ns3:cad>
          </ns3:TrackPointExtension>
        </extensions>
      </trkpt>
      <trkpt lat="31.42298812977969646453857421875" lon="119.4828651286661624908447265625">
        <ele>21.6000003814697265625</ele>
        <time>2016-06-06T21:47:25.000Z</time>
        <extensions>
          <ns3:TrackPointExtension>
            <ns3:atemp>25.0</ns3:atemp>
            <ns3:cad>93</ns3:cad>
          </ns3:TrackPointExtension>
        </extensions>
      </trkpt>
      <trkpt lat="31.42303138040006160736083984375" lon="119.4828637875616550445556640625">
        <ele>22</ele>
        <time>2016-06-06T21:47:26.000Z</time>
        <extensions>
          <ns3:TrackPointExtension>
            <ns3:atemp>25.0</ns3:atemp>
            <ns3:cad>94</ns3:cad>
          </ns3:TrackPointExtension>
        </extensions>
      </trkpt>
      <trkpt lat="31.42307010479271411895751953125" lon="119.48286822997033596038818359375">
        <ele>21.3999996185302734375</ele>
        <time>2016-06-06T21:47:27.000Z</time>
        <extensions>
          <ns3:TrackPointExtension>
            <ns3:atemp>25.0</ns3:atemp>
            <ns3:cad>94</ns3:cad>
          </ns3:TrackPointExtension>
        </extensions>
      </trkpt>
      <trkpt lat="31.42310916446149349212646484375" lon="119.48287057690322399139404296875">
        <ele>20.799999237060546875</ele>
        <time>2016-06-06T21:47:28.000Z</time>
        <extensions>
          <ns3:TrackPointExtension>
            <ns3:atemp>25.0</ns3:atemp>
            <ns3:cad>94</ns3:cad>
          </ns3:TrackPointExtension>
        </extensions>
      </trkpt>
      <trkpt lat="31.423151157796382904052734375" lon="119.48287309147417545318603515625">
        <ele>21.200000762939453125</ele>
        <time>2016-06-06T21:47:29.000Z</time>
        <extensions>
          <ns3:TrackPointExtension>
            <ns3:atemp>25.0</ns3:atemp>
            <ns3:cad>94</ns3:cad>
          </ns3:TrackPointExtension>
        </extensions>
      </trkpt>
      <trkpt lat="31.4231908880174160003662109375" lon="119.48287409730255603790283203125">
        <ele>21.3999996185302734375</ele>
        <time>2016-06-06T21:47:30.000Z</time>
        <extensions>
          <ns3:TrackPointExtension>
            <ns3:atemp>25.0</ns3:atemp>
            <ns3:cad>94</ns3:cad>
          </ns3:TrackPointExtension>
        </extensions>
      </trkpt>
      <trkpt lat="31.42323154024779796600341796875" lon="119.48287527076900005340576171875">
        <ele>21.6000003814697265625</ele>
        <time>2016-06-06T21:47:31.000Z</time>
        <extensions>
          <ns3:TrackPointExtension>
            <ns3:atemp>25.0</ns3:atemp>
            <ns3:cad>94</ns3:cad>
          </ns3:TrackPointExtension>
        </extensions>
      </trkpt>
      <trkpt lat="31.42326707951724529266357421875" lon="119.482876695692539215087890625">
        <ele>21.6000003814697265625</ele>
        <time>2016-06-06T21:47:32.000Z</time>
        <extensions>
          <ns3:TrackPointExtension>
            <ns3:atemp>25.0</ns3:atemp>
            <ns3:cad>95</ns3:cad>
          </ns3:TrackPointExtension>
        </extensions>
      </trkpt>
      <trkpt lat="31.42330706119537353515625" lon="119.48287610895931720733642578125">
        <ele>21.200000762939453125</ele>
        <time>2016-06-06T21:47:33.000Z</time>
        <extensions>
          <ns3:TrackPointExtension>
            <ns3:atemp>25.0</ns3:atemp>
            <ns3:cad>95</ns3:cad>
          </ns3:TrackPointExtension>
        </extensions>
      </trkpt>
      <trkpt lat="31.42334436066448688507080078125" lon="119.4828775338828563690185546875">
        <ele>21</ele>
        <time>2016-06-06T21:47:34.000Z</time>
        <extensions>
          <ns3:TrackPointExtension>
            <ns3:atemp>25.0</ns3:atemp>
            <ns3:cad>95</ns3:cad>
          </ns3:TrackPointExtension>
        </extensions>
      </trkpt>
      <trkpt lat="31.42338090576231479644775390625" lon="119.48288113810122013092041015625">
        <ele>21.200000762939453125</ele>
        <time>2016-06-06T21:47:35.000Z</time>
        <extensions>
          <ns3:TrackPointExtension>
            <ns3:atemp>25.0</ns3:atemp>
            <ns3:cad>95</ns3:cad>
          </ns3:TrackPointExtension>
        </extensions>
      </trkpt>
      <trkpt lat="31.42341057769954204559326171875" lon="119.48287711478769779205322265625">
        <ele>21.3999996185302734375</ele>
        <time>2016-06-06T21:47:36.000Z</time>
        <extensions>
          <ns3:TrackPointExtension>
            <ns3:atemp>25.0</ns3:atemp>
            <ns3:cad>95</ns3:cad>
          </ns3:TrackPointExtension>
        </extensions>
      </trkpt>
      <trkpt lat="31.42344460822641849517822265625" lon="119.482880048453807830810546875">
        <ele>21.799999237060546875</ele>
        <time>2016-06-06T21:47:37.000Z</time>
        <extensions>
          <ns3:TrackPointExtension>
            <ns3:atemp>25.0</ns3:atemp>
            <ns3:cad>95</ns3:cad>
          </ns3:TrackPointExtension>
        </extensions>
      </trkpt>
      <trkpt lat="31.423479728400707244873046875" lon="119.48287493549287319183349609375">
        <ele>21.799999237060546875</ele>
        <time>2016-06-06T21:47:38.000Z</time>
        <extensions>
          <ns3:TrackPointExtension>
            <ns3:atemp>25.0</ns3:atemp>
            <ns3:cad>95</ns3:cad>
          </ns3:TrackPointExtension>
        </extensions>
      </trkpt>
      <trkpt lat="31.423514597117900848388671875" lon="119.4828657992184162139892578125">
        <ele>21.6000003814697265625</ele>
        <time>2016-06-06T21:47:39.000Z</time>
        <extensions>
          <ns3:TrackPointExtension>
            <ns3:atemp>25.0</ns3:atemp>
            <ns3:cad>95</ns3:cad>
          </ns3:TrackPointExtension>
        </extensions>
      </trkpt>
      <trkpt lat="31.4235492981970310211181640625" lon="119.48285398073494434356689453125">
        <ele>21</ele>
        <time>2016-06-06T21:47:40.000Z</time>
        <extensions>
          <ns3:TrackPointExtension>
            <ns3:atemp>25.0</ns3:atemp>
            <ns3:cad>95</ns3:cad>
          </ns3:TrackPointExtension>
        </extensions>
      </trkpt>
      <trkpt lat="31.42358710058033466339111328125" lon="119.4828433357179164886474609375">
        <ele>21</ele>
        <time>2016-06-06T21:47:41.000Z</time>
        <extensions>
          <ns3:TrackPointExtension>
            <ns3:atemp>25.0</ns3:atemp>
            <ns3:cad>95</ns3:cad>
          </ns3:TrackPointExtension>
        </extensions>
      </trkpt>
      <trkpt lat="31.42362364567816257476806640625" lon="119.48283285833895206451416015625">
        <ele>21.200000762939453125</ele>
        <time>2016-06-06T21:47:42.000Z</time>
        <extensions>
          <ns3:TrackPointExtension>
            <ns3:atemp>25.0</ns3:atemp>
            <ns3:cad>94</ns3:cad>
          </ns3:TrackPointExtension>
        </extensions>
      </trkpt>
      <trkpt lat="31.42365985549986362457275390625" lon="119.482817016541957855224609375">
        <ele>21.6000003814697265625</ele>
        <time>2016-06-06T21:47:43.000Z</time>
        <extensions>
          <ns3:TrackPointExtension>
            <ns3:atemp>25.0</ns3:atemp>
            <ns3:cad>94</ns3:cad>
          </ns3:TrackPointExtension>
        </extensions>
      </trkpt>
      <trkpt lat="31.42368902452290058135986328125" lon="119.48279631324112415313720703125">
        <ele>21.799999237060546875</ele>
        <time>2016-06-06T21:47:44.000Z</time>
        <extensions>
          <ns3:TrackPointExtension>
            <ns3:atemp>25.0</ns3:atemp>
            <ns3:cad>94</ns3:cad>
          </ns3:TrackPointExtension>
        </extensions>
      </trkpt>
      <trkpt lat="31.42371852882206439971923828125" lon="119.4827735982835292816162109375">
        <ele>21.6000003814697265625</ele>
        <time>2016-06-06T21:47:45.000Z</time>
        <extensions>
          <ns3:TrackPointExtension>
            <ns3:atemp>25.0</ns3:atemp>
            <ns3:cad>94</ns3:cad>
          </ns3:TrackPointExtension>
        </extensions>
      </trkpt>
      <trkpt lat="31.423745937645435333251953125" lon="119.4827447645366191864013671875">
        <ele>21.200000762939453125</ele>
        <time>2016-06-06T21:47:46.000Z</time>
        <extensions>
          <ns3:TrackPointExtension>
            <ns3:atemp>25.0</ns3:atemp>
            <ns3:cad>94</ns3:cad>
          </ns3:TrackPointExtension>
        </extensions>
      </trkpt>
      <trkpt lat="31.42376999370753765106201171875" lon="119.48271601460874080657958984375">
        <ele>21.200000762939453125</ele>
        <time>2016-06-06T21:47:47.000Z</time>
        <extensions>
          <ns3:TrackPointExtension>
            <ns3:atemp>25.0</ns3:atemp>
            <ns3:cad>95</ns3:cad>
          </ns3:TrackPointExtension>
        </extensions>
      </trkpt>
      <trkpt lat="31.4237860031425952911376953125" lon="119.48268047533929347991943359375">
        <ele>21.3999996185302734375</ele>
        <time>2016-06-06T21:47:48.000Z</time>
        <extensions>
          <ns3:TrackPointExtension>
            <ns3:atemp>25.0</ns3:atemp>
            <ns3:cad>95</ns3:cad>
          </ns3:TrackPointExtension>
        </extensions>
      </trkpt>
      <trkpt lat="31.42380528151988983154296875" lon="119.4826465286314487457275390625">
        <ele>21.799999237060546875</ele>
        <time>2016-06-06T21:47:49.000Z</time>
        <extensions>
          <ns3:TrackPointExtension>
            <ns3:atemp>25.0</ns3:atemp>
            <ns3:cad>95</ns3:cad>
          </ns3:TrackPointExtension>
        </extensions>
      </trkpt>
      <trkpt lat="31.42382313497364521026611328125" lon="119.48261149227619171142578125">
        <ele>21.799999237060546875</ele>
        <time>2016-06-06T21:47:50.000Z</time>
        <extensions>
          <ns3:TrackPointExtension>
            <ns3:atemp>25.0</ns3:atemp>
            <ns3:cad>94</ns3:cad>
          </ns3:TrackPointExtension>
        </extensions>
      </trkpt>
      <trkpt lat="31.4238369651138782501220703125" lon="119.4825737737119197845458984375">
        <ele>22</ele>
        <time>2016-06-06T21:47:51.000Z</time>
        <extensions>
          <ns3:TrackPointExtension>
            <ns3:atemp>25.0</ns3:atemp>
            <ns3:cad>94</ns3:cad>
          </ns3:TrackPointExtension>
        </extensions>
      </trkpt>
      <trkpt lat="31.42384610138833522796630859375" lon="119.4825338758528232574462890625">
        <ele>21.799999237060546875</ele>
        <time>2016-06-06T21:47:52.000Z</time>
        <extensions>
          <ns3:TrackPointExtension>
            <ns3:atemp>25.0</ns3:atemp>
            <ns3:cad>94</ns3:cad>
          </ns3:TrackPointExtension>
        </extensions>
      </trkpt>
      <trkpt lat="31.4238507114350795745849609375" lon="119.4824896194040775299072265625">
        <ele>21.200000762939453125</ele>
        <time>2016-06-06T21:47:53.000Z</time>
        <extensions>
          <ns3:TrackPointExtension>
            <ns3:atemp>25.0</ns3:atemp>
            <ns3:cad>94</ns3:cad>
          </ns3:TrackPointExtension>
        </extensions>
      </trkpt>
      <trkpt lat="31.423849873244762420654296875" lon="119.48244653642177581787109375">
        <ele>21.200000762939453125</ele>
        <time>2016-06-06T21:47:54.000Z</time>
        <extensions>
          <ns3:TrackPointExtension>
            <ns3:atemp>25.0</ns3:atemp>
            <ns3:cad>94</ns3:cad>
          </ns3:TrackPointExtension>
        </extensions>
      </trkpt>
      <trkpt lat="31.42384375445544719696044921875" lon="119.4824024476110935211181640625">
        <ele>21.200000762939453125</ele>
        <time>2016-06-06T21:47:55.000Z</time>
        <extensions>
          <ns3:TrackPointExtension>
            <ns3:atemp>25.0</ns3:atemp>
            <ns3:cad>95</ns3:cad>
          </ns3:TrackPointExtension>
        </extensions>
      </trkpt>
      <trkpt lat="31.42383436672389507293701171875" lon="119.48235492222011089324951171875">
        <ele>21.799999237060546875</ele>
        <time>2016-06-06T21:47:56.000Z</time>
        <extensions>
          <ns3:TrackPointExtension>
            <ns3:atemp>25.0</ns3:atemp>
            <ns3:cad>95</ns3:cad>
          </ns3:TrackPointExtension>
        </extensions>
      </trkpt>
      <trkpt lat="31.42382397316396236419677734375" lon="119.48230865411460399627685546875">
        <ele>22</ele>
        <time>2016-06-06T21:47:57.000Z</time>
        <extensions>
          <ns3:TrackPointExtension>
            <ns3:atemp>25.0</ns3:atemp>
            <ns3:cad>95</ns3:cad>
          </ns3:TrackPointExtension>
        </extensions>
      </trkpt>
      <trkpt lat="31.42381056211888790130615234375" lon="119.48226238600909709930419921875">
        <ele>21.6000003814697265625</ele>
        <time>2016-06-06T21:47:58.000Z</time>
        <extensions>
          <ns3:TrackPointExtension>
            <ns3:atemp>25.0</ns3:atemp>
            <ns3:cad>95</ns3:cad>
          </ns3:TrackPointExtension>
        </extensions>
      </trkpt>
      <trkpt lat="31.4237967319786548614501953125" lon="119.482219554483890533447265625">
        <ele>21.3999996185302734375</ele>
        <time>2016-06-06T21:47:59.000Z</time>
        <extensions>
          <ns3:TrackPointExtension>
            <ns3:atemp>25.0</ns3:atemp>
            <ns3:cad>95</ns3:cad>
          </ns3:TrackPointExtension>
        </extensions>
      </trkpt>
      <trkpt lat="31.42377837561070919036865234375" lon="119.48217806406319141387939453125">
        <ele>21.3999996185302734375</ele>
        <time>2016-06-06T21:48:00.000Z</time>
        <extensions>
          <ns3:TrackPointExtension>
            <ns3:atemp>25.0</ns3:atemp>
            <ns3:cad>96</ns3:cad>
          </ns3:TrackPointExtension>
        </extensions>
      </trkpt>
      <trkpt lat="31.42375825904309749603271484375" lon="119.48214151896536350250244140625">
        <ele>21.799999237060546875</ele>
        <time>2016-06-06T21:48:01.000Z</time>
        <extensions>
          <ns3:TrackPointExtension>
            <ns3:atemp>25.0</ns3:atemp>
            <ns3:cad>96</ns3:cad>
          </ns3:TrackPointExtension>
        </extensions>
      </trkpt>
      <trkpt lat="31.42373596318066120147705078125" lon="119.482110254466533660888671875">
        <ele>21.799999237060546875</ele>
        <time>2016-06-06T21:48:02.000Z</time>
        <extensions>
          <ns3:TrackPointExtension>
            <ns3:atemp>25.0</ns3:atemp>
            <ns3:cad>96</ns3:cad>
          </ns3:TrackPointExtension>
        </extensions>
      </trkpt>
      <trkpt lat="31.42370679415762424468994140625" lon="119.48207178153097629547119140625">
        <ele>21.799999237060546875</ele>
        <time>2016-06-06T21:48:03.000Z</time>
        <extensions>
          <ns3:TrackPointExtension>
            <ns3:atemp>25.0</ns3:atemp>
            <ns3:cad>95</ns3:cad>
          </ns3:TrackPointExtension>
        </extensions>
      </trkpt>
      <trkpt lat="31.42368064261972904205322265625" lon="119.48203615844249725341796875">
        <ele>21.799999237060546875</ele>
        <time>2016-06-06T21:48:04.000Z</time>
        <extensions>
          <ns3:TrackPointExtension>
            <ns3:atemp>25.0</ns3:atemp>
            <ns3:cad>95</ns3:cad>
          </ns3:TrackPointExtension>
        </extensions>
      </trkpt>
      <trkpt lat="31.4236505515873432159423828125" lon="119.48200657032430171966552734375">
        <ele>21.6000003814697265625</ele>
        <time>2016-06-06T21:48:05.000Z</time>
        <extensions>
          <ns3:TrackPointExtension>
            <ns3:atemp>25.0</ns3:atemp>
            <ns3:cad>95</ns3:cad>
          </ns3:TrackPointExtension>
        </extensions>
      </trkpt>
      <trkpt lat="31.42362297512590885162353515625" lon="119.4819833524525165557861328125">
        <ele>20.799999237060546875</ele>
        <time>2016-06-06T21:48:06.000Z</time>
        <extensions>
          <ns3:TrackPointExtension>
            <ns3:atemp>25.0</ns3:atemp>
            <ns3:cad>95</ns3:cad>
          </ns3:TrackPointExtension>
        </extensions>
      </trkpt>
      <trkpt lat="31.423594392836093902587890625" lon="119.4819672591984272003173828125">
        <ele>20.6000003814697265625</ele>
        <time>2016-06-06T21:48:07.000Z</time>
        <extensions>
          <ns3:TrackPointExtension>
            <ns3:atemp>25.0</ns3:atemp>
            <ns3:cad>95</ns3:cad>
          </ns3:TrackPointExtension>
        </extensions>
      </trkpt>
      <trkpt lat="31.42356262542307376861572265625" lon="119.4819545187056064605712890625">
        <ele>20.799999237060546875</ele>
        <time>2016-06-06T21:48:08.000Z</time>
        <extensions>
          <ns3:TrackPointExtension>
            <ns3:atemp>25.0</ns3:atemp>
            <ns3:cad>94</ns3:cad>
          </ns3:TrackPointExtension>
        </extensions>
      </trkpt>
      <trkpt lat="31.42352876253426074981689453125" lon="119.4819491542875766754150390625">
        <ele>21.3999996185302734375</ele>
        <time>2016-06-06T21:48:09.000Z</time>
        <extensions>
          <ns3:TrackPointExtension>
            <ns3:atemp>25.0</ns3:atemp>
            <ns3:cad>93</ns3:cad>
          </ns3:TrackPointExtension>
        </extensions>
      </trkpt>
      <trkpt lat="31.42349372617900371551513671875" lon="119.48194571770727634429931640625">
        <ele>21.6000003814697265625</ele>
        <time>2016-06-06T21:48:10.000Z</time>
        <extensions>
          <ns3:TrackPointExtension>
            <ns3:atemp>25.0</ns3:atemp>
            <ns3:cad>93</ns3:cad>
          </ns3:TrackPointExtension>
        </extensions>
      </trkpt>
      <trkpt lat="31.42345449887216091156005859375" lon="119.48194018565118312835693359375">
        <ele>22</ele>
        <time>2016-06-06T21:48:11.000Z</time>
        <extensions>
          <ns3:TrackPointExtension>
            <ns3:atemp>25.0</ns3:atemp>
            <ns3:cad>93</ns3:cad>
          </ns3:TrackPointExtension>
        </extensions>
      </trkpt>
      <trkpt lat="31.4234131760895252227783203125" lon="119.48193700052797794342041015625">
        <ele>21.799999237060546875</ele>
        <time>2016-06-06T21:48:12.000Z</time>
        <extensions>
          <ns3:TrackPointExtension>
            <ns3:atemp>24.0</ns3:atemp>
            <ns3:cad>94</ns3:cad>
          </ns3:TrackPointExtension>
        </extensions>
      </trkpt>
      <trkpt lat="31.42337352968752384185791015625" lon="119.48193733580410480499267578125">
        <ele>22</ele>
        <time>2016-06-06T21:48:13.000Z</time>
        <extensions>
          <ns3:TrackPointExtension>
            <ns3:atemp>24.0</ns3:atemp>
            <ns3:cad>94</ns3:cad>
          </ns3:TrackPointExtension>
        </extensions>
      </trkpt>
      <trkpt lat="31.42333698458969593048095703125" lon="119.4819407723844051361083984375">
        <ele>22</ele>
        <time>2016-06-06T21:48:14.000Z</time>
        <extensions>
          <ns3:TrackPointExtension>
            <ns3:atemp>24.0</ns3:atemp>
            <ns3:cad>94</ns3:cad>
          </ns3:TrackPointExtension>
        </extensions>
      </trkpt>
      <trkpt lat="31.42330446280539035797119140625" lon="119.48194588534533977508544921875">
        <ele>22.200000762939453125</ele>
        <time>2016-06-06T21:48:15.000Z</time>
        <extensions>
          <ns3:TrackPointExtension>
            <ns3:atemp>24.0</ns3:atemp>
            <ns3:cad>92</ns3:cad>
          </ns3:TrackPointExtension>
        </extensions>
      </trkpt>
      <trkpt lat="31.4232690073549747467041015625" lon="119.48194907046854496002197265625">
        <ele>21.6000003814697265625</ele>
        <time>2016-06-06T21:48:16.000Z</time>
        <extensions>
          <ns3:TrackPointExtension>
            <ns3:atemp>24.0</ns3:atemp>
            <ns3:cad>92</ns3:cad>
          </ns3:TrackPointExtension>
        </extensions>
      </trkpt>
      <trkpt lat="31.4232327975332736968994140625" lon="119.48195342905819416046142578125">
        <ele>21</ele>
        <time>2016-06-06T21:48:17.000Z</time>
        <extensions>
          <ns3:TrackPointExtension>
            <ns3:atemp>24.0</ns3:atemp>
            <ns3:cad>92</ns3:cad>
          </ns3:TrackPointExtension>
        </extensions>
      </trkpt>
      <trkpt lat="31.42319583334028720855712890625" lon="119.48195762000977993011474609375">
        <ele>21.200000762939453125</ele>
        <time>2016-06-06T21:48:18.000Z</time>
        <extensions>
          <ns3:TrackPointExtension>
            <ns3:atemp>24.0</ns3:atemp>
            <ns3:cad>93</ns3:cad>
          </ns3:TrackPointExtension>
        </extensions>
      </trkpt>
      <trkpt lat="31.423156522214412689208984375" lon="119.48195979930460453033447265625">
        <ele>21.3999996185302734375</ele>
        <time>2016-06-06T21:48:19.000Z</time>
        <extensions>
          <ns3:TrackPointExtension>
            <ns3:atemp>24.0</ns3:atemp>
            <ns3:cad>94</ns3:cad>
          </ns3:TrackPointExtension>
        </extensions>
      </trkpt>
      <trkpt lat="31.42311670817434787750244140625" lon="119.48195946402847766876220703125">
        <ele>21.799999237060546875</ele>
        <time>2016-06-06T21:48:20.000Z</time>
        <extensions>
          <ns3:TrackPointExtension>
            <ns3:atemp>24.0</ns3:atemp>
            <ns3:cad>94</ns3:cad>
          </ns3:TrackPointExtension>
        </extensions>
      </trkpt>
      <trkpt lat="31.4230772294104099273681640625" lon="119.481958039104938507080078125">
        <ele>21.799999237060546875</ele>
        <time>2016-06-06T21:48:21.000Z</time>
        <extensions>
          <ns3:TrackPointExtension>
            <ns3:atemp>24.0</ns3:atemp>
            <ns3:cad>94</ns3:cad>
          </ns3:TrackPointExtension>
        </extensions>
      </trkpt>
      <trkpt lat="31.42299927771091461181640625" lon="119.4819568656384944915771484375">
        <ele>22.200000762939453125</ele>
        <time>2016-06-06T21:48:23.000Z</time>
        <extensions>
          <ns3:TrackPointExtension>
            <ns3:atemp>24.0</ns3:atemp>
            <ns3:cad>95</ns3:cad>
          </ns3:TrackPointExtension>
        </extensions>
      </trkpt>
      <trkpt lat="31.4229588769376277923583984375" lon="119.4819572009146213531494140625">
        <ele>22.200000762939453125</ele>
        <time>2016-06-06T21:48:24.000Z</time>
        <extensions>
          <ns3:TrackPointExtension>
            <ns3:atemp>24.0</ns3:atemp>
            <ns3:cad>95</ns3:cad>
          </ns3:TrackPointExtension>
        </extensions>
      </trkpt>
      <trkpt lat="31.4228864572942256927490234375" lon="119.48195963166654109954833984375">
        <ele>21.3999996185302734375</ele>
        <time>2016-06-06T21:48:26.000Z</time>
        <extensions>
          <ns3:TrackPointExtension>
            <ns3:atemp>24.0</ns3:atemp>
            <ns3:cad>95</ns3:cad>
          </ns3:TrackPointExtension>
        </extensions>
      </trkpt>
    </trkseg>
  </trk>
</gpx>
