<gpx xmlns:ns3="http://www.garmin.com/xmlschemas/TrackPointExtension/v1" xmlns="http://www.topografix.com/GPX/1/1" xmlns:xsi="http://www.w3.org/2001/XMLSchema-instance" xmlns:ns2="http://www.garmin.com/xmlschemas/GpxExtensions/v3" creator="Garmin Connect" version="1.1" xsi:schemaLocation="http://www.topografix.com/GPX/1/1 http://www.topografix.com/GPX/11.xsd">
  <extensions>
<distance>4593.17</distance>
<average_hr></average_hr>
<average_speed>5.219511274857955</average_speed>
<start_time>2015-08-12T23:58:23+00:00</start_time>
<end_time>2015-08-13T00:13:03+00:00</end_time>
<moving_time>581.0</moving_time>
<elapsed_time>880.0</elapsed_time>
</extensions>
<metadata>
    <link href="connect.garmin.com">
      <text>Garmin Connect</text>
    </link>
    <time>2015-08-12T23:58:23.000Z</time>
  </metadata>
  <trk>
    <name>顺义区 骑行</name>
    <type>cycling</type>
    <trkseg>
      <trkpt lat="40.05834664218127727508544921875" lon="116.58359055407345294952392578125">
        <ele>25.200000762939453125</ele>
        <time>2015-08-13T00:01:02.000Z</time>
        <extensions>
          <ns3:TrackPointExtension>
            <ns3:atemp>30.0</ns3:atemp>
          </ns3:TrackPointExtension>
        </extensions>
      </trkpt>
      <trkpt lat="40.05870245397090911865234375" lon="116.5848019905388355255126953125">
        <ele>156.600006103515625</ele>
        <time>2015-08-13T00:01:03.000Z</time>
        <extensions>
          <ns3:TrackPointExtension>
            <ns3:atemp>29.0</ns3:atemp>
          </ns3:TrackPointExtension>
        </extensions>
      </trkpt>
      <trkpt lat="40.05880043841898441314697265625" lon="116.5847128070890903472900390625">
        <ele>156.8000030517578125</ele>
        <time>2015-08-13T00:01:05.000Z</time>
        <extensions>
          <ns3:TrackPointExtension>
            <ns3:atemp>29.0</ns3:atemp>
          </ns3:TrackPointExtension>
        </extensions>
      </trkpt>
      <trkpt lat="40.0588303618133068084716796875" lon="116.584589593112468719482421875">
        <ele>156.8000030517578125</ele>
        <time>2015-08-13T00:01:06.000Z</time>
        <extensions>
          <ns3:TrackPointExtension>
            <ns3:atemp>29.0</ns3:atemp>
          </ns3:TrackPointExtension>
        </extensions>
      </trkpt>
      <trkpt lat="40.05891703069210052490234375" lon="116.58462907187640666961669921875">
        <ele>156.8000030517578125</ele>
        <time>2015-08-13T00:01:07.000Z</time>
        <extensions>
          <ns3:TrackPointExtension>
            <ns3:atemp>29.0</ns3:atemp>
          </ns3:TrackPointExtension>
        </extensions>
      </trkpt>
      <trkpt lat="40.05899791605770587921142578125" lon="116.5847186744213104248046875">
        <ele>156.399993896484375</ele>
        <time>2015-08-13T00:01:08.000Z</time>
        <extensions>
          <ns3:TrackPointExtension>
            <ns3:atemp>29.0</ns3:atemp>
          </ns3:TrackPointExtension>
        </extensions>
      </trkpt>
      <trkpt lat="40.05909330211579799652099609375" lon="116.58485035412013530731201171875">
        <ele>156.1999969482421875</ele>
        <time>2015-08-13T00:01:09.000Z</time>
        <extensions>
          <ns3:TrackPointExtension>
            <ns3:atemp>29.0</ns3:atemp>
          </ns3:TrackPointExtension>
        </extensions>
      </trkpt>
      <trkpt lat="40.0591059587895870208740234375" lon="116.584659330546855926513671875">
        <ele>156.1999969482421875</ele>
        <time>2015-08-13T00:01:10.000Z</time>
        <extensions>
          <ns3:TrackPointExtension>
            <ns3:atemp>29.0</ns3:atemp>
          </ns3:TrackPointExtension>
        </extensions>
      </trkpt>
      <trkpt lat="40.0591663084924221038818359375" lon="116.58463309518992900848388671875">
        <ele>156.1999969482421875</ele>
        <time>2015-08-13T00:01:11.000Z</time>
        <extensions>
          <ns3:TrackPointExtension>
            <ns3:atemp>29.0</ns3:atemp>
          </ns3:TrackPointExtension>
        </extensions>
      </trkpt>
      <trkpt lat="40.05922808311879634857177734375" lon="116.58446428366005420684814453125">
        <ele>156.1999969482421875</ele>
        <time>2015-08-13T00:01:12.000Z</time>
        <extensions>
          <ns3:TrackPointExtension>
            <ns3:atemp>29.0</ns3:atemp>
          </ns3:TrackPointExtension>
        </extensions>
      </trkpt>
      <trkpt lat="40.059277452528476715087890625" lon="116.5844854898750782012939453125">
        <ele>156.1999969482421875</ele>
        <time>2015-08-13T00:01:13.000Z</time>
        <extensions>
          <ns3:TrackPointExtension>
            <ns3:atemp>29.0</ns3:atemp>
          </ns3:TrackPointExtension>
        </extensions>
      </trkpt>
      <trkpt lat="40.05937241949141025543212890625" lon="116.58468305133283138275146484375">
        <ele>156.1999969482421875</ele>
        <time>2015-08-13T00:01:14.000Z</time>
        <extensions>
          <ns3:TrackPointExtension>
            <ns3:atemp>29.0</ns3:atemp>
          </ns3:TrackPointExtension>
        </extensions>
      </trkpt>
      <trkpt lat="40.05947316996753215789794921875" lon="116.58470450900495052337646484375">
        <ele>156.399993896484375</ele>
        <time>2015-08-13T00:01:15.000Z</time>
        <extensions>
          <ns3:TrackPointExtension>
            <ns3:atemp>29.0</ns3:atemp>
          </ns3:TrackPointExtension>
        </extensions>
      </trkpt>
      <trkpt lat="40.0595493614673614501953125" lon="116.58470995724201202392578125">
        <ele>156.399993896484375</ele>
        <time>2015-08-13T00:01:16.000Z</time>
        <extensions>
          <ns3:TrackPointExtension>
            <ns3:atemp>29.0</ns3:atemp>
          </ns3:TrackPointExtension>
        </extensions>
      </trkpt>
      <trkpt lat="40.05964114330708980560302734375" lon="116.5847573988139629364013671875">
        <ele>156.399993896484375</ele>
        <time>2015-08-13T00:01:17.000Z</time>
        <extensions>
          <ns3:TrackPointExtension>
            <ns3:atemp>29.0</ns3:atemp>
          </ns3:TrackPointExtension>
        </extensions>
      </trkpt>
      <trkpt lat="40.05967433564364910125732421875" lon="116.5846836380660533905029296875">
        <ele>156.1999969482421875</ele>
        <time>2015-08-13T00:01:18.000Z</time>
        <extensions>
          <ns3:TrackPointExtension>
            <ns3:atemp>29.0</ns3:atemp>
          </ns3:TrackPointExtension>
        </extensions>
      </trkpt>
      <trkpt lat="40.05991925485432147979736328125" lon="116.58477273769676685333251953125">
        <ele>156.1999969482421875</ele>
        <time>2015-08-13T00:01:21.000Z</time>
        <extensions>
          <ns3:TrackPointExtension>
            <ns3:atemp>29.0</ns3:atemp>
          </ns3:TrackPointExtension>
        </extensions>
      </trkpt>
      <trkpt lat="40.059990249574184417724609375" lon="116.584782712161540985107421875">
        <ele>156.1999969482421875</ele>
        <time>2015-08-13T00:01:22.000Z</time>
        <extensions>
          <ns3:TrackPointExtension>
            <ns3:atemp>29.0</ns3:atemp>
          </ns3:TrackPointExtension>
        </extensions>
      </trkpt>
      <trkpt lat="40.06004397757351398468017578125" lon="116.58470618538558483123779296875">
        <ele>156.1999969482421875</ele>
        <time>2015-08-13T00:01:23.000Z</time>
        <extensions>
          <ns3:TrackPointExtension>
            <ns3:atemp>29.0</ns3:atemp>
          </ns3:TrackPointExtension>
        </extensions>
      </trkpt>
      <trkpt lat="40.06014741025865077972412109375" lon="116.5848143957555294036865234375">
        <ele>156</ele>
        <time>2015-08-13T00:01:24.000Z</time>
        <extensions>
          <ns3:TrackPointExtension>
            <ns3:atemp>29.0</ns3:atemp>
          </ns3:TrackPointExtension>
        </extensions>
      </trkpt>
      <trkpt lat="40.06019485183060169219970703125" lon="116.58473543822765350341796875">
        <ele>156</ele>
        <time>2015-08-13T00:01:25.000Z</time>
        <extensions>
          <ns3:TrackPointExtension>
            <ns3:atemp>29.0</ns3:atemp>
          </ns3:TrackPointExtension>
        </extensions>
      </trkpt>
      <trkpt lat="40.06026710383594036102294921875" lon="116.58474147319793701171875">
        <ele>156</ele>
        <time>2015-08-13T00:01:26.000Z</time>
        <extensions>
          <ns3:TrackPointExtension>
            <ns3:atemp>29.0</ns3:atemp>
          </ns3:TrackPointExtension>
        </extensions>
      </trkpt>
      <trkpt lat="40.06031655706465244293212890625" lon="116.5847064368426799774169921875">
        <ele>156.1999969482421875</ele>
        <time>2015-08-13T00:01:27.000Z</time>
        <extensions>
          <ns3:TrackPointExtension>
            <ns3:atemp>29.0</ns3:atemp>
          </ns3:TrackPointExtension>
        </extensions>
      </trkpt>
      <trkpt lat="40.060400627553462982177734375" lon="116.58475379459559917449951171875">
        <ele>156.1999969482421875</ele>
        <time>2015-08-13T00:01:28.000Z</time>
        <extensions>
          <ns3:TrackPointExtension>
            <ns3:atemp>29.0</ns3:atemp>
          </ns3:TrackPointExtension>
        </extensions>
      </trkpt>
      <trkpt lat="40.06048503331840038299560546875" lon="116.5847533755004405975341796875">
        <ele>156.399993896484375</ele>
        <time>2015-08-13T00:01:29.000Z</time>
        <extensions>
          <ns3:TrackPointExtension>
            <ns3:atemp>29.0</ns3:atemp>
          </ns3:TrackPointExtension>
        </extensions>
      </trkpt>
      <trkpt lat="40.06051361560821533203125" lon="116.58461339771747589111328125">
        <ele>156.399993896484375</ele>
        <time>2015-08-13T00:01:30.000Z</time>
        <extensions>
          <ns3:TrackPointExtension>
            <ns3:atemp>29.0</ns3:atemp>
          </ns3:TrackPointExtension>
        </extensions>
      </trkpt>
      <trkpt lat="40.0605523400008678436279296875" lon="116.5845357812941074371337890625">
        <ele>156.399993896484375</ele>
        <time>2015-08-13T00:01:31.000Z</time>
        <extensions>
          <ns3:TrackPointExtension>
            <ns3:atemp>29.0</ns3:atemp>
          </ns3:TrackPointExtension>
        </extensions>
      </trkpt>
      <trkpt lat="40.0606462173163890838623046875" lon="116.5846249647438526153564453125">
        <ele>156.1999969482421875</ele>
        <time>2015-08-13T00:01:32.000Z</time>
        <extensions>
          <ns3:TrackPointExtension>
            <ns3:atemp>29.0</ns3:atemp>
          </ns3:TrackPointExtension>
        </extensions>
      </trkpt>
      <trkpt lat="40.06071033887565135955810546875" lon="116.5846838057041168212890625">
        <ele>156</ele>
        <time>2015-08-13T00:01:33.000Z</time>
        <extensions>
          <ns3:TrackPointExtension>
            <ns3:atemp>29.0</ns3:atemp>
          </ns3:TrackPointExtension>
        </extensions>
      </trkpt>
      <trkpt lat="40.0613147579133510589599609375" lon="116.58473535440862178802490234375">
        <ele>156</ele>
        <time>2015-08-13T00:01:42.000Z</time>
        <extensions>
          <ns3:TrackPointExtension>
            <ns3:atemp>29.0</ns3:atemp>
          </ns3:TrackPointExtension>
        </extensions>
      </trkpt>
      <trkpt lat="40.0619279779493808746337890625" lon="116.5847708098590373992919921875">
        <ele>156.399993896484375</ele>
        <time>2015-08-13T00:01:51.000Z</time>
        <extensions>
          <ns3:TrackPointExtension>
            <ns3:atemp>29.0</ns3:atemp>
          </ns3:TrackPointExtension>
        </extensions>
      </trkpt>
      <trkpt lat="40.06251999177038669586181640625" lon="116.58460929058492183685302734375">
        <ele>156.600006103515625</ele>
        <time>2015-08-13T00:02:00.000Z</time>
        <extensions>
          <ns3:TrackPointExtension>
            <ns3:atemp>29.0</ns3:atemp>
          </ns3:TrackPointExtension>
        </extensions>
      </trkpt>
      <trkpt lat="40.06309079937636852264404296875" lon="116.58462136052548885345458984375">
        <ele>156.600006103515625</ele>
        <time>2015-08-13T00:02:09.000Z</time>
        <extensions>
          <ns3:TrackPointExtension>
            <ns3:atemp>29.0</ns3:atemp>
          </ns3:TrackPointExtension>
        </extensions>
      </trkpt>
      <trkpt lat="40.06367585621774196624755859375" lon="116.5845988132059574127197265625">
        <ele>156.399993896484375</ele>
        <time>2015-08-13T00:02:18.000Z</time>
        <extensions>
          <ns3:TrackPointExtension>
            <ns3:atemp>29.0</ns3:atemp>
          </ns3:TrackPointExtension>
        </extensions>
      </trkpt>
      <trkpt lat="40.0643074326217174530029296875" lon="116.58456603996455669403076171875">
        <ele>156.399993896484375</ele>
        <time>2015-08-13T00:02:28.000Z</time>
        <extensions>
          <ns3:TrackPointExtension>
            <ns3:atemp>29.0</ns3:atemp>
          </ns3:TrackPointExtension>
        </extensions>
      </trkpt>
      <trkpt lat="40.0649347342550754547119140625" lon="116.584540642797946929931640625">
        <ele>155.8000030517578125</ele>
        <time>2015-08-13T00:02:38.000Z</time>
        <extensions>
          <ns3:TrackPointExtension>
            <ns3:atemp>29.0</ns3:atemp>
          </ns3:TrackPointExtension>
        </extensions>
      </trkpt>
      <trkpt lat="40.06553194485604763031005859375" lon="116.58450887538492679595947265625">
        <ele>156.1999969482421875</ele>
        <time>2015-08-13T00:02:48.000Z</time>
        <extensions>
          <ns3:TrackPointExtension>
            <ns3:atemp>28.0</ns3:atemp>
          </ns3:TrackPointExtension>
        </extensions>
      </trkpt>
      <trkpt lat="40.0659330189228057861328125" lon="116.5844432450830936431884765625">
        <ele>156.8000030517578125</ele>
        <time>2015-08-13T00:02:55.000Z</time>
        <extensions>
          <ns3:TrackPointExtension>
            <ns3:atemp>28.0</ns3:atemp>
          </ns3:TrackPointExtension>
        </extensions>
      </trkpt>
      <trkpt lat="40.07135401479899883270263671875" lon="116.58419237472116947174072265625">
        <ele>156.8000030517578125</ele>
        <time>2015-08-13T00:04:33.000Z</time>
        <extensions>
          <ns3:TrackPointExtension>
            <ns3:atemp>28.0</ns3:atemp>
          </ns3:TrackPointExtension>
        </extensions>
      </trkpt>
      <trkpt lat="40.07208240218460559844970703125" lon="116.5822776965796947479248046875">
        <ele>154.8000030517578125</ele>
        <time>2015-08-13T00:04:42.000Z</time>
        <extensions>
          <ns3:TrackPointExtension>
            <ns3:atemp>28.0</ns3:atemp>
          </ns3:TrackPointExtension>
        </extensions>
      </trkpt>
      <trkpt lat="40.072715990245342254638671875" lon="116.58220754005014896392822265625">
        <ele>153.1999969482421875</ele>
        <time>2015-08-13T00:04:50.000Z</time>
        <extensions>
          <ns3:TrackPointExtension>
            <ns3:atemp>28.0</ns3:atemp>
          </ns3:TrackPointExtension>
        </extensions>
      </trkpt>
      <trkpt lat="40.07343088276684284210205078125" lon="116.58220284618437290191650390625">
        <ele>152.399993896484375</ele>
        <time>2015-08-13T00:04:58.000Z</time>
        <extensions>
          <ns3:TrackPointExtension>
            <ns3:atemp>28.0</ns3:atemp>
          </ns3:TrackPointExtension>
        </extensions>
      </trkpt>
      <trkpt lat="40.07403924129903316497802734375" lon="116.5822880901396274566650390625">
        <ele>152.8000030517578125</ele>
        <time>2015-08-13T00:05:06.000Z</time>
        <extensions>
          <ns3:TrackPointExtension>
            <ns3:atemp>28.0</ns3:atemp>
          </ns3:TrackPointExtension>
        </extensions>
      </trkpt>
      <trkpt lat="40.0746734999120235443115234375" lon="116.58243418671190738677978515625">
        <ele>153.1999969482421875</ele>
        <time>2015-08-13T00:05:15.000Z</time>
        <extensions>
          <ns3:TrackPointExtension>
            <ns3:atemp>28.0</ns3:atemp>
          </ns3:TrackPointExtension>
        </extensions>
      </trkpt>
      <trkpt lat="40.07526685483753681182861328125" lon="116.58244458027184009552001953125">
        <ele>154.600006103515625</ele>
        <time>2015-08-13T00:05:24.000Z</time>
        <extensions>
          <ns3:TrackPointExtension>
            <ns3:atemp>28.0</ns3:atemp>
          </ns3:TrackPointExtension>
        </extensions>
      </trkpt>
      <trkpt lat="40.07552401162683963775634765625" lon="116.58259009011089801788330078125">
        <ele>155.8000030517578125</ele>
        <time>2015-08-13T00:05:29.000Z</time>
        <extensions>
          <ns3:TrackPointExtension>
            <ns3:atemp>28.0</ns3:atemp>
          </ns3:TrackPointExtension>
        </extensions>
      </trkpt>
      <trkpt lat="40.0755737163126468658447265625" lon="116.58262931741774082183837890625">
        <ele>156</ele>
        <time>2015-08-13T00:05:30.000Z</time>
        <extensions>
          <ns3:TrackPointExtension>
            <ns3:atemp>28.0</ns3:atemp>
          </ns3:TrackPointExtension>
        </extensions>
      </trkpt>
      <trkpt lat="40.07583280093967914581298828125" lon="116.5828151442110538482666015625">
        <ele>157.1999969482421875</ele>
        <time>2015-08-13T00:05:36.000Z</time>
        <extensions>
          <ns3:TrackPointExtension>
            <ns3:atemp>28.0</ns3:atemp>
          </ns3:TrackPointExtension>
        </extensions>
      </trkpt>
      <trkpt lat="40.07628592662513256072998046875" lon="116.58330942504107952117919921875">
        <ele>156.600006103515625</ele>
        <time>2015-08-13T00:05:50.000Z</time>
        <extensions>
          <ns3:TrackPointExtension>
            <ns3:atemp>28.0</ns3:atemp>
          </ns3:TrackPointExtension>
        </extensions>
      </trkpt>
      <trkpt lat="40.07651575841009616851806640625" lon="116.5838970802724361419677734375">
        <ele>154.8000030517578125</ele>
        <time>2015-08-13T00:06:00.000Z</time>
        <extensions>
          <ns3:TrackPointExtension>
            <ns3:atemp>28.0</ns3:atemp>
          </ns3:TrackPointExtension>
        </extensions>
      </trkpt>
      <trkpt lat="40.07659488357603549957275390625" lon="116.584372334182262420654296875">
        <ele>154.600006103515625</ele>
        <time>2015-08-13T00:06:07.000Z</time>
        <extensions>
          <ns3:TrackPointExtension>
            <ns3:atemp>28.0</ns3:atemp>
          </ns3:TrackPointExtension>
        </extensions>
      </trkpt>
      <trkpt lat="40.07662572897970676422119140625" lon="116.58441415987908840179443359375">
        <ele>154.600006103515625</ele>
        <time>2015-08-13T00:06:08.000Z</time>
        <extensions>
          <ns3:TrackPointExtension>
            <ns3:atemp>28.0</ns3:atemp>
          </ns3:TrackPointExtension>
        </extensions>
      </trkpt>
      <trkpt lat="40.07665582001209259033203125" lon="116.584452129900455474853515625">
        <ele>154.600006103515625</ele>
        <time>2015-08-13T00:06:09.000Z</time>
        <extensions>
          <ns3:TrackPointExtension>
            <ns3:atemp>28.0</ns3:atemp>
          </ns3:TrackPointExtension>
        </extensions>
      </trkpt>
      <trkpt lat="40.07686310447752475738525390625" lon="116.58454793505370616912841796875">
        <ele>155.1999969482421875</ele>
        <time>2015-08-13T00:06:15.000Z</time>
        <extensions>
          <ns3:TrackPointExtension>
            <ns3:atemp>28.0</ns3:atemp>
          </ns3:TrackPointExtension>
        </extensions>
      </trkpt>
      <trkpt lat="40.07690484635531902313232421875" lon="116.58453351818025112152099609375">
        <ele>155.1999969482421875</ele>
        <time>2015-08-13T00:06:16.000Z</time>
        <extensions>
          <ns3:TrackPointExtension>
            <ns3:atemp>28.0</ns3:atemp>
          </ns3:TrackPointExtension>
        </extensions>
      </trkpt>
      <trkpt lat="40.077480934560298919677734375" lon="116.58441432751715183258056640625">
        <ele>155.600006103515625</ele>
        <time>2015-08-13T00:06:29.000Z</time>
        <extensions>
          <ns3:TrackPointExtension>
            <ns3:atemp>28.0</ns3:atemp>
          </ns3:TrackPointExtension>
        </extensions>
      </trkpt>
      <trkpt lat="40.0775283761322498321533203125" lon="116.58439613878726959228515625">
        <ele>156</ele>
        <time>2015-08-13T00:06:30.000Z</time>
        <extensions>
          <ns3:TrackPointExtension>
            <ns3:atemp>28.0</ns3:atemp>
          </ns3:TrackPointExtension>
        </extensions>
      </trkpt>
      <trkpt lat="40.07810345850884914398193359375" lon="116.5842306800186634063720703125">
        <ele>157.8000030517578125</ele>
        <time>2015-08-13T00:06:42.000Z</time>
        <extensions>
          <ns3:TrackPointExtension>
            <ns3:atemp>28.0</ns3:atemp>
          </ns3:TrackPointExtension>
        </extensions>
      </trkpt>
      <trkpt lat="40.07833563722670078277587890625" lon="116.58418650738894939422607421875">
        <ele>158.399993896484375</ele>
        <time>2015-08-13T00:06:47.000Z</time>
        <extensions>
          <ns3:TrackPointExtension>
            <ns3:atemp>28.0</ns3:atemp>
          </ns3:TrackPointExtension>
        </extensions>
      </trkpt>
      <trkpt lat="40.07837888784706592559814453125" lon="116.5841820649802684783935546875">
        <ele>158.600006103515625</ele>
        <time>2015-08-13T00:06:48.000Z</time>
        <extensions>
          <ns3:TrackPointExtension>
            <ns3:atemp>28.0</ns3:atemp>
          </ns3:TrackPointExtension>
        </extensions>
      </trkpt>
      <trkpt lat="40.0786869227886199951171875" lon="116.58412800170481204986572265625">
        <ele>159</ele>
        <time>2015-08-13T00:06:55.000Z</time>
        <extensions>
          <ns3:TrackPointExtension>
            <ns3:atemp>28.0</ns3:atemp>
          </ns3:TrackPointExtension>
        </extensions>
      </trkpt>
      <trkpt lat="40.0787769444286823272705078125" lon="116.58411341719329357147216796875">
        <ele>159.399993896484375</ele>
        <time>2015-08-13T00:06:57.000Z</time>
        <extensions>
          <ns3:TrackPointExtension>
            <ns3:atemp>28.0</ns3:atemp>
          </ns3:TrackPointExtension>
        </extensions>
      </trkpt>
      <trkpt lat="40.07915102876722812652587890625" lon="116.5840469487011432647705078125">
        <ele>159.399993896484375</ele>
        <time>2015-08-13T00:07:05.000Z</time>
        <extensions>
          <ns3:TrackPointExtension>
            <ns3:atemp>28.0</ns3:atemp>
          </ns3:TrackPointExtension>
        </extensions>
      </trkpt>
      <trkpt lat="40.07936074398458003997802734375" lon="116.58395349048078060150146484375">
        <ele>159.8000030517578125</ele>
        <time>2015-08-13T00:07:10.000Z</time>
        <extensions>
          <ns3:TrackPointExtension>
            <ns3:atemp>28.0</ns3:atemp>
          </ns3:TrackPointExtension>
        </extensions>
      </trkpt>
      <trkpt lat="40.07939695380628108978271484375" lon="116.5839178673923015594482421875">
        <ele>159.8000030517578125</ele>
        <time>2015-08-13T00:07:11.000Z</time>
        <extensions>
          <ns3:TrackPointExtension>
            <ns3:atemp>28.0</ns3:atemp>
          </ns3:TrackPointExtension>
        </extensions>
      </trkpt>
      <trkpt lat="40.07942746393382549285888671875" lon="116.58387285657227039337158203125">
        <ele>159.600006103515625</ele>
        <time>2015-08-13T00:07:12.000Z</time>
        <extensions>
          <ns3:TrackPointExtension>
            <ns3:atemp>28.0</ns3:atemp>
          </ns3:TrackPointExtension>
        </extensions>
      </trkpt>
      <trkpt lat="40.0794521905481815338134765625" lon="116.5838169492781162261962890625">
        <ele>159.600006103515625</ele>
        <time>2015-08-13T00:07:13.000Z</time>
        <extensions>
          <ns3:TrackPointExtension>
            <ns3:atemp>28.0</ns3:atemp>
          </ns3:TrackPointExtension>
        </extensions>
      </trkpt>
      <trkpt lat="40.07947213947772979736328125" lon="116.58375735394656658172607421875">
        <ele>159.600006103515625</ele>
        <time>2015-08-13T00:07:14.000Z</time>
        <extensions>
          <ns3:TrackPointExtension>
            <ns3:atemp>28.0</ns3:atemp>
          </ns3:TrackPointExtension>
        </extensions>
      </trkpt>
      <trkpt lat="40.0794873945415019989013671875" lon="116.58369683660566806793212890625">
        <ele>159.600006103515625</ele>
        <time>2015-08-13T00:07:15.000Z</time>
        <extensions>
          <ns3:TrackPointExtension>
            <ns3:atemp>28.0</ns3:atemp>
          </ns3:TrackPointExtension>
        </extensions>
      </trkpt>
      <trkpt lat="40.0794991292059421539306640625" lon="116.5836350619792938232421875">
        <ele>159.600006103515625</ele>
        <time>2015-08-13T00:07:16.000Z</time>
        <extensions>
          <ns3:TrackPointExtension>
            <ns3:atemp>28.0</ns3:atemp>
          </ns3:TrackPointExtension>
        </extensions>
      </trkpt>
      <trkpt lat="40.079503320157527923583984375" lon="116.5829898230731487274169921875">
        <ele>159.8000030517578125</ele>
        <time>2015-08-13T00:07:26.000Z</time>
        <extensions>
          <ns3:TrackPointExtension>
            <ns3:atemp>28.0</ns3:atemp>
          </ns3:TrackPointExtension>
        </extensions>
      </trkpt>
      <trkpt lat="40.0793422199785709381103515625" lon="116.5821771137416362762451171875">
        <ele>159.399993896484375</ele>
        <time>2015-08-13T00:07:38.000Z</time>
        <extensions>
          <ns3:TrackPointExtension>
            <ns3:atemp>28.0</ns3:atemp>
          </ns3:TrackPointExtension>
        </extensions>
      </trkpt>
      <trkpt lat="40.0793412141501903533935546875" lon="116.5814716927707195281982421875">
        <ele>159.600006103515625</ele>
        <time>2015-08-13T00:07:44.000Z</time>
        <extensions>
          <ns3:TrackPointExtension>
            <ns3:atemp>28.0</ns3:atemp>
          </ns3:TrackPointExtension>
        </extensions>
      </trkpt>
      <trkpt lat="40.079363845288753509521484375" lon="116.581410504877567291259765625">
        <ele>159.600006103515625</ele>
        <time>2015-08-13T00:07:45.000Z</time>
        <extensions>
          <ns3:TrackPointExtension>
            <ns3:atemp>28.0</ns3:atemp>
          </ns3:TrackPointExtension>
        </extensions>
      </trkpt>
      <trkpt lat="40.079388320446014404296875" lon="116.5813020430505275726318359375">
        <ele>159.8000030517578125</ele>
        <time>2015-08-13T00:07:46.000Z</time>
        <extensions>
          <ns3:TrackPointExtension>
            <ns3:atemp>28.0</ns3:atemp>
          </ns3:TrackPointExtension>
        </extensions>
      </trkpt>
      <trkpt lat="40.0794045813381671905517578125" lon="116.58122048713266849517822265625">
        <ele>159.8000030517578125</ele>
        <time>2015-08-13T00:07:47.000Z</time>
        <extensions>
          <ns3:TrackPointExtension>
            <ns3:atemp>28.0</ns3:atemp>
          </ns3:TrackPointExtension>
        </extensions>
      </trkpt>
      <trkpt lat="40.07940852083265781402587890625" lon="116.58112996257841587066650390625">
        <ele>159.8000030517578125</ele>
        <time>2015-08-13T00:07:48.000Z</time>
        <extensions>
          <ns3:TrackPointExtension>
            <ns3:atemp>28.0</ns3:atemp>
          </ns3:TrackPointExtension>
        </extensions>
      </trkpt>
      <trkpt lat="40.07941707037389278411865234375" lon="116.5810743905603885650634765625">
        <ele>159.8000030517578125</ele>
        <time>2015-08-13T00:07:49.000Z</time>
        <extensions>
          <ns3:TrackPointExtension>
            <ns3:atemp>28.0</ns3:atemp>
          </ns3:TrackPointExtension>
        </extensions>
      </trkpt>
      <trkpt lat="40.079420842230319976806640625" lon="116.581005156040191650390625">
        <ele>160</ele>
        <time>2015-08-13T00:07:50.000Z</time>
        <extensions>
          <ns3:TrackPointExtension>
            <ns3:atemp>28.0</ns3:atemp>
          </ns3:TrackPointExtension>
        </extensions>
      </trkpt>
      <trkpt lat="40.07939527742564678192138671875" lon="116.58095084130764007568359375">
        <ele>160</ele>
        <time>2015-08-13T00:07:51.000Z</time>
        <extensions>
          <ns3:TrackPointExtension>
            <ns3:atemp>28.0</ns3:atemp>
          </ns3:TrackPointExtension>
        </extensions>
      </trkpt>
      <trkpt lat="40.07935412228107452392578125" lon="116.58061933703720569610595703125">
        <ele>159.600006103515625</ele>
        <time>2015-08-13T00:07:57.000Z</time>
        <extensions>
          <ns3:TrackPointExtension>
            <ns3:atemp>28.0</ns3:atemp>
          </ns3:TrackPointExtension>
        </extensions>
      </trkpt>
      <trkpt lat="40.079352445900440216064453125" lon="116.58057642169296741485595703125">
        <ele>159.399993896484375</ele>
        <time>2015-08-13T00:07:58.000Z</time>
        <extensions>
          <ns3:TrackPointExtension>
            <ns3:atemp>28.0</ns3:atemp>
          </ns3:TrackPointExtension>
        </extensions>
      </trkpt>
      <trkpt lat="40.0793482549488544464111328125" lon="116.58053065650165081024169921875">
        <ele>159.399993896484375</ele>
        <time>2015-08-13T00:07:59.000Z</time>
        <extensions>
          <ns3:TrackPointExtension>
            <ns3:atemp>28.0</ns3:atemp>
          </ns3:TrackPointExtension>
        </extensions>
      </trkpt>
      <trkpt lat="40.079345405101776123046875" lon="116.58049277029931545257568359375">
        <ele>159.600006103515625</ele>
        <time>2015-08-13T00:08:00.000Z</time>
        <extensions>
          <ns3:TrackPointExtension>
            <ns3:atemp>28.0</ns3:atemp>
          </ns3:TrackPointExtension>
        </extensions>
      </trkpt>
      <trkpt lat="40.07933274842798709869384765625" lon="116.58045060932636260986328125">
        <ele>159.600006103515625</ele>
        <time>2015-08-13T00:08:01.000Z</time>
        <extensions>
          <ns3:TrackPointExtension>
            <ns3:atemp>28.0</ns3:atemp>
          </ns3:TrackPointExtension>
        </extensions>
      </trkpt>
      <trkpt lat="40.07931313477456569671630859375" lon="116.58040358684957027435302734375">
        <ele>159.600006103515625</ele>
        <time>2015-08-13T00:08:02.000Z</time>
        <extensions>
          <ns3:TrackPointExtension>
            <ns3:atemp>28.0</ns3:atemp>
          </ns3:TrackPointExtension>
        </extensions>
      </trkpt>
      <trkpt lat="40.0792729854583740234375" lon="116.57989363186061382293701171875">
        <ele>159.600006103515625</ele>
        <time>2015-08-13T00:08:13.000Z</time>
        <extensions>
          <ns3:TrackPointExtension>
            <ns3:atemp>28.0</ns3:atemp>
          </ns3:TrackPointExtension>
        </extensions>
      </trkpt>
      <trkpt lat="40.07930693216621875762939453125" lon="116.57987351529300212860107421875">
        <ele>159.399993896484375</ele>
        <time>2015-08-13T00:08:14.000Z</time>
        <extensions>
          <ns3:TrackPointExtension>
            <ns3:atemp>28.0</ns3:atemp>
          </ns3:TrackPointExtension>
        </extensions>
      </trkpt>
      <trkpt lat="40.07934599183499813079833984375" lon="116.5798586793243885040283203125">
        <ele>159.399993896484375</ele>
        <time>2015-08-13T00:08:15.000Z</time>
        <extensions>
          <ns3:TrackPointExtension>
            <ns3:atemp>28.0</ns3:atemp>
          </ns3:TrackPointExtension>
        </extensions>
      </trkpt>
      <trkpt lat="40.07938823662698268890380859375" lon="116.5798466093838214874267578125">
        <ele>159.399993896484375</ele>
        <time>2015-08-13T00:08:16.000Z</time>
        <extensions>
          <ns3:TrackPointExtension>
            <ns3:atemp>28.0</ns3:atemp>
          </ns3:TrackPointExtension>
        </extensions>
      </trkpt>
      <trkpt lat="40.07943282835185527801513671875" lon="116.57983965240418910980224609375">
        <ele>159.399993896484375</ele>
        <time>2015-08-13T00:08:17.000Z</time>
        <extensions>
          <ns3:TrackPointExtension>
            <ns3:atemp>28.0</ns3:atemp>
          </ns3:TrackPointExtension>
        </extensions>
      </trkpt>
      <trkpt lat="40.0796873867511749267578125" lon="116.57978969626128673553466796875">
        <ele>160</ele>
        <time>2015-08-13T00:08:23.000Z</time>
        <extensions>
          <ns3:TrackPointExtension>
            <ns3:atemp>28.0</ns3:atemp>
          </ns3:TrackPointExtension>
        </extensions>
      </trkpt>
      <trkpt lat="40.07971462793648242950439453125" lon="116.57975499518215656280517578125">
        <ele>160</ele>
        <time>2015-08-13T00:08:24.000Z</time>
        <extensions>
          <ns3:TrackPointExtension>
            <ns3:atemp>28.0</ns3:atemp>
          </ns3:TrackPointExtension>
        </extensions>
      </trkpt>
      <trkpt lat="40.07973742671310901641845703125" lon="116.57971258275210857391357421875">
        <ele>160</ele>
        <time>2015-08-13T00:08:25.000Z</time>
        <extensions>
          <ns3:TrackPointExtension>
            <ns3:atemp>28.0</ns3:atemp>
          </ns3:TrackPointExtension>
        </extensions>
      </trkpt>
      <trkpt lat="40.07975771091878414154052734375" lon="116.579663716256618499755859375">
        <ele>160</ele>
        <time>2015-08-13T00:08:26.000Z</time>
        <extensions>
          <ns3:TrackPointExtension>
            <ns3:atemp>28.0</ns3:atemp>
          </ns3:TrackPointExtension>
        </extensions>
      </trkpt>
      <trkpt lat="40.0797797553241252899169921875" lon="116.57961250282824039459228515625">
        <ele>159.8000030517578125</ele>
        <time>2015-08-13T00:08:27.000Z</time>
        <extensions>
          <ns3:TrackPointExtension>
            <ns3:atemp>28.0</ns3:atemp>
          </ns3:TrackPointExtension>
        </extensions>
      </trkpt>
      <trkpt lat="40.07980297319591045379638671875" lon="116.57956070266664028167724609375">
        <ele>159.600006103515625</ele>
        <time>2015-08-13T00:08:28.000Z</time>
        <extensions>
          <ns3:TrackPointExtension>
            <ns3:atemp>28.0</ns3:atemp>
          </ns3:TrackPointExtension>
        </extensions>
      </trkpt>
      <trkpt lat="40.080082677304744720458984375" lon="116.57883533276617527008056640625">
        <ele>159</ele>
        <time>2015-08-13T00:08:39.000Z</time>
        <extensions>
          <ns3:TrackPointExtension>
            <ns3:atemp>28.0</ns3:atemp>
          </ns3:TrackPointExtension>
        </extensions>
      </trkpt>
      <trkpt lat="40.0802216492593288421630859375" lon="116.57845311798155307769775390625">
        <ele>159</ele>
        <time>2015-08-13T00:08:45.000Z</time>
        <extensions>
          <ns3:TrackPointExtension>
            <ns3:atemp>28.0</ns3:atemp>
          </ns3:TrackPointExtension>
        </extensions>
      </trkpt>
      <trkpt lat="40.0802427716553211212158203125" lon="116.57839477993547916412353515625">
        <ele>159</ele>
        <time>2015-08-13T00:08:46.000Z</time>
        <extensions>
          <ns3:TrackPointExtension>
            <ns3:atemp>28.0</ns3:atemp>
          </ns3:TrackPointExtension>
        </extensions>
      </trkpt>
      <trkpt lat="40.0803084857761859893798828125" lon="116.5782356075942516326904296875">
        <ele>159</ele>
        <time>2015-08-13T00:08:49.000Z</time>
        <extensions>
          <ns3:TrackPointExtension>
            <ns3:atemp>28.0</ns3:atemp>
          </ns3:TrackPointExtension>
        </extensions>
      </trkpt>
      <trkpt lat="40.08036657236516475677490234375" lon="116.57804961316287517547607421875">
        <ele>158.600006103515625</ele>
        <time>2015-08-13T00:08:52.000Z</time>
        <extensions>
          <ns3:TrackPointExtension>
            <ns3:atemp>28.0</ns3:atemp>
          </ns3:TrackPointExtension>
        </extensions>
      </trkpt>
      <trkpt lat="40.08038677275180816650390625" lon="116.577980630099773406982421875">
        <ele>158.1999969482421875</ele>
        <time>2015-08-13T00:08:53.000Z</time>
        <extensions>
          <ns3:TrackPointExtension>
            <ns3:atemp>28.0</ns3:atemp>
          </ns3:TrackPointExtension>
        </extensions>
      </trkpt>
      <trkpt lat="40.0805884413421154022216796875" lon="116.57731669954955577850341796875">
        <ele>156.600006103515625</ele>
        <time>2015-08-13T00:09:02.000Z</time>
        <extensions>
          <ns3:TrackPointExtension>
            <ns3:atemp>28.0</ns3:atemp>
          </ns3:TrackPointExtension>
        </extensions>
      </trkpt>
      <trkpt lat="40.08060964755713939666748046875" lon="116.577239334583282470703125">
        <ele>156.399993896484375</ele>
        <time>2015-08-13T00:09:03.000Z</time>
        <extensions>
          <ns3:TrackPointExtension>
            <ns3:atemp>28.0</ns3:atemp>
          </ns3:TrackPointExtension>
        </extensions>
      </trkpt>
      <trkpt lat="40.08063730783760547637939453125" lon="116.57716465182602405548095703125">
        <ele>156.1999969482421875</ele>
        <time>2015-08-13T00:09:04.000Z</time>
        <extensions>
          <ns3:TrackPointExtension>
            <ns3:atemp>28.0</ns3:atemp>
          </ns3:TrackPointExtension>
        </extensions>
      </trkpt>
      <trkpt lat="40.0806695781648159027099609375" lon="116.57709424383938312530517578125">
        <ele>156.1999969482421875</ele>
        <time>2015-08-13T00:09:05.000Z</time>
        <extensions>
          <ns3:TrackPointExtension>
            <ns3:atemp>28.0</ns3:atemp>
          </ns3:TrackPointExtension>
        </extensions>
      </trkpt>
      <trkpt lat="40.0807124935090541839599609375" lon="116.577027775347232818603515625">
        <ele>156.1999969482421875</ele>
        <time>2015-08-13T00:09:06.000Z</time>
        <extensions>
          <ns3:TrackPointExtension>
            <ns3:atemp>28.0</ns3:atemp>
          </ns3:TrackPointExtension>
        </extensions>
      </trkpt>
      <trkpt lat="40.0810430757701396942138671875" lon="116.57640424557030200958251953125">
        <ele>155.399993896484375</ele>
        <time>2015-08-13T00:09:16.000Z</time>
        <extensions>
          <ns3:TrackPointExtension>
            <ns3:atemp>28.0</ns3:atemp>
          </ns3:TrackPointExtension>
        </extensions>
      </trkpt>
      <trkpt lat="40.08130677044391632080078125" lon="116.57593033276498317718505859375">
        <ele>155</ele>
        <time>2015-08-13T00:09:25.000Z</time>
        <extensions>
          <ns3:TrackPointExtension>
            <ns3:atemp>28.0</ns3:atemp>
          </ns3:TrackPointExtension>
        </extensions>
      </trkpt>
      <trkpt lat="40.08154104463756084442138671875" lon="116.57620676793158054351806640625">
        <ele>155</ele>
        <time>2015-08-13T00:09:28.000Z</time>
        <extensions>
          <ns3:TrackPointExtension>
            <ns3:atemp>28.0</ns3:atemp>
          </ns3:TrackPointExtension>
        </extensions>
      </trkpt>
      <trkpt lat="40.08255441673099994659423828125" lon="116.5763233602046966552734375">
        <ele>154</ele>
        <time>2015-08-13T00:09:37.000Z</time>
        <extensions>
          <ns3:TrackPointExtension>
            <ns3:atemp>28.0</ns3:atemp>
          </ns3:TrackPointExtension>
        </extensions>
      </trkpt>
      <trkpt lat="40.083151794970035552978515625" lon="116.57620458863675594329833984375">
        <ele>154.399993896484375</ele>
        <time>2015-08-13T00:09:47.000Z</time>
        <extensions>
          <ns3:TrackPointExtension>
            <ns3:atemp>28.0</ns3:atemp>
          </ns3:TrackPointExtension>
        </extensions>
      </trkpt>
      <trkpt lat="40.08345362730324268341064453125" lon="116.576284132897853851318359375">
        <ele>155.1999969482421875</ele>
        <time>2015-08-13T00:09:53.000Z</time>
        <extensions>
          <ns3:TrackPointExtension>
            <ns3:atemp>28.0</ns3:atemp>
          </ns3:TrackPointExtension>
        </extensions>
      </trkpt>
      <trkpt lat="40.08404974825680255889892578125" lon="116.576112806797027587890625">
        <ele>156</ele>
        <time>2015-08-13T00:10:03.000Z</time>
        <extensions>
          <ns3:TrackPointExtension>
            <ns3:atemp>28.0</ns3:atemp>
          </ns3:TrackPointExtension>
        </extensions>
      </trkpt>
      <trkpt lat="40.0846543349325656890869140625" lon="116.576080285012722015380859375">
        <ele>156</ele>
        <time>2015-08-13T00:10:13.000Z</time>
        <extensions>
          <ns3:TrackPointExtension>
            <ns3:atemp>28.0</ns3:atemp>
          </ns3:TrackPointExtension>
        </extensions>
      </trkpt>
      <trkpt lat="40.0849686563014984130859375" lon="116.57601046375930309295654296875">
        <ele>156.399993896484375</ele>
        <time>2015-08-13T00:10:18.000Z</time>
        <extensions>
          <ns3:TrackPointExtension>
            <ns3:atemp>28.0</ns3:atemp>
          </ns3:TrackPointExtension>
        </extensions>
      </trkpt>
      <trkpt lat="40.08513822220265865325927734375" lon="116.57597676850855350494384765625">
        <ele>157.1999969482421875</ele>
        <time>2015-08-13T00:10:21.000Z</time>
        <extensions>
          <ns3:TrackPointExtension>
            <ns3:atemp>28.0</ns3:atemp>
          </ns3:TrackPointExtension>
        </extensions>
      </trkpt>
      <trkpt lat="40.0851901061832904815673828125" lon="116.5759815461933612823486328125">
        <ele>157.399993896484375</ele>
        <time>2015-08-13T00:10:22.000Z</time>
        <extensions>
          <ns3:TrackPointExtension>
            <ns3:atemp>28.0</ns3:atemp>
          </ns3:TrackPointExtension>
        </extensions>
      </trkpt>
      <trkpt lat="40.0857902504503726959228515625" lon="116.575867049396038055419921875">
        <ele>158.600006103515625</ele>
        <time>2015-08-13T00:10:33.000Z</time>
        <extensions>
          <ns3:TrackPointExtension>
            <ns3:atemp>28.0</ns3:atemp>
          </ns3:TrackPointExtension>
        </extensions>
      </trkpt>
      <trkpt lat="40.08641042746603488922119140625" lon="116.57577325589954853057861328125">
        <ele>158.8000030517578125</ele>
        <time>2015-08-13T00:10:44.000Z</time>
        <extensions>
          <ns3:TrackPointExtension>
            <ns3:atemp>28.0</ns3:atemp>
          </ns3:TrackPointExtension>
        </extensions>
      </trkpt>
      <trkpt lat="40.08701526559889316558837890625" lon="116.5756657160818576812744140625">
        <ele>158.8000030517578125</ele>
        <time>2015-08-13T00:10:54.000Z</time>
        <extensions>
          <ns3:TrackPointExtension>
            <ns3:atemp>28.0</ns3:atemp>
          </ns3:TrackPointExtension>
        </extensions>
      </trkpt>
      <trkpt lat="40.08743486367166042327880859375" lon="116.57561148516833782196044921875">
        <ele>159.8000030517578125</ele>
        <time>2015-08-13T00:11:01.000Z</time>
        <extensions>
          <ns3:TrackPointExtension>
            <ns3:atemp>28.0</ns3:atemp>
          </ns3:TrackPointExtension>
        </extensions>
      </trkpt>
      <trkpt lat="40.0874877534806728363037109375" lon="116.57562975771725177764892578125">
        <ele>159.8000030517578125</ele>
        <time>2015-08-13T00:11:02.000Z</time>
        <extensions>
          <ns3:TrackPointExtension>
            <ns3:atemp>28.0</ns3:atemp>
          </ns3:TrackPointExtension>
        </extensions>
      </trkpt>
      <trkpt lat="40.0875393860042095184326171875" lon="116.57565875910222530364990234375">
        <ele>159.8000030517578125</ele>
        <time>2015-08-13T00:11:03.000Z</time>
        <extensions>
          <ns3:TrackPointExtension>
            <ns3:atemp>28.0</ns3:atemp>
          </ns3:TrackPointExtension>
        </extensions>
      </trkpt>
      <trkpt lat="40.0875802896916866302490234375" lon="116.5757022611796855926513671875">
        <ele>159.8000030517578125</ele>
        <time>2015-08-13T00:11:04.000Z</time>
        <extensions>
          <ns3:TrackPointExtension>
            <ns3:atemp>28.0</ns3:atemp>
          </ns3:TrackPointExtension>
        </extensions>
      </trkpt>
      <trkpt lat="40.087612979114055633544921875" lon="116.57575297169387340545654296875">
        <ele>159.8000030517578125</ele>
        <time>2015-08-13T00:11:05.000Z</time>
        <extensions>
          <ns3:TrackPointExtension>
            <ns3:atemp>28.0</ns3:atemp>
          </ns3:TrackPointExtension>
        </extensions>
      </trkpt>
      <trkpt lat="40.08763653226196765899658203125" lon="116.57581315375864505767822265625">
        <ele>159.600006103515625</ele>
        <time>2015-08-13T00:11:06.000Z</time>
        <extensions>
          <ns3:TrackPointExtension>
            <ns3:atemp>28.0</ns3:atemp>
          </ns3:TrackPointExtension>
        </extensions>
      </trkpt>
      <trkpt lat="40.0876563973724842071533203125" lon="116.57587568275630474090576171875">
        <ele>159.600006103515625</ele>
        <time>2015-08-13T00:11:07.000Z</time>
        <extensions>
          <ns3:TrackPointExtension>
            <ns3:atemp>28.0</ns3:atemp>
          </ns3:TrackPointExtension>
        </extensions>
      </trkpt>
      <trkpt lat="40.0876696407794952392578125" lon="116.57594324089586734771728515625">
        <ele>159.8000030517578125</ele>
        <time>2015-08-13T00:11:08.000Z</time>
        <extensions>
          <ns3:TrackPointExtension>
            <ns3:atemp>28.0</ns3:atemp>
          </ns3:TrackPointExtension>
        </extensions>
      </trkpt>
      <trkpt lat="40.08768179453909397125244140625" lon="116.5760097093880176544189453125">
        <ele>159.399993896484375</ele>
        <time>2015-08-13T00:11:09.000Z</time>
        <extensions>
          <ns3:TrackPointExtension>
            <ns3:atemp>28.0</ns3:atemp>
          </ns3:TrackPointExtension>
        </extensions>
      </trkpt>
      <trkpt lat="40.08771322667598724365234375" lon="116.57618799246847629547119140625">
        <ele>159.600006103515625</ele>
        <time>2015-08-13T00:11:12.000Z</time>
        <extensions>
          <ns3:TrackPointExtension>
            <ns3:atemp>28.0</ns3:atemp>
          </ns3:TrackPointExtension>
        </extensions>
      </trkpt>
      <trkpt lat="40.08774516172707080841064453125" lon="116.57647029496729373931884765625">
        <ele>160</ele>
        <time>2015-08-13T00:11:17.000Z</time>
        <extensions>
          <ns3:TrackPointExtension>
            <ns3:atemp>28.0</ns3:atemp>
          </ns3:TrackPointExtension>
        </extensions>
      </trkpt>
      <trkpt lat="40.087687410414218902587890625" lon="116.57692216336727142333984375">
        <ele>160</ele>
        <time>2015-08-13T00:11:28.000Z</time>
        <extensions>
          <ns3:TrackPointExtension>
            <ns3:atemp>28.0</ns3:atemp>
          </ns3:TrackPointExtension>
        </extensions>
      </trkpt>
      <trkpt lat="40.0876748375594615936279296875" lon="116.57693163491785526275634765625">
        <ele>160.1999969482421875</ele>
        <time>2015-08-13T00:11:29.000Z</time>
        <extensions>
          <ns3:TrackPointExtension>
            <ns3:atemp>28.0</ns3:atemp>
          </ns3:TrackPointExtension>
        </extensions>
      </trkpt>
      <trkpt lat="40.0876688025891780853271484375" lon="116.5769484825432300567626953125">
        <ele>160.1999969482421875</ele>
        <time>2015-08-13T00:11:30.000Z</time>
        <extensions>
          <ns3:TrackPointExtension>
            <ns3:atemp>28.0</ns3:atemp>
          </ns3:TrackPointExtension>
        </extensions>
      </trkpt>
      <trkpt lat="40.087668634951114654541015625" lon="116.5769722871482372283935546875">
        <ele>160</ele>
        <time>2015-08-13T00:11:31.000Z</time>
        <extensions>
          <ns3:TrackPointExtension>
            <ns3:atemp>28.0</ns3:atemp>
          </ns3:TrackPointExtension>
        </extensions>
      </trkpt>
      <trkpt lat="40.08767056278884410858154296875" lon="116.576996259391307830810546875">
        <ele>160</ele>
        <time>2015-08-13T00:11:32.000Z</time>
        <extensions>
          <ns3:TrackPointExtension>
            <ns3:atemp>28.0</ns3:atemp>
          </ns3:TrackPointExtension>
        </extensions>
      </trkpt>
      <trkpt lat="40.087665282189846038818359375" lon="116.5770678408443927764892578125">
        <ele>160</ele>
        <time>2015-08-13T00:12:08.000Z</time>
        <extensions>
          <ns3:TrackPointExtension>
            <ns3:atemp>29.0</ns3:atemp>
          </ns3:TrackPointExtension>
        </extensions>
      </trkpt>
      <trkpt lat="40.08766570128500461578369140625" lon="116.577070020139217376708984375">
        <ele>160.600006103515625</ele>
        <time>2015-08-13T00:12:42.000Z</time>
        <extensions>
          <ns3:TrackPointExtension>
            <ns3:atemp>29.0</ns3:atemp>
          </ns3:TrackPointExtension>
        </extensions>
      </trkpt>
      <trkpt lat="40.08766184560954570770263671875" lon="116.5770611353218555450439453125">
        <ele>160.8000030517578125</ele>
        <time>2015-08-13T00:13:09.000Z</time>
        <extensions>
          <ns3:TrackPointExtension>
            <ns3:atemp>29.0</ns3:atemp>
          </ns3:TrackPointExtension>
        </extensions>
      </trkpt>
    </trkseg>
  </trk>
</gpx>
