<gpx xmlns:ns3="http://www.garmin.com/xmlschemas/TrackPointExtension/v1" xmlns="http://www.topografix.com/GPX/1/1" xmlns:xsi="http://www.w3.org/2001/XMLSchema-instance" xmlns:ns2="http://www.garmin.com/xmlschemas/GpxExtensions/v3" creator="Garmin Connect" version="1.1" xsi:schemaLocation="http://www.topografix.com/GPX/1/1 http://www.topografix.com/GPX/11.xsd">
  <extensions>
<distance>1355.02</distance>
<average_hr></average_hr>
<average_speed>1.650450693704324</average_speed>
<start_time>2015-10-14T22:02:40+00:00</start_time>
<end_time>2015-10-14T22:16:21+00:00</end_time>
<moving_time>819.0</moving_time>
<elapsed_time>821.0</elapsed_time>
</extensions>
<metadata>
    <link href="connect.garmin.com">
      <text>Garmin Connect</text>
    </link>
    <time>2015-10-14T22:02:40.000Z</time>
  </metadata>
  <trk>
    <name>常州市 其它</name>
    <type>other</type>
    <trkseg>
      <trkpt lat="31.43406799994409084320068359375" lon="119.4784773699939250946044921875">
        <ele>-22</ele>
        <time>2015-10-14T22:02:40.000Z</time>
        <extensions>
          <ns3:TrackPointExtension>
            <ns3:atemp>18.0</ns3:atemp>
          </ns3:TrackPointExtension>
        </extensions>
      </trkpt>
      <trkpt lat="31.43406364135444164276123046875" lon="119.47847024537622928619384765625">
        <ele>-5.599999904632568359375</ele>
        <time>2015-10-14T22:02:41.000Z</time>
        <extensions>
          <ns3:TrackPointExtension>
            <ns3:atemp>18.0</ns3:atemp>
          </ns3:TrackPointExtension>
        </extensions>
      </trkpt>
      <trkpt lat="31.434061042964458465576171875" lon="119.4784679822623729705810546875">
        <ele>-5.599999904632568359375</ele>
        <time>2015-10-14T22:02:42.000Z</time>
        <extensions>
          <ns3:TrackPointExtension>
            <ns3:atemp>18.0</ns3:atemp>
          </ns3:TrackPointExtension>
        </extensions>
      </trkpt>
      <trkpt lat="31.43405542708933353424072265625" lon="119.47844996117055416107177734375">
        <ele>-5.599999904632568359375</ele>
        <time>2015-10-14T22:02:44.000Z</time>
        <extensions>
          <ns3:TrackPointExtension>
            <ns3:atemp>18.0</ns3:atemp>
          </ns3:TrackPointExtension>
        </extensions>
      </trkpt>
      <trkpt lat="31.43404721282422542572021484375" lon="119.4784394837915897369384765625">
        <ele>-22.200000762939453125</ele>
        <time>2015-10-14T22:02:45.000Z</time>
        <extensions>
          <ns3:TrackPointExtension>
            <ns3:atemp>18.0</ns3:atemp>
          </ns3:TrackPointExtension>
        </extensions>
      </trkpt>
      <trkpt lat="31.43403363414108753204345703125" lon="119.4784317724406719207763671875">
        <ele>-22.200000762939453125</ele>
        <time>2015-10-14T22:02:46.000Z</time>
        <extensions>
          <ns3:TrackPointExtension>
            <ns3:atemp>18.0</ns3:atemp>
          </ns3:TrackPointExtension>
        </extensions>
      </trkpt>
      <trkpt lat="31.43382727168500423431396484375" lon="119.478371255099773406982421875">
        <ele>-22.6000003814697265625</ele>
        <time>2015-10-14T22:03:00.000Z</time>
        <extensions>
          <ns3:TrackPointExtension>
            <ns3:atemp>18.0</ns3:atemp>
          </ns3:TrackPointExtension>
        </extensions>
      </trkpt>
      <trkpt lat="31.43380631692707538604736328125" lon="119.478375948965549468994140625">
        <ele>-22.6000003814697265625</ele>
        <time>2015-10-14T22:03:01.000Z</time>
        <extensions>
          <ns3:TrackPointExtension>
            <ns3:atemp>18.0</ns3:atemp>
          </ns3:TrackPointExtension>
        </extensions>
      </trkpt>
      <trkpt lat="31.4337886311113834381103515625" lon="119.47838106192648410797119140625">
        <ele>-22.6000003814697265625</ele>
        <time>2015-10-14T22:03:02.000Z</time>
        <extensions>
          <ns3:TrackPointExtension>
            <ns3:atemp>18.0</ns3:atemp>
          </ns3:TrackPointExtension>
        </extensions>
      </trkpt>
      <trkpt lat="31.4337688498198986053466796875" lon="119.47838659398257732391357421875">
        <ele>-22.6000003814697265625</ele>
        <time>2015-10-14T22:03:03.000Z</time>
        <extensions>
          <ns3:TrackPointExtension>
            <ns3:atemp>18.0</ns3:atemp>
          </ns3:TrackPointExtension>
        </extensions>
      </trkpt>
      <trkpt lat="31.43374931998550891876220703125" lon="119.4783928804099559783935546875">
        <ele>-22.6000003814697265625</ele>
        <time>2015-10-14T22:03:04.000Z</time>
        <extensions>
          <ns3:TrackPointExtension>
            <ns3:atemp>18.0</ns3:atemp>
          </ns3:TrackPointExtension>
        </extensions>
      </trkpt>
      <trkpt lat="31.43373356200754642486572265625" lon="119.4784015975892543792724609375">
        <ele>-22.6000003814697265625</ele>
        <time>2015-10-14T22:03:05.000Z</time>
        <extensions>
          <ns3:TrackPointExtension>
            <ns3:atemp>18.0</ns3:atemp>
          </ns3:TrackPointExtension>
        </extensions>
      </trkpt>
      <trkpt lat="31.4337145350873470306396484375" lon="119.4784109853208065032958984375">
        <ele>-22.6000003814697265625</ele>
        <time>2015-10-14T22:03:06.000Z</time>
        <extensions>
          <ns3:TrackPointExtension>
            <ns3:atemp>18.0</ns3:atemp>
          </ns3:TrackPointExtension>
        </extensions>
      </trkpt>
      <trkpt lat="31.4336048997938632965087890625" lon="119.47860536165535449981689453125">
        <ele>-22.6000003814697265625</ele>
        <time>2015-10-14T22:03:17.000Z</time>
        <extensions>
          <ns3:TrackPointExtension>
            <ns3:atemp>18.0</ns3:atemp>
          </ns3:TrackPointExtension>
        </extensions>
      </trkpt>
      <trkpt lat="31.433620490133762359619140625" lon="119.4787985645234584808349609375">
        <ele>-22.6000003814697265625</ele>
        <time>2015-10-14T22:03:30.000Z</time>
        <extensions>
          <ns3:TrackPointExtension>
            <ns3:atemp>18.0</ns3:atemp>
          </ns3:TrackPointExtension>
        </extensions>
      </trkpt>
      <trkpt lat="31.43376373685896396636962890625" lon="119.47898514568805694580078125">
        <ele>-22.3999996185302734375</ele>
        <time>2015-10-14T22:03:43.000Z</time>
        <extensions>
          <ns3:TrackPointExtension>
            <ns3:atemp>18.0</ns3:atemp>
          </ns3:TrackPointExtension>
        </extensions>
      </trkpt>
      <trkpt lat="31.43378938548266887664794921875" lon="119.47900400497019290924072265625">
        <ele>-22.6000003814697265625</ele>
        <time>2015-10-14T22:03:45.000Z</time>
        <extensions>
          <ns3:TrackPointExtension>
            <ns3:atemp>18.0</ns3:atemp>
          </ns3:TrackPointExtension>
        </extensions>
      </trkpt>
      <trkpt lat="31.43379793502390384674072265625" lon="119.47901573963463306427001953125">
        <ele>-22.6000003814697265625</ele>
        <time>2015-10-14T22:03:46.000Z</time>
        <extensions>
          <ns3:TrackPointExtension>
            <ns3:atemp>18.0</ns3:atemp>
          </ns3:TrackPointExtension>
        </extensions>
      </trkpt>
      <trkpt lat="31.4339594542980194091796875" lon="119.47918019257485866546630859375">
        <ele>-22.6000003814697265625</ele>
        <time>2015-10-14T22:03:58.000Z</time>
        <extensions>
          <ns3:TrackPointExtension>
            <ns3:atemp>18.0</ns3:atemp>
          </ns3:TrackPointExtension>
        </extensions>
      </trkpt>
      <trkpt lat="31.43406950868666172027587890625" lon="119.4792709685862064361572265625">
        <ele>-24</ele>
        <time>2015-10-14T22:04:08.000Z</time>
        <extensions>
          <ns3:TrackPointExtension>
            <ns3:atemp>18.0</ns3:atemp>
          </ns3:TrackPointExtension>
        </extensions>
      </trkpt>
      <trkpt lat="31.43422826193273067474365234375" lon="119.47939896024763584136962890625">
        <ele>-24.3999996185302734375</ele>
        <time>2015-10-14T22:04:20.000Z</time>
        <extensions>
          <ns3:TrackPointExtension>
            <ns3:atemp>18.0</ns3:atemp>
          </ns3:TrackPointExtension>
        </extensions>
      </trkpt>
      <trkpt lat="31.43429263494908809661865234375" lon="119.47943198494613170623779296875">
        <ele>-24.3999996185302734375</ele>
        <time>2015-10-14T22:04:25.000Z</time>
        <extensions>
          <ns3:TrackPointExtension>
            <ns3:atemp>18.0</ns3:atemp>
          </ns3:TrackPointExtension>
        </extensions>
      </trkpt>
      <trkpt lat="31.4343046210706233978271484375" lon="119.47943500243127346038818359375">
        <ele>-24.3999996185302734375</ele>
        <time>2015-10-14T22:04:26.000Z</time>
        <extensions>
          <ns3:TrackPointExtension>
            <ns3:atemp>18.0</ns3:atemp>
          </ns3:TrackPointExtension>
        </extensions>
      </trkpt>
      <trkpt lat="31.4343161880970001220703125" lon="119.47943651117384433746337890625">
        <ele>-24.3999996185302734375</ele>
        <time>2015-10-14T22:04:27.000Z</time>
        <extensions>
          <ns3:TrackPointExtension>
            <ns3:atemp>18.0</ns3:atemp>
          </ns3:TrackPointExtension>
        </extensions>
      </trkpt>
      <trkpt lat="31.43432624638080596923828125" lon="119.4794345833361148834228515625">
        <ele>-24.3999996185302734375</ele>
        <time>2015-10-14T22:04:28.000Z</time>
        <extensions>
          <ns3:TrackPointExtension>
            <ns3:atemp>18.0</ns3:atemp>
          </ns3:TrackPointExtension>
        </extensions>
      </trkpt>
      <trkpt lat="31.4343368075788021087646484375" lon="119.479432739317417144775390625">
        <ele>-24.3999996185302734375</ele>
        <time>2015-10-14T22:04:29.000Z</time>
        <extensions>
          <ns3:TrackPointExtension>
            <ns3:atemp>18.0</ns3:atemp>
          </ns3:TrackPointExtension>
        </extensions>
      </trkpt>
      <trkpt lat="31.43434611149132251739501953125" lon="119.4794312305748462677001953125">
        <ele>-24.3999996185302734375</ele>
        <time>2015-10-14T22:04:30.000Z</time>
        <extensions>
          <ns3:TrackPointExtension>
            <ns3:atemp>18.0</ns3:atemp>
          </ns3:TrackPointExtension>
        </extensions>
      </trkpt>
      <trkpt lat="31.43435918726027011871337890625" lon="119.47943148203194141387939453125">
        <ele>-24.3999996185302734375</ele>
        <time>2015-10-14T22:04:31.000Z</time>
        <extensions>
          <ns3:TrackPointExtension>
            <ns3:atemp>18.0</ns3:atemp>
          </ns3:TrackPointExtension>
        </extensions>
      </trkpt>
      <trkpt lat="31.4343740232288837432861328125" lon="119.47943148203194141387939453125">
        <ele>-24.3999996185302734375</ele>
        <time>2015-10-14T22:04:32.000Z</time>
        <extensions>
          <ns3:TrackPointExtension>
            <ns3:atemp>18.0</ns3:atemp>
          </ns3:TrackPointExtension>
        </extensions>
      </trkpt>
      <trkpt lat="31.43447108566761016845703125" lon="119.47939284145832061767578125">
        <ele>-24.3999996185302734375</ele>
        <time>2015-10-14T22:04:39.000Z</time>
        <extensions>
          <ns3:TrackPointExtension>
            <ns3:atemp>18.0</ns3:atemp>
          </ns3:TrackPointExtension>
        </extensions>
      </trkpt>
      <trkpt lat="31.434484831988811492919921875" lon="119.47937984950840473175048828125">
        <ele>-24.3999996185302734375</ele>
        <time>2015-10-14T22:04:40.000Z</time>
        <extensions>
          <ns3:TrackPointExtension>
            <ns3:atemp>18.0</ns3:atemp>
          </ns3:TrackPointExtension>
        </extensions>
      </trkpt>
      <trkpt lat="31.434500925242900848388671875" lon="119.479371048510074615478515625">
        <ele>-24.3999996185302734375</ele>
        <time>2015-10-14T22:04:41.000Z</time>
        <extensions>
          <ns3:TrackPointExtension>
            <ns3:atemp>18.0</ns3:atemp>
          </ns3:TrackPointExtension>
        </extensions>
      </trkpt>
      <trkpt lat="31.43451324664056301116943359375" lon="119.47935537435114383697509765625">
        <ele>-24.3999996185302734375</ele>
        <time>2015-10-14T22:04:42.000Z</time>
        <extensions>
          <ns3:TrackPointExtension>
            <ns3:atemp>18.0</ns3:atemp>
          </ns3:TrackPointExtension>
        </extensions>
      </trkpt>
      <trkpt lat="31.434521712362766265869140625" lon="119.4793345034122467041015625">
        <ele>-24.3999996185302734375</ele>
        <time>2015-10-14T22:04:43.000Z</time>
        <extensions>
          <ns3:TrackPointExtension>
            <ns3:atemp>18.0</ns3:atemp>
          </ns3:TrackPointExtension>
        </extensions>
      </trkpt>
      <trkpt lat="31.43452950753271579742431640625" lon="119.47930843569338321685791015625">
        <ele>-24.3999996185302734375</ele>
        <time>2015-10-14T22:04:44.000Z</time>
        <extensions>
          <ns3:TrackPointExtension>
            <ns3:atemp>18.0</ns3:atemp>
          </ns3:TrackPointExtension>
        </extensions>
      </trkpt>
      <trkpt lat="31.43453889526426792144775390625" lon="119.479292593896389007568359375">
        <ele>-24.3999996185302734375</ele>
        <time>2015-10-14T22:04:45.000Z</time>
        <extensions>
          <ns3:TrackPointExtension>
            <ns3:atemp>18.0</ns3:atemp>
          </ns3:TrackPointExtension>
        </extensions>
      </trkpt>
      <trkpt lat="31.43454744480550289154052734375" lon="119.4790842197835445404052734375">
        <ele>-24.3999996185302734375</ele>
        <time>2015-10-14T22:04:59.000Z</time>
        <extensions>
          <ns3:TrackPointExtension>
            <ns3:atemp>18.0</ns3:atemp>
          </ns3:TrackPointExtension>
        </extensions>
      </trkpt>
      <trkpt lat="31.43451307900249958038330078125" lon="119.47902110405266284942626953125">
        <ele>-24.3999996185302734375</ele>
        <time>2015-10-14T22:05:03.000Z</time>
        <extensions>
          <ns3:TrackPointExtension>
            <ns3:atemp>18.0</ns3:atemp>
          </ns3:TrackPointExtension>
        </extensions>
      </trkpt>
      <trkpt lat="31.43450167961418628692626953125" lon="119.4790104590356349945068359375">
        <ele>-24.3999996185302734375</ele>
        <time>2015-10-14T22:05:04.000Z</time>
        <extensions>
          <ns3:TrackPointExtension>
            <ns3:atemp>18.0</ns3:atemp>
          </ns3:TrackPointExtension>
        </extensions>
      </trkpt>
      <trkpt lat="31.43448843620717525482177734375" lon="119.4789900071918964385986328125">
        <ele>-24.3999996185302734375</ele>
        <time>2015-10-14T22:05:05.000Z</time>
        <extensions>
          <ns3:TrackPointExtension>
            <ns3:atemp>18.0</ns3:atemp>
          </ns3:TrackPointExtension>
        </extensions>
      </trkpt>
      <trkpt lat="31.43447569571435451507568359375" lon="119.4789742492139339447021484375">
        <ele>-24.3999996185302734375</ele>
        <time>2015-10-14T22:05:06.000Z</time>
        <extensions>
          <ns3:TrackPointExtension>
            <ns3:atemp>18.0</ns3:atemp>
          </ns3:TrackPointExtension>
        </extensions>
      </trkpt>
      <trkpt lat="31.4344658888876438140869140625" lon="119.47895388118922710418701171875">
        <ele>-24.3999996185302734375</ele>
        <time>2015-10-14T22:05:07.000Z</time>
        <extensions>
          <ns3:TrackPointExtension>
            <ns3:atemp>18.0</ns3:atemp>
          </ns3:TrackPointExtension>
        </extensions>
      </trkpt>
      <trkpt lat="31.4344514720141887664794921875" lon="119.47894533164799213409423828125">
        <ele>-24.3999996185302734375</ele>
        <time>2015-10-14T22:05:08.000Z</time>
        <extensions>
          <ns3:TrackPointExtension>
            <ns3:atemp>18.0</ns3:atemp>
          </ns3:TrackPointExtension>
        </extensions>
      </trkpt>
      <trkpt lat="31.43443730659782886505126953125" lon="119.4789387099444866180419921875">
        <ele>-24.3999996185302734375</ele>
        <time>2015-10-14T22:05:09.000Z</time>
        <extensions>
          <ns3:TrackPointExtension>
            <ns3:atemp>18.0</ns3:atemp>
          </ns3:TrackPointExtension>
        </extensions>
      </trkpt>
      <trkpt lat="31.43442682921886444091796875" lon="119.4789289869368076324462890625">
        <ele>-24.3999996185302734375</ele>
        <time>2015-10-14T22:05:10.000Z</time>
        <extensions>
          <ns3:TrackPointExtension>
            <ns3:atemp>18.0</ns3:atemp>
          </ns3:TrackPointExtension>
        </extensions>
      </trkpt>
      <trkpt lat="31.43441769294440746307373046875" lon="119.4789209403097629547119140625">
        <ele>-24.3999996185302734375</ele>
        <time>2015-10-14T22:05:11.000Z</time>
        <extensions>
          <ns3:TrackPointExtension>
            <ns3:atemp>18.0</ns3:atemp>
          </ns3:TrackPointExtension>
        </extensions>
      </trkpt>
      <trkpt lat="31.4342596940696239471435546875" lon="119.478691108524799346923828125">
        <ele>-24.3999996185302734375</ele>
        <time>2015-10-14T22:05:26.000Z</time>
        <extensions>
          <ns3:TrackPointExtension>
            <ns3:atemp>18.0</ns3:atemp>
          </ns3:TrackPointExtension>
        </extensions>
      </trkpt>
      <trkpt lat="31.43410135991871356964111328125" lon="119.47849187068641185760498046875">
        <ele>-24.200000762939453125</ele>
        <time>2015-10-14T22:05:41.000Z</time>
        <extensions>
          <ns3:TrackPointExtension>
            <ns3:atemp>18.0</ns3:atemp>
          </ns3:TrackPointExtension>
        </extensions>
      </trkpt>
      <trkpt lat="31.43408660776913166046142578125" lon="119.47849002666771411895751953125">
        <ele>-23.6000003814697265625</ele>
        <time>2015-10-14T22:05:44.000Z</time>
        <extensions>
          <ns3:TrackPointExtension>
            <ns3:atemp>18.0</ns3:atemp>
          </ns3:TrackPointExtension>
        </extensions>
      </trkpt>
      <trkpt lat="31.43402491696178913116455078125" lon="119.4784596003592014312744140625">
        <ele>-23.799999237060546875</ele>
        <time>2015-10-14T22:05:49.000Z</time>
        <extensions>
          <ns3:TrackPointExtension>
            <ns3:atemp>18.0</ns3:atemp>
          </ns3:TrackPointExtension>
        </extensions>
      </trkpt>
      <trkpt lat="31.43375971354544162750244140625" lon="119.47836748324334621429443359375">
        <ele>-24.3999996185302734375</ele>
        <time>2015-10-14T22:06:02.000Z</time>
        <extensions>
          <ns3:TrackPointExtension>
            <ns3:atemp>18.0</ns3:atemp>
          </ns3:TrackPointExtension>
        </extensions>
      </trkpt>
      <trkpt lat="31.43358771689236164093017578125" lon="119.47849840857088565826416015625">
        <ele>-24.6000003814697265625</ele>
        <time>2015-10-14T22:06:17.000Z</time>
        <extensions>
          <ns3:TrackPointExtension>
            <ns3:atemp>18.0</ns3:atemp>
          </ns3:TrackPointExtension>
        </extensions>
      </trkpt>
      <trkpt lat="31.4335992000997066497802734375" lon="119.47871902026236057281494140625">
        <ele>-24.6000003814697265625</ele>
        <time>2015-10-14T22:06:32.000Z</time>
        <extensions>
          <ns3:TrackPointExtension>
            <ns3:atemp>18.0</ns3:atemp>
          </ns3:TrackPointExtension>
        </extensions>
      </trkpt>
      <trkpt lat="31.43379005603492259979248046875" lon="119.478978104889392852783203125">
        <ele>-24.6000003814697265625</ele>
        <time>2015-10-14T22:06:46.000Z</time>
        <extensions>
          <ns3:TrackPointExtension>
            <ns3:atemp>18.0</ns3:atemp>
          </ns3:TrackPointExtension>
        </extensions>
      </trkpt>
      <trkpt lat="31.43398652784526348114013671875" lon="119.47913090698421001434326171875">
        <ele>-24.6000003814697265625</ele>
        <time>2015-10-14T22:07:01.000Z</time>
        <extensions>
          <ns3:TrackPointExtension>
            <ns3:atemp>18.0</ns3:atemp>
          </ns3:TrackPointExtension>
        </extensions>
      </trkpt>
      <trkpt lat="31.43407948315143585205078125" lon="119.47921824641525745391845703125">
        <ele>-24.6000003814697265625</ele>
        <time>2015-10-14T22:07:09.000Z</time>
        <extensions>
          <ns3:TrackPointExtension>
            <ns3:atemp>18.0</ns3:atemp>
          </ns3:TrackPointExtension>
        </extensions>
      </trkpt>
      <trkpt lat="31.434252150356769561767578125" lon="119.47937968187034130096435546875">
        <ele>-24.6000003814697265625</ele>
        <time>2015-10-14T22:07:23.000Z</time>
        <extensions>
          <ns3:TrackPointExtension>
            <ns3:atemp>18.0</ns3:atemp>
          </ns3:TrackPointExtension>
        </extensions>
      </trkpt>
      <trkpt lat="31.43444350920617580413818359375" lon="119.47936333715915679931640625">
        <ele>-24.6000003814697265625</ele>
        <time>2015-10-14T22:07:38.000Z</time>
        <extensions>
          <ns3:TrackPointExtension>
            <ns3:atemp>18.0</ns3:atemp>
          </ns3:TrackPointExtension>
        </extensions>
      </trkpt>
      <trkpt lat="31.434546522796154022216796875" lon="119.47916359640657901763916015625">
        <ele>-24.799999237060546875</ele>
        <time>2015-10-14T22:07:52.000Z</time>
        <extensions>
          <ns3:TrackPointExtension>
            <ns3:atemp>18.0</ns3:atemp>
          </ns3:TrackPointExtension>
        </extensions>
      </trkpt>
      <trkpt lat="31.43448139540851116180419921875" lon="119.47891968302428722381591796875">
        <ele>-24.6000003814697265625</ele>
        <time>2015-10-14T22:08:07.000Z</time>
        <extensions>
          <ns3:TrackPointExtension>
            <ns3:atemp>18.0</ns3:atemp>
          </ns3:TrackPointExtension>
        </extensions>
      </trkpt>
      <trkpt lat="31.434472762048244476318359375" lon="119.47891297750174999237060546875">
        <ele>-24.6000003814697265625</ele>
        <time>2015-10-14T22:08:08.000Z</time>
        <extensions>
          <ns3:TrackPointExtension>
            <ns3:atemp>18.0</ns3:atemp>
          </ns3:TrackPointExtension>
        </extensions>
      </trkpt>
      <trkpt lat="31.43440880812704563140869140625" lon="119.4788610935211181640625">
        <ele>-24.799999237060546875</ele>
        <time>2015-10-14T22:08:15.000Z</time>
        <extensions>
          <ns3:TrackPointExtension>
            <ns3:atemp>18.0</ns3:atemp>
          </ns3:TrackPointExtension>
        </extensions>
      </trkpt>
      <trkpt lat="31.4343998394906520843505859375" lon="119.47885681875050067901611328125">
        <ele>-24.799999237060546875</ele>
        <time>2015-10-14T22:08:16.000Z</time>
        <extensions>
          <ns3:TrackPointExtension>
            <ns3:atemp>18.0</ns3:atemp>
          </ns3:TrackPointExtension>
        </extensions>
      </trkpt>
      <trkpt lat="31.4343911223113536834716796875" lon="119.47885095141828060150146484375">
        <ele>-24.799999237060546875</ele>
        <time>2015-10-14T22:08:17.000Z</time>
        <extensions>
          <ns3:TrackPointExtension>
            <ns3:atemp>18.0</ns3:atemp>
          </ns3:TrackPointExtension>
        </extensions>
      </trkpt>
      <trkpt lat="31.434380225837230682373046875" lon="119.47884458117187023162841796875">
        <ele>-24.799999237060546875</ele>
        <time>2015-10-14T22:08:18.000Z</time>
        <extensions>
          <ns3:TrackPointExtension>
            <ns3:atemp>18.0</ns3:atemp>
          </ns3:TrackPointExtension>
        </extensions>
      </trkpt>
      <trkpt lat="31.434368155896663665771484375" lon="119.47883837856352329254150390625">
        <ele>-24.799999237060546875</ele>
        <time>2015-10-14T22:08:19.000Z</time>
        <extensions>
          <ns3:TrackPointExtension>
            <ns3:atemp>18.0</ns3:atemp>
          </ns3:TrackPointExtension>
        </extensions>
      </trkpt>
      <trkpt lat="31.4343435131013393402099609375" lon="119.47881557978689670562744140625">
        <ele>-24.799999237060546875</ele>
        <time>2015-10-14T22:08:21.000Z</time>
        <extensions>
          <ns3:TrackPointExtension>
            <ns3:atemp>18.0</ns3:atemp>
          </ns3:TrackPointExtension>
        </extensions>
      </trkpt>
      <trkpt lat="31.43433270044624805450439453125" lon="119.47880602441728115081787109375">
        <ele>-24.799999237060546875</ele>
        <time>2015-10-14T22:08:22.000Z</time>
        <extensions>
          <ns3:TrackPointExtension>
            <ns3:atemp>18.0</ns3:atemp>
          </ns3:TrackPointExtension>
        </extensions>
      </trkpt>
      <trkpt lat="31.4342462830245494842529296875" lon="119.47869974188506603240966796875">
        <ele>-24.799999237060546875</ele>
        <time>2015-10-14T22:08:31.000Z</time>
        <extensions>
          <ns3:TrackPointExtension>
            <ns3:atemp>18.0</ns3:atemp>
          </ns3:TrackPointExtension>
        </extensions>
      </trkpt>
      <trkpt lat="31.4342345483601093292236328125" lon="119.47869320400059223175048828125">
        <ele>-24.799999237060546875</ele>
        <time>2015-10-14T22:08:32.000Z</time>
        <extensions>
          <ns3:TrackPointExtension>
            <ns3:atemp>18.0</ns3:atemp>
          </ns3:TrackPointExtension>
        </extensions>
      </trkpt>
      <trkpt lat="31.43422239460051059722900390625" lon="119.47868465445935726165771484375">
        <ele>-24.799999237060546875</ele>
        <time>2015-10-14T22:08:33.000Z</time>
        <extensions>
          <ns3:TrackPointExtension>
            <ns3:atemp>18.0</ns3:atemp>
          </ns3:TrackPointExtension>
        </extensions>
      </trkpt>
      <trkpt lat="31.4342110790312290191650390625" lon="119.4786735065281391143798828125">
        <ele>-24.799999237060546875</ele>
        <time>2015-10-14T22:08:34.000Z</time>
        <extensions>
          <ns3:TrackPointExtension>
            <ns3:atemp>18.0</ns3:atemp>
          </ns3:TrackPointExtension>
        </extensions>
      </trkpt>
      <trkpt lat="31.434195823967456817626953125" lon="119.47866587899625301361083984375">
        <ele>-24.799999237060546875</ele>
        <time>2015-10-14T22:08:35.000Z</time>
        <extensions>
          <ns3:TrackPointExtension>
            <ns3:atemp>18.0</ns3:atemp>
          </ns3:TrackPointExtension>
        </extensions>
      </trkpt>
      <trkpt lat="31.43418333493173122406005859375" lon="119.4786585867404937744140625">
        <ele>-24.799999237060546875</ele>
        <time>2015-10-14T22:08:36.000Z</time>
        <extensions>
          <ns3:TrackPointExtension>
            <ns3:atemp>18.0</ns3:atemp>
          </ns3:TrackPointExtension>
        </extensions>
      </trkpt>
      <trkpt lat="31.43417176790535449981689453125" lon="119.47864978574216365814208984375">
        <ele>-24.3999996185302734375</ele>
        <time>2015-10-14T22:08:37.000Z</time>
        <extensions>
          <ns3:TrackPointExtension>
            <ns3:atemp>18.0</ns3:atemp>
          </ns3:TrackPointExtension>
        </extensions>
      </trkpt>
      <trkpt lat="31.4341453649103641510009765625" lon="119.47864559479057788848876953125">
        <ele>-24</ele>
        <time>2015-10-14T22:08:39.000Z</time>
        <extensions>
          <ns3:TrackPointExtension>
            <ns3:atemp>18.0</ns3:atemp>
          </ns3:TrackPointExtension>
        </extensions>
      </trkpt>
      <trkpt lat="31.43413245677947998046875" lon="119.47864576242864131927490234375">
        <ele>-23.799999237060546875</ele>
        <time>2015-10-14T22:08:40.000Z</time>
        <extensions>
          <ns3:TrackPointExtension>
            <ns3:atemp>18.0</ns3:atemp>
          </ns3:TrackPointExtension>
        </extensions>
      </trkpt>
      <trkpt lat="31.4341202192008495330810546875" lon="119.47864240966737270355224609375">
        <ele>-23.799999237060546875</ele>
        <time>2015-10-14T22:08:41.000Z</time>
        <extensions>
          <ns3:TrackPointExtension>
            <ns3:atemp>18.0</ns3:atemp>
          </ns3:TrackPointExtension>
        </extensions>
      </trkpt>
      <trkpt lat="31.4341104961931705474853515625" lon="119.47863771580159664154052734375">
        <ele>-23.799999237060546875</ele>
        <time>2015-10-14T22:08:42.000Z</time>
        <extensions>
          <ns3:TrackPointExtension>
            <ns3:atemp>18.0</ns3:atemp>
          </ns3:TrackPointExtension>
        </extensions>
      </trkpt>
      <trkpt lat="31.4341007731854915618896484375" lon="119.47862975299358367919921875">
        <ele>-23.799999237060546875</ele>
        <time>2015-10-14T22:08:43.000Z</time>
        <extensions>
          <ns3:TrackPointExtension>
            <ns3:atemp>18.0</ns3:atemp>
          </ns3:TrackPointExtension>
        </extensions>
      </trkpt>
      <trkpt lat="31.434092558920383453369140625" lon="119.47862044908106327056884765625">
        <ele>-24</ele>
        <time>2015-10-14T22:08:44.000Z</time>
        <extensions>
          <ns3:TrackPointExtension>
            <ns3:atemp>18.0</ns3:atemp>
          </ns3:TrackPointExtension>
        </extensions>
      </trkpt>
      <trkpt lat="31.43408275209367275238037109375" lon="119.4786108098924160003662109375">
        <ele>-24</ele>
        <time>2015-10-14T22:08:45.000Z</time>
        <extensions>
          <ns3:TrackPointExtension>
            <ns3:atemp>18.0</ns3:atemp>
          </ns3:TrackPointExtension>
        </extensions>
      </trkpt>
      <trkpt lat="31.43406917341053485870361328125" lon="119.4785960577428340911865234375">
        <ele>-24</ele>
        <time>2015-10-14T22:08:46.000Z</time>
        <extensions>
          <ns3:TrackPointExtension>
            <ns3:atemp>18.0</ns3:atemp>
          </ns3:TrackPointExtension>
        </extensions>
      </trkpt>
      <trkpt lat="31.43405525945127010345458984375" lon="119.4785826466977596282958984375">
        <ele>-24</ele>
        <time>2015-10-14T22:08:47.000Z</time>
        <extensions>
          <ns3:TrackPointExtension>
            <ns3:atemp>18.0</ns3:atemp>
          </ns3:TrackPointExtension>
        </extensions>
      </trkpt>
      <trkpt lat="31.4340417645871639251708984375" lon="119.478572420775890350341796875">
        <ele>-24</ele>
        <time>2015-10-14T22:08:48.000Z</time>
        <extensions>
          <ns3:TrackPointExtension>
            <ns3:atemp>18.0</ns3:atemp>
          </ns3:TrackPointExtension>
        </extensions>
      </trkpt>
      <trkpt lat="31.43402793444693088531494140625" lon="119.478562362492084503173828125">
        <ele>-24</ele>
        <time>2015-10-14T22:08:49.000Z</time>
        <extensions>
          <ns3:TrackPointExtension>
            <ns3:atemp>18.0</ns3:atemp>
          </ns3:TrackPointExtension>
        </extensions>
      </trkpt>
      <trkpt lat="31.43379114568233489990234375" lon="119.478450715541839599609375">
        <ele>-24.200000762939453125</ele>
        <time>2015-10-14T22:09:05.000Z</time>
        <extensions>
          <ns3:TrackPointExtension>
            <ns3:atemp>18.0</ns3:atemp>
          </ns3:TrackPointExtension>
        </extensions>
      </trkpt>
      <trkpt lat="31.4337799139320850372314453125" lon="119.4784569181501865386962890625">
        <ele>-24.200000762939453125</ele>
        <time>2015-10-14T22:09:06.000Z</time>
        <extensions>
          <ns3:TrackPointExtension>
            <ns3:atemp>18.0</ns3:atemp>
          </ns3:TrackPointExtension>
        </extensions>
      </trkpt>
      <trkpt lat="31.43376608379185199737548828125" lon="119.478463120758533477783203125">
        <ele>-24.3999996185302734375</ele>
        <time>2015-10-14T22:09:07.000Z</time>
        <extensions>
          <ns3:TrackPointExtension>
            <ns3:atemp>18.0</ns3:atemp>
          </ns3:TrackPointExtension>
        </extensions>
      </trkpt>
      <trkpt lat="31.43375284038484096527099609375" lon="119.47847091592848300933837890625">
        <ele>-24.6000003814697265625</ele>
        <time>2015-10-14T22:09:08.000Z</time>
        <extensions>
          <ns3:TrackPointExtension>
            <ns3:atemp>18.0</ns3:atemp>
          </ns3:TrackPointExtension>
        </extensions>
      </trkpt>
      <trkpt lat="31.4337148703634738922119140625" lon="119.478493630886077880859375">
        <ele>-25</ele>
        <time>2015-10-14T22:09:11.000Z</time>
        <extensions>
          <ns3:TrackPointExtension>
            <ns3:atemp>18.0</ns3:atemp>
          </ns3:TrackPointExtension>
        </extensions>
      </trkpt>
      <trkpt lat="31.4337017945945262908935546875" lon="119.4785030186176300048828125">
        <ele>-25</ele>
        <time>2015-10-14T22:09:12.000Z</time>
        <extensions>
          <ns3:TrackPointExtension>
            <ns3:atemp>18.0</ns3:atemp>
          </ns3:TrackPointExtension>
        </extensions>
      </trkpt>
      <trkpt lat="31.4336887188255786895751953125" lon="119.4785155914723873138427734375">
        <ele>-25</ele>
        <time>2015-10-14T22:09:13.000Z</time>
        <extensions>
          <ns3:TrackPointExtension>
            <ns3:atemp>18.0</ns3:atemp>
          </ns3:TrackPointExtension>
        </extensions>
      </trkpt>
      <trkpt lat="31.4336753077805042266845703125" lon="119.47852523066103458404541015625">
        <ele>-25</ele>
        <time>2015-10-14T22:09:14.000Z</time>
        <extensions>
          <ns3:TrackPointExtension>
            <ns3:atemp>18.0</ns3:atemp>
          </ns3:TrackPointExtension>
        </extensions>
      </trkpt>
      <trkpt lat="31.43366365693509578704833984375" lon="119.47853562422096729278564453125">
        <ele>-24.799999237060546875</ele>
        <time>2015-10-14T22:09:15.000Z</time>
        <extensions>
          <ns3:TrackPointExtension>
            <ns3:atemp>18.0</ns3:atemp>
          </ns3:TrackPointExtension>
        </extensions>
      </trkpt>
      <trkpt lat="31.4336528442800045013427734375" lon="119.478541910648345947265625">
        <ele>-24.799999237060546875</ele>
        <time>2015-10-14T22:09:16.000Z</time>
        <extensions>
          <ns3:TrackPointExtension>
            <ns3:atemp>18.0</ns3:atemp>
          </ns3:TrackPointExtension>
        </extensions>
      </trkpt>
      <trkpt lat="31.43364119343459606170654296875" lon="119.478547610342502593994140625">
        <ele>-24.799999237060546875</ele>
        <time>2015-10-14T22:09:17.000Z</time>
        <extensions>
          <ns3:TrackPointExtension>
            <ns3:atemp>18.0</ns3:atemp>
          </ns3:TrackPointExtension>
        </extensions>
      </trkpt>
      <trkpt lat="31.4336290396749973297119140625" lon="119.4785578362643718719482421875">
        <ele>-24.799999237060546875</ele>
        <time>2015-10-14T22:09:18.000Z</time>
        <extensions>
          <ns3:TrackPointExtension>
            <ns3:atemp>18.0</ns3:atemp>
          </ns3:TrackPointExtension>
        </extensions>
      </trkpt>
      <trkpt lat="31.4336196519434452056884765625" lon="119.4785700738430023193359375">
        <ele>-24.799999237060546875</ele>
        <time>2015-10-14T22:09:19.000Z</time>
        <extensions>
          <ns3:TrackPointExtension>
            <ns3:atemp>18.0</ns3:atemp>
          </ns3:TrackPointExtension>
        </extensions>
      </trkpt>
      <trkpt lat="31.43361286260187625885009765625" lon="119.478582479059696197509765625">
        <ele>-24.799999237060546875</ele>
        <time>2015-10-14T22:09:20.000Z</time>
        <extensions>
          <ns3:TrackPointExtension>
            <ns3:atemp>18.0</ns3:atemp>
          </ns3:TrackPointExtension>
        </extensions>
      </trkpt>
      <trkpt lat="31.4336035586893558502197265625" lon="119.4785973988473415374755859375">
        <ele>-25</ele>
        <time>2015-10-14T22:09:21.000Z</time>
        <extensions>
          <ns3:TrackPointExtension>
            <ns3:atemp>18.0</ns3:atemp>
          </ns3:TrackPointExtension>
        </extensions>
      </trkpt>
      <trkpt lat="31.43347523175179958343505859375" lon="119.4788411445915699005126953125">
        <ele>-25</ele>
        <time>2015-10-14T22:09:37.000Z</time>
        <extensions>
          <ns3:TrackPointExtension>
            <ns3:atemp>18.0</ns3:atemp>
          </ns3:TrackPointExtension>
        </extensions>
      </trkpt>
      <trkpt lat="31.43346928060054779052734375" lon="119.4788570702075958251953125">
        <ele>-25</ele>
        <time>2015-10-14T22:09:38.000Z</time>
        <extensions>
          <ns3:TrackPointExtension>
            <ns3:atemp>18.0</ns3:atemp>
          </ns3:TrackPointExtension>
        </extensions>
      </trkpt>
      <trkpt lat="31.43346148543059825897216796875" lon="119.4788706488907337188720703125">
        <ele>-25</ele>
        <time>2015-10-14T22:09:39.000Z</time>
        <extensions>
          <ns3:TrackPointExtension>
            <ns3:atemp>18.0</ns3:atemp>
          </ns3:TrackPointExtension>
        </extensions>
      </trkpt>
      <trkpt lat="31.43345243297517299652099609375" lon="119.478886909782886505126953125">
        <ele>-25</ele>
        <time>2015-10-14T22:09:40.000Z</time>
        <extensions>
          <ns3:TrackPointExtension>
            <ns3:atemp>18.0</ns3:atemp>
          </ns3:TrackPointExtension>
        </extensions>
      </trkpt>
      <trkpt lat="31.43344287760555744171142578125" lon="119.47889789007604122161865234375">
        <ele>-24.799999237060546875</ele>
        <time>2015-10-14T22:09:41.000Z</time>
        <extensions>
          <ns3:TrackPointExtension>
            <ns3:atemp>18.0</ns3:atemp>
          </ns3:TrackPointExtension>
        </extensions>
      </trkpt>
      <trkpt lat="31.4334369264543056488037109375" lon="119.47891012765467166900634765625">
        <ele>-24.6000003814697265625</ele>
        <time>2015-10-14T22:09:42.000Z</time>
        <extensions>
          <ns3:TrackPointExtension>
            <ns3:atemp>18.0</ns3:atemp>
          </ns3:TrackPointExtension>
        </extensions>
      </trkpt>
      <trkpt lat="31.43342795781791210174560546875" lon="119.47892689146101474761962890625">
        <ele>-24.6000003814697265625</ele>
        <time>2015-10-14T22:09:43.000Z</time>
        <extensions>
          <ns3:TrackPointExtension>
            <ns3:atemp>18.0</ns3:atemp>
          </ns3:TrackPointExtension>
        </extensions>
      </trkpt>
      <trkpt lat="31.4334188215434551239013671875" lon="119.478939212858676910400390625">
        <ele>-24.6000003814697265625</ele>
        <time>2015-10-14T22:09:44.000Z</time>
        <extensions>
          <ns3:TrackPointExtension>
            <ns3:atemp>18.0</ns3:atemp>
          </ns3:TrackPointExtension>
        </extensions>
      </trkpt>
      <trkpt lat="31.433407254517078399658203125" lon="119.4789537973701953887939453125">
        <ele>-24.799999237060546875</ele>
        <time>2015-10-14T22:09:45.000Z</time>
        <extensions>
          <ns3:TrackPointExtension>
            <ns3:atemp>18.0</ns3:atemp>
          </ns3:TrackPointExtension>
        </extensions>
      </trkpt>
      <trkpt lat="31.433334164321422576904296875" lon="119.479192011058330535888671875">
        <ele>-24.6000003814697265625</ele>
        <time>2015-10-14T22:09:59.000Z</time>
        <extensions>
          <ns3:TrackPointExtension>
            <ns3:atemp>18.0</ns3:atemp>
          </ns3:TrackPointExtension>
        </extensions>
      </trkpt>
      <trkpt lat="31.43332284875214099884033203125" lon="119.479327462613582611083984375">
        <ele>-24.3999996185302734375</ele>
        <time>2015-10-14T22:10:08.000Z</time>
        <extensions>
          <ns3:TrackPointExtension>
            <ns3:atemp>18.0</ns3:atemp>
          </ns3:TrackPointExtension>
        </extensions>
      </trkpt>
      <trkpt lat="31.4332910813391208648681640625" lon="119.47943299077451229095458984375">
        <ele>-24.3999996185302734375</ele>
        <time>2015-10-14T22:10:14.000Z</time>
        <extensions>
          <ns3:TrackPointExtension>
            <ns3:atemp>18.0</ns3:atemp>
          </ns3:TrackPointExtension>
        </extensions>
      </trkpt>
      <trkpt lat="31.43338085152208805084228515625" lon="119.4795395247638225555419921875">
        <ele>-24</ele>
        <time>2015-10-14T22:10:22.000Z</time>
        <extensions>
          <ns3:TrackPointExtension>
            <ns3:atemp>18.0</ns3:atemp>
          </ns3:TrackPointExtension>
        </extensions>
      </trkpt>
      <trkpt lat="31.43346031196415424346923828125" lon="119.479658044874668121337890625">
        <ele>-24</ele>
        <time>2015-10-14T22:10:33.000Z</time>
        <extensions>
          <ns3:TrackPointExtension>
            <ns3:atemp>18.0</ns3:atemp>
          </ns3:TrackPointExtension>
        </extensions>
      </trkpt>
      <trkpt lat="31.43349970690906047821044921875" lon="119.4796954281628131866455078125">
        <ele>-24</ele>
        <time>2015-10-14T22:10:37.000Z</time>
        <extensions>
          <ns3:TrackPointExtension>
            <ns3:atemp>18.0</ns3:atemp>
          </ns3:TrackPointExtension>
        </extensions>
      </trkpt>
      <trkpt lat="31.433614455163478851318359375" lon="119.47977731935679912567138671875">
        <ele>-24.200000762939453125</ele>
        <time>2015-10-14T22:10:46.000Z</time>
        <extensions>
          <ns3:TrackPointExtension>
            <ns3:atemp>18.0</ns3:atemp>
          </ns3:TrackPointExtension>
        </extensions>
      </trkpt>
      <trkpt lat="31.4336310513317584991455078125" lon="119.47978042066097259521484375">
        <ele>-24.200000762939453125</ele>
        <time>2015-10-14T22:10:47.000Z</time>
        <extensions>
          <ns3:TrackPointExtension>
            <ns3:atemp>18.0</ns3:atemp>
          </ns3:TrackPointExtension>
        </extensions>
      </trkpt>
      <trkpt lat="31.4336429536342620849609375" lon="119.4797859527170658111572265625">
        <ele>-24.200000762939453125</ele>
        <time>2015-10-14T22:10:48.000Z</time>
        <extensions>
          <ns3:TrackPointExtension>
            <ns3:atemp>18.0</ns3:atemp>
          </ns3:TrackPointExtension>
        </extensions>
      </trkpt>
      <trkpt lat="31.43365443684160709381103515625" lon="119.47979542426764965057373046875">
        <ele>-24.200000762939453125</ele>
        <time>2015-10-14T22:10:49.000Z</time>
        <extensions>
          <ns3:TrackPointExtension>
            <ns3:atemp>18.0</ns3:atemp>
          </ns3:TrackPointExtension>
        </extensions>
      </trkpt>
      <trkpt lat="31.43366717733442783355712890625" lon="119.47980497963726520538330078125">
        <ele>-24</ele>
        <time>2015-10-14T22:10:50.000Z</time>
        <extensions>
          <ns3:TrackPointExtension>
            <ns3:atemp>18.0</ns3:atemp>
          </ns3:TrackPointExtension>
        </extensions>
      </trkpt>
      <trkpt lat="31.4336800016462802886962890625" lon="119.479808919131755828857421875">
        <ele>-24</ele>
        <time>2015-10-14T22:10:51.000Z</time>
        <extensions>
          <ns3:TrackPointExtension>
            <ns3:atemp>18.0</ns3:atemp>
          </ns3:TrackPointExtension>
        </extensions>
      </trkpt>
      <trkpt lat="31.433695256710052490234375" lon="119.47981185279786586761474609375">
        <ele>-24.200000762939453125</ele>
        <time>2015-10-14T22:10:52.000Z</time>
        <extensions>
          <ns3:TrackPointExtension>
            <ns3:atemp>18.0</ns3:atemp>
          </ns3:TrackPointExtension>
        </extensions>
      </trkpt>
      <trkpt lat="31.4337064884603023529052734375" lon="119.4798171333968639373779296875">
        <ele>-24.200000762939453125</ele>
        <time>2015-10-14T22:10:53.000Z</time>
        <extensions>
          <ns3:TrackPointExtension>
            <ns3:atemp>18.0</ns3:atemp>
          </ns3:TrackPointExtension>
        </extensions>
      </trkpt>
      <trkpt lat="31.4337158761918544769287109375" lon="119.47982174344360828399658203125">
        <ele>-24.200000762939453125</ele>
        <time>2015-10-14T22:10:54.000Z</time>
        <extensions>
          <ns3:TrackPointExtension>
            <ns3:atemp>18.0</ns3:atemp>
          </ns3:TrackPointExtension>
        </extensions>
      </trkpt>
      <trkpt lat="31.43391720950603485107421875" lon="119.4799150340259075164794921875">
        <ele>-24</ele>
        <time>2015-10-14T22:11:11.000Z</time>
        <extensions>
          <ns3:TrackPointExtension>
            <ns3:atemp>18.0</ns3:atemp>
          </ns3:TrackPointExtension>
        </extensions>
      </trkpt>
      <trkpt lat="31.43411812372505664825439453125" lon="119.48000430129468441009521484375">
        <ele>-23.799999237060546875</ele>
        <time>2015-10-14T22:11:26.000Z</time>
        <extensions>
          <ns3:TrackPointExtension>
            <ns3:atemp>18.0</ns3:atemp>
          </ns3:TrackPointExtension>
        </extensions>
      </trkpt>
      <trkpt lat="31.43433571793138980865478515625" lon="119.4800635613501071929931640625">
        <ele>-23.6000003814697265625</ele>
        <time>2015-10-14T22:11:41.000Z</time>
        <extensions>
          <ns3:TrackPointExtension>
            <ns3:atemp>18.0</ns3:atemp>
          </ns3:TrackPointExtension>
        </extensions>
      </trkpt>
      <trkpt lat="31.4343589358031749725341796875" lon="119.48007303290069103240966796875">
        <ele>-23.3999996185302734375</ele>
        <time>2015-10-14T22:11:43.000Z</time>
        <extensions>
          <ns3:TrackPointExtension>
            <ns3:atemp>18.0</ns3:atemp>
          </ns3:TrackPointExtension>
        </extensions>
      </trkpt>
      <trkpt lat="31.43445457331836223602294921875" lon="119.4800994358956813812255859375">
        <ele>-23.799999237060546875</ele>
        <time>2015-10-14T22:11:51.000Z</time>
        <extensions>
          <ns3:TrackPointExtension>
            <ns3:atemp>18.0</ns3:atemp>
          </ns3:TrackPointExtension>
        </extensions>
      </trkpt>
      <trkpt lat="31.43446697853505611419677734375" lon="119.4801151938736438751220703125">
        <ele>-24</ele>
        <time>2015-10-14T22:11:52.000Z</time>
        <extensions>
          <ns3:TrackPointExtension>
            <ns3:atemp>18.0</ns3:atemp>
          </ns3:TrackPointExtension>
        </extensions>
      </trkpt>
      <trkpt lat="31.43448323942720890045166015625" lon="119.48012684471905231475830078125">
        <ele>-24</ele>
        <time>2015-10-14T22:11:53.000Z</time>
        <extensions>
          <ns3:TrackPointExtension>
            <ns3:atemp>18.0</ns3:atemp>
          </ns3:TrackPointExtension>
        </extensions>
      </trkpt>
      <trkpt lat="31.43449815921485424041748046875" lon="119.480138830840587615966796875">
        <ele>-24</ele>
        <time>2015-10-14T22:11:54.000Z</time>
        <extensions>
          <ns3:TrackPointExtension>
            <ns3:atemp>18.0</ns3:atemp>
          </ns3:TrackPointExtension>
        </extensions>
      </trkpt>
      <trkpt lat="31.434512324631214141845703125" lon="119.48014947585761547088623046875">
        <ele>-23.799999237060546875</ele>
        <time>2015-10-14T22:11:55.000Z</time>
        <extensions>
          <ns3:TrackPointExtension>
            <ns3:atemp>18.0</ns3:atemp>
          </ns3:TrackPointExtension>
        </extensions>
      </trkpt>
      <trkpt lat="31.434525065124034881591796875" lon="119.48016020469367504119873046875">
        <ele>-23.799999237060546875</ele>
        <time>2015-10-14T22:11:56.000Z</time>
        <extensions>
          <ns3:TrackPointExtension>
            <ns3:atemp>18.0</ns3:atemp>
          </ns3:TrackPointExtension>
        </extensions>
      </trkpt>
      <trkpt lat="31.4345406554639339447021484375" lon="119.48017093352973461151123046875">
        <ele>-23.799999237060546875</ele>
        <time>2015-10-14T22:11:57.000Z</time>
        <extensions>
          <ns3:TrackPointExtension>
            <ns3:atemp>18.0</ns3:atemp>
          </ns3:TrackPointExtension>
        </extensions>
      </trkpt>
      <trkpt lat="31.43459522165358066558837890625" lon="119.48022030293941497802734375">
        <ele>-23.799999237060546875</ele>
        <time>2015-10-14T22:12:01.000Z</time>
        <extensions>
          <ns3:TrackPointExtension>
            <ns3:atemp>18.0</ns3:atemp>
          </ns3:TrackPointExtension>
        </extensions>
      </trkpt>
      <trkpt lat="31.43460930325090885162353515625" lon="119.48022969067096710205078125">
        <ele>-23.799999237060546875</ele>
        <time>2015-10-14T22:12:02.000Z</time>
        <extensions>
          <ns3:TrackPointExtension>
            <ns3:atemp>18.0</ns3:atemp>
          </ns3:TrackPointExtension>
        </extensions>
      </trkpt>
      <trkpt lat="31.4346258156001567840576171875" lon="119.48023715056478977203369140625">
        <ele>-23.799999237060546875</ele>
        <time>2015-10-14T22:12:03.000Z</time>
        <extensions>
          <ns3:TrackPointExtension>
            <ns3:atemp>18.0</ns3:atemp>
          </ns3:TrackPointExtension>
        </extensions>
      </trkpt>
      <trkpt lat="31.43463880755007266998291015625" lon="119.48024536482989788055419921875">
        <ele>-23.6000003814697265625</ele>
        <time>2015-10-14T22:12:04.000Z</time>
        <extensions>
          <ns3:TrackPointExtension>
            <ns3:atemp>18.0</ns3:atemp>
          </ns3:TrackPointExtension>
        </extensions>
      </trkpt>
      <trkpt lat="31.43465305678546428680419921875" lon="119.48025248944759368896484375">
        <ele>-23.6000003814697265625</ele>
        <time>2015-10-14T22:12:05.000Z</time>
        <extensions>
          <ns3:TrackPointExtension>
            <ns3:atemp>18.0</ns3:atemp>
          </ns3:TrackPointExtension>
        </extensions>
      </trkpt>
      <trkpt lat="31.434665210545063018798828125" lon="119.48025559075176715850830078125">
        <ele>-23.6000003814697265625</ele>
        <time>2015-10-14T22:12:06.000Z</time>
        <extensions>
          <ns3:TrackPointExtension>
            <ns3:atemp>18.0</ns3:atemp>
          </ns3:TrackPointExtension>
        </extensions>
      </trkpt>
      <trkpt lat="31.43467468209564685821533203125" lon="119.48026229627430438995361328125">
        <ele>-23.6000003814697265625</ele>
        <time>2015-10-14T22:12:07.000Z</time>
        <extensions>
          <ns3:TrackPointExtension>
            <ns3:atemp>18.0</ns3:atemp>
          </ns3:TrackPointExtension>
        </extensions>
      </trkpt>
      <trkpt lat="31.43468641676008701324462890625" lon="119.48026699014008045196533203125">
        <ele>-23.6000003814697265625</ele>
        <time>2015-10-14T22:12:08.000Z</time>
        <extensions>
          <ns3:TrackPointExtension>
            <ns3:atemp>18.0</ns3:atemp>
          </ns3:TrackPointExtension>
        </extensions>
      </trkpt>
      <trkpt lat="31.43469865433871746063232421875" lon="119.480273611843585968017578125">
        <ele>-23.6000003814697265625</ele>
        <time>2015-10-14T22:12:09.000Z</time>
        <extensions>
          <ns3:TrackPointExtension>
            <ns3:atemp>18.0</ns3:atemp>
          </ns3:TrackPointExtension>
        </extensions>
      </trkpt>
      <trkpt lat="31.4347089640796184539794921875" lon="119.48028090409934520721435546875">
        <ele>-23.6000003814697265625</ele>
        <time>2015-10-14T22:12:10.000Z</time>
        <extensions>
          <ns3:TrackPointExtension>
            <ns3:atemp>18.0</ns3:atemp>
          </ns3:TrackPointExtension>
        </extensions>
      </trkpt>
      <trkpt lat="31.4347183518111705780029296875" lon="119.48028869926929473876953125">
        <ele>-23.6000003814697265625</ele>
        <time>2015-10-14T22:12:11.000Z</time>
        <extensions>
          <ns3:TrackPointExtension>
            <ns3:atemp>18.0</ns3:atemp>
          </ns3:TrackPointExtension>
        </extensions>
      </trkpt>
      <trkpt lat="31.43472866155207157135009765625" lon="119.48029448278248310089111328125">
        <ele>-23.3999996185302734375</ele>
        <time>2015-10-14T22:12:12.000Z</time>
        <extensions>
          <ns3:TrackPointExtension>
            <ns3:atemp>18.0</ns3:atemp>
          </ns3:TrackPointExtension>
        </extensions>
      </trkpt>
      <trkpt lat="31.43474056385457515716552734375" lon="119.48029750026762485504150390625">
        <ele>-23.3999996185302734375</ele>
        <time>2015-10-14T22:12:13.000Z</time>
        <extensions>
          <ns3:TrackPointExtension>
            <ns3:atemp>18.0</ns3:atemp>
          </ns3:TrackPointExtension>
        </extensions>
      </trkpt>
      <trkpt lat="31.4347522146999835968017578125" lon="119.48030479252338409423828125">
        <ele>-23.3999996185302734375</ele>
        <time>2015-10-14T22:12:14.000Z</time>
        <extensions>
          <ns3:TrackPointExtension>
            <ns3:atemp>18.0</ns3:atemp>
          </ns3:TrackPointExtension>
        </extensions>
      </trkpt>
      <trkpt lat="31.43476470373570919036865234375" lon="119.48031309060752391815185546875">
        <ele>-23.3999996185302734375</ele>
        <time>2015-10-14T22:12:15.000Z</time>
        <extensions>
          <ns3:TrackPointExtension>
            <ns3:atemp>18.0</ns3:atemp>
          </ns3:TrackPointExtension>
        </extensions>
      </trkpt>
      <trkpt lat="31.43477627076208591461181640625" lon="119.48032180778682231903076171875">
        <ele>-23.3999996185302734375</ele>
        <time>2015-10-14T22:12:16.000Z</time>
        <extensions>
          <ns3:TrackPointExtension>
            <ns3:atemp>18.0</ns3:atemp>
          </ns3:TrackPointExtension>
        </extensions>
      </trkpt>
      <trkpt lat="31.43478767015039920806884765625" lon="119.4803337939083576202392578125">
        <ele>-23.3999996185302734375</ele>
        <time>2015-10-14T22:12:17.000Z</time>
        <extensions>
          <ns3:TrackPointExtension>
            <ns3:atemp>18.0</ns3:atemp>
          </ns3:TrackPointExtension>
        </extensions>
      </trkpt>
      <trkpt lat="31.4349483512341976165771484375" lon="119.48048223741352558135986328125">
        <ele>-23.200000762939453125</ele>
        <time>2015-10-14T22:12:30.000Z</time>
        <extensions>
          <ns3:TrackPointExtension>
            <ns3:atemp>18.0</ns3:atemp>
          </ns3:TrackPointExtension>
        </extensions>
      </trkpt>
      <trkpt lat="31.43512747250497341156005859375" lon="119.48058365844190120697021484375">
        <ele>-22.3999996185302734375</ele>
        <time>2015-10-14T22:12:44.000Z</time>
        <extensions>
          <ns3:TrackPointExtension>
            <ns3:atemp>17.0</ns3:atemp>
          </ns3:TrackPointExtension>
        </extensions>
      </trkpt>
      <trkpt lat="31.4352028258144855499267578125" lon="119.480612240731716156005859375">
        <ele>-22.200000762939453125</ele>
        <time>2015-10-14T22:12:50.000Z</time>
        <extensions>
          <ns3:TrackPointExtension>
            <ns3:atemp>17.0</ns3:atemp>
          </ns3:TrackPointExtension>
        </extensions>
      </trkpt>
      <trkpt lat="31.43521665595471858978271484375" lon="119.480617605149745941162109375">
        <ele>-22.200000762939453125</ele>
        <time>2015-10-14T22:12:51.000Z</time>
        <extensions>
          <ns3:TrackPointExtension>
            <ns3:atemp>17.0</ns3:atemp>
          </ns3:TrackPointExtension>
        </extensions>
      </trkpt>
      <trkpt lat="31.43522906117141246795654296875" lon="119.48062607087194919586181640625">
        <ele>-22.200000762939453125</ele>
        <time>2015-10-14T22:12:52.000Z</time>
        <extensions>
          <ns3:TrackPointExtension>
            <ns3:atemp>17.0</ns3:atemp>
          </ns3:TrackPointExtension>
        </extensions>
      </trkpt>
      <trkpt lat="31.4352397061884403228759765625" lon="119.48063026182353496551513671875">
        <ele>-22.200000762939453125</ele>
        <time>2015-10-14T22:12:53.000Z</time>
        <extensions>
          <ns3:TrackPointExtension>
            <ns3:atemp>17.0</ns3:atemp>
          </ns3:TrackPointExtension>
        </extensions>
      </trkpt>
      <trkpt lat="31.43525152467191219329833984375" lon="119.48063361458480358123779296875">
        <ele>-22.200000762939453125</ele>
        <time>2015-10-14T22:12:54.000Z</time>
        <extensions>
          <ns3:TrackPointExtension>
            <ns3:atemp>17.0</ns3:atemp>
          </ns3:TrackPointExtension>
        </extensions>
      </trkpt>
      <trkpt lat="31.43526074476540088653564453125" lon="119.4806375540792942047119140625">
        <ele>-22.200000762939453125</ele>
        <time>2015-10-14T22:12:55.000Z</time>
        <extensions>
          <ns3:TrackPointExtension>
            <ns3:atemp>17.0</ns3:atemp>
          </ns3:TrackPointExtension>
        </extensions>
      </trkpt>
      <trkpt lat="31.4352722279727458953857421875" lon="119.48064032010734081268310546875">
        <ele>-22.200000762939453125</ele>
        <time>2015-10-14T22:12:56.000Z</time>
        <extensions>
          <ns3:TrackPointExtension>
            <ns3:atemp>17.0</ns3:atemp>
          </ns3:TrackPointExtension>
        </extensions>
      </trkpt>
      <trkpt lat="31.4352842979133129119873046875" lon="119.48064300231635570526123046875">
        <ele>-22.200000762939453125</ele>
        <time>2015-10-14T22:12:57.000Z</time>
        <extensions>
          <ns3:TrackPointExtension>
            <ns3:atemp>17.0</ns3:atemp>
          </ns3:TrackPointExtension>
        </extensions>
      </trkpt>
      <trkpt lat="31.43534674309194087982177734375" lon="119.48067015968263149261474609375">
        <ele>-22.200000762939453125</ele>
        <time>2015-10-14T22:13:02.000Z</time>
        <extensions>
          <ns3:TrackPointExtension>
            <ns3:atemp>17.0</ns3:atemp>
          </ns3:TrackPointExtension>
        </extensions>
      </trkpt>
      <trkpt lat="31.43542058765888214111328125" lon="119.4808152504265308380126953125">
        <ele>-23.3999996185302734375</ele>
        <time>2015-10-14T22:13:14.000Z</time>
        <extensions>
          <ns3:TrackPointExtension>
            <ns3:atemp>17.0</ns3:atemp>
          </ns3:TrackPointExtension>
        </extensions>
      </trkpt>
      <trkpt lat="31.4354158937931060791015625" lon="119.48082606308162212371826171875">
        <ele>-23.3999996185302734375</ele>
        <time>2015-10-14T22:13:15.000Z</time>
        <extensions>
          <ns3:TrackPointExtension>
            <ns3:atemp>17.0</ns3:atemp>
          </ns3:TrackPointExtension>
        </extensions>
      </trkpt>
      <trkpt lat="31.43540658988058567047119140625" lon="119.48083796538412570953369140625">
        <ele>-23.6000003814697265625</ele>
        <time>2015-10-14T22:13:16.000Z</time>
        <extensions>
          <ns3:TrackPointExtension>
            <ns3:atemp>17.0</ns3:atemp>
          </ns3:TrackPointExtension>
        </extensions>
      </trkpt>
      <trkpt lat="31.43539669923484325408935546875" lon="119.48084567673504352569580078125">
        <ele>-23.6000003814697265625</ele>
        <time>2015-10-14T22:13:17.000Z</time>
        <extensions>
          <ns3:TrackPointExtension>
            <ns3:atemp>17.0</ns3:atemp>
          </ns3:TrackPointExtension>
        </extensions>
      </trkpt>
      <trkpt lat="31.43538437783718109130859375" lon="119.480859339237213134765625">
        <ele>-23.6000003814697265625</ele>
        <time>2015-10-14T22:13:18.000Z</time>
        <extensions>
          <ns3:TrackPointExtension>
            <ns3:atemp>17.0</ns3:atemp>
          </ns3:TrackPointExtension>
        </extensions>
      </trkpt>
      <trkpt lat="31.4352561347186565399169921875" lon="119.48102018795907497406005859375">
        <ele>-24.3999996185302734375</ele>
        <time>2015-10-14T22:13:31.000Z</time>
        <extensions>
          <ns3:TrackPointExtension>
            <ns3:atemp>17.0</ns3:atemp>
          </ns3:TrackPointExtension>
        </extensions>
      </trkpt>
      <trkpt lat="31.43514742143452167510986328125" lon="119.481205679476261138916015625">
        <ele>-24.3999996185302734375</ele>
        <time>2015-10-14T22:13:44.000Z</time>
        <extensions>
          <ns3:TrackPointExtension>
            <ns3:atemp>17.0</ns3:atemp>
          </ns3:TrackPointExtension>
        </extensions>
      </trkpt>
      <trkpt lat="31.43503862433135509490966796875" lon="119.48139687068760395050048828125">
        <ele>-24.3999996185302734375</ele>
        <time>2015-10-14T22:13:57.000Z</time>
        <extensions>
          <ns3:TrackPointExtension>
            <ns3:atemp>17.0</ns3:atemp>
          </ns3:TrackPointExtension>
        </extensions>
      </trkpt>
      <trkpt lat="31.434924043715000152587890625" lon="119.481575824320316314697265625">
        <ele>-24.6000003814697265625</ele>
        <time>2015-10-14T22:14:10.000Z</time>
        <extensions>
          <ns3:TrackPointExtension>
            <ns3:atemp>17.0</ns3:atemp>
          </ns3:TrackPointExtension>
        </extensions>
      </trkpt>
      <trkpt lat="31.4347984828054904937744140625" lon="119.48173684068024158477783203125">
        <ele>-24.6000003814697265625</ele>
        <time>2015-10-14T22:14:23.000Z</time>
        <extensions>
          <ns3:TrackPointExtension>
            <ns3:atemp>17.0</ns3:atemp>
          </ns3:TrackPointExtension>
        </extensions>
      </trkpt>
      <trkpt lat="31.4346729218959808349609375" lon="119.481889642775058746337890625">
        <ele>-24.6000003814697265625</ele>
        <time>2015-10-14T22:14:37.000Z</time>
        <extensions>
          <ns3:TrackPointExtension>
            <ns3:atemp>17.0</ns3:atemp>
          </ns3:TrackPointExtension>
        </extensions>
      </trkpt>
      <trkpt lat="31.4345698244869709014892578125" lon="119.48206155560910701751708984375">
        <ele>-24.6000003814697265625</ele>
        <time>2015-10-14T22:14:50.000Z</time>
        <extensions>
          <ns3:TrackPointExtension>
            <ns3:atemp>17.0</ns3:atemp>
          </ns3:TrackPointExtension>
        </extensions>
      </trkpt>
      <trkpt lat="31.4345282502472400665283203125" lon="119.48213137686252593994140625">
        <ele>-24.3999996185302734375</ele>
        <time>2015-10-14T22:14:55.000Z</time>
        <extensions>
          <ns3:TrackPointExtension>
            <ns3:atemp>17.0</ns3:atemp>
          </ns3:TrackPointExtension>
        </extensions>
      </trkpt>
      <trkpt lat="31.4345178566873073577880859375" lon="119.48214621283113956451416015625">
        <ele>-24.3999996185302734375</ele>
        <time>2015-10-14T22:14:56.000Z</time>
        <extensions>
          <ns3:TrackPointExtension>
            <ns3:atemp>17.0</ns3:atemp>
          </ns3:TrackPointExtension>
        </extensions>
      </trkpt>
      <trkpt lat="31.4345098100602626800537109375" lon="119.4821597076952457427978515625">
        <ele>-24.3999996185302734375</ele>
        <time>2015-10-14T22:14:57.000Z</time>
        <extensions>
          <ns3:TrackPointExtension>
            <ns3:atemp>17.0</ns3:atemp>
          </ns3:TrackPointExtension>
        </extensions>
      </trkpt>
      <trkpt lat="31.4345034398138523101806640625" lon="119.48217437602579593658447265625">
        <ele>-24.6000003814697265625</ele>
        <time>2015-10-14T22:14:58.000Z</time>
        <extensions>
          <ns3:TrackPointExtension>
            <ns3:atemp>17.0</ns3:atemp>
          </ns3:TrackPointExtension>
        </extensions>
      </trkpt>
      <trkpt lat="31.43449597992002964019775390625" lon="119.48218778707087039947509765625">
        <ele>-24.6000003814697265625</ele>
        <time>2015-10-14T22:14:59.000Z</time>
        <extensions>
          <ns3:TrackPointExtension>
            <ns3:atemp>17.0</ns3:atemp>
          </ns3:TrackPointExtension>
        </extensions>
      </trkpt>
      <trkpt lat="31.43438969738781452178955078125" lon="119.48235609568655490875244140625">
        <ele>-24.3999996185302734375</ele>
        <time>2015-10-14T22:15:12.000Z</time>
        <extensions>
          <ns3:TrackPointExtension>
            <ns3:atemp>17.0</ns3:atemp>
          </ns3:TrackPointExtension>
        </extensions>
      </trkpt>
      <trkpt lat="31.43439740873873233795166015625" lon="119.48237034492194652557373046875">
        <ele>-24.3999996185302734375</ele>
        <time>2015-10-14T22:15:13.000Z</time>
        <extensions>
          <ns3:TrackPointExtension>
            <ns3:atemp>17.0</ns3:atemp>
          </ns3:TrackPointExtension>
        </extensions>
      </trkpt>
      <trkpt lat="31.4344041980803012847900390625" lon="119.48238677345216274261474609375">
        <ele>-24.3999996185302734375</ele>
        <time>2015-10-14T22:15:14.000Z</time>
        <extensions>
          <ns3:TrackPointExtension>
            <ns3:atemp>17.0</ns3:atemp>
          </ns3:TrackPointExtension>
        </extensions>
      </trkpt>
      <trkpt lat="31.4344149269163608551025390625" lon="119.4823997654020786285400390625">
        <ele>-24.3999996185302734375</ele>
        <time>2015-10-14T22:15:15.000Z</time>
        <extensions>
          <ns3:TrackPointExtension>
            <ns3:atemp>17.0</ns3:atemp>
          </ns3:TrackPointExtension>
        </extensions>
      </trkpt>
      <trkpt lat="31.43442590720951557159423828125" lon="119.48241032660007476806640625">
        <ele>-24.200000762939453125</ele>
        <time>2015-10-14T22:15:16.000Z</time>
        <extensions>
          <ns3:TrackPointExtension>
            <ns3:atemp>17.0</ns3:atemp>
          </ns3:TrackPointExtension>
        </extensions>
      </trkpt>
      <trkpt lat="31.43443177454173564910888671875" lon="119.4824155233800411224365234375">
        <ele>-24</ele>
        <time>2015-10-14T22:15:17.000Z</time>
        <extensions>
          <ns3:TrackPointExtension>
            <ns3:atemp>17.0</ns3:atemp>
          </ns3:TrackPointExtension>
        </extensions>
      </trkpt>
      <trkpt lat="31.43444451503455638885498046875" lon="119.4824265874922275543212890625">
        <ele>-23.799999237060546875</ele>
        <time>2015-10-14T22:15:18.000Z</time>
        <extensions>
          <ns3:TrackPointExtension>
            <ns3:atemp>17.0</ns3:atemp>
          </ns3:TrackPointExtension>
        </extensions>
      </trkpt>
      <trkpt lat="31.43445432186126708984375" lon="119.4824336282908916473388671875">
        <ele>-24</ele>
        <time>2015-10-14T22:15:19.000Z</time>
        <extensions>
          <ns3:TrackPointExtension>
            <ns3:atemp>17.0</ns3:atemp>
          </ns3:TrackPointExtension>
        </extensions>
      </trkpt>
      <trkpt lat="31.43459170125424861907958984375" lon="119.482398591935634613037109375">
        <ele>-24.3999996185302734375</ele>
        <time>2015-10-14T22:15:34.000Z</time>
        <extensions>
          <ns3:TrackPointExtension>
            <ns3:atemp>17.0</ns3:atemp>
          </ns3:TrackPointExtension>
        </extensions>
      </trkpt>
      <trkpt lat="31.43460008315742015838623046875" lon="119.48238794691860675811767578125">
        <ele>-24.3999996185302734375</ele>
        <time>2015-10-14T22:15:35.000Z</time>
        <extensions>
          <ns3:TrackPointExtension>
            <ns3:atemp>17.0</ns3:atemp>
          </ns3:TrackPointExtension>
        </extensions>
      </trkpt>
      <trkpt lat="31.43473922275006771087646484375" lon="119.48238023556768894195556640625">
        <ele>-24.200000762939453125</ele>
        <time>2015-10-14T22:15:47.000Z</time>
        <extensions>
          <ns3:TrackPointExtension>
            <ns3:atemp>17.0</ns3:atemp>
          </ns3:TrackPointExtension>
        </extensions>
      </trkpt>
      <trkpt lat="31.43496318720281124114990234375" lon="119.4824165292084217071533203125">
        <ele>-24.200000762939453125</ele>
        <time>2015-10-14T22:16:01.000Z</time>
        <extensions>
          <ns3:TrackPointExtension>
            <ns3:atemp>17.0</ns3:atemp>
          </ns3:TrackPointExtension>
        </extensions>
      </trkpt>
      <trkpt lat="31.43518480472266674041748046875" lon="119.48241476900875568389892578125">
        <ele>-24</ele>
        <time>2015-10-14T22:16:17.000Z</time>
        <extensions>
          <ns3:TrackPointExtension>
            <ns3:atemp>17.0</ns3:atemp>
          </ns3:TrackPointExtension>
        </extensions>
      </trkpt>
      <trkpt lat="31.4352045021951198577880859375" lon="119.48240890167653560638427734375">
        <ele>-24</ele>
        <time>2015-10-14T22:16:19.000Z</time>
        <extensions>
          <ns3:TrackPointExtension>
            <ns3:atemp>17.0</ns3:atemp>
          </ns3:TrackPointExtension>
        </extensions>
      </trkpt>
      <trkpt lat="31.43521380610764026641845703125" lon="119.4824071414768695831298828125">
        <ele>-24</ele>
        <time>2015-10-14T22:16:20.000Z</time>
        <extensions>
          <ns3:TrackPointExtension>
            <ns3:atemp>17.0</ns3:atemp>
          </ns3:TrackPointExtension>
        </extensions>
      </trkpt>
      <trkpt lat="31.43522554077208042144775390625" lon="119.4824029505252838134765625">
        <ele>-24</ele>
        <time>2015-10-14T22:16:21.000Z</time>
        <extensions>
          <ns3:TrackPointExtension>
            <ns3:atemp>17.0</ns3:atemp>
          </ns3:TrackPointExtension>
        </extensions>
      </trkpt>
      <trkpt lat="31.43523861654102802276611328125" lon="119.4823949038982391357421875">
        <ele>-24</ele>
        <time>2015-10-14T22:16:22.000Z</time>
        <extensions>
          <ns3:TrackPointExtension>
            <ns3:atemp>17.0</ns3:atemp>
          </ns3:TrackPointExtension>
        </extensions>
      </trkpt>
    </trkseg>
  </trk>
</gpx>
