<gpx xmlns:ns3="http://www.garmin.com/xmlschemas/TrackPointExtension/v1" xmlns="http://www.topografix.com/GPX/1/1" xmlns:xsi="http://www.w3.org/2001/XMLSchema-instance" xmlns:ns2="http://www.garmin.com/xmlschemas/GpxExtensions/v3" creator="Garmin Connect" version="1.1" xsi:schemaLocation="http://www.topografix.com/GPX/1/1 http://www.topografix.com/GPX/11.xsd">
  <extensions>
<distance>4998.89</distance>
<average_hr></average_hr>
<average_speed>5.887974248196406</average_speed>
<start_time>2015-08-04T23:42:13+00:00</start_time>
<end_time>2015-08-04T23:56:22+00:00</end_time>
<moving_time>818.0</moving_time>
<elapsed_time>849.0</elapsed_time>
</extensions>
<metadata>
    <link href="connect.garmin.com">
      <text>Garmin Connect</text>
    </link>
    <time>2015-08-04T23:42:13.000Z</time>
  </metadata>
  <trk>
    <name>朝阳区 骑行</name>
    <type>cycling</type>
    <trkseg>
      <trkpt lat="40.05378001369535923004150390625" lon="116.585871018469333648681640625">
        <ele>48</ele>
        <time>2015-08-04T23:42:39.000Z</time>
        <extensions>
          <ns3:TrackPointExtension>
            <ns3:atemp>28.0</ns3:atemp>
          </ns3:TrackPointExtension>
        </extensions>
      </trkpt>
      <trkpt lat="40.05390188656747341156005859375" lon="116.5858550928533077239990234375">
        <ele>48</ele>
        <time>2015-08-04T23:42:40.000Z</time>
        <extensions>
          <ns3:TrackPointExtension>
            <ns3:atemp>28.0</ns3:atemp>
          </ns3:TrackPointExtension>
        </extensions>
      </trkpt>
      <trkpt lat="40.0539336539804935455322265625" lon="116.585838161408901214599609375">
        <ele>21.799999237060546875</ele>
        <time>2015-08-04T23:42:41.000Z</time>
        <extensions>
          <ns3:TrackPointExtension>
            <ns3:atemp>28.0</ns3:atemp>
          </ns3:TrackPointExtension>
        </extensions>
      </trkpt>
      <trkpt lat="40.05402660928666591644287109375" lon="116.58578694798052310943603515625">
        <ele>21.799999237060546875</ele>
        <time>2015-08-04T23:42:42.000Z</time>
        <extensions>
          <ns3:TrackPointExtension>
            <ns3:atemp>28.0</ns3:atemp>
          </ns3:TrackPointExtension>
        </extensions>
      </trkpt>
      <trkpt lat="40.05400666035711765289306640625" lon="116.5857746265828609466552734375">
        <ele>22</ele>
        <time>2015-08-04T23:42:43.000Z</time>
        <extensions>
          <ns3:TrackPointExtension>
            <ns3:atemp>28.0</ns3:atemp>
          </ns3:TrackPointExtension>
        </extensions>
      </trkpt>
      <trkpt lat="40.05403809249401092529296875" lon="116.58575140871107578277587890625">
        <ele>22</ele>
        <time>2015-08-04T23:42:44.000Z</time>
        <extensions>
          <ns3:TrackPointExtension>
            <ns3:atemp>28.0</ns3:atemp>
          </ns3:TrackPointExtension>
        </extensions>
      </trkpt>
      <trkpt lat="40.0540908984839916229248046875" lon="116.58571285195648670196533203125">
        <ele>22.3999996185302734375</ele>
        <time>2015-08-04T23:42:46.000Z</time>
        <extensions>
          <ns3:TrackPointExtension>
            <ns3:atemp>28.0</ns3:atemp>
          </ns3:TrackPointExtension>
        </extensions>
      </trkpt>
      <trkpt lat="40.054218471050262451171875" lon="116.58573112450540065765380859375">
        <ele>23</ele>
        <time>2015-08-04T23:42:50.000Z</time>
        <extensions>
          <ns3:TrackPointExtension>
            <ns3:atemp>28.0</ns3:atemp>
          </ns3:TrackPointExtension>
        </extensions>
      </trkpt>
      <trkpt lat="40.05440915934741497039794921875" lon="116.58587344922125339508056640625">
        <ele>23</ele>
        <time>2015-08-04T23:42:53.000Z</time>
        <extensions>
          <ns3:TrackPointExtension>
            <ns3:atemp>28.0</ns3:atemp>
          </ns3:TrackPointExtension>
        </extensions>
      </trkpt>
      <trkpt lat="40.05428996868431568145751953125" lon="116.5859110839664936065673828125">
        <ele>23</ele>
        <time>2015-08-04T23:42:54.000Z</time>
        <extensions>
          <ns3:TrackPointExtension>
            <ns3:atemp>28.0</ns3:atemp>
          </ns3:TrackPointExtension>
        </extensions>
      </trkpt>
      <trkpt lat="40.054342858493328094482421875" lon="116.5859603695571422576904296875">
        <ele>22.799999237060546875</ele>
        <time>2015-08-04T23:42:55.000Z</time>
        <extensions>
          <ns3:TrackPointExtension>
            <ns3:atemp>28.0</ns3:atemp>
          </ns3:TrackPointExtension>
        </extensions>
      </trkpt>
      <trkpt lat="40.05447269417345523834228515625" lon="116.58599465154111385345458984375">
        <ele>22.6000003814697265625</ele>
        <time>2015-08-04T23:42:56.000Z</time>
        <extensions>
          <ns3:TrackPointExtension>
            <ns3:atemp>28.0</ns3:atemp>
          </ns3:TrackPointExtension>
        </extensions>
      </trkpt>
      <trkpt lat="40.05453270860016345977783203125" lon="116.5860378183424472808837890625">
        <ele>22.6000003814697265625</ele>
        <time>2015-08-04T23:42:57.000Z</time>
        <extensions>
          <ns3:TrackPointExtension>
            <ns3:atemp>28.0</ns3:atemp>
          </ns3:TrackPointExtension>
        </extensions>
      </trkpt>
      <trkpt lat="40.0546370632946491241455078125" lon="116.5860840864479541778564453125">
        <ele>22.3999996185302734375</ele>
        <time>2015-08-04T23:42:58.000Z</time>
        <extensions>
          <ns3:TrackPointExtension>
            <ns3:atemp>28.0</ns3:atemp>
          </ns3:TrackPointExtension>
        </extensions>
      </trkpt>
      <trkpt lat="40.05460076965391635894775390625" lon="116.58609121106564998626708984375">
        <ele>22.200000762939453125</ele>
        <time>2015-08-04T23:42:59.000Z</time>
        <extensions>
          <ns3:TrackPointExtension>
            <ns3:atemp>28.0</ns3:atemp>
          </ns3:TrackPointExtension>
        </extensions>
      </trkpt>
      <trkpt lat="40.05466145463287830352783203125" lon="116.5861216373741626739501953125">
        <ele>22</ele>
        <time>2015-08-04T23:43:00.000Z</time>
        <extensions>
          <ns3:TrackPointExtension>
            <ns3:atemp>28.0</ns3:atemp>
          </ns3:TrackPointExtension>
        </extensions>
      </trkpt>
      <trkpt lat="40.0546608678996562957763671875" lon="116.58615742810070514678955078125">
        <ele>22</ele>
        <time>2015-08-04T23:43:01.000Z</time>
        <extensions>
          <ns3:TrackPointExtension>
            <ns3:atemp>28.0</ns3:atemp>
          </ns3:TrackPointExtension>
        </extensions>
      </trkpt>
      <trkpt lat="40.05476907826960086822509765625" lon="116.58619782887399196624755859375">
        <ele>22</ele>
        <time>2015-08-04T23:43:02.000Z</time>
        <extensions>
          <ns3:TrackPointExtension>
            <ns3:atemp>28.0</ns3:atemp>
          </ns3:TrackPointExtension>
        </extensions>
      </trkpt>
      <trkpt lat="40.05482506938278675079345703125" lon="116.5861786343157291412353515625">
        <ele>22</ele>
        <time>2015-08-04T23:43:03.000Z</time>
        <extensions>
          <ns3:TrackPointExtension>
            <ns3:atemp>28.0</ns3:atemp>
          </ns3:TrackPointExtension>
        </extensions>
      </trkpt>
      <trkpt lat="40.0548787973821163177490234375" lon="116.58615139313042163848876953125">
        <ele>21.799999237060546875</ele>
        <time>2015-08-04T23:43:04.000Z</time>
        <extensions>
          <ns3:TrackPointExtension>
            <ns3:atemp>28.0</ns3:atemp>
          </ns3:TrackPointExtension>
        </extensions>
      </trkpt>
      <trkpt lat="40.05494342185556888580322265625" lon="116.5861095674335956573486328125">
        <ele>21.3999996185302734375</ele>
        <time>2015-08-04T23:43:05.000Z</time>
        <extensions>
          <ns3:TrackPointExtension>
            <ns3:atemp>28.0</ns3:atemp>
          </ns3:TrackPointExtension>
        </extensions>
      </trkpt>
      <trkpt lat="40.05501584149897098541259765625" lon="116.586103700101375579833984375">
        <ele>21</ele>
        <time>2015-08-04T23:43:06.000Z</time>
        <extensions>
          <ns3:TrackPointExtension>
            <ns3:atemp>28.0</ns3:atemp>
          </ns3:TrackPointExtension>
        </extensions>
      </trkpt>
      <trkpt lat="40.05500611849129199981689453125" lon="116.586029268801212310791015625">
        <ele>20.799999237060546875</ele>
        <time>2015-08-04T23:43:07.000Z</time>
        <extensions>
          <ns3:TrackPointExtension>
            <ns3:atemp>28.0</ns3:atemp>
          </ns3:TrackPointExtension>
        </extensions>
      </trkpt>
      <trkpt lat="40.0550276599824428558349609375" lon="116.58598593436181545257568359375">
        <ele>20.799999237060546875</ele>
        <time>2015-08-04T23:43:08.000Z</time>
        <extensions>
          <ns3:TrackPointExtension>
            <ns3:atemp>28.0</ns3:atemp>
          </ns3:TrackPointExtension>
        </extensions>
      </trkpt>
      <trkpt lat="40.05504970438778400421142578125" lon="116.58594243228435516357421875">
        <ele>20.799999237060546875</ele>
        <time>2015-08-04T23:43:09.000Z</time>
        <extensions>
          <ns3:TrackPointExtension>
            <ns3:atemp>28.0</ns3:atemp>
          </ns3:TrackPointExtension>
        </extensions>
      </trkpt>
      <trkpt lat="40.05537257529795169830322265625" lon="116.58541194163262844085693359375">
        <ele>19.799999237060546875</ele>
        <time>2015-08-04T23:43:18.000Z</time>
        <extensions>
          <ns3:TrackPointExtension>
            <ns3:atemp>28.0</ns3:atemp>
          </ns3:TrackPointExtension>
        </extensions>
      </trkpt>
      <trkpt lat="40.0557889044284820556640625" lon="116.5848670341074466705322265625">
        <ele>19.6000003814697265625</ele>
        <time>2015-08-04T23:43:27.000Z</time>
        <extensions>
          <ns3:TrackPointExtension>
            <ns3:atemp>27.0</ns3:atemp>
          </ns3:TrackPointExtension>
        </extensions>
      </trkpt>
      <trkpt lat="40.05586735904216766357421875" lon="116.5848244540393352508544921875">
        <ele>19.6000003814697265625</ele>
        <time>2015-08-04T23:43:28.000Z</time>
        <extensions>
          <ns3:TrackPointExtension>
            <ns3:atemp>27.0</ns3:atemp>
          </ns3:TrackPointExtension>
        </extensions>
      </trkpt>
      <trkpt lat="40.05593332462012767791748046875" lon="116.58478640019893646240234375">
        <ele>19.6000003814697265625</ele>
        <time>2015-08-04T23:43:29.000Z</time>
        <extensions>
          <ns3:TrackPointExtension>
            <ns3:atemp>27.0</ns3:atemp>
          </ns3:TrackPointExtension>
        </extensions>
      </trkpt>
      <trkpt lat="40.05599476397037506103515625" lon="116.58475287258625030517578125">
        <ele>19.3999996185302734375</ele>
        <time>2015-08-04T23:43:30.000Z</time>
        <extensions>
          <ns3:TrackPointExtension>
            <ns3:atemp>27.0</ns3:atemp>
          </ns3:TrackPointExtension>
        </extensions>
      </trkpt>
      <trkpt lat="40.056047402322292327880859375" lon="116.58472043462097644805908203125">
        <ele>19.3999996185302734375</ele>
        <time>2015-08-04T23:43:31.000Z</time>
        <extensions>
          <ns3:TrackPointExtension>
            <ns3:atemp>27.0</ns3:atemp>
          </ns3:TrackPointExtension>
        </extensions>
      </trkpt>
      <trkpt lat="40.05626223050057888031005859375" lon="116.5846383757889270782470703125">
        <ele>18.799999237060546875</ele>
        <time>2015-08-04T23:43:35.000Z</time>
        <extensions>
          <ns3:TrackPointExtension>
            <ns3:atemp>27.0</ns3:atemp>
          </ns3:TrackPointExtension>
        </extensions>
      </trkpt>
      <trkpt lat="40.056376643478870391845703125" lon="116.58461968414485454559326171875">
        <ele>18.799999237060546875</ele>
        <time>2015-08-04T23:43:37.000Z</time>
        <extensions>
          <ns3:TrackPointExtension>
            <ns3:atemp>27.0</ns3:atemp>
          </ns3:TrackPointExtension>
        </extensions>
      </trkpt>
      <trkpt lat="40.0571026839315891265869140625" lon="116.58450837247073650360107421875">
        <ele>18.799999237060546875</ele>
        <time>2015-08-04T23:43:47.000Z</time>
        <extensions>
          <ns3:TrackPointExtension>
            <ns3:atemp>27.0</ns3:atemp>
          </ns3:TrackPointExtension>
        </extensions>
      </trkpt>
      <trkpt lat="40.0578010641038417816162109375" lon="116.58441491425037384033203125">
        <ele>18.799999237060546875</ele>
        <time>2015-08-04T23:43:56.000Z</time>
        <extensions>
          <ns3:TrackPointExtension>
            <ns3:atemp>27.0</ns3:atemp>
          </ns3:TrackPointExtension>
        </extensions>
      </trkpt>
      <trkpt lat="40.05864419974386692047119140625" lon="116.58431961201131343841552734375">
        <ele>19.3999996185302734375</ele>
        <time>2015-08-04T23:44:05.000Z</time>
        <extensions>
          <ns3:TrackPointExtension>
            <ns3:atemp>27.0</ns3:atemp>
          </ns3:TrackPointExtension>
        </extensions>
      </trkpt>
      <trkpt lat="40.05920193158090114593505859375" lon="116.584231853485107421875">
        <ele>18.3999996185302734375</ele>
        <time>2015-08-04T23:44:14.000Z</time>
        <extensions>
          <ns3:TrackPointExtension>
            <ns3:atemp>27.0</ns3:atemp>
          </ns3:TrackPointExtension>
        </extensions>
      </trkpt>
      <trkpt lat="40.059740133583545684814453125" lon="116.58410503529012203216552734375">
        <ele>18.200000762939453125</ele>
        <time>2015-08-04T23:44:23.000Z</time>
        <extensions>
          <ns3:TrackPointExtension>
            <ns3:atemp>27.0</ns3:atemp>
          </ns3:TrackPointExtension>
        </extensions>
      </trkpt>
      <trkpt lat="40.06030566059052944183349609375" lon="116.58399942331016063690185546875">
        <ele>18.6000003814697265625</ele>
        <time>2015-08-04T23:44:33.000Z</time>
        <extensions>
          <ns3:TrackPointExtension>
            <ns3:atemp>27.0</ns3:atemp>
          </ns3:TrackPointExtension>
        </extensions>
      </trkpt>
      <trkpt lat="40.06090127862989902496337890625" lon="116.58386212773621082305908203125">
        <ele>19</ele>
        <time>2015-08-04T23:44:43.000Z</time>
        <extensions>
          <ns3:TrackPointExtension>
            <ns3:atemp>27.0</ns3:atemp>
          </ns3:TrackPointExtension>
        </extensions>
      </trkpt>
      <trkpt lat="40.0615387223660945892333984375" lon="116.583826504647731781005859375">
        <ele>18.3999996185302734375</ele>
        <time>2015-08-04T23:44:53.000Z</time>
        <extensions>
          <ns3:TrackPointExtension>
            <ns3:atemp>27.0</ns3:atemp>
          </ns3:TrackPointExtension>
        </extensions>
      </trkpt>
      <trkpt lat="40.06213425658643245697021484375" lon="116.583764143288135528564453125">
        <ele>19</ele>
        <time>2015-08-04T23:45:03.000Z</time>
        <extensions>
          <ns3:TrackPointExtension>
            <ns3:atemp>27.0</ns3:atemp>
          </ns3:TrackPointExtension>
        </extensions>
      </trkpt>
      <trkpt lat="40.06275795400142669677734375" lon="116.58370546996593475341796875">
        <ele>18.799999237060546875</ele>
        <time>2015-08-04T23:45:13.000Z</time>
        <extensions>
          <ns3:TrackPointExtension>
            <ns3:atemp>27.0</ns3:atemp>
          </ns3:TrackPointExtension>
        </extensions>
      </trkpt>
      <trkpt lat="40.0633562542498111724853515625" lon="116.5835926495492458343505859375">
        <ele>18.799999237060546875</ele>
        <time>2015-08-04T23:45:23.000Z</time>
        <extensions>
          <ns3:TrackPointExtension>
            <ns3:atemp>27.0</ns3:atemp>
          </ns3:TrackPointExtension>
        </extensions>
      </trkpt>
      <trkpt lat="40.06396302022039890289306640625" lon="116.5835017897188663482666015625">
        <ele>18.6000003814697265625</ele>
        <time>2015-08-04T23:45:33.000Z</time>
        <extensions>
          <ns3:TrackPointExtension>
            <ns3:atemp>27.0</ns3:atemp>
          </ns3:TrackPointExtension>
        </extensions>
      </trkpt>
      <trkpt lat="40.064595602452754974365234375" lon="116.58343398012220859527587890625">
        <ele>19</ele>
        <time>2015-08-04T23:45:43.000Z</time>
        <extensions>
          <ns3:TrackPointExtension>
            <ns3:atemp>27.0</ns3:atemp>
          </ns3:TrackPointExtension>
        </extensions>
      </trkpt>
      <trkpt lat="40.06520488299429416656494140625" lon="116.58332283608615398406982421875">
        <ele>18.3999996185302734375</ele>
        <time>2015-08-04T23:45:53.000Z</time>
        <extensions>
          <ns3:TrackPointExtension>
            <ns3:atemp>27.0</ns3:atemp>
          </ns3:TrackPointExtension>
        </extensions>
      </trkpt>
      <trkpt lat="40.06580335088074207305908203125" lon="116.5831839479506015777587890625">
        <ele>18.3999996185302734375</ele>
        <time>2015-08-04T23:46:03.000Z</time>
        <extensions>
          <ns3:TrackPointExtension>
            <ns3:atemp>27.0</ns3:atemp>
          </ns3:TrackPointExtension>
        </extensions>
      </trkpt>
      <trkpt lat="40.0664139725267887115478515625" lon="116.58309166319668292999267578125">
        <ele>19.6000003814697265625</ele>
        <time>2015-08-04T23:46:14.000Z</time>
        <extensions>
          <ns3:TrackPointExtension>
            <ns3:atemp>26.0</ns3:atemp>
          </ns3:TrackPointExtension>
        </extensions>
      </trkpt>
      <trkpt lat="40.06700296886265277862548828125" lon="116.58296342007815837860107421875">
        <ele>19.3999996185302734375</ele>
        <time>2015-08-04T23:46:24.000Z</time>
        <extensions>
          <ns3:TrackPointExtension>
            <ns3:atemp>26.0</ns3:atemp>
          </ns3:TrackPointExtension>
        </extensions>
      </trkpt>
      <trkpt lat="40.06732902489602565765380859375" lon="116.58293223939836025238037109375">
        <ele>19.799999237060546875</ele>
        <time>2015-08-04T23:46:30.000Z</time>
        <extensions>
          <ns3:TrackPointExtension>
            <ns3:atemp>26.0</ns3:atemp>
          </ns3:TrackPointExtension>
        </extensions>
      </trkpt>
      <trkpt lat="40.067919194698333740234375" lon="116.582786142826080322265625">
        <ele>20.6000003814697265625</ele>
        <time>2015-08-04T23:46:45.000Z</time>
        <extensions>
          <ns3:TrackPointExtension>
            <ns3:atemp>26.0</ns3:atemp>
          </ns3:TrackPointExtension>
        </extensions>
      </trkpt>
      <trkpt lat="40.0684655271470546722412109375" lon="116.58276108093559741973876953125">
        <ele>20.200000762939453125</ele>
        <time>2015-08-04T23:46:59.000Z</time>
        <extensions>
          <ns3:TrackPointExtension>
            <ns3:atemp>26.0</ns3:atemp>
          </ns3:TrackPointExtension>
        </extensions>
      </trkpt>
      <trkpt lat="40.06905837915837764739990234375" lon="116.5827212668955326080322265625">
        <ele>19.799999237060546875</ele>
        <time>2015-08-04T23:47:11.000Z</time>
        <extensions>
          <ns3:TrackPointExtension>
            <ns3:atemp>26.0</ns3:atemp>
          </ns3:TrackPointExtension>
        </extensions>
      </trkpt>
      <trkpt lat="40.06963287480175495147705078125" lon="116.58262914977967739105224609375">
        <ele>19.6000003814697265625</ele>
        <time>2015-08-04T23:47:22.000Z</time>
        <extensions>
          <ns3:TrackPointExtension>
            <ns3:atemp>26.0</ns3:atemp>
          </ns3:TrackPointExtension>
        </extensions>
      </trkpt>
      <trkpt lat="40.069683752954006195068359375" lon="116.58262588083744049072265625">
        <ele>19.6000003814697265625</ele>
        <time>2015-08-04T23:47:23.000Z</time>
        <extensions>
          <ns3:TrackPointExtension>
            <ns3:atemp>26.0</ns3:atemp>
          </ns3:TrackPointExtension>
        </extensions>
      </trkpt>
      <trkpt lat="40.0697402469813823699951171875" lon="116.58261087723076343536376953125">
        <ele>19.799999237060546875</ele>
        <time>2015-08-04T23:47:24.000Z</time>
        <extensions>
          <ns3:TrackPointExtension>
            <ns3:atemp>26.0</ns3:atemp>
          </ns3:TrackPointExtension>
        </extensions>
      </trkpt>
      <trkpt lat="40.07032220251858234405517578125" lon="116.58249981701374053955078125">
        <ele>19.799999237060546875</ele>
        <time>2015-08-04T23:47:34.000Z</time>
        <extensions>
          <ns3:TrackPointExtension>
            <ns3:atemp>26.0</ns3:atemp>
          </ns3:TrackPointExtension>
        </extensions>
      </trkpt>
      <trkpt lat="40.07089435122907161712646484375" lon="116.58235623501241207122802734375">
        <ele>19.3999996185302734375</ele>
        <time>2015-08-04T23:47:44.000Z</time>
        <extensions>
          <ns3:TrackPointExtension>
            <ns3:atemp>26.0</ns3:atemp>
          </ns3:TrackPointExtension>
        </extensions>
      </trkpt>
      <trkpt lat="40.07153305225074291229248046875" lon="116.5822572447359561920166015625">
        <ele>17.799999237060546875</ele>
        <time>2015-08-04T23:47:54.000Z</time>
        <extensions>
          <ns3:TrackPointExtension>
            <ns3:atemp>26.0</ns3:atemp>
          </ns3:TrackPointExtension>
        </extensions>
      </trkpt>
      <trkpt lat="40.07217342965304851531982421875" lon="116.58216655254364013671875">
        <ele>16.6000003814697265625</ele>
        <time>2015-08-04T23:48:04.000Z</time>
        <extensions>
          <ns3:TrackPointExtension>
            <ns3:atemp>26.0</ns3:atemp>
          </ns3:TrackPointExtension>
        </extensions>
      </trkpt>
      <trkpt lat="40.0727972947061061859130859375" lon="116.58218440599739551544189453125">
        <ele>15.6000003814697265625</ele>
        <time>2015-08-04T23:48:13.000Z</time>
        <extensions>
          <ns3:TrackPointExtension>
            <ns3:atemp>26.0</ns3:atemp>
          </ns3:TrackPointExtension>
        </extensions>
      </trkpt>
      <trkpt lat="40.07292780093848705291748046875" lon="116.5822009183466434478759765625">
        <ele>15.3999996185302734375</ele>
        <time>2015-08-04T23:48:15.000Z</time>
        <extensions>
          <ns3:TrackPointExtension>
            <ns3:atemp>26.0</ns3:atemp>
          </ns3:TrackPointExtension>
        </extensions>
      </trkpt>
      <trkpt lat="40.0735084153711795806884765625" lon="116.5823283232748508453369140625">
        <ele>15.19999980926513671875</ele>
        <time>2015-08-04T23:48:25.000Z</time>
        <extensions>
          <ns3:TrackPointExtension>
            <ns3:atemp>26.0</ns3:atemp>
          </ns3:TrackPointExtension>
        </extensions>
      </trkpt>
      <trkpt lat="40.0738669931888580322265625" lon="116.58241205848753452301025390625">
        <ele>15.3999996185302734375</ele>
        <time>2015-08-04T23:48:32.000Z</time>
        <extensions>
          <ns3:TrackPointExtension>
            <ns3:atemp>26.0</ns3:atemp>
          </ns3:TrackPointExtension>
        </extensions>
      </trkpt>
      <trkpt lat="40.07429623045027256011962890625" lon="116.58250828273594379425048828125">
        <ele>15.6000003814697265625</ele>
        <time>2015-08-04T23:48:39.000Z</time>
        <extensions>
          <ns3:TrackPointExtension>
            <ns3:atemp>26.0</ns3:atemp>
          </ns3:TrackPointExtension>
        </extensions>
      </trkpt>
      <trkpt lat="40.07436127401888370513916015625" lon="116.582515239715576171875">
        <ele>15.80000019073486328125</ele>
        <time>2015-08-04T23:48:40.000Z</time>
        <extensions>
          <ns3:TrackPointExtension>
            <ns3:atemp>26.0</ns3:atemp>
          </ns3:TrackPointExtension>
        </extensions>
      </trkpt>
      <trkpt lat="40.07496527396142482757568359375" lon="116.58258087001740932464599609375">
        <ele>16.799999237060546875</ele>
        <time>2015-08-04T23:48:51.000Z</time>
        <extensions>
          <ns3:TrackPointExtension>
            <ns3:atemp>26.0</ns3:atemp>
          </ns3:TrackPointExtension>
        </extensions>
      </trkpt>
      <trkpt lat="40.07556323893368244171142578125" lon="116.58276476897299289703369140625">
        <ele>19.200000762939453125</ele>
        <time>2015-08-04T23:49:04.000Z</time>
        <extensions>
          <ns3:TrackPointExtension>
            <ns3:atemp>26.0</ns3:atemp>
          </ns3:TrackPointExtension>
        </extensions>
      </trkpt>
      <trkpt lat="40.07600144483149051666259765625" lon="116.583236753940582275390625">
        <ele>19.3999996185302734375</ele>
        <time>2015-08-04T23:49:22.000Z</time>
        <extensions>
          <ns3:TrackPointExtension>
            <ns3:atemp>26.0</ns3:atemp>
          </ns3:TrackPointExtension>
        </extensions>
      </trkpt>
      <trkpt lat="40.0763354636728763580322265625" lon="116.58383999951183795928955078125">
        <ele>17.3999996185302734375</ele>
        <time>2015-08-04T23:49:35.000Z</time>
        <extensions>
          <ns3:TrackPointExtension>
            <ns3:atemp>26.0</ns3:atemp>
          </ns3:TrackPointExtension>
        </extensions>
      </trkpt>
      <trkpt lat="40.07634979672729969024658203125" lon="116.58389984630048274993896484375">
        <ele>17.200000762939453125</ele>
        <time>2015-08-04T23:49:36.000Z</time>
        <extensions>
          <ns3:TrackPointExtension>
            <ns3:atemp>26.0</ns3:atemp>
          </ns3:TrackPointExtension>
        </extensions>
      </trkpt>
      <trkpt lat="40.07646798156201839447021484375" lon="116.58426060341298580169677734375">
        <ele>16.799999237060546875</ele>
        <time>2015-08-04T23:49:42.000Z</time>
        <extensions>
          <ns3:TrackPointExtension>
            <ns3:atemp>26.0</ns3:atemp>
          </ns3:TrackPointExtension>
        </extensions>
      </trkpt>
      <trkpt lat="40.07649798877537250518798828125" lon="116.58430268056690692901611328125">
        <ele>16.799999237060546875</ele>
        <time>2015-08-04T23:49:43.000Z</time>
        <extensions>
          <ns3:TrackPointExtension>
            <ns3:atemp>26.0</ns3:atemp>
          </ns3:TrackPointExtension>
        </extensions>
      </trkpt>
      <trkpt lat="40.0766911916434764862060546875" lon="116.58453267998993396759033203125">
        <ele>17.3999996185302734375</ele>
        <time>2015-08-04T23:49:51.000Z</time>
        <extensions>
          <ns3:TrackPointExtension>
            <ns3:atemp>26.0</ns3:atemp>
          </ns3:TrackPointExtension>
        </extensions>
      </trkpt>
      <trkpt lat="40.07672094739973545074462890625" lon="116.58454231917858123779296875">
        <ele>17.3999996185302734375</ele>
        <time>2015-08-04T23:49:52.000Z</time>
        <extensions>
          <ns3:TrackPointExtension>
            <ns3:atemp>26.0</ns3:atemp>
          </ns3:TrackPointExtension>
        </extensions>
      </trkpt>
      <trkpt lat="40.07675346918404102325439453125" lon="116.58453569747507572174072265625">
        <ele>17.3999996185302734375</ele>
        <time>2015-08-04T23:49:53.000Z</time>
        <extensions>
          <ns3:TrackPointExtension>
            <ns3:atemp>26.0</ns3:atemp>
          </ns3:TrackPointExtension>
        </extensions>
      </trkpt>
      <trkpt lat="40.07742854766547679901123046875" lon="116.584330089390277862548828125">
        <ele>18</ele>
        <time>2015-08-04T23:50:08.000Z</time>
        <extensions>
          <ns3:TrackPointExtension>
            <ns3:atemp>26.0</ns3:atemp>
          </ns3:TrackPointExtension>
        </extensions>
      </trkpt>
      <trkpt lat="40.07803707383573055267333984375" lon="116.584186591207981109619140625">
        <ele>20</ele>
        <time>2015-08-04T23:50:21.000Z</time>
        <extensions>
          <ns3:TrackPointExtension>
            <ns3:atemp>26.0</ns3:atemp>
          </ns3:TrackPointExtension>
        </extensions>
      </trkpt>
      <trkpt lat="40.078624896705150604248046875" lon="116.5840838290750980377197265625">
        <ele>21.200000762939453125</ele>
        <time>2015-08-04T23:50:35.000Z</time>
        <extensions>
          <ns3:TrackPointExtension>
            <ns3:atemp>26.0</ns3:atemp>
          </ns3:TrackPointExtension>
        </extensions>
      </trkpt>
      <trkpt lat="40.07883000187575817108154296875" lon="116.5840211324393749237060546875">
        <ele>21.6000003814697265625</ele>
        <time>2015-08-04T23:50:40.000Z</time>
        <extensions>
          <ns3:TrackPointExtension>
            <ns3:atemp>26.0</ns3:atemp>
          </ns3:TrackPointExtension>
        </extensions>
      </trkpt>
      <trkpt lat="40.0794035755097866058349609375" lon="116.583892889320850372314453125">
        <ele>21.6000003814697265625</ele>
        <time>2015-08-04T23:50:55.000Z</time>
        <extensions>
          <ns3:TrackPointExtension>
            <ns3:atemp>26.0</ns3:atemp>
          </ns3:TrackPointExtension>
        </extensions>
      </trkpt>
      <trkpt lat="40.0794967822730541229248046875" lon="116.583724580705165863037109375">
        <ele>21.6000003814697265625</ele>
        <time>2015-08-04T23:50:59.000Z</time>
        <extensions>
          <ns3:TrackPointExtension>
            <ns3:atemp>26.0</ns3:atemp>
          </ns3:TrackPointExtension>
        </extensions>
      </trkpt>
      <trkpt lat="40.07952419109642505645751953125" lon="116.583611257374286651611328125">
        <ele>21.6000003814697265625</ele>
        <time>2015-08-04T23:51:01.000Z</time>
        <extensions>
          <ns3:TrackPointExtension>
            <ns3:atemp>26.0</ns3:atemp>
          </ns3:TrackPointExtension>
        </extensions>
      </trkpt>
      <trkpt lat="40.07952938787639141082763671875" lon="116.58355568535625934600830078125">
        <ele>21.6000003814697265625</ele>
        <time>2015-08-04T23:51:02.000Z</time>
        <extensions>
          <ns3:TrackPointExtension>
            <ns3:atemp>26.0</ns3:atemp>
          </ns3:TrackPointExtension>
        </extensions>
      </trkpt>
      <trkpt lat="40.079527795314788818359375" lon="116.58349734731018543243408203125">
        <ele>21.6000003814697265625</ele>
        <time>2015-08-04T23:51:03.000Z</time>
        <extensions>
          <ns3:TrackPointExtension>
            <ns3:atemp>26.0</ns3:atemp>
          </ns3:TrackPointExtension>
        </extensions>
      </trkpt>
      <trkpt lat="40.0795168988406658172607421875" lon="116.58338620327413082122802734375">
        <ele>21.6000003814697265625</ele>
        <time>2015-08-04T23:51:05.000Z</time>
        <extensions>
          <ns3:TrackPointExtension>
            <ns3:atemp>26.0</ns3:atemp>
          </ns3:TrackPointExtension>
        </extensions>
      </trkpt>
      <trkpt lat="40.07951061241328716278076171875" lon="116.583279334008693695068359375">
        <ele>21.799999237060546875</ele>
        <time>2015-08-04T23:51:07.000Z</time>
        <extensions>
          <ns3:TrackPointExtension>
            <ns3:atemp>26.0</ns3:atemp>
          </ns3:TrackPointExtension>
        </extensions>
      </trkpt>
      <trkpt lat="40.079519413411617279052734375" lon="116.58316391520202159881591796875">
        <ele>21.799999237060546875</ele>
        <time>2015-08-04T23:51:09.000Z</time>
        <extensions>
          <ns3:TrackPointExtension>
            <ns3:atemp>26.0</ns3:atemp>
          </ns3:TrackPointExtension>
        </extensions>
      </trkpt>
      <trkpt lat="40.07951748557388782501220703125" lon="116.5831105224788188934326171875">
        <ele>21.799999237060546875</ele>
        <time>2015-08-04T23:51:10.000Z</time>
        <extensions>
          <ns3:TrackPointExtension>
            <ns3:atemp>26.0</ns3:atemp>
          </ns3:TrackPointExtension>
        </extensions>
      </trkpt>
      <trkpt lat="40.079629719257354736328125" lon="116.58231147564947605133056640625">
        <ele>21.200000762939453125</ele>
        <time>2015-08-04T23:51:26.000Z</time>
        <extensions>
          <ns3:TrackPointExtension>
            <ns3:atemp>26.0</ns3:atemp>
          </ns3:TrackPointExtension>
        </extensions>
      </trkpt>
      <trkpt lat="40.07969434373080730438232421875" lon="116.58186455257236957550048828125">
        <ele>21.6000003814697265625</ele>
        <time>2015-08-04T23:51:33.000Z</time>
        <extensions>
          <ns3:TrackPointExtension>
            <ns3:atemp>26.0</ns3:atemp>
          </ns3:TrackPointExtension>
        </extensions>
      </trkpt>
      <trkpt lat="40.07942578755319118499755859375" lon="116.58104346133768558502197265625">
        <ele>21.6000003814697265625</ele>
        <time>2015-08-04T23:51:42.000Z</time>
        <extensions>
          <ns3:TrackPointExtension>
            <ns3:atemp>26.0</ns3:atemp>
          </ns3:TrackPointExtension>
        </extensions>
      </trkpt>
      <trkpt lat="40.07941438816487789154052734375" lon="116.5809738077223300933837890625">
        <ele>21.799999237060546875</ele>
        <time>2015-08-04T23:51:43.000Z</time>
        <extensions>
          <ns3:TrackPointExtension>
            <ns3:atemp>26.0</ns3:atemp>
          </ns3:TrackPointExtension>
        </extensions>
      </trkpt>
      <trkpt lat="40.0793019868433475494384765625" lon="116.5802281536161899566650390625">
        <ele>21.3999996185302734375</ele>
        <time>2015-08-04T23:51:56.000Z</time>
        <extensions>
          <ns3:TrackPointExtension>
            <ns3:atemp>26.0</ns3:atemp>
          </ns3:TrackPointExtension>
        </extensions>
      </trkpt>
      <trkpt lat="40.0793033279478549957275390625" lon="116.579994298517704010009765625">
        <ele>21.799999237060546875</ele>
        <time>2015-08-04T23:52:03.000Z</time>
        <extensions>
          <ns3:TrackPointExtension>
            <ns3:atemp>26.0</ns3:atemp>
          </ns3:TrackPointExtension>
        </extensions>
      </trkpt>
      <trkpt lat="40.0793234445154666900634765625" lon="116.57996605150401592254638671875">
        <ele>21.799999237060546875</ele>
        <time>2015-08-04T23:52:04.000Z</time>
        <extensions>
          <ns3:TrackPointExtension>
            <ns3:atemp>26.0</ns3:atemp>
          </ns3:TrackPointExtension>
        </extensions>
      </trkpt>
      <trkpt lat="40.07935269735753536224365234375" lon="116.57995012588798999786376953125">
        <ele>21.799999237060546875</ele>
        <time>2015-08-04T23:52:05.000Z</time>
        <extensions>
          <ns3:TrackPointExtension>
            <ns3:atemp>26.0</ns3:atemp>
          </ns3:TrackPointExtension>
        </extensions>
      </trkpt>
      <trkpt lat="40.0793842971324920654296875" lon="116.57993906177580356597900390625">
        <ele>22</ele>
        <time>2015-08-04T23:52:06.000Z</time>
        <extensions>
          <ns3:TrackPointExtension>
            <ns3:atemp>26.0</ns3:atemp>
          </ns3:TrackPointExtension>
        </extensions>
      </trkpt>
      <trkpt lat="40.07941941730678081512451171875" lon="116.5799297578632831573486328125">
        <ele>22</ele>
        <time>2015-08-04T23:52:07.000Z</time>
        <extensions>
          <ns3:TrackPointExtension>
            <ns3:atemp>26.0</ns3:atemp>
          </ns3:TrackPointExtension>
        </extensions>
      </trkpt>
      <trkpt lat="40.07981772534549236297607421875" lon="116.5797056257724761962890625">
        <ele>22.200000762939453125</ele>
        <time>2015-08-04T23:52:19.000Z</time>
        <extensions>
          <ns3:TrackPointExtension>
            <ns3:atemp>26.0</ns3:atemp>
          </ns3:TrackPointExtension>
        </extensions>
      </trkpt>
      <trkpt lat="40.07984186522662639617919921875" lon="116.579654328525066375732421875">
        <ele>22.200000762939453125</ele>
        <time>2015-08-04T23:52:20.000Z</time>
        <extensions>
          <ns3:TrackPointExtension>
            <ns3:atemp>26.0</ns3:atemp>
          </ns3:TrackPointExtension>
        </extensions>
      </trkpt>
      <trkpt lat="40.0800915621221065521240234375" lon="116.57894966192543506622314453125">
        <ele>20.799999237060546875</ele>
        <time>2015-08-04T23:52:31.000Z</time>
        <extensions>
          <ns3:TrackPointExtension>
            <ns3:atemp>26.0</ns3:atemp>
          </ns3:TrackPointExtension>
        </extensions>
      </trkpt>
      <trkpt lat="40.08013640530407428741455078125" lon="116.57881873659789562225341796875">
        <ele>20.6000003814697265625</ele>
        <time>2015-08-04T23:52:33.000Z</time>
        <extensions>
          <ns3:TrackPointExtension>
            <ns3:atemp>26.0</ns3:atemp>
          </ns3:TrackPointExtension>
        </extensions>
      </trkpt>
      <trkpt lat="40.080336146056652069091796875" lon="116.578033603727817535400390625">
        <ele>20.3999996185302734375</ele>
        <time>2015-08-04T23:52:44.000Z</time>
        <extensions>
          <ns3:TrackPointExtension>
            <ns3:atemp>26.0</ns3:atemp>
          </ns3:TrackPointExtension>
        </extensions>
      </trkpt>
      <trkpt lat="40.0805669836699962615966796875" lon="116.5773186273872852325439453125">
        <ele>18.3999996185302734375</ele>
        <time>2015-08-04T23:52:54.000Z</time>
        <extensions>
          <ns3:TrackPointExtension>
            <ns3:atemp>26.0</ns3:atemp>
          </ns3:TrackPointExtension>
        </extensions>
      </trkpt>
      <trkpt lat="40.08088373579084873199462890625" lon="116.5766681917011737823486328125">
        <ele>17.799999237060546875</ele>
        <time>2015-08-04T23:53:04.000Z</time>
        <extensions>
          <ns3:TrackPointExtension>
            <ns3:atemp>26.0</ns3:atemp>
          </ns3:TrackPointExtension>
        </extensions>
      </trkpt>
      <trkpt lat="40.081185400485992431640625" lon="116.5759832225739955902099609375">
        <ele>17.3999996185302734375</ele>
        <time>2015-08-04T23:53:14.000Z</time>
        <extensions>
          <ns3:TrackPointExtension>
            <ns3:atemp>26.0</ns3:atemp>
          </ns3:TrackPointExtension>
        </extensions>
      </trkpt>
      <trkpt lat="40.08141380734741687774658203125" lon="116.5757716633379459381103515625">
        <ele>17.200000762939453125</ele>
        <time>2015-08-04T23:53:21.000Z</time>
        <extensions>
          <ns3:TrackPointExtension>
            <ns3:atemp>26.0</ns3:atemp>
          </ns3:TrackPointExtension>
        </extensions>
      </trkpt>
      <trkpt lat="40.081649757921695709228515625" lon="116.57597056590020656585693359375">
        <ele>17</ele>
        <time>2015-08-04T23:53:22.000Z</time>
        <extensions>
          <ns3:TrackPointExtension>
            <ns3:atemp>26.0</ns3:atemp>
          </ns3:TrackPointExtension>
        </extensions>
      </trkpt>
      <trkpt lat="40.0819825194776058197021484375" lon="116.5761089511215686798095703125">
        <ele>17</ele>
        <time>2015-08-04T23:53:23.000Z</time>
        <extensions>
          <ns3:TrackPointExtension>
            <ns3:atemp>26.0</ns3:atemp>
          </ns3:TrackPointExtension>
        </extensions>
      </trkpt>
      <trkpt lat="40.082070529460906982421875" lon="116.5761528722941875457763671875">
        <ele>17</ele>
        <time>2015-08-04T23:53:24.000Z</time>
        <extensions>
          <ns3:TrackPointExtension>
            <ns3:atemp>26.0</ns3:atemp>
          </ns3:TrackPointExtension>
        </extensions>
      </trkpt>
      <trkpt lat="40.08215527050197124481201171875" lon="116.57619704492390155792236328125">
        <ele>16.799999237060546875</ele>
        <time>2015-08-04T23:53:25.000Z</time>
        <extensions>
          <ns3:TrackPointExtension>
            <ns3:atemp>26.0</ns3:atemp>
          </ns3:TrackPointExtension>
        </extensions>
      </trkpt>
      <trkpt lat="40.08280746638774871826171875" lon="116.57616754062473773956298828125">
        <ele>16.6000003814697265625</ele>
        <time>2015-08-04T23:53:35.000Z</time>
        <extensions>
          <ns3:TrackPointExtension>
            <ns3:atemp>26.0</ns3:atemp>
          </ns3:TrackPointExtension>
        </extensions>
      </trkpt>
      <trkpt lat="40.0833782739937305450439453125" lon="116.5760640241205692291259765625">
        <ele>17</ele>
        <time>2015-08-04T23:53:45.000Z</time>
        <extensions>
          <ns3:TrackPointExtension>
            <ns3:atemp>26.0</ns3:atemp>
          </ns3:TrackPointExtension>
        </extensions>
      </trkpt>
      <trkpt lat="40.0839673541486263275146484375" lon="116.57604566775262355804443359375">
        <ele>17</ele>
        <time>2015-08-04T23:53:55.000Z</time>
        <extensions>
          <ns3:TrackPointExtension>
            <ns3:atemp>26.0</ns3:atemp>
          </ns3:TrackPointExtension>
        </extensions>
      </trkpt>
      <trkpt lat="40.0845752097666263580322265625" lon="116.5761012397706508636474609375">
        <ele>18</ele>
        <time>2015-08-04T23:54:05.000Z</time>
        <extensions>
          <ns3:TrackPointExtension>
            <ns3:atemp>26.0</ns3:atemp>
          </ns3:TrackPointExtension>
        </extensions>
      </trkpt>
      <trkpt lat="40.0851264037191867828369140625" lon="116.5759057737886905670166015625">
        <ele>18.799999237060546875</ele>
        <time>2015-08-04T23:54:16.000Z</time>
        <extensions>
          <ns3:TrackPointExtension>
            <ns3:atemp>27.0</ns3:atemp>
          </ns3:TrackPointExtension>
        </extensions>
      </trkpt>
      <trkpt lat="40.085723362863063812255859375" lon="116.57582120038568973541259765625">
        <ele>20.3999996185302734375</ele>
        <time>2015-08-04T23:54:29.000Z</time>
        <extensions>
          <ns3:TrackPointExtension>
            <ns3:atemp>26.0</ns3:atemp>
          </ns3:TrackPointExtension>
        </extensions>
      </trkpt>
      <trkpt lat="40.08610985241830348968505859375" lon="116.57575682736933231353759765625">
        <ele>20.799999237060546875</ele>
        <time>2015-08-04T23:54:37.000Z</time>
        <extensions>
          <ns3:TrackPointExtension>
            <ns3:atemp>26.0</ns3:atemp>
          </ns3:TrackPointExtension>
        </extensions>
      </trkpt>
      <trkpt lat="40.08672826923429965972900390625" lon="116.57565020956099033355712890625">
        <ele>20.6000003814697265625</ele>
        <time>2015-08-04T23:54:48.000Z</time>
        <extensions>
          <ns3:TrackPointExtension>
            <ns3:atemp>26.0</ns3:atemp>
          </ns3:TrackPointExtension>
        </extensions>
      </trkpt>
      <trkpt lat="40.08730879984796047210693359375" lon="116.575551889836788177490234375">
        <ele>21.200000762939453125</ele>
        <time>2015-08-04T23:54:58.000Z</time>
        <extensions>
          <ns3:TrackPointExtension>
            <ns3:atemp>26.0</ns3:atemp>
          </ns3:TrackPointExtension>
        </extensions>
      </trkpt>
      <trkpt lat="40.0874845683574676513671875" lon="116.57555046491324901580810546875">
        <ele>21.6000003814697265625</ele>
        <time>2015-08-04T23:55:01.000Z</time>
        <extensions>
          <ns3:TrackPointExtension>
            <ns3:atemp>26.0</ns3:atemp>
          </ns3:TrackPointExtension>
        </extensions>
      </trkpt>
      <trkpt lat="40.0875341892242431640625" lon="116.57556421123445034027099609375">
        <ele>21.3999996185302734375</ele>
        <time>2015-08-04T23:55:02.000Z</time>
        <extensions>
          <ns3:TrackPointExtension>
            <ns3:atemp>26.0</ns3:atemp>
          </ns3:TrackPointExtension>
        </extensions>
      </trkpt>
      <trkpt lat="40.0875802896916866302490234375" lon="116.575584746897220611572265625">
        <ele>21.3999996185302734375</ele>
        <time>2015-08-04T23:55:03.000Z</time>
        <extensions>
          <ns3:TrackPointExtension>
            <ns3:atemp>26.0</ns3:atemp>
          </ns3:TrackPointExtension>
        </extensions>
      </trkpt>
      <trkpt lat="40.0876178406178951263427734375" lon="116.57561617903411388397216796875">
        <ele>21.200000762939453125</ele>
        <time>2015-08-04T23:55:04.000Z</time>
        <extensions>
          <ns3:TrackPointExtension>
            <ns3:atemp>26.0</ns3:atemp>
          </ns3:TrackPointExtension>
        </extensions>
      </trkpt>
      <trkpt lat="40.08764608763158321380615234375" lon="116.575667560100555419921875">
        <ele>21</ele>
        <time>2015-08-04T23:55:05.000Z</time>
        <extensions>
          <ns3:TrackPointExtension>
            <ns3:atemp>26.0</ns3:atemp>
          </ns3:TrackPointExtension>
        </extensions>
      </trkpt>
      <trkpt lat="40.08766553364694118499755859375" lon="116.5757300890982151031494140625">
        <ele>21</ele>
        <time>2015-08-04T23:55:06.000Z</time>
        <extensions>
          <ns3:TrackPointExtension>
            <ns3:atemp>26.0</ns3:atemp>
          </ns3:TrackPointExtension>
        </extensions>
      </trkpt>
      <trkpt lat="40.0876828841865062713623046875" lon="116.575793959200382232666015625">
        <ele>21</ele>
        <time>2015-08-04T23:55:07.000Z</time>
        <extensions>
          <ns3:TrackPointExtension>
            <ns3:atemp>26.0</ns3:atemp>
          </ns3:TrackPointExtension>
        </extensions>
      </trkpt>
      <trkpt lat="40.08769554086029529571533203125" lon="116.575864367187023162841796875">
        <ele>21</ele>
        <time>2015-08-04T23:55:08.000Z</time>
        <extensions>
          <ns3:TrackPointExtension>
            <ns3:atemp>26.0</ns3:atemp>
          </ns3:TrackPointExtension>
        </extensions>
      </trkpt>
      <trkpt lat="40.0877033360302448272705078125" lon="116.575928740203380584716796875">
        <ele>21</ele>
        <time>2015-08-04T23:55:09.000Z</time>
        <extensions>
          <ns3:TrackPointExtension>
            <ns3:atemp>26.0</ns3:atemp>
          </ns3:TrackPointExtension>
        </extensions>
      </trkpt>
      <trkpt lat="40.0877137295901775360107421875" lon="116.5759869106113910675048828125">
        <ele>21</ele>
        <time>2015-08-04T23:55:10.000Z</time>
        <extensions>
          <ns3:TrackPointExtension>
            <ns3:atemp>26.0</ns3:atemp>
          </ns3:TrackPointExtension>
        </extensions>
      </trkpt>
      <trkpt lat="40.0877402164041996002197265625" lon="116.5761625953018665313720703125">
        <ele>21.200000762939453125</ele>
        <time>2015-08-04T23:55:13.000Z</time>
        <extensions>
          <ns3:TrackPointExtension>
            <ns3:atemp>26.0</ns3:atemp>
          </ns3:TrackPointExtension>
        </extensions>
      </trkpt>
      <trkpt lat="40.08771632798016071319580078125" lon="116.5767530165612697601318359375">
        <ele>21.6000003814697265625</ele>
        <time>2015-08-04T23:55:26.000Z</time>
        <extensions>
          <ns3:TrackPointExtension>
            <ns3:atemp>26.0</ns3:atemp>
          </ns3:TrackPointExtension>
        </extensions>
      </trkpt>
      <trkpt lat="40.0876929424703121185302734375" lon="116.57676718197762966156005859375">
        <ele>21.6000003814697265625</ele>
        <time>2015-08-04T23:55:27.000Z</time>
        <extensions>
          <ns3:TrackPointExtension>
            <ns3:atemp>26.0</ns3:atemp>
          </ns3:TrackPointExtension>
        </extensions>
      </trkpt>
      <trkpt lat="40.08760451339185237884521484375" lon="116.5768061578273773193359375">
        <ele>21.6000003814697265625</ele>
        <time>2015-08-04T23:55:31.000Z</time>
        <extensions>
          <ns3:TrackPointExtension>
            <ns3:atemp>26.0</ns3:atemp>
          </ns3:TrackPointExtension>
        </extensions>
      </trkpt>
      <trkpt lat="40.08758313953876495361328125" lon="116.5768261067569255828857421875">
        <ele>21.6000003814697265625</ele>
        <time>2015-08-04T23:55:32.000Z</time>
        <extensions>
          <ns3:TrackPointExtension>
            <ns3:atemp>26.0</ns3:atemp>
          </ns3:TrackPointExtension>
        </extensions>
      </trkpt>
      <trkpt lat="40.08755673654377460479736328125" lon="116.57684412784874439239501953125">
        <ele>21.6000003814697265625</ele>
        <time>2015-08-04T23:55:33.000Z</time>
        <extensions>
          <ns3:TrackPointExtension>
            <ns3:atemp>26.0</ns3:atemp>
          </ns3:TrackPointExtension>
        </extensions>
      </trkpt>
      <trkpt lat="40.08752471767365932464599609375" lon="116.57685318030416965484619140625">
        <ele>21.6000003814697265625</ele>
        <time>2015-08-04T23:55:34.000Z</time>
        <extensions>
          <ns3:TrackPointExtension>
            <ns3:atemp>26.0</ns3:atemp>
          </ns3:TrackPointExtension>
        </extensions>
      </trkpt>
      <trkpt lat="40.08749001659452915191650390625" lon="116.57685837708413600921630859375">
        <ele>21.3999996185302734375</ele>
        <time>2015-08-04T23:55:35.000Z</time>
        <extensions>
          <ns3:TrackPointExtension>
            <ns3:atemp>26.0</ns3:atemp>
          </ns3:TrackPointExtension>
        </extensions>
      </trkpt>
      <trkpt lat="40.087456740438938140869140625" lon="116.57686659134924411773681640625">
        <ele>21.3999996185302734375</ele>
        <time>2015-08-04T23:55:36.000Z</time>
        <extensions>
          <ns3:TrackPointExtension>
            <ns3:atemp>26.0</ns3:atemp>
          </ns3:TrackPointExtension>
        </extensions>
      </trkpt>
      <trkpt lat="40.0868601165711879730224609375" lon="116.57690246589481830596923828125">
        <ele>21</ele>
        <time>2015-08-04T23:55:50.000Z</time>
        <extensions>
          <ns3:TrackPointExtension>
            <ns3:atemp>26.0</ns3:atemp>
          </ns3:TrackPointExtension>
        </extensions>
      </trkpt>
      <trkpt lat="40.0867709331214427947998046875" lon="116.5768991969525814056396484375">
        <ele>21</ele>
        <time>2015-08-04T23:55:52.000Z</time>
        <extensions>
          <ns3:TrackPointExtension>
            <ns3:atemp>26.0</ns3:atemp>
          </ns3:TrackPointExtension>
        </extensions>
      </trkpt>
      <trkpt lat="40.0866840966045856475830078125" lon="116.576887629926204681396484375">
        <ele>20.799999237060546875</ele>
        <time>2015-08-04T23:55:54.000Z</time>
        <extensions>
          <ns3:TrackPointExtension>
            <ns3:atemp>26.0</ns3:atemp>
          </ns3:TrackPointExtension>
        </extensions>
      </trkpt>
      <trkpt lat="40.08664327673614025115966796875" lon="116.57687279395759105682373046875">
        <ele>20.799999237060546875</ele>
        <time>2015-08-04T23:55:55.000Z</time>
        <extensions>
          <ns3:TrackPointExtension>
            <ns3:atemp>26.0</ns3:atemp>
          </ns3:TrackPointExtension>
        </extensions>
      </trkpt>
      <trkpt lat="40.0866036303341388702392578125" lon="116.576848067343235015869140625">
        <ele>21</ele>
        <time>2015-08-04T23:55:56.000Z</time>
        <extensions>
          <ns3:TrackPointExtension>
            <ns3:atemp>26.0</ns3:atemp>
          </ns3:TrackPointExtension>
        </extensions>
      </trkpt>
      <trkpt lat="40.08656549267470836639404296875" lon="116.57681210897862911224365234375">
        <ele>21</ele>
        <time>2015-08-04T23:55:57.000Z</time>
        <extensions>
          <ns3:TrackPointExtension>
            <ns3:atemp>26.0</ns3:atemp>
          </ns3:TrackPointExtension>
        </extensions>
      </trkpt>
      <trkpt lat="40.08653230033814907073974609375" lon="116.57677221111953258514404296875">
        <ele>21</ele>
        <time>2015-08-04T23:55:58.000Z</time>
        <extensions>
          <ns3:TrackPointExtension>
            <ns3:atemp>26.0</ns3:atemp>
          </ns3:TrackPointExtension>
        </extensions>
      </trkpt>
      <trkpt lat="40.0864986889064311981201171875" lon="116.57673231326043605804443359375">
        <ele>21</ele>
        <time>2015-08-04T23:55:59.000Z</time>
        <extensions>
          <ns3:TrackPointExtension>
            <ns3:atemp>26.0</ns3:atemp>
          </ns3:TrackPointExtension>
        </extensions>
      </trkpt>
      <trkpt lat="40.08646708913147449493408203125" lon="116.57668738625943660736083984375">
        <ele>21.200000762939453125</ele>
        <time>2015-08-04T23:56:00.000Z</time>
        <extensions>
          <ns3:TrackPointExtension>
            <ns3:atemp>26.0</ns3:atemp>
          </ns3:TrackPointExtension>
        </extensions>
      </trkpt>
      <trkpt lat="40.08644747547805309295654296875" lon="116.5766376815736293792724609375">
        <ele>21</ele>
        <time>2015-08-04T23:56:01.000Z</time>
        <extensions>
          <ns3:TrackPointExtension>
            <ns3:atemp>26.0</ns3:atemp>
          </ns3:TrackPointExtension>
        </extensions>
      </trkpt>
      <trkpt lat="40.08643825538456439971923828125" lon="116.57658663578331470489501953125">
        <ele>21.200000762939453125</ele>
        <time>2015-08-04T23:56:02.000Z</time>
        <extensions>
          <ns3:TrackPointExtension>
            <ns3:atemp>26.0</ns3:atemp>
          </ns3:TrackPointExtension>
        </extensions>
      </trkpt>
      <trkpt lat="40.086426436901092529296875" lon="116.5765367634594440460205078125">
        <ele>21.200000762939453125</ele>
        <time>2015-08-04T23:56:03.000Z</time>
        <extensions>
          <ns3:TrackPointExtension>
            <ns3:atemp>26.0</ns3:atemp>
          </ns3:TrackPointExtension>
        </extensions>
      </trkpt>
      <trkpt lat="40.08640925399959087371826171875" lon="116.576493345201015472412109375">
        <ele>21.200000762939453125</ele>
        <time>2015-08-04T23:56:04.000Z</time>
        <extensions>
          <ns3:TrackPointExtension>
            <ns3:atemp>26.0</ns3:atemp>
          </ns3:TrackPointExtension>
        </extensions>
      </trkpt>
      <trkpt lat="40.0863863714039325714111328125" lon="116.57646224834024906158447265625">
        <ele>21.200000762939453125</ele>
        <time>2015-08-04T23:56:05.000Z</time>
        <extensions>
          <ns3:TrackPointExtension>
            <ns3:atemp>26.0</ns3:atemp>
          </ns3:TrackPointExtension>
        </extensions>
      </trkpt>
      <trkpt lat="40.0863494910299777984619140625" lon="116.57643827609717845916748046875">
        <ele>21.200000762939453125</ele>
        <time>2015-08-04T23:56:06.000Z</time>
        <extensions>
          <ns3:TrackPointExtension>
            <ns3:atemp>26.0</ns3:atemp>
          </ns3:TrackPointExtension>
        </extensions>
      </trkpt>
      <trkpt lat="40.08630967698991298675537109375" lon="116.57642955891788005828857421875">
        <ele>21.200000762939453125</ele>
        <time>2015-08-04T23:56:07.000Z</time>
        <extensions>
          <ns3:TrackPointExtension>
            <ns3:atemp>26.0</ns3:atemp>
          </ns3:TrackPointExtension>
        </extensions>
      </trkpt>
      <trkpt lat="40.08626642636954784393310546875" lon="116.57642989419400691986083984375">
        <ele>21.200000762939453125</ele>
        <time>2015-08-04T23:56:08.000Z</time>
        <extensions>
          <ns3:TrackPointExtension>
            <ns3:atemp>26.0</ns3:atemp>
          </ns3:TrackPointExtension>
        </extensions>
      </trkpt>
      <trkpt lat="40.08621965534985065460205078125" lon="116.57643559388816356658935546875">
        <ele>21.200000762939453125</ele>
        <time>2015-08-04T23:56:09.000Z</time>
        <extensions>
          <ns3:TrackPointExtension>
            <ns3:atemp>26.0</ns3:atemp>
          </ns3:TrackPointExtension>
        </extensions>
      </trkpt>
      <trkpt lat="40.08564381860196590423583984375" lon="116.57653735019266605377197265625">
        <ele>20.6000003814697265625</ele>
        <time>2015-08-04T23:56:21.000Z</time>
        <extensions>
          <ns3:TrackPointExtension>
            <ns3:atemp>26.0</ns3:atemp>
          </ns3:TrackPointExtension>
        </extensions>
      </trkpt>
      <trkpt lat="40.08546494878828525543212890625" lon="116.57656115479767322540283203125">
        <ele>21.200000762939453125</ele>
        <time>2015-08-04T23:56:25.000Z</time>
        <extensions>
          <ns3:TrackPointExtension>
            <ns3:atemp>26.0</ns3:atemp>
          </ns3:TrackPointExtension>
        </extensions>
      </trkpt>
    </trkseg>
  </trk>
</gpx>
