<gpx xmlns:ns3="http://www.garmin.com/xmlschemas/TrackPointExtension/v1" xmlns="http://www.topografix.com/GPX/1/1" xmlns:xsi="http://www.w3.org/2001/XMLSchema-instance" xmlns:ns2="http://www.garmin.com/xmlschemas/GpxExtensions/v3" creator="Garmin Connect" version="1.1" xsi:schemaLocation="http://www.topografix.com/GPX/1/1 http://www.topografix.com/GPX/11.xsd">
  <extensions>
<distance>3275.96</distance>
<average_hr></average_hr>
<average_speed>4.024520836532555</average_speed>
<start_time>2015-09-10T05:46:38+00:00</start_time>
<end_time>2015-09-10T06:00:12+00:00</end_time>
<moving_time>812.0</moving_time>
<elapsed_time>839.0</elapsed_time>
</extensions>
<metadata>
    <link href="connect.garmin.com">
      <text>Garmin Connect</text>
    </link>
    <time>2015-09-10T05:46:38.000Z</time>
  </metadata>
  <trk>
    <name>常州市 骑行</name>
    <type>cycling</type>
    <trkseg>
      <trkpt lat="31.4357431232929229736328125" lon="119.4826924614608287811279296875">
        <ele>-8.6000003814697265625</ele>
        <time>2015-09-10T05:46:38.000Z</time>
        <extensions>
          <ns3:TrackPointExtension>
            <ns3:atemp>28.0</ns3:atemp>
          </ns3:TrackPointExtension>
        </extensions>
      </trkpt>
      <trkpt lat="31.435654275119304656982421875" lon="119.482661448419094085693359375">
        <ele>57.40000152587890625</ele>
        <time>2015-09-10T05:46:39.000Z</time>
        <extensions>
          <ns3:TrackPointExtension>
            <ns3:atemp>28.0</ns3:atemp>
          </ns3:TrackPointExtension>
        </extensions>
      </trkpt>
      <trkpt lat="31.43563625402748584747314453125" lon="119.4826810620725154876708984375">
        <ele>57.40000152587890625</ele>
        <time>2015-09-10T05:46:40.000Z</time>
        <extensions>
          <ns3:TrackPointExtension>
            <ns3:atemp>28.0</ns3:atemp>
          </ns3:TrackPointExtension>
        </extensions>
      </trkpt>
      <trkpt lat="31.435681767761707305908203125" lon="119.48269388638436794281005859375">
        <ele>-9.80000019073486328125</ele>
        <time>2015-09-10T05:46:42.000Z</time>
        <extensions>
          <ns3:TrackPointExtension>
            <ns3:atemp>28.0</ns3:atemp>
          </ns3:TrackPointExtension>
        </extensions>
      </trkpt>
      <trkpt lat="31.43567246384918689727783203125" lon="119.48269464075565338134765625">
        <ele>-9.80000019073486328125</ele>
        <time>2015-09-10T05:46:43.000Z</time>
        <extensions>
          <ns3:TrackPointExtension>
            <ns3:atemp>28.0</ns3:atemp>
          </ns3:TrackPointExtension>
        </extensions>
      </trkpt>
      <trkpt lat="31.435713954269886016845703125" lon="119.48266840539872646331787109375">
        <ele>-10</ele>
        <time>2015-09-10T05:46:44.000Z</time>
        <extensions>
          <ns3:TrackPointExtension>
            <ns3:atemp>28.0</ns3:atemp>
          </ns3:TrackPointExtension>
        </extensions>
      </trkpt>
      <trkpt lat="31.4356326498091220855712890625" lon="119.4826505519449710845947265625">
        <ele>-10.19999980926513671875</ele>
        <time>2015-09-10T05:46:48.000Z</time>
        <extensions>
          <ns3:TrackPointExtension>
            <ns3:atemp>28.0</ns3:atemp>
          </ns3:TrackPointExtension>
        </extensions>
      </trkpt>
      <trkpt lat="31.43552795983850955963134765625" lon="119.48337365873157978057861328125">
        <ele>-10</ele>
        <time>2015-09-10T05:47:11.000Z</time>
        <extensions>
          <ns3:TrackPointExtension>
            <ns3:atemp>29.0</ns3:atemp>
          </ns3:TrackPointExtension>
        </extensions>
      </trkpt>
      <trkpt lat="31.4354650117456912994384765625" lon="119.484078995883464813232421875">
        <ele>-10.6000003814697265625</ele>
        <time>2015-09-10T05:47:29.000Z</time>
        <extensions>
          <ns3:TrackPointExtension>
            <ns3:atemp>29.0</ns3:atemp>
          </ns3:TrackPointExtension>
        </extensions>
      </trkpt>
      <trkpt lat="31.43541111610829830169677734375" lon="119.48432986624538898468017578125">
        <ele>-10.19999980926513671875</ele>
        <time>2015-09-10T05:47:37.000Z</time>
        <extensions>
          <ns3:TrackPointExtension>
            <ns3:atemp>29.0</ns3:atemp>
          </ns3:TrackPointExtension>
        </extensions>
      </trkpt>
      <trkpt lat="31.43538706004619598388671875" lon="119.48433891870081424713134765625">
        <ele>-10.19999980926513671875</ele>
        <time>2015-09-10T05:47:38.000Z</time>
        <extensions>
          <ns3:TrackPointExtension>
            <ns3:atemp>29.0</ns3:atemp>
          </ns3:TrackPointExtension>
        </extensions>
      </trkpt>
      <trkpt lat="31.43487551249563694000244140625" lon="119.4844355620443820953369140625">
        <ele>-10.80000019073486328125</ele>
        <time>2015-09-10T05:47:54.000Z</time>
        <extensions>
          <ns3:TrackPointExtension>
            <ns3:atemp>29.0</ns3:atemp>
          </ns3:TrackPointExtension>
        </extensions>
      </trkpt>
      <trkpt lat="31.43433454446494579315185546875" lon="119.48441754095256328582763671875">
        <ele>-9.19999980926513671875</ele>
        <time>2015-09-10T05:48:10.000Z</time>
        <extensions>
          <ns3:TrackPointExtension>
            <ns3:atemp>29.0</ns3:atemp>
          </ns3:TrackPointExtension>
        </extensions>
      </trkpt>
      <trkpt lat="31.4337728731334209442138671875" lon="119.48416625149548053741455078125">
        <ele>-9.80000019073486328125</ele>
        <time>2015-09-10T05:48:26.000Z</time>
        <extensions>
          <ns3:TrackPointExtension>
            <ns3:atemp>29.0</ns3:atemp>
          </ns3:TrackPointExtension>
        </extensions>
      </trkpt>
      <trkpt lat="31.43321170471608638763427734375" lon="119.4841115176677703857421875">
        <ele>-9.6000003814697265625</ele>
        <time>2015-09-10T05:48:42.000Z</time>
        <extensions>
          <ns3:TrackPointExtension>
            <ns3:atemp>30.0</ns3:atemp>
          </ns3:TrackPointExtension>
        </extensions>
      </trkpt>
      <trkpt lat="31.43278062343597412109375" lon="119.4844845123589038848876953125">
        <ele>-8.3999996185302734375</ele>
        <time>2015-09-10T05:49:00.000Z</time>
        <extensions>
          <ns3:TrackPointExtension>
            <ns3:atemp>30.0</ns3:atemp>
          </ns3:TrackPointExtension>
        </extensions>
      </trkpt>
      <trkpt lat="31.43255707807838916778564453125" lon="119.4847621209919452667236328125">
        <ele>-7.400000095367431640625</ele>
        <time>2015-09-10T05:49:14.000Z</time>
        <extensions>
          <ns3:TrackPointExtension>
            <ns3:atemp>30.0</ns3:atemp>
          </ns3:TrackPointExtension>
        </extensions>
      </trkpt>
      <trkpt lat="31.4325378835201263427734375" lon="119.4847587682306766510009765625">
        <ele>-7.400000095367431640625</ele>
        <time>2015-09-10T05:49:15.000Z</time>
        <extensions>
          <ns3:TrackPointExtension>
            <ns3:atemp>30.0</ns3:atemp>
          </ns3:TrackPointExtension>
        </extensions>
      </trkpt>
      <trkpt lat="31.432522125542163848876953125" lon="119.48475055396556854248046875">
        <ele>-7.400000095367431640625</ele>
        <time>2015-09-10T05:49:16.000Z</time>
        <extensions>
          <ns3:TrackPointExtension>
            <ns3:atemp>30.0</ns3:atemp>
          </ns3:TrackPointExtension>
        </extensions>
      </trkpt>
      <trkpt lat="31.432509720325469970703125" lon="119.48473940603435039520263671875">
        <ele>-7.19999980926513671875</ele>
        <time>2015-09-10T05:49:17.000Z</time>
        <extensions>
          <ns3:TrackPointExtension>
            <ns3:atemp>30.0</ns3:atemp>
          </ns3:TrackPointExtension>
        </extensions>
      </trkpt>
      <trkpt lat="31.4324934594333171844482421875" lon="119.48472373187541961669921875">
        <ele>-7.19999980926513671875</ele>
        <time>2015-09-10T05:49:18.000Z</time>
        <extensions>
          <ns3:TrackPointExtension>
            <ns3:atemp>31.0</ns3:atemp>
          </ns3:TrackPointExtension>
        </extensions>
      </trkpt>
      <trkpt lat="31.43230654299259185791015625" lon="119.48454041965305805206298828125">
        <ele>-7</ele>
        <time>2015-09-10T05:49:28.000Z</time>
        <extensions>
          <ns3:TrackPointExtension>
            <ns3:atemp>31.0</ns3:atemp>
          </ns3:TrackPointExtension>
        </extensions>
      </trkpt>
      <trkpt lat="31.4322852529585361480712890625" lon="119.48453941382467746734619140625">
        <ele>-7</ele>
        <time>2015-09-10T05:49:29.000Z</time>
        <extensions>
          <ns3:TrackPointExtension>
            <ns3:atemp>31.0</ns3:atemp>
          </ns3:TrackPointExtension>
        </extensions>
      </trkpt>
      <trkpt lat="31.43226270563900470733642578125" lon="119.48453539051115512847900390625">
        <ele>-7</ele>
        <time>2015-09-10T05:49:30.000Z</time>
        <extensions>
          <ns3:TrackPointExtension>
            <ns3:atemp>31.0</ns3:atemp>
          </ns3:TrackPointExtension>
        </extensions>
      </trkpt>
      <trkpt lat="31.4322346262633800506591796875" lon="119.48452365584671497344970703125">
        <ele>-7.19999980926513671875</ele>
        <time>2015-09-10T05:49:31.000Z</time>
        <extensions>
          <ns3:TrackPointExtension>
            <ns3:atemp>31.0</ns3:atemp>
          </ns3:TrackPointExtension>
        </extensions>
      </trkpt>
      <trkpt lat="31.43220596015453338623046875" lon="119.48450915515422821044921875">
        <ele>-7.400000095367431640625</ele>
        <time>2015-09-10T05:49:32.000Z</time>
        <extensions>
          <ns3:TrackPointExtension>
            <ns3:atemp>31.0</ns3:atemp>
          </ns3:TrackPointExtension>
        </extensions>
      </trkpt>
      <trkpt lat="31.43172224052250385284423828125" lon="119.4848264940083026885986328125">
        <ele>-7.400000095367431640625</ele>
        <time>2015-09-10T05:49:50.000Z</time>
        <extensions>
          <ns3:TrackPointExtension>
            <ns3:atemp>31.0</ns3:atemp>
          </ns3:TrackPointExtension>
        </extensions>
      </trkpt>
      <trkpt lat="31.43111472018063068389892578125" lon="119.4851061142981052398681640625">
        <ele>-7.80000019073486328125</ele>
        <time>2015-09-10T05:50:11.000Z</time>
        <extensions>
          <ns3:TrackPointExtension>
            <ns3:atemp>31.0</ns3:atemp>
          </ns3:TrackPointExtension>
        </extensions>
      </trkpt>
      <trkpt lat="31.43058515153825283050537109375" lon="119.48532999493181705474853515625">
        <ele>-8.19999980926513671875</ele>
        <time>2015-09-10T05:50:27.000Z</time>
        <extensions>
          <ns3:TrackPointExtension>
            <ns3:atemp>31.0</ns3:atemp>
          </ns3:TrackPointExtension>
        </extensions>
      </trkpt>
      <trkpt lat="31.43056335859000682830810546875" lon="119.485327899456024169921875">
        <ele>-8.19999980926513671875</ele>
        <time>2015-09-10T05:50:28.000Z</time>
        <extensions>
          <ns3:TrackPointExtension>
            <ns3:atemp>31.0</ns3:atemp>
          </ns3:TrackPointExtension>
        </extensions>
      </trkpt>
      <trkpt lat="31.43054542131721973419189453125" lon="119.485328234732151031494140625">
        <ele>-8.19999980926513671875</ele>
        <time>2015-09-10T05:50:29.000Z</time>
        <extensions>
          <ns3:TrackPointExtension>
            <ns3:atemp>31.0</ns3:atemp>
          </ns3:TrackPointExtension>
        </extensions>
      </trkpt>
      <trkpt lat="31.43049873411655426025390625" lon="119.485337622463703155517578125">
        <ele>-7.80000019073486328125</ele>
        <time>2015-09-10T05:50:38.000Z</time>
        <extensions>
          <ns3:TrackPointExtension>
            <ns3:atemp>31.0</ns3:atemp>
          </ns3:TrackPointExtension>
        </extensions>
      </trkpt>
      <trkpt lat="31.4303953014314174652099609375" lon="119.4854320026934146881103515625">
        <ele>-7.80000019073486328125</ele>
        <time>2015-09-10T05:51:03.000Z</time>
        <extensions>
          <ns3:TrackPointExtension>
            <ns3:atemp>31.0</ns3:atemp>
          </ns3:TrackPointExtension>
        </extensions>
      </trkpt>
      <trkpt lat="31.43038549460470676422119140625" lon="119.48543577454984188079833984375">
        <ele>-7.80000019073486328125</ele>
        <time>2015-09-10T05:51:04.000Z</time>
        <extensions>
          <ns3:TrackPointExtension>
            <ns3:atemp>31.0</ns3:atemp>
          </ns3:TrackPointExtension>
        </extensions>
      </trkpt>
      <trkpt lat="31.42973941750824451446533203125" lon="119.4855496846139430999755859375">
        <ele>-7.80000019073486328125</ele>
        <time>2015-09-10T05:51:25.000Z</time>
        <extensions>
          <ns3:TrackPointExtension>
            <ns3:atemp>32.0</ns3:atemp>
          </ns3:TrackPointExtension>
        </extensions>
      </trkpt>
      <trkpt lat="31.42903131432831287384033203125" lon="119.48576987721025943756103515625">
        <ele>-8</ele>
        <time>2015-09-10T05:51:42.000Z</time>
        <extensions>
          <ns3:TrackPointExtension>
            <ns3:atemp>31.0</ns3:atemp>
          </ns3:TrackPointExtension>
        </extensions>
      </trkpt>
      <trkpt lat="31.4289557933807373046875" lon="119.48578898794949054718017578125">
        <ele>-7.19999980926513671875</ele>
        <time>2015-09-10T05:51:44.000Z</time>
        <extensions>
          <ns3:TrackPointExtension>
            <ns3:atemp>31.0</ns3:atemp>
          </ns3:TrackPointExtension>
        </extensions>
      </trkpt>
      <trkpt lat="31.42838825471699237823486328125" lon="119.485899545252323150634765625">
        <ele>-8.3999996185302734375</ele>
        <time>2015-09-10T05:51:59.000Z</time>
        <extensions>
          <ns3:TrackPointExtension>
            <ns3:atemp>31.0</ns3:atemp>
          </ns3:TrackPointExtension>
        </extensions>
      </trkpt>
      <trkpt lat="31.427696160972118377685546875" lon="119.48597523383796215057373046875">
        <ele>-7</ele>
        <time>2015-09-10T05:52:16.000Z</time>
        <extensions>
          <ns3:TrackPointExtension>
            <ns3:atemp>31.0</ns3:atemp>
          </ns3:TrackPointExtension>
        </extensions>
      </trkpt>
      <trkpt lat="31.4270849525928497314453125" lon="119.48606642894446849822998046875">
        <ele>-7.19999980926513671875</ele>
        <time>2015-09-10T05:52:32.000Z</time>
        <extensions>
          <ns3:TrackPointExtension>
            <ns3:atemp>31.0</ns3:atemp>
          </ns3:TrackPointExtension>
        </extensions>
      </trkpt>
      <trkpt lat="31.4264055155217647552490234375" lon="119.48609970510005950927734375">
        <ele>-7</ele>
        <time>2015-09-10T05:52:52.000Z</time>
        <extensions>
          <ns3:TrackPointExtension>
            <ns3:atemp>31.0</ns3:atemp>
          </ns3:TrackPointExtension>
        </extensions>
      </trkpt>
      <trkpt lat="31.4258060418069362640380859375" lon="119.48616416193544864654541015625">
        <ele>-7</ele>
        <time>2015-09-10T05:53:08.000Z</time>
        <extensions>
          <ns3:TrackPointExtension>
            <ns3:atemp>31.0</ns3:atemp>
          </ns3:TrackPointExtension>
        </extensions>
      </trkpt>
      <trkpt lat="31.425147391855716705322265625" lon="119.486202634871006011962890625">
        <ele>-7.19999980926513671875</ele>
        <time>2015-09-10T05:53:24.000Z</time>
        <extensions>
          <ns3:TrackPointExtension>
            <ns3:atemp>31.0</ns3:atemp>
          </ns3:TrackPointExtension>
        </extensions>
      </trkpt>
      <trkpt lat="31.42484555952250957489013671875" lon="119.48620422743260860443115234375">
        <ele>-7.19999980926513671875</ele>
        <time>2015-09-10T05:53:34.000Z</time>
        <extensions>
          <ns3:TrackPointExtension>
            <ns3:atemp>31.0</ns3:atemp>
          </ns3:TrackPointExtension>
        </extensions>
      </trkpt>
      <trkpt lat="31.42482041381299495697021484375" lon="119.4862473942339420318603515625">
        <ele>-7.19999980926513671875</ele>
        <time>2015-09-10T05:53:35.000Z</time>
        <extensions>
          <ns3:TrackPointExtension>
            <ns3:atemp>31.0</ns3:atemp>
          </ns3:TrackPointExtension>
        </extensions>
      </trkpt>
      <trkpt lat="31.42480867914855480194091796875" lon="119.4862691871821880340576171875">
        <ele>-7.19999980926513671875</ele>
        <time>2015-09-10T05:53:36.000Z</time>
        <extensions>
          <ns3:TrackPointExtension>
            <ns3:atemp>31.0</ns3:atemp>
          </ns3:TrackPointExtension>
        </extensions>
      </trkpt>
      <trkpt lat="31.42480113543570041656494140625" lon="119.486288465559482574462890625">
        <ele>-7.19999980926513671875</ele>
        <time>2015-09-10T05:53:37.000Z</time>
        <extensions>
          <ns3:TrackPointExtension>
            <ns3:atemp>31.0</ns3:atemp>
          </ns3:TrackPointExtension>
        </extensions>
      </trkpt>
      <trkpt lat="31.4247968606650829315185546875" lon="119.48631218634545803070068359375">
        <ele>-7.19999980926513671875</ele>
        <time>2015-09-10T05:53:38.000Z</time>
        <extensions>
          <ns3:TrackPointExtension>
            <ns3:atemp>31.0</ns3:atemp>
          </ns3:TrackPointExtension>
        </extensions>
      </trkpt>
      <trkpt lat="31.424798034131526947021484375" lon="119.4863459654152393341064453125">
        <ele>-7.19999980926513671875</ele>
        <time>2015-09-10T05:53:39.000Z</time>
        <extensions>
          <ns3:TrackPointExtension>
            <ns3:atemp>31.0</ns3:atemp>
          </ns3:TrackPointExtension>
        </extensions>
      </trkpt>
      <trkpt lat="31.424792669713497161865234375" lon="119.48637806810438632965087890625">
        <ele>-7.19999980926513671875</ele>
        <time>2015-09-10T05:53:40.000Z</time>
        <extensions>
          <ns3:TrackPointExtension>
            <ns3:atemp>31.0</ns3:atemp>
          </ns3:TrackPointExtension>
        </extensions>
      </trkpt>
      <trkpt lat="31.4247368462383747100830078125" lon="119.4865166209638118743896484375">
        <ele>-7.400000095367431640625</ele>
        <time>2015-09-10T05:53:45.000Z</time>
        <extensions>
          <ns3:TrackPointExtension>
            <ns3:atemp>31.0</ns3:atemp>
          </ns3:TrackPointExtension>
        </extensions>
      </trkpt>
      <trkpt lat="31.424704827368259429931640625" lon="119.4865270145237445831298828125">
        <ele>-7.400000095367431640625</ele>
        <time>2015-09-10T05:53:46.000Z</time>
        <extensions>
          <ns3:TrackPointExtension>
            <ns3:atemp>31.0</ns3:atemp>
          </ns3:TrackPointExtension>
        </extensions>
      </trkpt>
      <trkpt lat="31.42409487627446651458740234375" lon="119.4865595363080501556396484375">
        <ele>-7.80000019073486328125</ele>
        <time>2015-09-10T05:54:04.000Z</time>
        <extensions>
          <ns3:TrackPointExtension>
            <ns3:atemp>31.0</ns3:atemp>
          </ns3:TrackPointExtension>
        </extensions>
      </trkpt>
      <trkpt lat="31.42351199872791767120361328125" lon="119.4865769706666469573974609375">
        <ele>-7.80000019073486328125</ele>
        <time>2015-09-10T05:54:19.000Z</time>
        <extensions>
          <ns3:TrackPointExtension>
            <ns3:atemp>31.0</ns3:atemp>
          </ns3:TrackPointExtension>
        </extensions>
      </trkpt>
      <trkpt lat="31.4231023751199245452880859375" lon="119.486577808856964111328125">
        <ele>-7.599999904632568359375</ele>
        <time>2015-09-10T05:54:29.000Z</time>
        <extensions>
          <ns3:TrackPointExtension>
            <ns3:atemp>31.0</ns3:atemp>
          </ns3:TrackPointExtension>
        </extensions>
      </trkpt>
      <trkpt lat="31.4230597950518131256103515625" lon="119.48658275417983531951904296875">
        <ele>-7.80000019073486328125</ele>
        <time>2015-09-10T05:54:30.000Z</time>
        <extensions>
          <ns3:TrackPointExtension>
            <ns3:atemp>31.0</ns3:atemp>
          </ns3:TrackPointExtension>
        </extensions>
      </trkpt>
      <trkpt lat="31.42293431796133518218994140625" lon="119.486601613461971282958984375">
        <ele>-7.80000019073486328125</ele>
        <time>2015-09-10T05:54:33.000Z</time>
        <extensions>
          <ns3:TrackPointExtension>
            <ns3:atemp>31.0</ns3:atemp>
          </ns3:TrackPointExtension>
        </extensions>
      </trkpt>
      <trkpt lat="31.4225049130618572235107421875" lon="119.48662868700921535491943359375">
        <ele>-7.80000019073486328125</ele>
        <time>2015-09-10T05:54:43.000Z</time>
        <extensions>
          <ns3:TrackPointExtension>
            <ns3:atemp>32.0</ns3:atemp>
          </ns3:TrackPointExtension>
        </extensions>
      </trkpt>
      <trkpt lat="31.42246493138372898101806640625" lon="119.48664008639752864837646484375">
        <ele>-7.80000019073486328125</ele>
        <time>2015-09-10T05:54:44.000Z</time>
        <extensions>
          <ns3:TrackPointExtension>
            <ns3:atemp>32.0</ns3:atemp>
          </ns3:TrackPointExtension>
        </extensions>
      </trkpt>
      <trkpt lat="31.42242704518139362335205078125" lon="119.4866497255861759185791015625">
        <ele>-8</ele>
        <time>2015-09-10T05:54:45.000Z</time>
        <extensions>
          <ns3:TrackPointExtension>
            <ns3:atemp>32.0</ns3:atemp>
          </ns3:TrackPointExtension>
        </extensions>
      </trkpt>
      <trkpt lat="31.4223897457122802734375" lon="119.4866520725190639495849609375">
        <ele>-8.19999980926513671875</ele>
        <time>2015-09-10T05:54:46.000Z</time>
        <extensions>
          <ns3:TrackPointExtension>
            <ns3:atemp>32.0</ns3:atemp>
          </ns3:TrackPointExtension>
        </extensions>
      </trkpt>
      <trkpt lat="31.4223513565957546234130859375" lon="119.48664846830070018768310546875">
        <ele>-8</ele>
        <time>2015-09-10T05:54:47.000Z</time>
        <extensions>
          <ns3:TrackPointExtension>
            <ns3:atemp>32.0</ns3:atemp>
          </ns3:TrackPointExtension>
        </extensions>
      </trkpt>
      <trkpt lat="31.42230927944183349609375" lon="119.4866453669965267181396484375">
        <ele>-7.80000019073486328125</ele>
        <time>2015-09-10T05:54:48.000Z</time>
        <extensions>
          <ns3:TrackPointExtension>
            <ns3:atemp>32.0</ns3:atemp>
          </ns3:TrackPointExtension>
        </extensions>
      </trkpt>
      <trkpt lat="31.42170645296573638916015625" lon="119.48667948134243488311767578125">
        <ele>-8.3999996185302734375</ele>
        <time>2015-09-10T05:55:02.000Z</time>
        <extensions>
          <ns3:TrackPointExtension>
            <ns3:atemp>32.0</ns3:atemp>
          </ns3:TrackPointExtension>
        </extensions>
      </trkpt>
      <trkpt lat="31.42109935171902179718017578125" lon="119.48668518103659152984619140625">
        <ele>-7.400000095367431640625</ele>
        <time>2015-09-10T05:55:17.000Z</time>
        <extensions>
          <ns3:TrackPointExtension>
            <ns3:atemp>32.0</ns3:atemp>
          </ns3:TrackPointExtension>
        </extensions>
      </trkpt>
      <trkpt lat="31.420623846352100372314453125" lon="119.486742429435253143310546875">
        <ele>-7.400000095367431640625</ele>
        <time>2015-09-10T05:55:31.000Z</time>
        <extensions>
          <ns3:TrackPointExtension>
            <ns3:atemp>32.0</ns3:atemp>
          </ns3:TrackPointExtension>
        </extensions>
      </trkpt>
      <trkpt lat="31.42028681002557277679443359375" lon="119.48675139807164669036865234375">
        <ele>-7.599999904632568359375</ele>
        <time>2015-09-10T05:55:40.000Z</time>
        <extensions>
          <ns3:TrackPointExtension>
            <ns3:atemp>32.0</ns3:atemp>
          </ns3:TrackPointExtension>
        </extensions>
      </trkpt>
      <trkpt lat="31.42002043314278125762939453125" lon="119.48677503503859043121337890625">
        <ele>-7</ele>
        <time>2015-09-10T05:55:47.000Z</time>
        <extensions>
          <ns3:TrackPointExtension>
            <ns3:atemp>32.0</ns3:atemp>
          </ns3:TrackPointExtension>
        </extensions>
      </trkpt>
      <trkpt lat="31.41966520808637142181396484375" lon="119.48678475804626941680908203125">
        <ele>-7.400000095367431640625</ele>
        <time>2015-09-10T05:55:56.000Z</time>
        <extensions>
          <ns3:TrackPointExtension>
            <ns3:atemp>33.0</ns3:atemp>
          </ns3:TrackPointExtension>
        </extensions>
      </trkpt>
      <trkpt lat="31.4195410721004009246826171875" lon="119.486780650913715362548828125">
        <ele>-7.400000095367431640625</ele>
        <time>2015-09-10T05:55:59.000Z</time>
        <extensions>
          <ns3:TrackPointExtension>
            <ns3:atemp>33.0</ns3:atemp>
          </ns3:TrackPointExtension>
        </extensions>
      </trkpt>
      <trkpt lat="31.41894109547138214111328125" lon="119.4868042878806591033935546875">
        <ele>-7</ele>
        <time>2015-09-10T05:56:14.000Z</time>
        <extensions>
          <ns3:TrackPointExtension>
            <ns3:atemp>33.0</ns3:atemp>
          </ns3:TrackPointExtension>
        </extensions>
      </trkpt>
      <trkpt lat="31.4183689467608928680419921875" lon="119.48689472861588001251220703125">
        <ele>-7.19999980926513671875</ele>
        <time>2015-09-10T05:56:30.000Z</time>
        <extensions>
          <ns3:TrackPointExtension>
            <ns3:atemp>33.0</ns3:atemp>
          </ns3:TrackPointExtension>
        </extensions>
      </trkpt>
      <trkpt lat="31.41834522597491741180419921875" lon="119.48687662370502948760986328125">
        <ele>-7.19999980926513671875</ele>
        <time>2015-09-10T05:56:31.000Z</time>
        <extensions>
          <ns3:TrackPointExtension>
            <ns3:atemp>33.0</ns3:atemp>
          </ns3:TrackPointExtension>
        </extensions>
      </trkpt>
      <trkpt lat="31.4183293841779232025146484375" lon="119.4868518970906734466552734375">
        <ele>-7.19999980926513671875</ele>
        <time>2015-09-10T05:56:32.000Z</time>
        <extensions>
          <ns3:TrackPointExtension>
            <ns3:atemp>33.0</ns3:atemp>
          </ns3:TrackPointExtension>
        </extensions>
      </trkpt>
      <trkpt lat="31.41831857152283191680908203125" lon="119.48682616464793682098388671875">
        <ele>-7</ele>
        <time>2015-09-10T05:56:33.000Z</time>
        <extensions>
          <ns3:TrackPointExtension>
            <ns3:atemp>33.0</ns3:atemp>
          </ns3:TrackPointExtension>
        </extensions>
      </trkpt>
      <trkpt lat="31.41830231063067913055419921875" lon="119.48680378496646881103515625">
        <ele>-7</ele>
        <time>2015-09-10T05:56:34.000Z</time>
        <extensions>
          <ns3:TrackPointExtension>
            <ns3:atemp>33.0</ns3:atemp>
          </ns3:TrackPointExtension>
        </extensions>
      </trkpt>
      <trkpt lat="31.4182787574827671051025390625" lon="119.48679280467331409454345703125">
        <ele>-7</ele>
        <time>2015-09-10T05:56:35.000Z</time>
        <extensions>
          <ns3:TrackPointExtension>
            <ns3:atemp>33.0</ns3:atemp>
          </ns3:TrackPointExtension>
        </extensions>
      </trkpt>
      <trkpt lat="31.41825302504003047943115234375" lon="119.486792050302028656005859375">
        <ele>-7</ele>
        <time>2015-09-10T05:56:36.000Z</time>
        <extensions>
          <ns3:TrackPointExtension>
            <ns3:atemp>33.0</ns3:atemp>
          </ns3:TrackPointExtension>
        </extensions>
      </trkpt>
      <trkpt lat="31.41822586767375469207763671875" lon="119.48679883964359760284423828125">
        <ele>-7</ele>
        <time>2015-09-10T05:56:37.000Z</time>
        <extensions>
          <ns3:TrackPointExtension>
            <ns3:atemp>33.0</ns3:atemp>
          </ns3:TrackPointExtension>
        </extensions>
      </trkpt>
      <trkpt lat="31.41819301061332225799560546875" lon="119.4868022762238979339599609375">
        <ele>-7</ele>
        <time>2015-09-10T05:56:38.000Z</time>
        <extensions>
          <ns3:TrackPointExtension>
            <ns3:atemp>33.0</ns3:atemp>
          </ns3:TrackPointExtension>
        </extensions>
      </trkpt>
      <trkpt lat="31.41758549027144908905029296875" lon="119.48684401810169219970703125">
        <ele>-7</ele>
        <time>2015-09-10T05:56:54.000Z</time>
        <extensions>
          <ns3:TrackPointExtension>
            <ns3:atemp>33.0</ns3:atemp>
          </ns3:TrackPointExtension>
        </extensions>
      </trkpt>
      <trkpt lat="31.41701317392289638519287109375" lon="119.48688785545527935028076171875">
        <ele>-7.400000095367431640625</ele>
        <time>2015-09-10T05:57:09.000Z</time>
        <extensions>
          <ns3:TrackPointExtension>
            <ns3:atemp>33.0</ns3:atemp>
          </ns3:TrackPointExtension>
        </extensions>
      </trkpt>
      <trkpt lat="31.41640012152493000030517578125" lon="119.48687746189534664154052734375">
        <ele>-7.80000019073486328125</ele>
        <time>2015-09-10T05:57:24.000Z</time>
        <extensions>
          <ns3:TrackPointExtension>
            <ns3:atemp>33.0</ns3:atemp>
          </ns3:TrackPointExtension>
        </extensions>
      </trkpt>
      <trkpt lat="31.41581791453063488006591796875" lon="119.486919455230236053466796875">
        <ele>-7</ele>
        <time>2015-09-10T05:57:40.000Z</time>
        <extensions>
          <ns3:TrackPointExtension>
            <ns3:atemp>33.0</ns3:atemp>
          </ns3:TrackPointExtension>
        </extensions>
      </trkpt>
      <trkpt lat="31.41528683714568614959716796875" lon="119.486961700022220611572265625">
        <ele>-7</ele>
        <time>2015-09-10T05:57:57.000Z</time>
        <extensions>
          <ns3:TrackPointExtension>
            <ns3:atemp>33.0</ns3:atemp>
          </ns3:TrackPointExtension>
        </extensions>
      </trkpt>
      <trkpt lat="31.41524543054401874542236328125" lon="119.486969076097011566162109375">
        <ele>-7</ele>
        <time>2015-09-10T05:57:58.000Z</time>
        <extensions>
          <ns3:TrackPointExtension>
            <ns3:atemp>33.0</ns3:atemp>
          </ns3:TrackPointExtension>
        </extensions>
      </trkpt>
      <trkpt lat="31.41465090215206146240234375" lon="119.486984498798847198486328125">
        <ele>-7.19999980926513671875</ele>
        <time>2015-09-10T05:58:12.000Z</time>
        <extensions>
          <ns3:TrackPointExtension>
            <ns3:atemp>33.0</ns3:atemp>
          </ns3:TrackPointExtension>
        </extensions>
      </trkpt>
      <trkpt lat="31.4145675860345363616943359375" lon="119.48699497617781162261962890625">
        <ele>-7.400000095367431640625</ele>
        <time>2015-09-10T05:58:14.000Z</time>
        <extensions>
          <ns3:TrackPointExtension>
            <ns3:atemp>33.0</ns3:atemp>
          </ns3:TrackPointExtension>
        </extensions>
      </trkpt>
      <trkpt lat="31.4145266823470592498779296875" lon="119.487000592052936553955078125">
        <ele>-7.400000095367431640625</ele>
        <time>2015-09-10T05:58:15.000Z</time>
        <extensions>
          <ns3:TrackPointExtension>
            <ns3:atemp>33.0</ns3:atemp>
          </ns3:TrackPointExtension>
        </extensions>
      </trkpt>
      <trkpt lat="31.41448594629764556884765625" lon="119.487000592052936553955078125">
        <ele>-7.400000095367431640625</ele>
        <time>2015-09-10T05:58:16.000Z</time>
        <extensions>
          <ns3:TrackPointExtension>
            <ns3:atemp>33.0</ns3:atemp>
          </ns3:TrackPointExtension>
        </extensions>
      </trkpt>
      <trkpt lat="31.41386979259550571441650390625" lon="119.487038813531398773193359375">
        <ele>-7.19999980926513671875</ele>
        <time>2015-09-10T05:58:31.000Z</time>
        <extensions>
          <ns3:TrackPointExtension>
            <ns3:atemp>33.0</ns3:atemp>
          </ns3:TrackPointExtension>
        </extensions>
      </trkpt>
      <trkpt lat="31.41326487064361572265625" lon="119.487084411084651947021484375">
        <ele>-7.400000095367431640625</ele>
        <time>2015-09-10T05:58:46.000Z</time>
        <extensions>
          <ns3:TrackPointExtension>
            <ns3:atemp>33.0</ns3:atemp>
          </ns3:TrackPointExtension>
        </extensions>
      </trkpt>
      <trkpt lat="31.41266204416751861572265625" lon="119.48710042051970958709716796875">
        <ele>-7</ele>
        <time>2015-09-10T05:59:01.000Z</time>
        <extensions>
          <ns3:TrackPointExtension>
            <ns3:atemp>32.0</ns3:atemp>
          </ns3:TrackPointExtension>
        </extensions>
      </trkpt>
      <trkpt lat="31.41236440278589725494384765625" lon="119.48715439997613430023193359375">
        <ele>-7.400000095367431640625</ele>
        <time>2015-09-10T05:59:09.000Z</time>
        <extensions>
          <ns3:TrackPointExtension>
            <ns3:atemp>32.0</ns3:atemp>
          </ns3:TrackPointExtension>
        </extensions>
      </trkpt>
      <trkpt lat="31.412275470793247222900390625" lon="119.487166889011859893798828125">
        <ele>-7.599999904632568359375</ele>
        <time>2015-09-10T05:59:11.000Z</time>
        <extensions>
          <ns3:TrackPointExtension>
            <ns3:atemp>32.0</ns3:atemp>
          </ns3:TrackPointExtension>
        </extensions>
      </trkpt>
      <trkpt lat="31.4121043123304843902587890625" lon="119.487163536250591278076171875">
        <ele>-7.400000095367431640625</ele>
        <time>2015-09-10T05:59:15.000Z</time>
        <extensions>
          <ns3:TrackPointExtension>
            <ns3:atemp>32.0</ns3:atemp>
          </ns3:TrackPointExtension>
        </extensions>
      </trkpt>
      <trkpt lat="31.41150877811014652252197265625" lon="119.4871539808809757232666015625">
        <ele>-7</ele>
        <time>2015-09-10T05:59:29.000Z</time>
        <extensions>
          <ns3:TrackPointExtension>
            <ns3:atemp>32.0</ns3:atemp>
          </ns3:TrackPointExtension>
        </extensions>
      </trkpt>
      <trkpt lat="31.411416828632354736328125" lon="119.48715540580451488494873046875">
        <ele>-7</ele>
        <time>2015-09-10T05:59:31.000Z</time>
        <extensions>
          <ns3:TrackPointExtension>
            <ns3:atemp>32.0</ns3:atemp>
          </ns3:TrackPointExtension>
        </extensions>
      </trkpt>
      <trkpt lat="31.4109355397522449493408203125" lon="119.48718876577913761138916015625">
        <ele>-7.599999904632568359375</ele>
        <time>2015-09-10T05:59:43.000Z</time>
        <extensions>
          <ns3:TrackPointExtension>
            <ns3:atemp>32.0</ns3:atemp>
          </ns3:TrackPointExtension>
        </extensions>
      </trkpt>
      <trkpt lat="31.4103498123586177825927734375" lon="119.4872148334980010986328125">
        <ele>-7.400000095367431640625</ele>
        <time>2015-09-10T05:59:57.000Z</time>
        <extensions>
          <ns3:TrackPointExtension>
            <ns3:atemp>32.0</ns3:atemp>
          </ns3:TrackPointExtension>
        </extensions>
      </trkpt>
      <trkpt lat="31.4097815193235874176025390625" lon="119.48724257759749889373779296875">
        <ele>-7.80000019073486328125</ele>
        <time>2015-09-10T06:00:11.000Z</time>
        <extensions>
          <ns3:TrackPointExtension>
            <ns3:atemp>32.0</ns3:atemp>
          </ns3:TrackPointExtension>
        </extensions>
      </trkpt>
      <trkpt lat="31.40956987626850605010986328125" lon="119.48730267584323883056640625">
        <ele>-7.80000019073486328125</ele>
        <time>2015-09-10T06:00:17.000Z</time>
        <extensions>
          <ns3:TrackPointExtension>
            <ns3:atemp>32.0</ns3:atemp>
          </ns3:TrackPointExtension>
        </extensions>
      </trkpt>
      <trkpt lat="31.4095513522624969482421875" lon="119.487339891493320465087890625">
        <ele>-7.80000019073486328125</ele>
        <time>2015-09-10T06:00:18.000Z</time>
        <extensions>
          <ns3:TrackPointExtension>
            <ns3:atemp>32.0</ns3:atemp>
          </ns3:TrackPointExtension>
        </extensions>
      </trkpt>
      <trkpt lat="31.40953861176967620849609375" lon="119.48737970553338527679443359375">
        <ele>-7.80000019073486328125</ele>
        <time>2015-09-10T06:00:19.000Z</time>
        <extensions>
          <ns3:TrackPointExtension>
            <ns3:atemp>32.0</ns3:atemp>
          </ns3:TrackPointExtension>
        </extensions>
      </trkpt>
      <trkpt lat="31.40953333117067813873291015625" lon="119.48742127977311611175537109375">
        <ele>-7.80000019073486328125</ele>
        <time>2015-09-10T06:00:20.000Z</time>
        <extensions>
          <ns3:TrackPointExtension>
            <ns3:atemp>32.0</ns3:atemp>
          </ns3:TrackPointExtension>
        </extensions>
      </trkpt>
      <trkpt lat="31.40953349880874156951904296875" lon="119.48746067471802234649658203125">
        <ele>-7.599999904632568359375</ele>
        <time>2015-09-10T06:00:21.000Z</time>
        <extensions>
          <ns3:TrackPointExtension>
            <ns3:atemp>32.0</ns3:atemp>
          </ns3:TrackPointExtension>
        </extensions>
      </trkpt>
      <trkpt lat="31.4095384441316127777099609375" lon="119.48749923147261142730712890625">
        <ele>-7.400000095367431640625</ele>
        <time>2015-09-10T06:00:22.000Z</time>
        <extensions>
          <ns3:TrackPointExtension>
            <ns3:atemp>32.0</ns3:atemp>
          </ns3:TrackPointExtension>
        </extensions>
      </trkpt>
      <trkpt lat="31.4095394499599933624267578125" lon="119.487538374960422515869140625">
        <ele>-7.400000095367431640625</ele>
        <time>2015-09-10T06:00:23.000Z</time>
        <extensions>
          <ns3:TrackPointExtension>
            <ns3:atemp>32.0</ns3:atemp>
          </ns3:TrackPointExtension>
        </extensions>
      </trkpt>
      <trkpt lat="31.40954456292092800140380859375" lon="119.48757894337177276611328125">
        <ele>-7.400000095367431640625</ele>
        <time>2015-09-10T06:00:24.000Z</time>
        <extensions>
          <ns3:TrackPointExtension>
            <ns3:atemp>32.0</ns3:atemp>
          </ns3:TrackPointExtension>
        </extensions>
      </trkpt>
      <trkpt lat="31.4095474965870380401611328125" lon="119.48762043379247188568115234375">
        <ele>-7.19999980926513671875</ele>
        <time>2015-09-10T06:00:25.000Z</time>
        <extensions>
          <ns3:TrackPointExtension>
            <ns3:atemp>32.0</ns3:atemp>
          </ns3:TrackPointExtension>
        </extensions>
      </trkpt>
      <trkpt lat="31.4096608199179172515869140625" lon="119.48796912096440792083740234375">
        <ele>-6.400000095367431640625</ele>
        <time>2015-09-10T06:00:37.000Z</time>
        <extensions>
          <ns3:TrackPointExtension>
            <ns3:atemp>32.0</ns3:atemp>
          </ns3:TrackPointExtension>
        </extensions>
      </trkpt>
    </trkseg>
  </trk>
</gpx>
