<gpx xmlns:ns3="http://www.garmin.com/xmlschemas/TrackPointExtension/v1" xmlns="http://www.topografix.com/GPX/1/1" xmlns:xsi="http://www.w3.org/2001/XMLSchema-instance" xmlns:ns2="http://www.garmin.com/xmlschemas/GpxExtensions/v3" creator="Garmin Connect" version="1.1" xsi:schemaLocation="http://www.topografix.com/GPX/1/1 http://www.topografix.com/GPX/11.xsd">
  <extensions>
<distance>3781.67</distance>
<average_hr>107.0</average_hr>
<average_speed>4.386000156402588</average_speed>
<start_time>2019-06-03T20:54:42+00:00</start_time>
<end_time>2019-06-03T21:09:04.190000+00:00</end_time>
<moving_time>838.0</moving_time>
<elapsed_time>862.19</elapsed_time>
</extensions>
<metadata>
    <link href="connect.garmin.com">
      <text>Garmin Connect</text>
    </link>
    <time>2019-06-03T20:54:42.000Z</time>
  </metadata>
  <trk>
    <name>常州市 骑行</name>
    <type>cycling</type>
    <trkseg>
      <trkpt lat="31.43502487801015377044677734375" lon="119.4845487177371978759765625">
        <ele>8</ele>
        <time>2019-06-03T20:54:42.000Z</time>
        <extensions>
          <ns3:TrackPointExtension>
            <ns3:atemp>30.0</ns3:atemp>
            <ns3:hr>81</ns3:hr>
          </ns3:TrackPointExtension>
        </extensions>
      </trkpt>
      <trkpt lat="31.4350242912769317626953125" lon="119.48455114848911762237548828125">
        <ele>8</ele>
        <time>2019-06-03T20:54:43.000Z</time>
        <extensions>
          <ns3:TrackPointExtension>
            <ns3:atemp>30.0</ns3:atemp>
            <ns3:hr>82</ns3:hr>
          </ns3:TrackPointExtension>
        </extensions>
      </trkpt>
      <trkpt lat="31.4349845610558986663818359375" lon="119.48455215431749820709228515625">
        <ele>8</ele>
        <time>2019-06-03T20:54:48.000Z</time>
        <extensions>
          <ns3:TrackPointExtension>
            <ns3:atemp>30.0</ns3:atemp>
            <ns3:hr>89</ns3:hr>
          </ns3:TrackPointExtension>
        </extensions>
      </trkpt>
      <trkpt lat="31.43496201373636722564697265625" lon="119.48455366306006908416748046875">
        <ele>8</ele>
        <time>2019-06-03T20:54:49.000Z</time>
        <extensions>
          <ns3:TrackPointExtension>
            <ns3:atemp>30.0</ns3:atemp>
            <ns3:hr>90</ns3:hr>
          </ns3:TrackPointExtension>
        </extensions>
      </trkpt>
      <trkpt lat="31.43490820191800594329833984375" lon="119.48455600999295711517333984375">
        <ele>7.80000019073486328125</ele>
        <time>2019-06-03T20:54:51.000Z</time>
        <extensions>
          <ns3:TrackPointExtension>
            <ns3:atemp>30.0</ns3:atemp>
            <ns3:hr>89</ns3:hr>
          </ns3:TrackPointExtension>
        </extensions>
      </trkpt>
      <trkpt lat="31.43471173010766506195068359375" lon="119.48452818207442760467529296875">
        <ele>7</ele>
        <time>2019-06-03T20:54:57.000Z</time>
        <extensions>
          <ns3:TrackPointExtension>
            <ns3:atemp>30.0</ns3:atemp>
            <ns3:hr>91</ns3:hr>
          </ns3:TrackPointExtension>
        </extensions>
      </trkpt>
      <trkpt lat="31.43457946367561817169189453125" lon="119.4844307005405426025390625">
        <ele>6</ele>
        <time>2019-06-03T20:55:02.000Z</time>
        <extensions>
          <ns3:TrackPointExtension>
            <ns3:atemp>30.0</ns3:atemp>
            <ns3:hr>91</ns3:hr>
          </ns3:TrackPointExtension>
        </extensions>
      </trkpt>
      <trkpt lat="31.43447904847562313079833984375" lon="119.48438711464405059814453125">
        <ele>5.19999980926513671875</ele>
        <time>2019-06-03T20:55:05.000Z</time>
        <extensions>
          <ns3:TrackPointExtension>
            <ns3:atemp>30.0</ns3:atemp>
            <ns3:hr>94</ns3:hr>
          </ns3:TrackPointExtension>
        </extensions>
      </trkpt>
      <trkpt lat="31.43433270044624805450439453125" lon="119.48433472774922847747802734375">
        <ele>4.19999980926513671875</ele>
        <time>2019-06-03T20:55:09.000Z</time>
        <extensions>
          <ns3:TrackPointExtension>
            <ns3:atemp>30.0</ns3:atemp>
            <ns3:hr>94</ns3:hr>
          </ns3:TrackPointExtension>
        </extensions>
      </trkpt>
      <trkpt lat="31.43407487310469150543212890625" lon="119.48425208218395709991455078125">
        <ele>3.7999999523162841796875</ele>
        <time>2019-06-03T20:55:16.000Z</time>
        <extensions>
          <ns3:TrackPointExtension>
            <ns3:atemp>30.0</ns3:atemp>
            <ns3:hr>96</ns3:hr>
          </ns3:TrackPointExtension>
        </extensions>
      </trkpt>
      <trkpt lat="31.4338664151728153228759765625" lon="119.484111182391643524169921875">
        <ele>5</ele>
        <time>2019-06-03T20:55:22.000Z</time>
        <extensions>
          <ns3:TrackPointExtension>
            <ns3:atemp>30.0</ns3:atemp>
            <ns3:hr>99</ns3:hr>
          </ns3:TrackPointExtension>
        </extensions>
      </trkpt>
      <trkpt lat="31.4337309636175632476806640625" lon="119.4839935004711151123046875">
        <ele>6.599999904632568359375</ele>
        <time>2019-06-03T20:55:26.000Z</time>
        <extensions>
          <ns3:TrackPointExtension>
            <ns3:atemp>30.0</ns3:atemp>
            <ns3:hr>102</ns3:hr>
          </ns3:TrackPointExtension>
        </extensions>
      </trkpt>
      <trkpt lat="31.4336625672876834869384765625" lon="119.48392770253121852874755859375">
        <ele>7.19999980926513671875</ele>
        <time>2019-06-03T20:55:28.000Z</time>
        <extensions>
          <ns3:TrackPointExtension>
            <ns3:atemp>30.0</ns3:atemp>
            <ns3:hr>102</ns3:hr>
          </ns3:TrackPointExtension>
        </extensions>
      </trkpt>
      <trkpt lat="31.43345511518418788909912109375" lon="119.4836842082440853118896484375">
        <ele>8</ele>
        <time>2019-06-03T20:55:35.000Z</time>
        <extensions>
          <ns3:TrackPointExtension>
            <ns3:atemp>30.0</ns3:atemp>
            <ns3:hr>104</ns3:hr>
          </ns3:TrackPointExtension>
        </extensions>
      </trkpt>
      <trkpt lat="31.4333437196910381317138671875" lon="119.48353526182472705841064453125">
        <ele>8.6000003814697265625</ele>
        <time>2019-06-03T20:55:40.000Z</time>
        <extensions>
          <ns3:TrackPointExtension>
            <ns3:atemp>30.0</ns3:atemp>
            <ns3:hr>105</ns3:hr>
          </ns3:TrackPointExtension>
        </extensions>
      </trkpt>
      <trkpt lat="31.43320432864129543304443359375" lon="119.48340685106813907623291015625">
        <ele>9</ele>
        <time>2019-06-03T20:55:46.000Z</time>
        <extensions>
          <ns3:TrackPointExtension>
            <ns3:atemp>30.0</ns3:atemp>
            <ns3:hr>108</ns3:hr>
          </ns3:TrackPointExtension>
        </extensions>
      </trkpt>
      <trkpt lat="31.4331784285604953765869140625" lon="119.4833834655582904815673828125">
        <ele>9.19999980926513671875</ele>
        <time>2019-06-03T20:55:47.000Z</time>
        <extensions>
          <ns3:TrackPointExtension>
            <ns3:atemp>30.0</ns3:atemp>
            <ns3:hr>109</ns3:hr>
          </ns3:TrackPointExtension>
        </extensions>
      </trkpt>
      <trkpt lat="31.433089412748813629150390625" lon="119.48330425657331943511962890625">
        <ele>9.3999996185302734375</ele>
        <time>2019-06-03T20:55:50.000Z</time>
        <extensions>
          <ns3:TrackPointExtension>
            <ns3:atemp>30.0</ns3:atemp>
            <ns3:hr>112</ns3:hr>
          </ns3:TrackPointExtension>
        </extensions>
      </trkpt>
      <trkpt lat="31.432949267327785491943359375" lon="119.4831759296357631683349609375">
        <ele>10</ele>
        <time>2019-06-03T20:55:54.000Z</time>
        <extensions>
          <ns3:TrackPointExtension>
            <ns3:atemp>30.0</ns3:atemp>
            <ns3:hr>113</ns3:hr>
          </ns3:TrackPointExtension>
        </extensions>
      </trkpt>
      <trkpt lat="31.43280518241226673126220703125" lon="119.48303855024278163909912109375">
        <ele>11</ele>
        <time>2019-06-03T20:55:58.000Z</time>
        <extensions>
          <ns3:TrackPointExtension>
            <ns3:atemp>29.0</ns3:atemp>
            <ns3:hr>113</ns3:hr>
          </ns3:TrackPointExtension>
        </extensions>
      </trkpt>
      <trkpt lat="31.4326698146760463714599609375" lon="119.48291718028485774993896484375">
        <ele>11.3999996185302734375</ele>
        <time>2019-06-03T20:56:02.000Z</time>
        <extensions>
          <ns3:TrackPointExtension>
            <ns3:atemp>29.0</ns3:atemp>
            <ns3:hr>111</ns3:hr>
          </ns3:TrackPointExtension>
        </extensions>
      </trkpt>
      <trkpt lat="31.43253159709274768829345703125" lon="119.48281290940940380096435546875">
        <ele>11.80000019073486328125</ele>
        <time>2019-06-03T20:56:06.000Z</time>
        <extensions>
          <ns3:TrackPointExtension>
            <ns3:atemp>29.0</ns3:atemp>
            <ns3:hr>108</ns3:hr>
          </ns3:TrackPointExtension>
        </extensions>
      </trkpt>
      <trkpt lat="31.43249941058456897735595703125" lon="119.482780136168003082275390625">
        <ele>12</ele>
        <time>2019-06-03T20:56:07.000Z</time>
        <extensions>
          <ns3:TrackPointExtension>
            <ns3:atemp>29.0</ns3:atemp>
            <ns3:hr>107</ns3:hr>
          </ns3:TrackPointExtension>
        </extensions>
      </trkpt>
      <trkpt lat="31.43243931233882904052734375" lon="119.48271467350423336029052734375">
        <ele>11.80000019073486328125</ele>
        <time>2019-06-03T20:56:09.000Z</time>
        <extensions>
          <ns3:TrackPointExtension>
            <ns3:atemp>29.0</ns3:atemp>
            <ns3:hr>105</ns3:hr>
          </ns3:TrackPointExtension>
        </extensions>
      </trkpt>
      <trkpt lat="31.43218508921563625335693359375" lon="119.4824458658695220947265625">
        <ele>11</ele>
        <time>2019-06-03T20:56:17.000Z</time>
        <extensions>
          <ns3:TrackPointExtension>
            <ns3:atemp>29.0</ns3:atemp>
            <ns3:hr>105</ns3:hr>
          </ns3:TrackPointExtension>
        </extensions>
      </trkpt>
      <trkpt lat="31.4320901222527027130126953125" lon="119.4823444448411464691162109375">
        <ele>10.6000003814697265625</ele>
        <time>2019-06-03T20:56:20.000Z</time>
        <extensions>
          <ns3:TrackPointExtension>
            <ns3:atemp>29.0</ns3:atemp>
            <ns3:hr>105</ns3:hr>
          </ns3:TrackPointExtension>
        </extensions>
      </trkpt>
      <trkpt lat="31.43203019164502620697021484375" lon="119.48229189030826091766357421875">
        <ele>10.3999996185302734375</ele>
        <time>2019-06-03T20:56:22.000Z</time>
        <extensions>
          <ns3:TrackPointExtension>
            <ns3:atemp>29.0</ns3:atemp>
            <ns3:hr>104</ns3:hr>
          </ns3:TrackPointExtension>
        </extensions>
      </trkpt>
      <trkpt lat="31.431972943246364593505859375" lon="119.48222617618739604949951171875">
        <ele>10.19999980926513671875</ele>
        <time>2019-06-03T20:56:24.000Z</time>
        <extensions>
          <ns3:TrackPointExtension>
            <ns3:atemp>29.0</ns3:atemp>
            <ns3:hr>103</ns3:hr>
          </ns3:TrackPointExtension>
        </extensions>
      </trkpt>
      <trkpt lat="31.43185232765972614288330078125" lon="119.48208100162446498870849609375">
        <ele>9.19999980926513671875</ele>
        <time>2019-06-03T20:56:28.000Z</time>
        <extensions>
          <ns3:TrackPointExtension>
            <ns3:atemp>29.0</ns3:atemp>
            <ns3:hr>103</ns3:hr>
          </ns3:TrackPointExtension>
        </extensions>
      </trkpt>
      <trkpt lat="31.43181972205638885498046875" lon="119.4820460490882396697998046875">
        <ele>9.19999980926513671875</ele>
        <time>2019-06-03T20:56:29.000Z</time>
        <extensions>
          <ns3:TrackPointExtension>
            <ns3:atemp>29.0</ns3:atemp>
            <ns3:hr>103</ns3:hr>
          </ns3:TrackPointExtension>
        </extensions>
      </trkpt>
      <trkpt lat="31.431671865284442901611328125" lon="119.48189274407923221588134765625">
        <ele>8.6000003814697265625</ele>
        <time>2019-06-03T20:56:34.000Z</time>
        <extensions>
          <ns3:TrackPointExtension>
            <ns3:atemp>29.0</ns3:atemp>
            <ns3:hr>103</ns3:hr>
          </ns3:TrackPointExtension>
        </extensions>
      </trkpt>
      <trkpt lat="31.431479416787624359130859375" lon="119.48173617012798786163330078125">
        <ele>8.19999980926513671875</ele>
        <time>2019-06-03T20:56:40.000Z</time>
        <extensions>
          <ns3:TrackPointExtension>
            <ns3:atemp>29.0</ns3:atemp>
            <ns3:hr>106</ns3:hr>
          </ns3:TrackPointExtension>
        </extensions>
      </trkpt>
      <trkpt lat="31.43129208125174045562744140625" lon="119.4816353358328342437744140625">
        <ele>8</ele>
        <time>2019-06-03T20:56:45.000Z</time>
        <extensions>
          <ns3:TrackPointExtension>
            <ns3:atemp>29.0</ns3:atemp>
            <ns3:hr>108</ns3:hr>
          </ns3:TrackPointExtension>
        </extensions>
      </trkpt>
      <trkpt lat="31.43106325529515743255615234375" lon="119.4815595634281635284423828125">
        <ele>7.80000019073486328125</ele>
        <time>2019-06-03T20:56:51.000Z</time>
        <extensions>
          <ns3:TrackPointExtension>
            <ns3:atemp>29.0</ns3:atemp>
            <ns3:hr>106</ns3:hr>
          </ns3:TrackPointExtension>
        </extensions>
      </trkpt>
      <trkpt lat="31.43082755617797374725341796875" lon="119.48151874355971813201904296875">
        <ele>7.400000095367431640625</ele>
        <time>2019-06-03T20:56:57.000Z</time>
        <extensions>
          <ns3:TrackPointExtension>
            <ns3:atemp>29.0</ns3:atemp>
            <ns3:hr>108</ns3:hr>
          </ns3:TrackPointExtension>
        </extensions>
      </trkpt>
      <trkpt lat="31.43055916763842105865478515625" lon="119.4814562983810901641845703125">
        <ele>7.19999980926513671875</ele>
        <time>2019-06-03T20:57:04.000Z</time>
        <extensions>
          <ns3:TrackPointExtension>
            <ns3:atemp>29.0</ns3:atemp>
            <ns3:hr>109</ns3:hr>
          </ns3:TrackPointExtension>
        </extensions>
      </trkpt>
      <trkpt lat="31.4303545653820037841796875" lon="119.48141531087458133697509765625">
        <ele>7.19999980926513671875</ele>
        <time>2019-06-03T20:57:10.000Z</time>
        <extensions>
          <ns3:TrackPointExtension>
            <ns3:atemp>29.0</ns3:atemp>
            <ns3:hr>107</ns3:hr>
          </ns3:TrackPointExtension>
        </extensions>
      </trkpt>
      <trkpt lat="31.43002239055931568145751953125" lon="119.48139485903084278106689453125">
        <ele>7.80000019073486328125</ele>
        <time>2019-06-03T20:57:18.000Z</time>
        <extensions>
          <ns3:TrackPointExtension>
            <ns3:atemp>29.0</ns3:atemp>
            <ns3:hr>108</ns3:hr>
          </ns3:TrackPointExtension>
        </extensions>
      </trkpt>
      <trkpt lat="31.429983079433441162109375" lon="119.481399469077587127685546875">
        <ele>8</ele>
        <time>2019-06-03T20:57:19.000Z</time>
        <extensions>
          <ns3:TrackPointExtension>
            <ns3:atemp>29.0</ns3:atemp>
            <ns3:hr>108</ns3:hr>
          </ns3:TrackPointExtension>
        </extensions>
      </trkpt>
      <trkpt lat="31.42976188100874423980712890625" lon="119.4814368523657321929931640625">
        <ele>9.6000003814697265625</ele>
        <time>2019-06-03T20:57:25.000Z</time>
        <extensions>
          <ns3:TrackPointExtension>
            <ns3:atemp>29.0</ns3:atemp>
            <ns3:hr>109</ns3:hr>
          </ns3:TrackPointExtension>
        </extensions>
      </trkpt>
      <trkpt lat="31.42955484800040721893310546875" lon="119.48142251931130886077880859375">
        <ele>10.80000019073486328125</ele>
        <time>2019-06-03T20:57:31.000Z</time>
        <extensions>
          <ns3:TrackPointExtension>
            <ns3:atemp>29.0</ns3:atemp>
            <ns3:hr>110</ns3:hr>
          </ns3:TrackPointExtension>
        </extensions>
      </trkpt>
      <trkpt lat="31.42939123325049877166748046875" lon="119.4814321584999561309814453125">
        <ele>12</ele>
        <time>2019-06-03T20:57:36.000Z</time>
        <extensions>
          <ns3:TrackPointExtension>
            <ns3:atemp>29.0</ns3:atemp>
            <ns3:hr>112</ns3:hr>
          </ns3:TrackPointExtension>
        </extensions>
      </trkpt>
      <trkpt lat="31.42921605147421360015869140625" lon="119.4814448989927768707275390625">
        <ele>14.3999996185302734375</ele>
        <time>2019-06-03T20:57:40.000Z</time>
        <extensions>
          <ns3:TrackPointExtension>
            <ns3:atemp>29.0</ns3:atemp>
            <ns3:hr>108</ns3:hr>
          </ns3:TrackPointExtension>
        </extensions>
      </trkpt>
      <trkpt lat="31.42917715944349765777587890625" lon="119.481433667242527008056640625">
        <ele>14.80000019073486328125</ele>
        <time>2019-06-03T20:57:41.000Z</time>
        <extensions>
          <ns3:TrackPointExtension>
            <ns3:atemp>29.0</ns3:atemp>
            <ns3:hr>109</ns3:hr>
          </ns3:TrackPointExtension>
        </extensions>
      </trkpt>
      <trkpt lat="31.42900398932397365570068359375" lon="119.4813704676926136016845703125">
        <ele>15.6000003814697265625</ele>
        <time>2019-06-03T20:57:46.000Z</time>
        <extensions>
          <ns3:TrackPointExtension>
            <ns3:atemp>29.0</ns3:atemp>
            <ns3:hr>105</ns3:hr>
          </ns3:TrackPointExtension>
        </extensions>
      </trkpt>
      <trkpt lat="31.42890893854200839996337890625" lon="119.48132730089128017425537109375">
        <ele>15.6000003814697265625</ele>
        <time>2019-06-03T20:57:49.000Z</time>
        <extensions>
          <ns3:TrackPointExtension>
            <ns3:atemp>29.0</ns3:atemp>
            <ns3:hr>104</ns3:hr>
          </ns3:TrackPointExtension>
        </extensions>
      </trkpt>
      <trkpt lat="31.42888228408992290496826171875" lon="119.48130148462951183319091796875">
        <ele>15.6000003814697265625</ele>
        <time>2019-06-03T20:57:50.000Z</time>
        <extensions>
          <ns3:TrackPointExtension>
            <ns3:atemp>29.0</ns3:atemp>
            <ns3:hr>110</ns3:hr>
          </ns3:TrackPointExtension>
        </extensions>
      </trkpt>
      <trkpt lat="31.42869494855403900146484375" lon="119.481162764132022857666015625">
        <ele>15.3999996185302734375</ele>
        <time>2019-06-03T20:57:56.000Z</time>
        <extensions>
          <ns3:TrackPointExtension>
            <ns3:atemp>29.0</ns3:atemp>
            <ns3:hr>110</ns3:hr>
          </ns3:TrackPointExtension>
        </extensions>
      </trkpt>
      <trkpt lat="31.4284919388592243194580078125" lon="119.4810261391103267669677734375">
        <ele>14.6000003814697265625</ele>
        <time>2019-06-03T20:58:02.000Z</time>
        <extensions>
          <ns3:TrackPointExtension>
            <ns3:atemp>29.0</ns3:atemp>
            <ns3:hr>109</ns3:hr>
          </ns3:TrackPointExtension>
        </extensions>
      </trkpt>
      <trkpt lat="31.4282921142876148223876953125" lon="119.480861686170101165771484375">
        <ele>14.19999980926513671875</ele>
        <time>2019-06-03T20:58:08.000Z</time>
        <extensions>
          <ns3:TrackPointExtension>
            <ns3:atemp>29.0</ns3:atemp>
            <ns3:hr>109</ns3:hr>
          </ns3:TrackPointExtension>
        </extensions>
      </trkpt>
      <trkpt lat="31.428113244473934173583984375" lon="119.48080879636108875274658203125">
        <ele>15.3999996185302734375</ele>
        <time>2019-06-03T20:58:13.000Z</time>
        <extensions>
          <ns3:TrackPointExtension>
            <ns3:atemp>29.0</ns3:atemp>
            <ns3:hr>109</ns3:hr>
          </ns3:TrackPointExtension>
        </extensions>
      </trkpt>
      <trkpt lat="31.427988521754741668701171875" lon="119.480749703943729400634765625">
        <ele>15.80000019073486328125</ele>
        <time>2019-06-03T20:58:17.000Z</time>
        <extensions>
          <ns3:TrackPointExtension>
            <ns3:atemp>29.0</ns3:atemp>
            <ns3:hr>109</ns3:hr>
          </ns3:TrackPointExtension>
        </extensions>
      </trkpt>
      <trkpt lat="31.42795474268496036529541015625" lon="119.48072380386292934417724609375">
        <ele>15.6000003814697265625</ele>
        <time>2019-06-03T20:58:18.000Z</time>
        <extensions>
          <ns3:TrackPointExtension>
            <ns3:atemp>29.0</ns3:atemp>
            <ns3:hr>109</ns3:hr>
          </ns3:TrackPointExtension>
        </extensions>
      </trkpt>
      <trkpt lat="31.4277778007090091705322265625" lon="119.48047251440584659576416015625">
        <ele>13.80000019073486328125</ele>
        <time>2019-06-03T20:58:24.000Z</time>
        <extensions>
          <ns3:TrackPointExtension>
            <ns3:atemp>29.0</ns3:atemp>
            <ns3:hr>112</ns3:hr>
          </ns3:TrackPointExtension>
        </extensions>
      </trkpt>
      <trkpt lat="31.42755039967596530914306640625" lon="119.48022834956645965576171875">
        <ele>9.3999996185302734375</ele>
        <time>2019-06-03T20:58:31.000Z</time>
        <extensions>
          <ns3:TrackPointExtension>
            <ns3:atemp>29.0</ns3:atemp>
            <ns3:hr>110</ns3:hr>
          </ns3:TrackPointExtension>
        </extensions>
      </trkpt>
      <trkpt lat="31.427393741905689239501953125" lon="119.4800427742302417755126953125">
        <ele>8.80000019073486328125</ele>
        <time>2019-06-03T20:58:37.000Z</time>
        <extensions>
          <ns3:TrackPointExtension>
            <ns3:atemp>29.0</ns3:atemp>
            <ns3:hr>109</ns3:hr>
          </ns3:TrackPointExtension>
        </extensions>
      </trkpt>
      <trkpt lat="31.42721612937748432159423828125" lon="119.47987035848200321197509765625">
        <ele>9.80000019073486328125</ele>
        <time>2019-06-03T20:58:43.000Z</time>
        <extensions>
          <ns3:TrackPointExtension>
            <ns3:atemp>29.0</ns3:atemp>
            <ns3:hr>107</ns3:hr>
          </ns3:TrackPointExtension>
        </extensions>
      </trkpt>
      <trkpt lat="31.42701630480587482452392578125" lon="119.47963465936481952667236328125">
        <ele>10.80000019073486328125</ele>
        <time>2019-06-03T20:58:50.000Z</time>
        <extensions>
          <ns3:TrackPointExtension>
            <ns3:atemp>28.0</ns3:atemp>
            <ns3:hr>107</ns3:hr>
          </ns3:TrackPointExtension>
        </extensions>
      </trkpt>
      <trkpt lat="31.42678814940154552459716796875" lon="119.4793712161481380462646484375">
        <ele>9.80000019073486328125</ele>
        <time>2019-06-03T20:58:57.000Z</time>
        <extensions>
          <ns3:TrackPointExtension>
            <ns3:atemp>28.0</ns3:atemp>
            <ns3:hr>104</ns3:hr>
          </ns3:TrackPointExtension>
        </extensions>
      </trkpt>
      <trkpt lat="31.42660257406532764434814453125" lon="119.47921824641525745391845703125">
        <ele>9.3999996185302734375</ele>
        <time>2019-06-03T20:59:03.000Z</time>
        <extensions>
          <ns3:TrackPointExtension>
            <ns3:atemp>28.0</ns3:atemp>
            <ns3:hr>105</ns3:hr>
          </ns3:TrackPointExtension>
        </extensions>
      </trkpt>
      <trkpt lat="31.42635698430240154266357421875" lon="119.478918425738811492919921875">
        <ele>10.80000019073486328125</ele>
        <time>2019-06-03T20:59:10.000Z</time>
        <extensions>
          <ns3:TrackPointExtension>
            <ns3:atemp>28.0</ns3:atemp>
            <ns3:hr>107</ns3:hr>
          </ns3:TrackPointExtension>
        </extensions>
      </trkpt>
      <trkpt lat="31.42631717026233673095703125" lon="119.4788780249655246734619140625">
        <ele>11</ele>
        <time>2019-06-03T20:59:11.000Z</time>
        <extensions>
          <ns3:TrackPointExtension>
            <ns3:atemp>28.0</ns3:atemp>
            <ns3:hr>107</ns3:hr>
          </ns3:TrackPointExtension>
        </extensions>
      </trkpt>
      <trkpt lat="31.42616068013012409210205078125" lon="119.47874835692346096038818359375">
        <ele>12.3999996185302734375</ele>
        <time>2019-06-03T20:59:15.000Z</time>
        <extensions>
          <ns3:TrackPointExtension>
            <ns3:atemp>28.0</ns3:atemp>
            <ns3:hr>107</ns3:hr>
          </ns3:TrackPointExtension>
        </extensions>
      </trkpt>
      <trkpt lat="31.42589698545634746551513671875" lon="119.47864173911511898040771484375">
        <ele>12.19999980926513671875</ele>
        <time>2019-06-03T20:59:22.000Z</time>
        <extensions>
          <ns3:TrackPointExtension>
            <ns3:atemp>28.0</ns3:atemp>
            <ns3:hr>106</ns3:hr>
          </ns3:TrackPointExtension>
        </extensions>
      </trkpt>
      <trkpt lat="31.425726078450679779052734375" lon="119.4785538129508495330810546875">
        <ele>12.19999980926513671875</ele>
        <time>2019-06-03T20:59:27.000Z</time>
        <extensions>
          <ns3:TrackPointExtension>
            <ns3:atemp>28.0</ns3:atemp>
            <ns3:hr>108</ns3:hr>
          </ns3:TrackPointExtension>
        </extensions>
      </trkpt>
      <trkpt lat="31.42565441317856311798095703125" lon="119.47852355428040027618408203125">
        <ele>12</ele>
        <time>2019-06-03T20:59:29.000Z</time>
        <extensions>
          <ns3:TrackPointExtension>
            <ns3:atemp>28.0</ns3:atemp>
            <ns3:hr>108</ns3:hr>
          </ns3:TrackPointExtension>
        </extensions>
      </trkpt>
      <trkpt lat="31.42544620670378208160400390625" lon="119.478436969220638275146484375">
        <ele>12.19999980926513671875</ele>
        <time>2019-06-03T20:59:34.000Z</time>
        <extensions>
          <ns3:TrackPointExtension>
            <ns3:atemp>28.0</ns3:atemp>
            <ns3:hr>109</ns3:hr>
          </ns3:TrackPointExtension>
        </extensions>
      </trkpt>
      <trkpt lat="31.4252095855772495269775390625" lon="119.4783187843859195709228515625">
        <ele>12.80000019073486328125</ele>
        <time>2019-06-03T20:59:39.000Z</time>
        <extensions>
          <ns3:TrackPointExtension>
            <ns3:atemp>28.0</ns3:atemp>
            <ns3:hr>106</ns3:hr>
          </ns3:TrackPointExtension>
        </extensions>
      </trkpt>
      <trkpt lat="31.4251163788139820098876953125" lon="119.47829020209610462188720703125">
        <ele>12.19999980926513671875</ele>
        <time>2019-06-03T20:59:41.000Z</time>
        <extensions>
          <ns3:TrackPointExtension>
            <ns3:atemp>28.0</ns3:atemp>
            <ns3:hr>103</ns3:hr>
          </ns3:TrackPointExtension>
        </extensions>
      </trkpt>
      <trkpt lat="31.42507019452750682830810546875" lon="119.47827997617423534393310546875">
        <ele>12</ele>
        <time>2019-06-03T20:59:42.000Z</time>
        <extensions>
          <ns3:TrackPointExtension>
            <ns3:atemp>28.0</ns3:atemp>
            <ns3:hr>102</ns3:hr>
          </ns3:TrackPointExtension>
        </extensions>
      </trkpt>
      <trkpt lat="31.4249284565448760986328125" lon="119.47825533337891101837158203125">
        <ele>11.19999980926513671875</ele>
        <time>2019-06-03T20:59:45.000Z</time>
        <extensions>
          <ns3:TrackPointExtension>
            <ns3:atemp>28.0</ns3:atemp>
            <ns3:hr>99</ns3:hr>
          </ns3:TrackPointExtension>
        </extensions>
      </trkpt>
      <trkpt lat="31.42475822009146213531494140625" lon="119.4781977497041225433349609375">
        <ele>10.6000003814697265625</ele>
        <time>2019-06-03T20:59:49.000Z</time>
        <extensions>
          <ns3:TrackPointExtension>
            <ns3:atemp>28.0</ns3:atemp>
            <ns3:hr>97</ns3:hr>
          </ns3:TrackPointExtension>
        </extensions>
      </trkpt>
      <trkpt lat="31.42453827895224094390869140625" lon="119.47813848964869976043701171875">
        <ele>11.80000019073486328125</ele>
        <time>2019-06-03T20:59:54.000Z</time>
        <extensions>
          <ns3:TrackPointExtension>
            <ns3:atemp>28.0</ns3:atemp>
            <ns3:hr>97</ns3:hr>
          </ns3:TrackPointExtension>
        </extensions>
      </trkpt>
      <trkpt lat="31.424210965633392333984375" lon="119.47805835865437984466552734375">
        <ele>13</ele>
        <time>2019-06-03T21:00:02.000Z</time>
        <extensions>
          <ns3:TrackPointExtension>
            <ns3:atemp>28.0</ns3:atemp>
            <ns3:hr>98</ns3:hr>
          </ns3:TrackPointExtension>
        </extensions>
      </trkpt>
      <trkpt lat="31.42417131923139095306396484375" lon="119.47804863564670085906982421875">
        <ele>13</ele>
        <time>2019-06-03T21:00:03.000Z</time>
        <extensions>
          <ns3:TrackPointExtension>
            <ns3:atemp>28.0</ns3:atemp>
            <ns3:hr>97</ns3:hr>
          </ns3:TrackPointExtension>
        </extensions>
      </trkpt>
      <trkpt lat="31.423923633992671966552734375" lon="119.47796883992850780487060546875">
        <ele>13.19999980926513671875</ele>
        <time>2019-06-03T21:00:09.000Z</time>
        <extensions>
          <ns3:TrackPointExtension>
            <ns3:atemp>28.0</ns3:atemp>
            <ns3:hr>97</ns3:hr>
          </ns3:TrackPointExtension>
        </extensions>
      </trkpt>
      <trkpt lat="31.42375758849084377288818359375" lon="119.47791603393852710723876953125">
        <ele>12.19999980926513671875</ele>
        <time>2019-06-03T21:00:13.000Z</time>
        <extensions>
          <ns3:TrackPointExtension>
            <ns3:atemp>28.0</ns3:atemp>
            <ns3:hr>100</ns3:hr>
          </ns3:TrackPointExtension>
        </extensions>
      </trkpt>
      <trkpt lat="31.423668153584003448486328125" lon="119.47789591737091541290283203125">
        <ele>11.80000019073486328125</ele>
        <time>2019-06-03T21:00:15.000Z</time>
        <extensions>
          <ns3:TrackPointExtension>
            <ns3:atemp>28.0</ns3:atemp>
            <ns3:hr>102</ns3:hr>
          </ns3:TrackPointExtension>
        </extensions>
      </trkpt>
      <trkpt lat="31.42361979000270366668701171875" lon="119.47789306752383708953857421875">
        <ele>11.6000003814697265625</ele>
        <time>2019-06-03T21:00:16.000Z</time>
        <extensions>
          <ns3:TrackPointExtension>
            <ns3:atemp>28.0</ns3:atemp>
            <ns3:hr>105</ns3:hr>
          </ns3:TrackPointExtension>
        </extensions>
      </trkpt>
      <trkpt lat="31.42337612807750701904296875" lon="119.47783959098160266876220703125">
        <ele>10.3999996185302734375</ele>
        <time>2019-06-03T21:00:22.000Z</time>
        <extensions>
          <ns3:TrackPointExtension>
            <ns3:atemp>28.0</ns3:atemp>
            <ns3:hr>105</ns3:hr>
          </ns3:TrackPointExtension>
        </extensions>
      </trkpt>
      <trkpt lat="31.42310329712927341461181640625" lon="119.47775107808411121368408203125">
        <ele>10.6000003814697265625</ele>
        <time>2019-06-03T21:00:29.000Z</time>
        <extensions>
          <ns3:TrackPointExtension>
            <ns3:atemp>28.0</ns3:atemp>
            <ns3:hr>105</ns3:hr>
          </ns3:TrackPointExtension>
        </extensions>
      </trkpt>
      <trkpt lat="31.42298947088420391082763671875" lon="119.47774152271449565887451171875">
        <ele>11.3999996185302734375</ele>
        <time>2019-06-03T21:00:33.000Z</time>
        <extensions>
          <ns3:TrackPointExtension>
            <ns3:atemp>28.0</ns3:atemp>
            <ns3:hr>105</ns3:hr>
          </ns3:TrackPointExtension>
        </extensions>
      </trkpt>
      <trkpt lat="31.42296533100306987762451171875" lon="119.47772316634654998779296875">
        <ele>11.3999996185302734375</ele>
        <time>2019-06-03T21:00:34.000Z</time>
        <extensions>
          <ns3:TrackPointExtension>
            <ns3:atemp>28.0</ns3:atemp>
            <ns3:hr>104</ns3:hr>
          </ns3:TrackPointExtension>
        </extensions>
      </trkpt>
      <trkpt lat="31.4228160493075847625732421875" lon="119.47757019661366939544677734375">
        <ele>12</ele>
        <time>2019-06-03T21:00:40.000Z</time>
        <extensions>
          <ns3:TrackPointExtension>
            <ns3:atemp>28.0</ns3:atemp>
            <ns3:hr>102</ns3:hr>
          </ns3:TrackPointExtension>
        </extensions>
      </trkpt>
      <trkpt lat="31.42260356806218624114990234375" lon="119.47757941670715808868408203125">
        <ele>14.6000003814697265625</ele>
        <time>2019-06-03T21:00:45.000Z</time>
        <extensions>
          <ns3:TrackPointExtension>
            <ns3:atemp>28.0</ns3:atemp>
            <ns3:hr>98</ns3:hr>
          </ns3:TrackPointExtension>
        </extensions>
      </trkpt>
      <trkpt lat="31.42239041626453399658203125" lon="119.47755150496959686279296875">
        <ele>16</ele>
        <time>2019-06-03T21:00:52.000Z</time>
        <extensions>
          <ns3:TrackPointExtension>
            <ns3:atemp>28.0</ns3:atemp>
            <ns3:hr>97</ns3:hr>
          </ns3:TrackPointExtension>
        </extensions>
      </trkpt>
      <trkpt lat="31.42209780402481555938720703125" lon="119.47748503647744655609130859375">
        <ele>14.6000003814697265625</ele>
        <time>2019-06-03T21:01:00.000Z</time>
        <extensions>
          <ns3:TrackPointExtension>
            <ns3:atemp>28.0</ns3:atemp>
            <ns3:hr>99</ns3:hr>
          </ns3:TrackPointExtension>
        </extensions>
      </trkpt>
      <trkpt lat="31.42191474325954914093017578125" lon="119.47745226323604583740234375">
        <ele>13.3999996185302734375</ele>
        <time>2019-06-03T21:01:05.000Z</time>
        <extensions>
          <ns3:TrackPointExtension>
            <ns3:atemp>28.0</ns3:atemp>
            <ns3:hr>101</ns3:hr>
          </ns3:TrackPointExtension>
        </extensions>
      </trkpt>
      <trkpt lat="31.4216990768909454345703125" lon="119.47738160379230976104736328125">
        <ele>10.3999996185302734375</ele>
        <time>2019-06-03T21:01:11.000Z</time>
        <extensions>
          <ns3:TrackPointExtension>
            <ns3:atemp>28.0</ns3:atemp>
            <ns3:hr>102</ns3:hr>
          </ns3:TrackPointExtension>
        </extensions>
      </trkpt>
      <trkpt lat="31.421515010297298431396484375" lon="119.4773320667445659637451171875">
        <ele>9</ele>
        <time>2019-06-03T21:01:16.000Z</time>
        <extensions>
          <ns3:TrackPointExtension>
            <ns3:atemp>28.0</ns3:atemp>
            <ns3:hr>100</ns3:hr>
          </ns3:TrackPointExtension>
        </extensions>
      </trkpt>
      <trkpt lat="31.42130546271800994873046875" lon="119.477249085903167724609375">
        <ele>7.599999904632568359375</ele>
        <time>2019-06-03T21:01:21.000Z</time>
        <extensions>
          <ns3:TrackPointExtension>
            <ns3:atemp>28.0</ns3:atemp>
            <ns3:hr>103</ns3:hr>
          </ns3:TrackPointExtension>
        </extensions>
      </trkpt>
      <trkpt lat="31.421270929276943206787109375" lon="119.47722502984106540679931640625">
        <ele>7.599999904632568359375</ele>
        <time>2019-06-03T21:01:22.000Z</time>
        <extensions>
          <ns3:TrackPointExtension>
            <ns3:atemp>28.0</ns3:atemp>
            <ns3:hr>103</ns3:hr>
          </ns3:TrackPointExtension>
        </extensions>
      </trkpt>
      <trkpt lat="31.42123413272202014923095703125" lon="119.47720357216894626617431640625">
        <ele>7.80000019073486328125</ele>
        <time>2019-06-03T21:01:23.000Z</time>
        <extensions>
          <ns3:TrackPointExtension>
            <ns3:atemp>28.0</ns3:atemp>
            <ns3:hr>104</ns3:hr>
          </ns3:TrackPointExtension>
        </extensions>
      </trkpt>
      <trkpt lat="31.42103590071201324462890625" lon="119.47712059132754802703857421875">
        <ele>8.80000019073486328125</ele>
        <time>2019-06-03T21:01:28.000Z</time>
        <extensions>
          <ns3:TrackPointExtension>
            <ns3:atemp>28.0</ns3:atemp>
            <ns3:hr>107</ns3:hr>
          </ns3:TrackPointExtension>
        </extensions>
      </trkpt>
      <trkpt lat="31.420992650091648101806640625" lon="119.4770936854183673858642578125">
        <ele>9.19999980926513671875</ele>
        <time>2019-06-03T21:01:29.000Z</time>
        <extensions>
          <ns3:TrackPointExtension>
            <ns3:atemp>28.0</ns3:atemp>
            <ns3:hr>107</ns3:hr>
          </ns3:TrackPointExtension>
        </extensions>
      </trkpt>
      <trkpt lat="31.42087790183722972869873046875" lon="119.47705336846411228179931640625">
        <ele>10.19999980926513671875</ele>
        <time>2019-06-03T21:01:32.000Z</time>
        <extensions>
          <ns3:TrackPointExtension>
            <ns3:atemp>28.0</ns3:atemp>
            <ns3:hr>110</ns3:hr>
          </ns3:TrackPointExtension>
        </extensions>
      </trkpt>
      <trkpt lat="31.420752592384815216064453125" lon="119.477015398442745208740234375">
        <ele>10.80000019073486328125</ele>
        <time>2019-06-03T21:01:35.000Z</time>
        <extensions>
          <ns3:TrackPointExtension>
            <ns3:atemp>28.0</ns3:atemp>
            <ns3:hr>111</ns3:hr>
          </ns3:TrackPointExtension>
        </extensions>
      </trkpt>
      <trkpt lat="31.42043617554008960723876953125" lon="119.4769354350864887237548828125">
        <ele>11.6000003814697265625</ele>
        <time>2019-06-03T21:01:42.000Z</time>
        <extensions>
          <ns3:TrackPointExtension>
            <ns3:atemp>28.0</ns3:atemp>
            <ns3:hr>111</ns3:hr>
          </ns3:TrackPointExtension>
        </extensions>
      </trkpt>
      <trkpt lat="31.42007340677082538604736328125" lon="119.47683694772422313690185546875">
        <ele>10</ele>
        <time>2019-06-03T21:01:50.000Z</time>
        <extensions>
          <ns3:TrackPointExtension>
            <ns3:atemp>28.0</ns3:atemp>
            <ns3:hr>112</ns3:hr>
          </ns3:TrackPointExtension>
        </extensions>
      </trkpt>
      <trkpt lat="31.41971348784863948822021484375" lon="119.4767382927238941192626953125">
        <ele>5.80000019073486328125</ele>
        <time>2019-06-03T21:01:58.000Z</time>
        <extensions>
          <ns3:TrackPointExtension>
            <ns3:atemp>27.0</ns3:atemp>
            <ns3:hr>111</ns3:hr>
          </ns3:TrackPointExtension>
        </extensions>
      </trkpt>
      <trkpt lat="31.41930319368839263916015625" lon="119.47662672959268093109130859375">
        <ele>2.599999904632568359375</ele>
        <time>2019-06-03T21:02:07.000Z</time>
        <extensions>
          <ns3:TrackPointExtension>
            <ns3:atemp>27.0</ns3:atemp>
            <ns3:hr>111</ns3:hr>
          </ns3:TrackPointExtension>
        </extensions>
      </trkpt>
      <trkpt lat="31.418920643627643585205078125" lon="119.47652153670787811279296875">
        <ele>6</ele>
        <time>2019-06-03T21:02:16.000Z</time>
        <extensions>
          <ns3:TrackPointExtension>
            <ns3:atemp>27.0</ns3:atemp>
            <ns3:hr>110</ns3:hr>
          </ns3:TrackPointExtension>
        </extensions>
      </trkpt>
      <trkpt lat="31.4187649078667163848876953125" lon="119.4764727540314197540283203125">
        <ele>7.400000095367431640625</ele>
        <time>2019-06-03T21:02:20.000Z</time>
        <extensions>
          <ns3:TrackPointExtension>
            <ns3:atemp>27.0</ns3:atemp>
            <ns3:hr>111</ns3:hr>
          </ns3:TrackPointExtension>
        </extensions>
      </trkpt>
      <trkpt lat="31.41867983154952526092529296875" lon="119.4764432497322559356689453125">
        <ele>8.19999980926513671875</ele>
        <time>2019-06-03T21:02:22.000Z</time>
        <extensions>
          <ns3:TrackPointExtension>
            <ns3:atemp>27.0</ns3:atemp>
            <ns3:hr>111</ns3:hr>
          </ns3:TrackPointExtension>
        </extensions>
      </trkpt>
      <trkpt lat="31.4186019636690616607666015625" lon="119.47641768492758274078369140625">
        <ele>8.80000019073486328125</ele>
        <time>2019-06-03T21:02:24.000Z</time>
        <extensions>
          <ns3:TrackPointExtension>
            <ns3:atemp>27.0</ns3:atemp>
            <ns3:hr>112</ns3:hr>
          </ns3:TrackPointExtension>
        </extensions>
      </trkpt>
      <trkpt lat="31.41840356402099132537841796875" lon="119.47634342126548290252685546875">
        <ele>8.80000019073486328125</ele>
        <time>2019-06-03T21:02:29.000Z</time>
        <extensions>
          <ns3:TrackPointExtension>
            <ns3:atemp>27.0</ns3:atemp>
            <ns3:hr>111</ns3:hr>
          </ns3:TrackPointExtension>
        </extensions>
      </trkpt>
      <trkpt lat="31.41806728206574916839599609375" lon="119.47624853812158107757568359375">
        <ele>8</ele>
        <time>2019-06-03T21:02:37.000Z</time>
        <extensions>
          <ns3:TrackPointExtension>
            <ns3:atemp>27.0</ns3:atemp>
            <ns3:hr>109</ns3:hr>
          </ns3:TrackPointExtension>
        </extensions>
      </trkpt>
      <trkpt lat="31.41785739921033382415771484375" lon="119.47618483565747737884521484375">
        <ele>7.599999904632568359375</ele>
        <time>2019-06-03T21:02:42.000Z</time>
        <extensions>
          <ns3:TrackPointExtension>
            <ns3:atemp>27.0</ns3:atemp>
            <ns3:hr>109</ns3:hr>
          </ns3:TrackPointExtension>
        </extensions>
      </trkpt>
      <trkpt lat="31.41781431622803211212158203125" lon="119.476176537573337554931640625">
        <ele>7.599999904632568359375</ele>
        <time>2019-06-03T21:02:43.000Z</time>
        <extensions>
          <ns3:TrackPointExtension>
            <ns3:atemp>27.0</ns3:atemp>
            <ns3:hr>109</ns3:hr>
          </ns3:TrackPointExtension>
        </extensions>
      </trkpt>
      <trkpt lat="31.4175247214734554290771484375" lon="119.47606413625180721282958984375">
        <ele>7.599999904632568359375</ele>
        <time>2019-06-03T21:02:50.000Z</time>
        <extensions>
          <ns3:TrackPointExtension>
            <ns3:atemp>27.0</ns3:atemp>
            <ns3:hr>112</ns3:hr>
          </ns3:TrackPointExtension>
        </extensions>
      </trkpt>
      <trkpt lat="31.41718567349016666412353515625" lon="119.475904293358325958251953125">
        <ele>8</ele>
        <time>2019-06-03T21:02:58.000Z</time>
        <extensions>
          <ns3:TrackPointExtension>
            <ns3:atemp>27.0</ns3:atemp>
            <ns3:hr>114</ns3:hr>
          </ns3:TrackPointExtension>
        </extensions>
      </trkpt>
      <trkpt lat="31.416948549449443817138671875" lon="119.47580982930958271026611328125">
        <ele>8.19999980926513671875</ele>
        <time>2019-06-03T21:03:04.000Z</time>
        <extensions>
          <ns3:TrackPointExtension>
            <ns3:atemp>27.0</ns3:atemp>
            <ns3:hr>114</ns3:hr>
          </ns3:TrackPointExtension>
        </extensions>
      </trkpt>
      <trkpt lat="31.4166701026260852813720703125" lon="119.47571494616568088531494140625">
        <ele>10.6000003814697265625</ele>
        <time>2019-06-03T21:03:11.000Z</time>
        <extensions>
          <ns3:TrackPointExtension>
            <ns3:atemp>27.0</ns3:atemp>
            <ns3:hr>113</ns3:hr>
          </ns3:TrackPointExtension>
        </extensions>
      </trkpt>
      <trkpt lat="31.41649969853460788726806640625" lon="119.47565250098705291748046875">
        <ele>11</ele>
        <time>2019-06-03T21:03:15.000Z</time>
        <extensions>
          <ns3:TrackPointExtension>
            <ns3:atemp>27.0</ns3:atemp>
            <ns3:hr>110</ns3:hr>
          </ns3:TrackPointExtension>
        </extensions>
      </trkpt>
      <trkpt lat="31.41641906462609767913818359375" lon="119.47562492452561855316162109375">
        <ele>11.3999996185302734375</ele>
        <time>2019-06-03T21:03:17.000Z</time>
        <extensions>
          <ns3:TrackPointExtension>
            <ns3:atemp>27.0</ns3:atemp>
            <ns3:hr>109</ns3:hr>
          </ns3:TrackPointExtension>
        </extensions>
      </trkpt>
      <trkpt lat="31.41609937883913516998291015625" lon="119.47555250488221645355224609375">
        <ele>10</ele>
        <time>2019-06-03T21:03:24.000Z</time>
        <extensions>
          <ns3:TrackPointExtension>
            <ns3:atemp>27.0</ns3:atemp>
            <ns3:hr>108</ns3:hr>
          </ns3:TrackPointExtension>
        </extensions>
      </trkpt>
      <trkpt lat="31.4159234426915645599365234375" lon="119.4755141995847225189208984375">
        <ele>9.3999996185302734375</ele>
        <time>2019-06-03T21:03:28.000Z</time>
        <extensions>
          <ns3:TrackPointExtension>
            <ns3:atemp>27.0</ns3:atemp>
            <ns3:hr>111</ns3:hr>
          </ns3:TrackPointExtension>
        </extensions>
      </trkpt>
      <trkpt lat="31.41575463116168975830078125" lon="119.47546281851828098297119140625">
        <ele>9.19999980926513671875</ele>
        <time>2019-06-03T21:03:32.000Z</time>
        <extensions>
          <ns3:TrackPointExtension>
            <ns3:atemp>27.0</ns3:atemp>
            <ns3:hr>113</ns3:hr>
          </ns3:TrackPointExtension>
        </extensions>
      </trkpt>
      <trkpt lat="31.415551118552684783935546875" lon="119.47540464811027050018310546875">
        <ele>10</ele>
        <time>2019-06-03T21:03:37.000Z</time>
        <extensions>
          <ns3:TrackPointExtension>
            <ns3:atemp>27.0</ns3:atemp>
            <ns3:hr>112</ns3:hr>
          </ns3:TrackPointExtension>
        </extensions>
      </trkpt>
      <trkpt lat="31.4154590852558612823486328125" lon="119.47538402862846851348876953125">
        <ele>10</ele>
        <time>2019-06-03T21:03:39.000Z</time>
        <extensions>
          <ns3:TrackPointExtension>
            <ns3:atemp>27.0</ns3:atemp>
            <ns3:hr>111</ns3:hr>
          </ns3:TrackPointExtension>
        </extensions>
      </trkpt>
      <trkpt lat="31.4152002520859241485595703125" lon="119.4753150455653667449951171875">
        <ele>9.80000019073486328125</ele>
        <time>2019-06-03T21:03:45.000Z</time>
        <extensions>
          <ns3:TrackPointExtension>
            <ns3:atemp>27.0</ns3:atemp>
            <ns3:hr>108</ns3:hr>
          </ns3:TrackPointExtension>
        </extensions>
      </trkpt>
      <trkpt lat="31.41511148773133754730224609375" lon="119.4752808474004268646240234375">
        <ele>9.3999996185302734375</ele>
        <time>2019-06-03T21:03:47.000Z</time>
        <extensions>
          <ns3:TrackPointExtension>
            <ns3:atemp>27.0</ns3:atemp>
            <ns3:hr>108</ns3:hr>
          </ns3:TrackPointExtension>
        </extensions>
      </trkpt>
      <trkpt lat="31.41484209336340427398681640625" lon="119.4751717150211334228515625">
        <ele>7.400000095367431640625</ele>
        <time>2019-06-03T21:03:53.000Z</time>
        <extensions>
          <ns3:TrackPointExtension>
            <ns3:atemp>27.0</ns3:atemp>
            <ns3:hr>109</ns3:hr>
          </ns3:TrackPointExtension>
        </extensions>
      </trkpt>
      <trkpt lat="31.4145199768245220184326171875" lon="119.47506953962147235870361328125">
        <ele>5.599999904632568359375</ele>
        <time>2019-06-03T21:04:00.000Z</time>
        <extensions>
          <ns3:TrackPointExtension>
            <ns3:atemp>27.0</ns3:atemp>
            <ns3:hr>111</ns3:hr>
          </ns3:TrackPointExtension>
        </extensions>
      </trkpt>
      <trkpt lat="31.41429123468697071075439453125" lon="119.475002400577068328857421875">
        <ele>4.599999904632568359375</ele>
        <time>2019-06-03T21:04:05.000Z</time>
        <extensions>
          <ns3:TrackPointExtension>
            <ns3:atemp>27.0</ns3:atemp>
            <ns3:hr>111</ns3:hr>
          </ns3:TrackPointExtension>
        </extensions>
      </trkpt>
      <trkpt lat="31.41411471180617809295654296875" lon="119.4749437272548675537109375">
        <ele>3.599999904632568359375</ele>
        <time>2019-06-03T21:04:09.000Z</time>
        <extensions>
          <ns3:TrackPointExtension>
            <ns3:atemp>27.0</ns3:atemp>
            <ns3:hr>109</ns3:hr>
          </ns3:TrackPointExtension>
        </extensions>
      </trkpt>
      <trkpt lat="31.4137946069240570068359375" lon="119.4748372770845890045166015625">
        <ele>1.2000000476837158203125</ele>
        <time>2019-06-03T21:04:16.000Z</time>
        <extensions>
          <ns3:TrackPointExtension>
            <ns3:atemp>27.0</ns3:atemp>
            <ns3:hr>111</ns3:hr>
          </ns3:TrackPointExtension>
        </extensions>
      </trkpt>
      <trkpt lat="31.41350400634109973907470703125" lon="119.47476175613701343536376953125">
        <ele>0.20000000298023223876953125</ele>
        <time>2019-06-03T21:04:23.000Z</time>
        <extensions>
          <ns3:TrackPointExtension>
            <ns3:atemp>27.0</ns3:atemp>
            <ns3:hr>110</ns3:hr>
          </ns3:TrackPointExtension>
        </extensions>
      </trkpt>
      <trkpt lat="31.41329999081790447235107421875" lon="119.47469763457775115966796875">
        <ele>1.2000000476837158203125</ele>
        <time>2019-06-03T21:04:28.000Z</time>
        <extensions>
          <ns3:TrackPointExtension>
            <ns3:atemp>27.0</ns3:atemp>
            <ns3:hr>113</ns3:hr>
          </ns3:TrackPointExtension>
        </extensions>
      </trkpt>
      <trkpt lat="31.41322187148034572601318359375" lon="119.4746817089617252349853515625">
        <ele>2</ele>
        <time>2019-06-03T21:04:30.000Z</time>
        <extensions>
          <ns3:TrackPointExtension>
            <ns3:atemp>27.0</ns3:atemp>
            <ns3:hr>114</ns3:hr>
          </ns3:TrackPointExtension>
        </extensions>
      </trkpt>
      <trkpt lat="31.4129336178302764892578125" lon="119.47459839284420013427734375">
        <ele>4.400000095367431640625</ele>
        <time>2019-06-03T21:04:37.000Z</time>
        <extensions>
          <ns3:TrackPointExtension>
            <ns3:atemp>27.0</ns3:atemp>
            <ns3:hr>112</ns3:hr>
          </ns3:TrackPointExtension>
        </extensions>
      </trkpt>
      <trkpt lat="31.41258065588772296905517578125" lon="119.4744936190545558929443359375">
        <ele>4.19999980926513671875</ele>
        <time>2019-06-03T21:04:46.000Z</time>
        <extensions>
          <ns3:TrackPointExtension>
            <ns3:atemp>27.0</ns3:atemp>
            <ns3:hr>110</ns3:hr>
          </ns3:TrackPointExtension>
        </extensions>
      </trkpt>
      <trkpt lat="31.412250660359859466552734375" lon="119.47440971620380878448486328125">
        <ele>5.80000019073486328125</ele>
        <time>2019-06-03T21:04:54.000Z</time>
        <extensions>
          <ns3:TrackPointExtension>
            <ns3:atemp>27.0</ns3:atemp>
            <ns3:hr>110</ns3:hr>
          </ns3:TrackPointExtension>
        </extensions>
      </trkpt>
      <trkpt lat="31.4119091816246509552001953125" lon="119.47431231848895549774169921875">
        <ele>7.599999904632568359375</ele>
        <time>2019-06-03T21:05:02.000Z</time>
        <extensions>
          <ns3:TrackPointExtension>
            <ns3:atemp>27.0</ns3:atemp>
            <ns3:hr>112</ns3:hr>
          </ns3:TrackPointExtension>
        </extensions>
      </trkpt>
      <trkpt lat="31.41169804148375988006591796875" lon="119.4742488674819469451904296875">
        <ele>8.19999980926513671875</ele>
        <time>2019-06-03T21:05:07.000Z</time>
        <extensions>
          <ns3:TrackPointExtension>
            <ns3:atemp>27.0</ns3:atemp>
            <ns3:hr>109</ns3:hr>
          </ns3:TrackPointExtension>
        </extensions>
      </trkpt>
      <trkpt lat="31.411572061479091644287109375" lon="119.47421508841216564178466796875">
        <ele>8.3999996185302734375</ele>
        <time>2019-06-03T21:05:10.000Z</time>
        <extensions>
          <ns3:TrackPointExtension>
            <ns3:atemp>27.0</ns3:atemp>
            <ns3:hr>108</ns3:hr>
          </ns3:TrackPointExtension>
        </extensions>
      </trkpt>
      <trkpt lat="31.41123720444738864898681640625" lon="119.4741345383226871490478515625">
        <ele>9</ele>
        <time>2019-06-03T21:05:18.000Z</time>
        <extensions>
          <ns3:TrackPointExtension>
            <ns3:atemp>26.0</ns3:atemp>
            <ns3:hr>106</ns3:hr>
          </ns3:TrackPointExtension>
        </extensions>
      </trkpt>
      <trkpt lat="31.410851217806339263916015625" lon="119.47400973178446292877197265625">
        <ele>7.400000095367431640625</ele>
        <time>2019-06-03T21:05:27.000Z</time>
        <extensions>
          <ns3:TrackPointExtension>
            <ns3:atemp>26.0</ns3:atemp>
            <ns3:hr>106</ns3:hr>
          </ns3:TrackPointExtension>
        </extensions>
      </trkpt>
      <trkpt lat="31.41069103963673114776611328125" lon="119.473958350718021392822265625">
        <ele>6.19999980926513671875</ele>
        <time>2019-06-03T21:05:31.000Z</time>
        <extensions>
          <ns3:TrackPointExtension>
            <ns3:atemp>26.0</ns3:atemp>
            <ns3:hr>109</ns3:hr>
          </ns3:TrackPointExtension>
        </extensions>
      </trkpt>
      <trkpt lat="31.410513930022716522216796875" lon="119.473906047642230987548828125">
        <ele>5</ele>
        <time>2019-06-03T21:05:35.000Z</time>
        <extensions>
          <ns3:TrackPointExtension>
            <ns3:atemp>26.0</ns3:atemp>
            <ns3:hr>111</ns3:hr>
          </ns3:TrackPointExtension>
        </extensions>
      </trkpt>
      <trkpt lat="31.4102136902511119842529296875" lon="119.47382499463856220245361328125">
        <ele>3.7999999523162841796875</ele>
        <time>2019-06-03T21:05:42.000Z</time>
        <extensions>
          <ns3:TrackPointExtension>
            <ns3:atemp>26.0</ns3:atemp>
            <ns3:hr>110</ns3:hr>
          </ns3:TrackPointExtension>
        </extensions>
      </trkpt>
      <trkpt lat="31.41017119400203227996826171875" lon="119.4738113321363925933837890625">
        <ele>4</ele>
        <time>2019-06-03T21:05:43.000Z</time>
        <extensions>
          <ns3:TrackPointExtension>
            <ns3:atemp>26.0</ns3:atemp>
            <ns3:hr>111</ns3:hr>
          </ns3:TrackPointExtension>
        </extensions>
      </trkpt>
      <trkpt lat="31.40983725897967815399169921875" lon="119.47370379231870174407958984375">
        <ele>5.400000095367431640625</ele>
        <time>2019-06-03T21:05:51.000Z</time>
        <extensions>
          <ns3:TrackPointExtension>
            <ns3:atemp>26.0</ns3:atemp>
            <ns3:hr>114</ns3:hr>
          </ns3:TrackPointExtension>
        </extensions>
      </trkpt>
      <trkpt lat="31.4095179922878742218017578125" lon="119.473599605262279510498046875">
        <ele>6</ele>
        <time>2019-06-03T21:05:59.000Z</time>
        <extensions>
          <ns3:TrackPointExtension>
            <ns3:atemp>26.0</ns3:atemp>
            <ns3:hr>113</ns3:hr>
          </ns3:TrackPointExtension>
        </extensions>
      </trkpt>
      <trkpt lat="31.40927500091493129730224609375" lon="119.47351922281086444854736328125">
        <ele>5.400000095367431640625</ele>
        <time>2019-06-03T21:06:06.000Z</time>
        <extensions>
          <ns3:TrackPointExtension>
            <ns3:atemp>26.0</ns3:atemp>
            <ns3:hr>111</ns3:hr>
          </ns3:TrackPointExtension>
        </extensions>
      </trkpt>
      <trkpt lat="31.408996470272541046142578125" lon="119.47343255393207073211669921875">
        <ele>6</ele>
        <time>2019-06-03T21:06:14.000Z</time>
        <extensions>
          <ns3:TrackPointExtension>
            <ns3:atemp>26.0</ns3:atemp>
            <ns3:hr>110</ns3:hr>
          </ns3:TrackPointExtension>
        </extensions>
      </trkpt>
      <trkpt lat="31.40867955051362514495849609375" lon="119.473348818719387054443359375">
        <ele>7.599999904632568359375</ele>
        <time>2019-06-03T21:06:22.000Z</time>
        <extensions>
          <ns3:TrackPointExtension>
            <ns3:atemp>26.0</ns3:atemp>
            <ns3:hr>107</ns3:hr>
          </ns3:TrackPointExtension>
        </extensions>
      </trkpt>
      <trkpt lat="31.40826213173568248748779296875" lon="119.47324010543525218963623046875">
        <ele>9</ele>
        <time>2019-06-03T21:06:32.000Z</time>
        <extensions>
          <ns3:TrackPointExtension>
            <ns3:atemp>26.0</ns3:atemp>
            <ns3:hr>106</ns3:hr>
          </ns3:TrackPointExtension>
        </extensions>
      </trkpt>
      <trkpt lat="31.40794294886291027069091796875" lon="119.473159722983837127685546875">
        <ele>9</ele>
        <time>2019-06-03T21:06:40.000Z</time>
        <extensions>
          <ns3:TrackPointExtension>
            <ns3:atemp>26.0</ns3:atemp>
            <ns3:hr>107</ns3:hr>
          </ns3:TrackPointExtension>
        </extensions>
      </trkpt>
      <trkpt lat="31.40774630941450595855712890625" lon="119.4731042347848415374755859375">
        <ele>8.80000019073486328125</ele>
        <time>2019-06-03T21:06:45.000Z</time>
        <extensions>
          <ns3:TrackPointExtension>
            <ns3:atemp>26.0</ns3:atemp>
            <ns3:hr>110</ns3:hr>
          </ns3:TrackPointExtension>
        </extensions>
      </trkpt>
      <trkpt lat="31.40770507045090198516845703125" lon="119.47309635579586029052734375">
        <ele>8.80000019073486328125</ele>
        <time>2019-06-03T21:06:46.000Z</time>
        <extensions>
          <ns3:TrackPointExtension>
            <ns3:atemp>26.0</ns3:atemp>
            <ns3:hr>110</ns3:hr>
          </ns3:TrackPointExtension>
        </extensions>
      </trkpt>
      <trkpt lat="31.40758437104523181915283203125" lon="119.47306794114410877227783203125">
        <ele>9</ele>
        <time>2019-06-03T21:06:48.000Z</time>
        <extensions>
          <ns3:TrackPointExtension>
            <ns3:atemp>26.0</ns3:atemp>
            <ns3:hr>112</ns3:hr>
          </ns3:TrackPointExtension>
        </extensions>
      </trkpt>
      <trkpt lat="31.40737733803689479827880859375" lon="119.473006166517734527587890625">
        <ele>8.80000019073486328125</ele>
        <time>2019-06-03T21:06:54.000Z</time>
        <extensions>
          <ns3:TrackPointExtension>
            <ns3:atemp>26.0</ns3:atemp>
            <ns3:hr>115</ns3:hr>
          </ns3:TrackPointExtension>
        </extensions>
      </trkpt>
      <trkpt lat="31.40721238218247890472412109375" lon="119.47294841520488262176513671875">
        <ele>8.3999996185302734375</ele>
        <time>2019-06-03T21:06:58.000Z</time>
        <extensions>
          <ns3:TrackPointExtension>
            <ns3:atemp>26.0</ns3:atemp>
            <ns3:hr>115</ns3:hr>
          </ns3:TrackPointExtension>
        </extensions>
      </trkpt>
      <trkpt lat="31.406917087733745574951171875" lon="119.4728581421077251434326171875">
        <ele>7.599999904632568359375</ele>
        <time>2019-06-03T21:07:05.000Z</time>
        <extensions>
          <ns3:TrackPointExtension>
            <ns3:atemp>26.0</ns3:atemp>
            <ns3:hr>114</ns3:hr>
          </ns3:TrackPointExtension>
        </extensions>
      </trkpt>
      <trkpt lat="31.4067586697638034820556640625" lon="119.47282905690371990203857421875">
        <ele>7.80000019073486328125</ele>
        <time>2019-06-03T21:07:10.000Z</time>
        <extensions>
          <ns3:TrackPointExtension>
            <ns3:atemp>26.0</ns3:atemp>
            <ns3:hr>115</ns3:hr>
          </ns3:TrackPointExtension>
        </extensions>
      </trkpt>
      <trkpt lat="31.406687088310718536376953125" lon="119.4728085212409496307373046875">
        <ele>7.80000019073486328125</ele>
        <time>2019-06-03T21:07:16.000Z</time>
        <extensions>
          <ns3:TrackPointExtension>
            <ns3:atemp>26.0</ns3:atemp>
            <ns3:hr>117</ns3:hr>
          </ns3:TrackPointExtension>
        </extensions>
      </trkpt>
      <trkpt lat="31.40668834559619426727294921875" lon="119.47280935943126678466796875">
        <ele>7.80000019073486328125</ele>
        <time>2019-06-03T21:07:18.000Z</time>
        <extensions>
          <ns3:TrackPointExtension>
            <ns3:atemp>26.0</ns3:atemp>
            <ns3:hr>116</ns3:hr>
          </ns3:TrackPointExtension>
        </extensions>
      </trkpt>
      <trkpt lat="31.40668876469135284423828125" lon="119.47280944325029850006103515625">
        <ele>7.80000019073486328125</ele>
        <time>2019-06-03T21:07:22.000Z</time>
        <extensions>
          <ns3:TrackPointExtension>
            <ns3:atemp>26.0</ns3:atemp>
            <ns3:hr>111</ns3:hr>
          </ns3:TrackPointExtension>
        </extensions>
      </trkpt>
      <trkpt lat="31.40668876469135284423828125" lon="119.47280944325029850006103515625">
        <ele>7.80000019073486328125</ele>
        <time>2019-06-03T21:07:24.000Z</time>
        <extensions>
          <ns3:TrackPointExtension>
            <ns3:atemp>26.0</ns3:atemp>
            <ns3:hr>108</ns3:hr>
          </ns3:TrackPointExtension>
        </extensions>
      </trkpt>
      <trkpt lat="31.4066892676055431365966796875" lon="119.47280894033610820770263671875">
        <ele>7.80000019073486328125</ele>
        <time>2019-06-03T21:07:29.000Z</time>
        <extensions>
          <ns3:TrackPointExtension>
            <ns3:atemp>26.0</ns3:atemp>
            <ns3:hr>106</ns3:hr>
          </ns3:TrackPointExtension>
        </extensions>
      </trkpt>
      <trkpt lat="31.4066832326352596282958984375" lon="119.47280726395547389984130859375">
        <ele>7.80000019073486328125</ele>
        <time>2019-06-03T21:07:32.000Z</time>
        <extensions>
          <ns3:TrackPointExtension>
            <ns3:atemp>26.0</ns3:atemp>
            <ns3:hr>103</ns3:hr>
          </ns3:TrackPointExtension>
        </extensions>
      </trkpt>
      <trkpt lat="31.40666596591472625732421875" lon="119.4728008098900318145751953125">
        <ele>7.80000019073486328125</ele>
        <time>2019-06-03T21:07:34.000Z</time>
        <extensions>
          <ns3:TrackPointExtension>
            <ns3:atemp>26.0</ns3:atemp>
            <ns3:hr>102</ns3:hr>
          </ns3:TrackPointExtension>
        </extensions>
      </trkpt>
      <trkpt lat="31.40663537196815013885498046875" lon="119.47278966195881366729736328125">
        <ele>8</ele>
        <time>2019-06-03T21:07:36.000Z</time>
        <extensions>
          <ns3:TrackPointExtension>
            <ns3:atemp>26.0</ns3:atemp>
            <ns3:hr>101</ns3:hr>
          </ns3:TrackPointExtension>
        </extensions>
      </trkpt>
      <trkpt lat="31.4065511338412761688232421875" lon="119.47276518680155277252197265625">
        <ele>8.3999996185302734375</ele>
        <time>2019-06-03T21:07:40.000Z</time>
        <extensions>
          <ns3:TrackPointExtension>
            <ns3:atemp>26.0</ns3:atemp>
            <ns3:hr>98</ns3:hr>
          </ns3:TrackPointExtension>
        </extensions>
      </trkpt>
      <trkpt lat="31.4064968191087245941162109375" lon="119.47275093756616115570068359375">
        <ele>8.6000003814697265625</ele>
        <time>2019-06-03T21:07:42.000Z</time>
        <extensions>
          <ns3:TrackPointExtension>
            <ns3:atemp>26.0</ns3:atemp>
            <ns3:hr>98</ns3:hr>
          </ns3:TrackPointExtension>
        </extensions>
      </trkpt>
      <trkpt lat="31.40623907558619976043701171875" lon="119.4726646877825260162353515625">
        <ele>8.6000003814697265625</ele>
        <time>2019-06-03T21:07:50.000Z</time>
        <extensions>
          <ns3:TrackPointExtension>
            <ns3:atemp>26.0</ns3:atemp>
            <ns3:hr>99</ns3:hr>
          </ns3:TrackPointExtension>
        </extensions>
      </trkpt>
      <trkpt lat="31.40600480139255523681640625" lon="119.47256703861057758331298828125">
        <ele>8</ele>
        <time>2019-06-03T21:07:56.000Z</time>
        <extensions>
          <ns3:TrackPointExtension>
            <ns3:atemp>26.0</ns3:atemp>
            <ns3:hr>102</ns3:hr>
          </ns3:TrackPointExtension>
        </extensions>
      </trkpt>
      <trkpt lat="31.40592207200825214385986328125" lon="119.47253577411174774169921875">
        <ele>7.599999904632568359375</ele>
        <time>2019-06-03T21:07:58.000Z</time>
        <extensions>
          <ns3:TrackPointExtension>
            <ns3:atemp>26.0</ns3:atemp>
            <ns3:hr>103</ns3:hr>
          </ns3:TrackPointExtension>
        </extensions>
      </trkpt>
      <trkpt lat="31.405548155307769775390625" lon="119.47243175469338893890380859375">
        <ele>8.19999980926513671875</ele>
        <time>2019-06-03T21:08:07.000Z</time>
        <extensions>
          <ns3:TrackPointExtension>
            <ns3:atemp>26.0</ns3:atemp>
            <ns3:hr>104</ns3:hr>
          </ns3:TrackPointExtension>
        </extensions>
      </trkpt>
      <trkpt lat="31.405506916344165802001953125" lon="119.47242002002894878387451171875">
        <ele>8.6000003814697265625</ele>
        <time>2019-06-03T21:08:08.000Z</time>
        <extensions>
          <ns3:TrackPointExtension>
            <ns3:atemp>26.0</ns3:atemp>
            <ns3:hr>104</ns3:hr>
          </ns3:TrackPointExtension>
        </extensions>
      </trkpt>
      <trkpt lat="31.40536886639893054962158203125" lon="119.47233100421726703643798828125">
        <ele>10.3999996185302734375</ele>
        <time>2019-06-03T21:08:12.000Z</time>
        <extensions>
          <ns3:TrackPointExtension>
            <ns3:atemp>26.0</ns3:atemp>
            <ns3:hr>105</ns3:hr>
          </ns3:TrackPointExtension>
        </extensions>
      </trkpt>
      <trkpt lat="31.40513685531914234161376953125" lon="119.4722559861838817596435546875">
        <ele>11.80000019073486328125</ele>
        <time>2019-06-03T21:08:18.000Z</time>
        <extensions>
          <ns3:TrackPointExtension>
            <ns3:atemp>26.0</ns3:atemp>
            <ns3:hr>105</ns3:hr>
          </ns3:TrackPointExtension>
        </extensions>
      </trkpt>
      <trkpt lat="31.40481767244637012481689453125" lon="119.47216504253447055816650390625">
        <ele>11.3999996185302734375</ele>
        <time>2019-06-03T21:08:26.000Z</time>
        <extensions>
          <ns3:TrackPointExtension>
            <ns3:atemp>26.0</ns3:atemp>
            <ns3:hr>105</ns3:hr>
          </ns3:TrackPointExtension>
        </extensions>
      </trkpt>
      <trkpt lat="31.404476948082447052001953125" lon="119.47206798009574413299560546875">
        <ele>10.19999980926513671875</ele>
        <time>2019-06-03T21:08:34.000Z</time>
        <extensions>
          <ns3:TrackPointExtension>
            <ns3:atemp>26.0</ns3:atemp>
            <ns3:hr>105</ns3:hr>
          </ns3:TrackPointExtension>
        </extensions>
      </trkpt>
      <trkpt lat="31.4043936319649219512939453125" lon="119.47204048745334148406982421875">
        <ele>10</ele>
        <time>2019-06-03T21:08:36.000Z</time>
        <extensions>
          <ns3:TrackPointExtension>
            <ns3:atemp>26.0</ns3:atemp>
            <ns3:hr>105</ns3:hr>
          </ns3:TrackPointExtension>
        </extensions>
      </trkpt>
      <trkpt lat="31.40415650792419910430908203125" lon="119.47197410278022289276123046875">
        <ele>10</ele>
        <time>2019-06-03T21:08:42.000Z</time>
        <extensions>
          <ns3:TrackPointExtension>
            <ns3:atemp>26.0</ns3:atemp>
            <ns3:hr>105</ns3:hr>
          </ns3:TrackPointExtension>
        </extensions>
      </trkpt>
      <trkpt lat="31.40392147935926914215087890625" lon="119.4718992523849010467529296875">
        <ele>9.19999980926513671875</ele>
        <time>2019-06-03T21:08:48.000Z</time>
        <extensions>
          <ns3:TrackPointExtension>
            <ns3:atemp>26.0</ns3:atemp>
            <ns3:hr>106</ns3:hr>
          </ns3:TrackPointExtension>
        </extensions>
      </trkpt>
      <trkpt lat="31.40373875387012958526611328125" lon="119.47184376418590545654296875">
        <ele>8.80000019073486328125</ele>
        <time>2019-06-03T21:08:53.000Z</time>
        <extensions>
          <ns3:TrackPointExtension>
            <ns3:atemp>26.0</ns3:atemp>
            <ns3:hr>108</ns3:hr>
          </ns3:TrackPointExtension>
        </extensions>
      </trkpt>
      <trkpt lat="31.4035376720130443572998046875" lon="119.471790455281734466552734375">
        <ele>8.6000003814697265625</ele>
        <time>2019-06-03T21:09:00.000Z</time>
        <extensions>
          <ns3:TrackPointExtension>
            <ns3:atemp>26.0</ns3:atemp>
            <ns3:hr>107</ns3:hr>
          </ns3:TrackPointExtension>
        </extensions>
      </trkpt>
      <trkpt lat="31.40349165536463260650634765625" lon="119.47178048081696033477783203125">
        <ele>8.80000019073486328125</ele>
        <time>2019-06-03T21:09:05.000Z</time>
        <extensions>
          <ns3:TrackPointExtension>
            <ns3:atemp>26.0</ns3:atemp>
            <ns3:hr>108</ns3:hr>
          </ns3:TrackPointExtension>
        </extensions>
      </trkpt>
    </trkseg>
  </trk>
</gpx>
