<gpx xmlns:ns3="http://www.garmin.com/xmlschemas/TrackPointExtension/v1" xmlns="http://www.topografix.com/GPX/1/1" xmlns:xsi="http://www.w3.org/2001/XMLSchema-instance" xmlns:ns2="http://www.garmin.com/xmlschemas/GpxExtensions/v3" creator="Garmin Connect" version="1.1" xsi:schemaLocation="http://www.topografix.com/GPX/1/1 http://www.topografix.com/GPX/11.xsd">
  <extensions>
<distance>3694.28</distance>
<average_hr></average_hr>
<average_speed>4.146217765765292</average_speed>
<start_time>2015-09-14T03:45:46+00:00</start_time>
<end_time>2015-09-14T04:00:37+00:00</end_time>
<moving_time>876.0</moving_time>
<elapsed_time>1179.0</elapsed_time>
</extensions>
<metadata>
    <link href="connect.garmin.com">
      <text>Garmin Connect</text>
    </link>
    <time>2015-09-14T03:45:46.000Z</time>
  </metadata>
  <trk>
    <name>常州市 骑行</name>
    <type>cycling</type>
    <trkseg>
      <trkpt lat="31.4096068404614925384521484375" lon="119.4878174923360347747802734375">
        <ele>34.799999237060546875</ele>
        <time>2015-09-14T03:45:46.000Z</time>
        <extensions>
          <ns3:TrackPointExtension>
            <ns3:atemp>29.0</ns3:atemp>
          </ns3:TrackPointExtension>
        </extensions>
      </trkpt>
      <trkpt lat="31.4100261032581329345703125" lon="119.487838782370090484619140625">
        <ele>86.59999847412109375</ele>
        <time>2015-09-14T03:45:48.000Z</time>
        <extensions>
          <ns3:TrackPointExtension>
            <ns3:atemp>29.0</ns3:atemp>
          </ns3:TrackPointExtension>
        </extensions>
      </trkpt>
      <trkpt lat="31.40957540832459926605224609375" lon="119.48780961334705352783203125">
        <ele>86.59999847412109375</ele>
        <time>2015-09-14T03:45:49.000Z</time>
        <extensions>
          <ns3:TrackPointExtension>
            <ns3:atemp>29.0</ns3:atemp>
          </ns3:TrackPointExtension>
        </extensions>
      </trkpt>
      <trkpt lat="31.4096869714558124542236328125" lon="119.48771112598478794097900390625">
        <ele>34.200000762939453125</ele>
        <time>2015-09-14T03:45:51.000Z</time>
        <extensions>
          <ns3:TrackPointExtension>
            <ns3:atemp>29.0</ns3:atemp>
          </ns3:TrackPointExtension>
        </extensions>
      </trkpt>
      <trkpt lat="31.4102525822818279266357421875" lon="119.4876069389283657073974609375">
        <ele>34.200000762939453125</ele>
        <time>2015-09-14T03:45:52.000Z</time>
        <extensions>
          <ns3:TrackPointExtension>
            <ns3:atemp>29.0</ns3:atemp>
          </ns3:TrackPointExtension>
        </extensions>
      </trkpt>
      <trkpt lat="31.4098517596721649169921875" lon="119.48760065250098705291748046875">
        <ele>34.200000762939453125</ele>
        <time>2015-09-14T03:45:53.000Z</time>
        <extensions>
          <ns3:TrackPointExtension>
            <ns3:atemp>29.0</ns3:atemp>
          </ns3:TrackPointExtension>
        </extensions>
      </trkpt>
      <trkpt lat="31.4098733849823474884033203125" lon="119.4875888340175151824951171875">
        <ele>34.200000762939453125</ele>
        <time>2015-09-14T03:45:54.000Z</time>
        <extensions>
          <ns3:TrackPointExtension>
            <ns3:atemp>29.0</ns3:atemp>
          </ns3:TrackPointExtension>
        </extensions>
      </trkpt>
      <trkpt lat="31.41062566079199314117431640625" lon="119.48720050044357776641845703125">
        <ele>34.200000762939453125</ele>
        <time>2015-09-14T03:45:55.000Z</time>
        <extensions>
          <ns3:TrackPointExtension>
            <ns3:atemp>29.0</ns3:atemp>
          </ns3:TrackPointExtension>
        </extensions>
      </trkpt>
      <trkpt lat="31.41064845956861972808837890625" lon="119.48714937083423137664794921875">
        <ele>34.200000762939453125</ele>
        <time>2015-09-14T03:45:56.000Z</time>
        <extensions>
          <ns3:TrackPointExtension>
            <ns3:atemp>29.0</ns3:atemp>
          </ns3:TrackPointExtension>
        </extensions>
      </trkpt>
      <trkpt lat="31.41035559587180614471435546875" lon="119.48724006302654743194580078125">
        <ele>34.200000762939453125</ele>
        <time>2015-09-14T03:45:57.000Z</time>
        <extensions>
          <ns3:TrackPointExtension>
            <ns3:atemp>29.0</ns3:atemp>
          </ns3:TrackPointExtension>
        </extensions>
      </trkpt>
      <trkpt lat="31.410655081272125244140625" lon="119.4870590977370738983154296875">
        <ele>34.200000762939453125</ele>
        <time>2015-09-14T03:45:58.000Z</time>
        <extensions>
          <ns3:TrackPointExtension>
            <ns3:atemp>29.0</ns3:atemp>
          </ns3:TrackPointExtension>
        </extensions>
      </trkpt>
      <trkpt lat="31.41000187955796718597412109375" lon="119.48732220567762851715087890625">
        <ele>34.200000762939453125</ele>
        <time>2015-09-14T03:45:59.000Z</time>
        <extensions>
          <ns3:TrackPointExtension>
            <ns3:atemp>29.0</ns3:atemp>
          </ns3:TrackPointExtension>
        </extensions>
      </trkpt>
      <trkpt lat="31.4105298556387424468994140625" lon="119.487075693905353546142578125">
        <ele>34.200000762939453125</ele>
        <time>2015-09-14T03:46:00.000Z</time>
        <extensions>
          <ns3:TrackPointExtension>
            <ns3:atemp>29.0</ns3:atemp>
          </ns3:TrackPointExtension>
        </extensions>
      </trkpt>
      <trkpt lat="31.4100765623152256011962890625" lon="119.4872300885617733001708984375">
        <ele>34.200000762939453125</ele>
        <time>2015-09-14T03:46:01.000Z</time>
        <extensions>
          <ns3:TrackPointExtension>
            <ns3:atemp>29.0</ns3:atemp>
          </ns3:TrackPointExtension>
        </extensions>
      </trkpt>
      <trkpt lat="31.40952126123011112213134765625" lon="119.48732413351535797119140625">
        <ele>34</ele>
        <time>2015-09-14T03:46:02.000Z</time>
        <extensions>
          <ns3:TrackPointExtension>
            <ns3:atemp>29.0</ns3:atemp>
          </ns3:TrackPointExtension>
        </extensions>
      </trkpt>
      <trkpt lat="31.4095431379973888397216796875" lon="119.4872937910258769989013671875">
        <ele>34</ele>
        <time>2015-09-14T03:46:03.000Z</time>
        <extensions>
          <ns3:TrackPointExtension>
            <ns3:atemp>29.0</ns3:atemp>
          </ns3:TrackPointExtension>
        </extensions>
      </trkpt>
      <trkpt lat="31.409572474658489227294921875" lon="119.487255401909351348876953125">
        <ele>33.799999237060546875</ele>
        <time>2015-09-14T03:46:04.000Z</time>
        <extensions>
          <ns3:TrackPointExtension>
            <ns3:atemp>29.0</ns3:atemp>
          </ns3:TrackPointExtension>
        </extensions>
      </trkpt>
      <trkpt lat="31.4095300622284412384033203125" lon="119.48725305497646331787109375">
        <ele>33.59999847412109375</ele>
        <time>2015-09-14T03:46:05.000Z</time>
        <extensions>
          <ns3:TrackPointExtension>
            <ns3:atemp>29.0</ns3:atemp>
          </ns3:TrackPointExtension>
        </extensions>
      </trkpt>
      <trkpt lat="31.4096772484481334686279296875" lon="119.4872505404055118560791015625">
        <ele>33.59999847412109375</ele>
        <time>2015-09-14T03:46:06.000Z</time>
        <extensions>
          <ns3:TrackPointExtension>
            <ns3:atemp>29.0</ns3:atemp>
          </ns3:TrackPointExtension>
        </extensions>
      </trkpt>
      <trkpt lat="31.409723348915576934814453125" lon="119.487240649759769439697265625">
        <ele>33.59999847412109375</ele>
        <time>2015-09-14T03:46:07.000Z</time>
        <extensions>
          <ns3:TrackPointExtension>
            <ns3:atemp>29.0</ns3:atemp>
          </ns3:TrackPointExtension>
        </extensions>
      </trkpt>
      <trkpt lat="31.40978747047483921051025390625" lon="119.4872180186212062835693359375">
        <ele>33.59999847412109375</ele>
        <time>2015-09-14T03:46:08.000Z</time>
        <extensions>
          <ns3:TrackPointExtension>
            <ns3:atemp>29.0</ns3:atemp>
          </ns3:TrackPointExtension>
        </extensions>
      </trkpt>
      <trkpt lat="31.40983901917934417724609375" lon="119.48721659369766712188720703125">
        <ele>33.59999847412109375</ele>
        <time>2015-09-14T03:46:09.000Z</time>
        <extensions>
          <ns3:TrackPointExtension>
            <ns3:atemp>29.0</ns3:atemp>
          </ns3:TrackPointExtension>
        </extensions>
      </trkpt>
      <trkpt lat="31.41045458614826202392578125" lon="119.48722422122955322265625">
        <ele>33.799999237060546875</ele>
        <time>2015-09-14T03:46:27.000Z</time>
        <extensions>
          <ns3:TrackPointExtension>
            <ns3:atemp>29.0</ns3:atemp>
          </ns3:TrackPointExtension>
        </extensions>
      </trkpt>
      <trkpt lat="31.41098641790449619293212890625" lon="119.4871717505156993865966796875">
        <ele>34</ele>
        <time>2015-09-14T03:46:44.000Z</time>
        <extensions>
          <ns3:TrackPointExtension>
            <ns3:atemp>30.0</ns3:atemp>
          </ns3:TrackPointExtension>
        </extensions>
      </trkpt>
      <trkpt lat="31.41160382889211177825927734375" lon="119.48712565004825592041015625">
        <ele>33.799999237060546875</ele>
        <time>2015-09-14T03:47:01.000Z</time>
        <extensions>
          <ns3:TrackPointExtension>
            <ns3:atemp>30.0</ns3:atemp>
          </ns3:TrackPointExtension>
        </extensions>
      </trkpt>
      <trkpt lat="31.41198906116187572479248046875" lon="119.48713310994207859039306640625">
        <ele>34.200000762939453125</ele>
        <time>2015-09-14T03:47:22.000Z</time>
        <extensions>
          <ns3:TrackPointExtension>
            <ns3:atemp>30.0</ns3:atemp>
          </ns3:TrackPointExtension>
        </extensions>
      </trkpt>
      <trkpt lat="31.41206567175686359405517578125" lon="119.4871271587908267974853515625">
        <ele>34.40000152587890625</ele>
        <time>2015-09-14T03:48:00.000Z</time>
        <extensions>
          <ns3:TrackPointExtension>
            <ns3:atemp>31.0</ns3:atemp>
          </ns3:TrackPointExtension>
        </extensions>
      </trkpt>
      <trkpt lat="31.41208327375352382659912109375" lon="119.4871258176863193511962890625">
        <ele>34.40000152587890625</ele>
        <time>2015-09-14T03:48:01.000Z</time>
        <extensions>
          <ns3:TrackPointExtension>
            <ns3:atemp>31.0</ns3:atemp>
          </ns3:TrackPointExtension>
        </extensions>
      </trkpt>
      <trkpt lat="31.4125964976847171783447265625" lon="119.48708198033273220062255859375">
        <ele>34.200000762939453125</ele>
        <time>2015-09-14T03:48:18.000Z</time>
        <extensions>
          <ns3:TrackPointExtension>
            <ns3:atemp>31.0</ns3:atemp>
          </ns3:TrackPointExtension>
        </extensions>
      </trkpt>
      <trkpt lat="31.413177363574504852294921875" lon="119.48700486682355403900146484375">
        <ele>34</ele>
        <time>2015-09-14T03:48:35.000Z</time>
        <extensions>
          <ns3:TrackPointExtension>
            <ns3:atemp>32.0</ns3:atemp>
          </ns3:TrackPointExtension>
        </extensions>
      </trkpt>
      <trkpt lat="31.41343653202056884765625" lon="119.4869608618319034576416015625">
        <ele>34.40000152587890625</ele>
        <time>2015-09-14T03:48:43.000Z</time>
        <extensions>
          <ns3:TrackPointExtension>
            <ns3:atemp>32.0</ns3:atemp>
          </ns3:TrackPointExtension>
        </extensions>
      </trkpt>
      <trkpt lat="31.4137364365160465240478515625" lon="119.4869152642786502838134765625">
        <ele>35</ele>
        <time>2015-09-14T03:48:52.000Z</time>
        <extensions>
          <ns3:TrackPointExtension>
            <ns3:atemp>32.0</ns3:atemp>
          </ns3:TrackPointExtension>
        </extensions>
      </trkpt>
      <trkpt lat="31.41434672288596630096435546875" lon="119.48692825622856616973876953125">
        <ele>34.59999847412109375</ele>
        <time>2015-09-14T03:49:11.000Z</time>
        <extensions>
          <ns3:TrackPointExtension>
            <ns3:atemp>31.0</ns3:atemp>
          </ns3:TrackPointExtension>
        </extensions>
      </trkpt>
      <trkpt lat="31.4150155149400234222412109375" lon="119.4869145937263965606689453125">
        <ele>34.200000762939453125</ele>
        <time>2015-09-14T03:49:29.000Z</time>
        <extensions>
          <ns3:TrackPointExtension>
            <ns3:atemp>31.0</ns3:atemp>
          </ns3:TrackPointExtension>
        </extensions>
      </trkpt>
      <trkpt lat="31.41569788567721843719482421875" lon="119.4869412481784820556640625">
        <ele>34.40000152587890625</ele>
        <time>2015-09-14T03:49:49.000Z</time>
        <extensions>
          <ns3:TrackPointExtension>
            <ns3:atemp>31.0</ns3:atemp>
          </ns3:TrackPointExtension>
        </extensions>
      </trkpt>
      <trkpt lat="31.41571213491261005401611328125" lon="119.486958347260951995849609375">
        <ele>34.40000152587890625</ele>
        <time>2015-09-14T03:49:50.000Z</time>
        <extensions>
          <ns3:TrackPointExtension>
            <ns3:atemp>31.0</ns3:atemp>
          </ns3:TrackPointExtension>
        </extensions>
      </trkpt>
      <trkpt lat="31.4157293178141117095947265625" lon="119.48697553016245365142822265625">
        <ele>34.40000152587890625</ele>
        <time>2015-09-14T03:49:51.000Z</time>
        <extensions>
          <ns3:TrackPointExtension>
            <ns3:atemp>31.0</ns3:atemp>
          </ns3:TrackPointExtension>
        </extensions>
      </trkpt>
      <trkpt lat="31.4157470874488353729248046875" lon="119.486983157694339752197265625">
        <ele>34.40000152587890625</ele>
        <time>2015-09-14T03:49:52.000Z</time>
        <extensions>
          <ns3:TrackPointExtension>
            <ns3:atemp>31.0</ns3:atemp>
          </ns3:TrackPointExtension>
        </extensions>
      </trkpt>
      <trkpt lat="31.4157692156732082366943359375" lon="119.48699346743524074554443359375">
        <ele>34.40000152587890625</ele>
        <time>2015-09-14T03:49:53.000Z</time>
        <extensions>
          <ns3:TrackPointExtension>
            <ns3:atemp>31.0</ns3:atemp>
          </ns3:TrackPointExtension>
        </extensions>
      </trkpt>
      <trkpt lat="31.41578790731728076934814453125" lon="119.48699430562555789947509765625">
        <ele>34.40000152587890625</ele>
        <time>2015-09-14T03:49:54.000Z</time>
        <extensions>
          <ns3:TrackPointExtension>
            <ns3:atemp>31.0</ns3:atemp>
          </ns3:TrackPointExtension>
        </extensions>
      </trkpt>
      <trkpt lat="31.41581204719841480255126953125" lon="119.4869876839220523834228515625">
        <ele>34.40000152587890625</ele>
        <time>2015-09-14T03:49:55.000Z</time>
        <extensions>
          <ns3:TrackPointExtension>
            <ns3:atemp>31.0</ns3:atemp>
          </ns3:TrackPointExtension>
        </extensions>
      </trkpt>
      <trkpt lat="31.41583987511694431304931640625" lon="119.48697502724826335906982421875">
        <ele>34.40000152587890625</ele>
        <time>2015-09-14T03:49:56.000Z</time>
        <extensions>
          <ns3:TrackPointExtension>
            <ns3:atemp>31.0</ns3:atemp>
          </ns3:TrackPointExtension>
        </extensions>
      </trkpt>
      <trkpt lat="31.41586988233029842376708984375" lon="119.486961029469966888427734375">
        <ele>34.40000152587890625</ele>
        <time>2015-09-14T03:49:57.000Z</time>
        <extensions>
          <ns3:TrackPointExtension>
            <ns3:atemp>31.0</ns3:atemp>
          </ns3:TrackPointExtension>
        </extensions>
      </trkpt>
      <trkpt lat="31.41643281094729900360107421875" lon="119.48682314716279506683349609375">
        <ele>34.200000762939453125</ele>
        <time>2015-09-14T03:50:14.000Z</time>
        <extensions>
          <ns3:TrackPointExtension>
            <ns3:atemp>31.0</ns3:atemp>
          </ns3:TrackPointExtension>
        </extensions>
      </trkpt>
      <trkpt lat="31.4170670695602893829345703125" lon="119.4867902062833309173583984375">
        <ele>34</ele>
        <time>2015-09-14T03:50:30.000Z</time>
        <extensions>
          <ns3:TrackPointExtension>
            <ns3:atemp>31.0</ns3:atemp>
          </ns3:TrackPointExtension>
        </extensions>
      </trkpt>
      <trkpt lat="31.41765304841101169586181640625" lon="119.4867801479995250701904296875">
        <ele>34.200000762939453125</ele>
        <time>2015-09-14T03:50:49.000Z</time>
        <extensions>
          <ns3:TrackPointExtension>
            <ns3:atemp>31.0</ns3:atemp>
          </ns3:TrackPointExtension>
        </extensions>
      </trkpt>
      <trkpt lat="31.41809326596558094024658203125" lon="119.4866983406245708465576171875">
        <ele>34.59999847412109375</ele>
        <time>2015-09-14T03:51:08.000Z</time>
        <extensions>
          <ns3:TrackPointExtension>
            <ns3:atemp>31.0</ns3:atemp>
          </ns3:TrackPointExtension>
        </extensions>
      </trkpt>
      <trkpt lat="31.41816132701933383941650390625" lon="119.48670345358550548553466796875">
        <ele>35</ele>
        <time>2015-09-14T03:54:46.000Z</time>
        <extensions>
          <ns3:TrackPointExtension>
            <ns3:atemp>30.0</ns3:atemp>
          </ns3:TrackPointExtension>
        </extensions>
      </trkpt>
      <trkpt lat="31.41818010248243808746337890625" lon="119.4866837561130523681640625">
        <ele>35.200000762939453125</ele>
        <time>2015-09-14T03:54:49.000Z</time>
        <extensions>
          <ns3:TrackPointExtension>
            <ns3:atemp>30.0</ns3:atemp>
          </ns3:TrackPointExtension>
        </extensions>
      </trkpt>
      <trkpt lat="31.4181650988757610321044921875" lon="119.486700184643268585205078125">
        <ele>35</ele>
        <time>2015-09-14T03:54:52.000Z</time>
        <extensions>
          <ns3:TrackPointExtension>
            <ns3:atemp>30.0</ns3:atemp>
          </ns3:TrackPointExtension>
        </extensions>
      </trkpt>
      <trkpt lat="31.41816015355288982391357421875" lon="119.48671585880219936370849609375">
        <ele>35</ele>
        <time>2015-09-14T03:54:53.000Z</time>
        <extensions>
          <ns3:TrackPointExtension>
            <ns3:atemp>30.0</ns3:atemp>
          </ns3:TrackPointExtension>
        </extensions>
      </trkpt>
      <trkpt lat="31.41816685907542705535888671875" lon="119.486720971763134002685546875">
        <ele>34.799999237060546875</ele>
        <time>2015-09-14T03:54:54.000Z</time>
        <extensions>
          <ns3:TrackPointExtension>
            <ns3:atemp>30.0</ns3:atemp>
          </ns3:TrackPointExtension>
        </extensions>
      </trkpt>
      <trkpt lat="31.41818043775856494903564453125" lon="119.48671904392540454864501953125">
        <ele>35</ele>
        <time>2015-09-14T03:54:55.000Z</time>
        <extensions>
          <ns3:TrackPointExtension>
            <ns3:atemp>30.0</ns3:atemp>
          </ns3:TrackPointExtension>
        </extensions>
      </trkpt>
      <trkpt lat="31.4183136261999607086181640625" lon="119.48674201034009456634521484375">
        <ele>34.799999237060546875</ele>
        <time>2015-09-14T03:55:08.000Z</time>
        <extensions>
          <ns3:TrackPointExtension>
            <ns3:atemp>30.0</ns3:atemp>
          </ns3:TrackPointExtension>
        </extensions>
      </trkpt>
      <trkpt lat="31.4183213375508785247802734375" lon="119.48674603365361690521240234375">
        <ele>34.799999237060546875</ele>
        <time>2015-09-14T03:55:09.000Z</time>
        <extensions>
          <ns3:TrackPointExtension>
            <ns3:atemp>30.0</ns3:atemp>
          </ns3:TrackPointExtension>
        </extensions>
      </trkpt>
      <trkpt lat="31.41831303946673870086669921875" lon="119.4867553375661373138427734375">
        <ele>35</ele>
        <time>2015-09-14T03:55:17.000Z</time>
        <extensions>
          <ns3:TrackPointExtension>
            <ns3:atemp>30.0</ns3:atemp>
          </ns3:TrackPointExtension>
        </extensions>
      </trkpt>
      <trkpt lat="31.41835545189678668975830078125" lon="119.4867358915507793426513671875">
        <ele>34.799999237060546875</ele>
        <time>2015-09-14T03:55:27.000Z</time>
        <extensions>
          <ns3:TrackPointExtension>
            <ns3:atemp>30.0</ns3:atemp>
          </ns3:TrackPointExtension>
        </extensions>
      </trkpt>
      <trkpt lat="31.4189939014613628387451171875" lon="119.48668367229402065277099609375">
        <ele>35.200000762939453125</ele>
        <time>2015-09-14T03:55:47.000Z</time>
        <extensions>
          <ns3:TrackPointExtension>
            <ns3:atemp>31.0</ns3:atemp>
          </ns3:TrackPointExtension>
        </extensions>
      </trkpt>
      <trkpt lat="31.41959421336650848388671875" lon="119.486670009791851043701171875">
        <ele>35</ele>
        <time>2015-09-14T03:56:04.000Z</time>
        <extensions>
          <ns3:TrackPointExtension>
            <ns3:atemp>31.0</ns3:atemp>
          </ns3:TrackPointExtension>
        </extensions>
      </trkpt>
      <trkpt lat="31.4202122949063777923583984375" lon="119.48663572780787944793701171875">
        <ele>35.200000762939453125</ele>
        <time>2015-09-14T03:56:19.000Z</time>
        <extensions>
          <ns3:TrackPointExtension>
            <ns3:atemp>30.0</ns3:atemp>
          </ns3:TrackPointExtension>
        </extensions>
      </trkpt>
      <trkpt lat="31.42081570811569690704345703125" lon="119.48663472197949886322021484375">
        <ele>34.799999237060546875</ele>
        <time>2015-09-14T03:56:33.000Z</time>
        <extensions>
          <ns3:TrackPointExtension>
            <ns3:atemp>30.0</ns3:atemp>
          </ns3:TrackPointExtension>
        </extensions>
      </trkpt>
      <trkpt lat="31.421371512115001678466796875" lon="119.48656900785863399505615234375">
        <ele>35</ele>
        <time>2015-09-14T03:56:48.000Z</time>
        <extensions>
          <ns3:TrackPointExtension>
            <ns3:atemp>30.0</ns3:atemp>
          </ns3:TrackPointExtension>
        </extensions>
      </trkpt>
      <trkpt lat="31.42195279709994792938232421875" lon="119.48652156628668308258056640625">
        <ele>34.799999237060546875</ele>
        <time>2015-09-14T03:57:03.000Z</time>
        <extensions>
          <ns3:TrackPointExtension>
            <ns3:atemp>30.0</ns3:atemp>
          </ns3:TrackPointExtension>
        </extensions>
      </trkpt>
      <trkpt lat="31.422300897538661956787109375" lon="119.48649960570037364959716796875">
        <ele>35</ele>
        <time>2015-09-14T03:57:12.000Z</time>
        <extensions>
          <ns3:TrackPointExtension>
            <ns3:atemp>30.0</ns3:atemp>
          </ns3:TrackPointExtension>
        </extensions>
      </trkpt>
      <trkpt lat="31.42256677150726318359375" lon="119.48649105615913867950439453125">
        <ele>35</ele>
        <time>2015-09-14T03:57:19.000Z</time>
        <extensions>
          <ns3:TrackPointExtension>
            <ns3:atemp>30.0</ns3:atemp>
          </ns3:TrackPointExtension>
        </extensions>
      </trkpt>
      <trkpt lat="31.42315509729087352752685546875" lon="119.48651486076414585113525390625">
        <ele>35</ele>
        <time>2015-09-14T03:57:36.000Z</time>
        <extensions>
          <ns3:TrackPointExtension>
            <ns3:atemp>30.0</ns3:atemp>
          </ns3:TrackPointExtension>
        </extensions>
      </trkpt>
      <trkpt lat="31.42377602867782115936279296875" lon="119.48647177778184413909912109375">
        <ele>35.40000152587890625</ele>
        <time>2015-09-14T03:57:52.000Z</time>
        <extensions>
          <ns3:TrackPointExtension>
            <ns3:atemp>30.0</ns3:atemp>
          </ns3:TrackPointExtension>
        </extensions>
      </trkpt>
      <trkpt lat="31.4243951998651027679443359375" lon="119.486465156078338623046875">
        <ele>35.59999847412109375</ele>
        <time>2015-09-14T03:58:10.000Z</time>
        <extensions>
          <ns3:TrackPointExtension>
            <ns3:atemp>30.0</ns3:atemp>
          </ns3:TrackPointExtension>
        </extensions>
      </trkpt>
      <trkpt lat="31.424441970884799957275390625" lon="119.4864780642092227935791015625">
        <ele>35.799999237060546875</ele>
        <time>2015-09-14T03:58:19.000Z</time>
        <extensions>
          <ns3:TrackPointExtension>
            <ns3:atemp>30.0</ns3:atemp>
          </ns3:TrackPointExtension>
        </extensions>
      </trkpt>
      <trkpt lat="31.42443970777094364166259765625" lon="119.48646943084895610809326171875">
        <ele>36</ele>
        <time>2015-09-14T03:58:38.000Z</time>
        <extensions>
          <ns3:TrackPointExtension>
            <ns3:atemp>30.0</ns3:atemp>
          </ns3:TrackPointExtension>
        </extensions>
      </trkpt>
      <trkpt lat="31.42505561001598834991455078125" lon="119.48632794432342052459716796875">
        <ele>36.40000152587890625</ele>
        <time>2015-09-14T03:58:58.000Z</time>
        <extensions>
          <ns3:TrackPointExtension>
            <ns3:atemp>30.0</ns3:atemp>
          </ns3:TrackPointExtension>
        </extensions>
      </trkpt>
      <trkpt lat="31.42558366991579532623291015625" lon="119.48611957021057605743408203125">
        <ele>36.799999237060546875</ele>
        <time>2015-09-14T03:59:15.000Z</time>
        <extensions>
          <ns3:TrackPointExtension>
            <ns3:atemp>30.0</ns3:atemp>
          </ns3:TrackPointExtension>
        </extensions>
      </trkpt>
      <trkpt lat="31.4262043498456478118896484375" lon="119.48597230017185211181640625">
        <ele>37.200000762939453125</ele>
        <time>2015-09-14T03:59:33.000Z</time>
        <extensions>
          <ns3:TrackPointExtension>
            <ns3:atemp>30.0</ns3:atemp>
          </ns3:TrackPointExtension>
        </extensions>
      </trkpt>
      <trkpt lat="31.42663258127868175506591796875" lon="119.486130885779857635498046875">
        <ele>36.799999237060546875</ele>
        <time>2015-09-14T03:59:55.000Z</time>
        <extensions>
          <ns3:TrackPointExtension>
            <ns3:atemp>30.0</ns3:atemp>
          </ns3:TrackPointExtension>
        </extensions>
      </trkpt>
      <trkpt lat="31.4266408793628215789794921875" lon="119.48614404536783695220947265625">
        <ele>36.799999237060546875</ele>
        <time>2015-09-14T03:59:56.000Z</time>
        <extensions>
          <ns3:TrackPointExtension>
            <ns3:atemp>30.0</ns3:atemp>
          </ns3:TrackPointExtension>
        </extensions>
      </trkpt>
      <trkpt lat="31.4266663603484630584716796875" lon="119.4861994497478008270263671875">
        <ele>36.799999237060546875</ele>
        <time>2015-09-14T03:59:59.000Z</time>
        <extensions>
          <ns3:TrackPointExtension>
            <ns3:atemp>30.0</ns3:atemp>
          </ns3:TrackPointExtension>
        </extensions>
      </trkpt>
      <trkpt lat="31.4266730658710002899169921875" lon="119.4862098433077335357666015625">
        <ele>36.799999237060546875</ele>
        <time>2015-09-14T04:00:00.000Z</time>
        <extensions>
          <ns3:TrackPointExtension>
            <ns3:atemp>30.0</ns3:atemp>
          </ns3:TrackPointExtension>
        </extensions>
      </trkpt>
      <trkpt lat="31.426696367561817169189453125" lon="119.48626239784061908721923828125">
        <ele>37</ele>
        <time>2015-09-14T04:00:04.000Z</time>
        <extensions>
          <ns3:TrackPointExtension>
            <ns3:atemp>30.0</ns3:atemp>
          </ns3:TrackPointExtension>
        </extensions>
      </trkpt>
      <trkpt lat="31.42677314579486846923828125" lon="119.486276395618915557861328125">
        <ele>36.799999237060546875</ele>
        <time>2015-09-14T04:00:10.000Z</time>
        <extensions>
          <ns3:TrackPointExtension>
            <ns3:atemp>30.0</ns3:atemp>
          </ns3:TrackPointExtension>
        </extensions>
      </trkpt>
      <trkpt lat="31.4274108409881591796875" lon="119.48614371009171009063720703125">
        <ele>37</ele>
        <time>2015-09-14T04:00:29.000Z</time>
        <extensions>
          <ns3:TrackPointExtension>
            <ns3:atemp>30.0</ns3:atemp>
          </ns3:TrackPointExtension>
        </extensions>
      </trkpt>
      <trkpt lat="31.42771066166460514068603515625" lon="119.4861183129251003265380859375">
        <ele>36.799999237060546875</ele>
        <time>2015-09-14T04:00:36.000Z</time>
        <extensions>
          <ns3:TrackPointExtension>
            <ns3:atemp>30.0</ns3:atemp>
          </ns3:TrackPointExtension>
        </extensions>
      </trkpt>
      <trkpt lat="31.42780034802854061126708984375" lon="119.486088640987873077392578125">
        <ele>36.59999847412109375</ele>
        <time>2015-09-14T04:00:38.000Z</time>
        <extensions>
          <ns3:TrackPointExtension>
            <ns3:atemp>30.0</ns3:atemp>
          </ns3:TrackPointExtension>
        </extensions>
      </trkpt>
      <trkpt lat="31.42784359864890575408935546875" lon="119.4860827736556529998779296875">
        <ele>36.40000152587890625</ele>
        <time>2015-09-14T04:00:39.000Z</time>
        <extensions>
          <ns3:TrackPointExtension>
            <ns3:atemp>30.0</ns3:atemp>
          </ns3:TrackPointExtension>
        </extensions>
      </trkpt>
      <trkpt lat="31.42827627249062061309814453125" lon="119.48602728545665740966796875">
        <ele>35.799999237060546875</ele>
        <time>2015-09-14T04:00:49.000Z</time>
        <extensions>
          <ns3:TrackPointExtension>
            <ns3:atemp>29.0</ns3:atemp>
          </ns3:TrackPointExtension>
        </extensions>
      </trkpt>
      <trkpt lat="31.428324468433856964111328125" lon="119.4860204122960567474365234375">
        <ele>35.799999237060546875</ele>
        <time>2015-09-14T04:00:50.000Z</time>
        <extensions>
          <ns3:TrackPointExtension>
            <ns3:atemp>29.0</ns3:atemp>
          </ns3:TrackPointExtension>
        </extensions>
      </trkpt>
      <trkpt lat="31.42889217473566532135009765625" lon="119.48587096296250820159912109375">
        <ele>36</ele>
        <time>2015-09-14T04:01:03.000Z</time>
        <extensions>
          <ns3:TrackPointExtension>
            <ns3:atemp>29.0</ns3:atemp>
          </ns3:TrackPointExtension>
        </extensions>
      </trkpt>
      <trkpt lat="31.429481841623783111572265625" lon="119.48570315726101398468017578125">
        <ele>35.799999237060546875</ele>
        <time>2015-09-14T04:01:18.000Z</time>
        <extensions>
          <ns3:TrackPointExtension>
            <ns3:atemp>30.0</ns3:atemp>
          </ns3:TrackPointExtension>
        </extensions>
      </trkpt>
      <trkpt lat="31.430003531277179718017578125" lon="119.48546963743865489959716796875">
        <ele>36.200000762939453125</ele>
        <time>2015-09-14T04:01:36.000Z</time>
        <extensions>
          <ns3:TrackPointExtension>
            <ns3:atemp>29.0</ns3:atemp>
          </ns3:TrackPointExtension>
        </extensions>
      </trkpt>
      <trkpt lat="31.4301381446421146392822265625" lon="119.48540979065001010894775390625">
        <ele>36.200000762939453125</ele>
        <time>2015-09-14T04:01:48.000Z</time>
        <extensions>
          <ns3:TrackPointExtension>
            <ns3:atemp>29.0</ns3:atemp>
          </ns3:TrackPointExtension>
        </extensions>
      </trkpt>
      <trkpt lat="31.43014811910688877105712890625" lon="119.48539185337722301483154296875">
        <ele>36.200000762939453125</ele>
        <time>2015-09-14T04:01:51.000Z</time>
        <extensions>
          <ns3:TrackPointExtension>
            <ns3:atemp>29.0</ns3:atemp>
          </ns3:TrackPointExtension>
        </extensions>
      </trkpt>
      <trkpt lat="31.430159769952297210693359375" lon="119.4853857345879077911376953125">
        <ele>36.59999847412109375</ele>
        <time>2015-09-14T04:01:52.000Z</time>
        <extensions>
          <ns3:TrackPointExtension>
            <ns3:atemp>29.0</ns3:atemp>
          </ns3:TrackPointExtension>
        </extensions>
      </trkpt>
      <trkpt lat="31.43019572831690311431884765625" lon="119.48537944816052913665771484375">
        <ele>37</ele>
        <time>2015-09-14T04:01:55.000Z</time>
        <extensions>
          <ns3:TrackPointExtension>
            <ns3:atemp>29.0</ns3:atemp>
          </ns3:TrackPointExtension>
        </extensions>
      </trkpt>
      <trkpt lat="31.430203020572662353515625" lon="119.48537492193281650543212890625">
        <ele>37</ele>
        <time>2015-09-14T04:01:56.000Z</time>
        <extensions>
          <ns3:TrackPointExtension>
            <ns3:atemp>29.0</ns3:atemp>
          </ns3:TrackPointExtension>
        </extensions>
      </trkpt>
      <trkpt lat="31.43032933585345745086669921875" lon="119.48541062884032726287841796875">
        <ele>36.200000762939453125</ele>
        <time>2015-09-14T04:02:03.000Z</time>
        <extensions>
          <ns3:TrackPointExtension>
            <ns3:atemp>29.0</ns3:atemp>
          </ns3:TrackPointExtension>
        </extensions>
      </trkpt>
      <trkpt lat="31.43034844659268856048583984375" lon="119.485436864197254180908203125">
        <ele>36.200000762939453125</ele>
        <time>2015-09-14T04:02:05.000Z</time>
        <extensions>
          <ns3:TrackPointExtension>
            <ns3:atemp>30.0</ns3:atemp>
          </ns3:TrackPointExtension>
        </extensions>
      </trkpt>
      <trkpt lat="31.430373676121234893798828125" lon="119.48543242178857326507568359375">
        <ele>36.200000762939453125</ele>
        <time>2015-09-14T04:02:06.000Z</time>
        <extensions>
          <ns3:TrackPointExtension>
            <ns3:atemp>30.0</ns3:atemp>
          </ns3:TrackPointExtension>
        </extensions>
      </trkpt>
      <trkpt lat="31.4304016716778278350830078125" lon="119.485442228615283966064453125">
        <ele>36.200000762939453125</ele>
        <time>2015-09-14T04:02:07.000Z</time>
        <extensions>
          <ns3:TrackPointExtension>
            <ns3:atemp>30.0</ns3:atemp>
          </ns3:TrackPointExtension>
        </extensions>
      </trkpt>
      <trkpt lat="31.430802829563617706298828125" lon="119.4852925278246402740478515625">
        <ele>36.59999847412109375</ele>
        <time>2015-09-14T04:02:20.000Z</time>
        <extensions>
          <ns3:TrackPointExtension>
            <ns3:atemp>30.0</ns3:atemp>
          </ns3:TrackPointExtension>
        </extensions>
      </trkpt>
      <trkpt lat="31.43093551509082317352294921875" lon="119.48521725833415985107421875">
        <ele>36.59999847412109375</ele>
        <time>2015-09-14T04:02:24.000Z</time>
        <extensions>
          <ns3:TrackPointExtension>
            <ns3:atemp>30.0</ns3:atemp>
          </ns3:TrackPointExtension>
        </extensions>
      </trkpt>
      <trkpt lat="31.431555859744548797607421875" lon="119.48494073934853076934814453125">
        <ele>37.59999847412109375</ele>
        <time>2015-09-14T04:02:41.000Z</time>
        <extensions>
          <ns3:TrackPointExtension>
            <ns3:atemp>30.0</ns3:atemp>
          </ns3:TrackPointExtension>
        </extensions>
      </trkpt>
      <trkpt lat="31.43202365376055240631103515625" lon="119.48461988009512424468994140625">
        <ele>37.200000762939453125</ele>
        <time>2015-09-14T04:02:56.000Z</time>
        <extensions>
          <ns3:TrackPointExtension>
            <ns3:atemp>30.0</ns3:atemp>
          </ns3:TrackPointExtension>
        </extensions>
      </trkpt>
      <trkpt lat="31.43244643695652484893798828125" lon="119.48415518738329410552978515625">
        <ele>36.40000152587890625</ele>
        <time>2015-09-14T04:03:12.000Z</time>
        <extensions>
          <ns3:TrackPointExtension>
            <ns3:atemp>30.0</ns3:atemp>
          </ns3:TrackPointExtension>
        </extensions>
      </trkpt>
      <trkpt lat="31.4328294061124324798583984375" lon="119.4836319051682949066162109375">
        <ele>36.59999847412109375</ele>
        <time>2015-09-14T04:03:28.000Z</time>
        <extensions>
          <ns3:TrackPointExtension>
            <ns3:atemp>30.0</ns3:atemp>
          </ns3:TrackPointExtension>
        </extensions>
      </trkpt>
      <trkpt lat="31.4329739101231098175048828125" lon="119.48344297707080841064453125">
        <ele>36.200000762939453125</ele>
        <time>2015-09-14T04:03:35.000Z</time>
        <extensions>
          <ns3:TrackPointExtension>
            <ns3:atemp>30.0</ns3:atemp>
          </ns3:TrackPointExtension>
        </extensions>
      </trkpt>
      <trkpt lat="31.43298975192010402679443359375" lon="119.48345898650586605072021484375">
        <ele>36.40000152587890625</ele>
        <time>2015-09-14T04:03:36.000Z</time>
        <extensions>
          <ns3:TrackPointExtension>
            <ns3:atemp>30.0</ns3:atemp>
          </ns3:TrackPointExtension>
        </extensions>
      </trkpt>
      <trkpt lat="31.43356609158217906951904296875" lon="119.48380733840167522430419921875">
        <ele>35.799999237060546875</ele>
        <time>2015-09-14T04:03:54.000Z</time>
        <extensions>
          <ns3:TrackPointExtension>
            <ns3:atemp>30.0</ns3:atemp>
          </ns3:TrackPointExtension>
        </extensions>
      </trkpt>
      <trkpt lat="31.43360850401222705841064453125" lon="119.48382862843573093414306640625">
        <ele>35.59999847412109375</ele>
        <time>2015-09-14T04:03:55.000Z</time>
        <extensions>
          <ns3:TrackPointExtension>
            <ns3:atemp>30.0</ns3:atemp>
          </ns3:TrackPointExtension>
        </extensions>
      </trkpt>
      <trkpt lat="31.433643288910388946533203125" lon="119.4838169775903224945068359375">
        <ele>35.40000152587890625</ele>
        <time>2015-09-14T04:03:56.000Z</time>
        <extensions>
          <ns3:TrackPointExtension>
            <ns3:atemp>30.0</ns3:atemp>
          </ns3:TrackPointExtension>
        </extensions>
      </trkpt>
      <trkpt lat="31.4336712844669818878173828125" lon="119.4837857969105243682861328125">
        <ele>35.40000152587890625</ele>
        <time>2015-09-14T04:03:57.000Z</time>
        <extensions>
          <ns3:TrackPointExtension>
            <ns3:atemp>30.0</ns3:atemp>
          </ns3:TrackPointExtension>
        </extensions>
      </trkpt>
      <trkpt lat="31.433689557015895843505859375" lon="119.4837432168424129486083984375">
        <ele>35.40000152587890625</ele>
        <time>2015-09-14T04:03:58.000Z</time>
        <extensions>
          <ns3:TrackPointExtension>
            <ns3:atemp>30.0</ns3:atemp>
          </ns3:TrackPointExtension>
        </extensions>
      </trkpt>
      <trkpt lat="31.43369668163359165191650390625" lon="119.48369770310819149017333984375">
        <ele>35.200000762939453125</ele>
        <time>2015-09-14T04:03:59.000Z</time>
        <extensions>
          <ns3:TrackPointExtension>
            <ns3:atemp>30.0</ns3:atemp>
          </ns3:TrackPointExtension>
        </extensions>
      </trkpt>
      <trkpt lat="31.43369995057582855224609375" lon="119.483654536306858062744140625">
        <ele>35</ele>
        <time>2015-09-14T04:04:00.000Z</time>
        <extensions>
          <ns3:TrackPointExtension>
            <ns3:atemp>30.0</ns3:atemp>
          </ns3:TrackPointExtension>
        </extensions>
      </trkpt>
      <trkpt lat="31.4337048120796680450439453125" lon="119.4836131297051906585693359375">
        <ele>35</ele>
        <time>2015-09-14T04:04:01.000Z</time>
        <extensions>
          <ns3:TrackPointExtension>
            <ns3:atemp>30.0</ns3:atemp>
          </ns3:TrackPointExtension>
        </extensions>
      </trkpt>
      <trkpt lat="31.43374152481555938720703125" lon="119.4833985529839992523193359375">
        <ele>34.799999237060546875</ele>
        <time>2015-09-14T04:04:06.000Z</time>
        <extensions>
          <ns3:TrackPointExtension>
            <ns3:atemp>30.0</ns3:atemp>
          </ns3:TrackPointExtension>
        </extensions>
      </trkpt>
      <trkpt lat="31.43377010710537433624267578125" lon="119.4833603315055370330810546875">
        <ele>34.799999237060546875</ele>
        <time>2015-09-14T04:04:07.000Z</time>
        <extensions>
          <ns3:TrackPointExtension>
            <ns3:atemp>29.0</ns3:atemp>
          </ns3:TrackPointExtension>
        </extensions>
      </trkpt>
      <trkpt lat="31.4338687621057033538818359375" lon="119.48323099873960018157958984375">
        <ele>35</ele>
        <time>2015-09-14T04:04:10.000Z</time>
        <extensions>
          <ns3:TrackPointExtension>
            <ns3:atemp>29.0</ns3:atemp>
          </ns3:TrackPointExtension>
        </extensions>
      </trkpt>
      <trkpt lat="31.43424586392939090728759765625" lon="119.4827199541032314300537109375">
        <ele>34.40000152587890625</ele>
        <time>2015-09-14T04:04:24.000Z</time>
        <extensions>
          <ns3:TrackPointExtension>
            <ns3:atemp>29.0</ns3:atemp>
          </ns3:TrackPointExtension>
        </extensions>
      </trkpt>
      <trkpt lat="31.43472447060048580169677734375" lon="119.48241300880908966064453125">
        <ele>34.40000152587890625</ele>
        <time>2015-09-14T04:04:46.000Z</time>
        <extensions>
          <ns3:TrackPointExtension>
            <ns3:atemp>29.0</ns3:atemp>
          </ns3:TrackPointExtension>
        </extensions>
      </trkpt>
      <trkpt lat="31.4353845454752445220947265625" lon="119.482247717678546905517578125">
        <ele>34.799999237060546875</ele>
        <time>2015-09-14T04:05:09.000Z</time>
        <extensions>
          <ns3:TrackPointExtension>
            <ns3:atemp>29.0</ns3:atemp>
          </ns3:TrackPointExtension>
        </extensions>
      </trkpt>
      <trkpt lat="31.435438692569732666015625" lon="119.482288621366024017333984375">
        <ele>34.40000152587890625</ele>
        <time>2015-09-14T04:05:11.000Z</time>
        <extensions>
          <ns3:TrackPointExtension>
            <ns3:atemp>29.0</ns3:atemp>
          </ns3:TrackPointExtension>
        </extensions>
      </trkpt>
      <trkpt lat="31.43545185215771198272705078125" lon="119.4823457859456539154052734375">
        <ele>34.200000762939453125</ele>
        <time>2015-09-14T04:05:12.000Z</time>
        <extensions>
          <ns3:TrackPointExtension>
            <ns3:atemp>29.0</ns3:atemp>
          </ns3:TrackPointExtension>
        </extensions>
      </trkpt>
      <trkpt lat="31.435460150241851806640625" lon="119.48237948119640350341796875">
        <ele>34.200000762939453125</ele>
        <time>2015-09-14T04:05:13.000Z</time>
        <extensions>
          <ns3:TrackPointExtension>
            <ns3:atemp>29.0</ns3:atemp>
          </ns3:TrackPointExtension>
        </extensions>
      </trkpt>
      <trkpt lat="31.435470543801784515380859375" lon="119.4824078120291233062744140625">
        <ele>34.200000762939453125</ele>
        <time>2015-09-14T04:05:14.000Z</time>
        <extensions>
          <ns3:TrackPointExtension>
            <ns3:atemp>29.0</ns3:atemp>
          </ns3:TrackPointExtension>
        </extensions>
      </trkpt>
      <trkpt lat="31.4354749023914337158203125" lon="119.48242566548287868499755859375">
        <ele>34.200000762939453125</ele>
        <time>2015-09-14T04:05:15.000Z</time>
        <extensions>
          <ns3:TrackPointExtension>
            <ns3:atemp>29.0</ns3:atemp>
          </ns3:TrackPointExtension>
        </extensions>
      </trkpt>
      <trkpt lat="31.43547113053500652313232421875" lon="119.482441842555999755859375">
        <ele>34.40000152587890625</ele>
        <time>2015-09-14T04:05:16.000Z</time>
        <extensions>
          <ns3:TrackPointExtension>
            <ns3:atemp>29.0</ns3:atemp>
          </ns3:TrackPointExtension>
        </extensions>
      </trkpt>
      <trkpt lat="31.43546677194535732269287109375" lon="119.482456929981708526611328125">
        <ele>34.59999847412109375</ele>
        <time>2015-09-14T04:05:17.000Z</time>
        <extensions>
          <ns3:TrackPointExtension>
            <ns3:atemp>29.0</ns3:atemp>
          </ns3:TrackPointExtension>
        </extensions>
      </trkpt>
      <trkpt lat="31.4354844577610492706298828125" lon="119.4824926368892192840576171875">
        <ele>35.799999237060546875</ele>
        <time>2015-09-14T04:05:25.000Z</time>
        <extensions>
          <ns3:TrackPointExtension>
            <ns3:atemp>29.0</ns3:atemp>
          </ns3:TrackPointExtension>
        </extensions>
      </trkpt>
    </trkseg>
  </trk>
</gpx>
