<gpx xmlns:ns3="http://www.garmin.com/xmlschemas/TrackPointExtension/v1" xmlns="http://www.topografix.com/GPX/1/1" xmlns:xsi="http://www.w3.org/2001/XMLSchema-instance" xmlns:ns2="http://www.garmin.com/xmlschemas/GpxExtensions/v3" creator="Garmin Connect" version="1.1" xsi:schemaLocation="http://www.topografix.com/GPX/1/1 http://www.topografix.com/GPX/11.xsd">
  <extensions>
<distance>3248.31</distance>
<average_hr></average_hr>
<average_speed>3.682891222895408</average_speed>
<start_time>2015-09-10T03:41:08+00:00</start_time>
<end_time>2015-09-10T03:55:50+00:00</end_time>
<moving_time>842.27</moving_time>
<elapsed_time>959.0</elapsed_time>
</extensions>
<metadata>
    <link href="connect.garmin.com">
      <text>Garmin Connect</text>
    </link>
    <time>2015-09-10T03:41:08.000Z</time>
  </metadata>
  <trk>
    <name>常州市 骑行</name>
    <type>cycling</type>
    <trkseg>
      <trkpt lat="31.409505419433116912841796875" lon="119.4875662028789520263671875">
        <ele>46.59999847412109375</ele>
        <time>2015-09-10T03:41:08.000Z</time>
        <extensions>
          <ns3:TrackPointExtension>
            <ns3:atemp>29.0</ns3:atemp>
          </ns3:TrackPointExtension>
        </extensions>
      </trkpt>
      <trkpt lat="31.40957591123878955841064453125" lon="119.4876294024288654327392578125">
        <ele>24.799999237060546875</ele>
        <time>2015-09-10T03:41:09.000Z</time>
        <extensions>
          <ns3:TrackPointExtension>
            <ns3:atemp>30.0</ns3:atemp>
          </ns3:TrackPointExtension>
        </extensions>
      </trkpt>
      <trkpt lat="31.40947968699038028717041015625" lon="119.48756578378379344940185546875">
        <ele>24.799999237060546875</ele>
        <time>2015-09-10T03:41:10.000Z</time>
        <extensions>
          <ns3:TrackPointExtension>
            <ns3:atemp>30.0</ns3:atemp>
          </ns3:TrackPointExtension>
        </extensions>
      </trkpt>
      <trkpt lat="31.409535594284534454345703125" lon="119.487610794603824615478515625">
        <ele>46.799999237060546875</ele>
        <time>2015-09-10T03:41:12.000Z</time>
        <extensions>
          <ns3:TrackPointExtension>
            <ns3:atemp>30.0</ns3:atemp>
          </ns3:TrackPointExtension>
        </extensions>
      </trkpt>
      <trkpt lat="31.40955361537635326385498046875" lon="119.48761691339313983917236328125">
        <ele>46.799999237060546875</ele>
        <time>2015-09-10T03:41:13.000Z</time>
        <extensions>
          <ns3:TrackPointExtension>
            <ns3:atemp>30.0</ns3:atemp>
          </ns3:TrackPointExtension>
        </extensions>
      </trkpt>
      <trkpt lat="31.409603990614414215087890625" lon="119.4876252114772796630859375">
        <ele>46.59999847412109375</ele>
        <time>2015-09-10T03:41:14.000Z</time>
        <extensions>
          <ns3:TrackPointExtension>
            <ns3:atemp>30.0</ns3:atemp>
          </ns3:TrackPointExtension>
        </extensions>
      </trkpt>
      <trkpt lat="31.40960155986249446868896484375" lon="119.4875811226665973663330078125">
        <ele>46.59999847412109375</ele>
        <time>2015-09-10T03:41:15.000Z</time>
        <extensions>
          <ns3:TrackPointExtension>
            <ns3:atemp>30.0</ns3:atemp>
          </ns3:TrackPointExtension>
        </extensions>
      </trkpt>
      <trkpt lat="31.4095930941402912139892578125" lon="119.4875294901430606842041015625">
        <ele>46.40000152587890625</ele>
        <time>2015-09-10T03:41:16.000Z</time>
        <extensions>
          <ns3:TrackPointExtension>
            <ns3:atemp>30.0</ns3:atemp>
          </ns3:TrackPointExtension>
        </extensions>
      </trkpt>
      <trkpt lat="31.4095686189830303192138671875" lon="119.487493447959423065185546875">
        <ele>46.40000152587890625</ele>
        <time>2015-09-10T03:41:17.000Z</time>
        <extensions>
          <ns3:TrackPointExtension>
            <ns3:atemp>30.0</ns3:atemp>
          </ns3:TrackPointExtension>
        </extensions>
      </trkpt>
      <trkpt lat="31.40954707749187946319580078125" lon="119.487447179853916168212890625">
        <ele>46.40000152587890625</ele>
        <time>2015-09-10T03:41:18.000Z</time>
        <extensions>
          <ns3:TrackPointExtension>
            <ns3:atemp>30.0</ns3:atemp>
          </ns3:TrackPointExtension>
        </extensions>
      </trkpt>
      <trkpt lat="31.40960155986249446868896484375" lon="119.48739630170166492462158203125">
        <ele>46.200000762939453125</ele>
        <time>2015-09-10T03:41:19.000Z</time>
        <extensions>
          <ns3:TrackPointExtension>
            <ns3:atemp>30.0</ns3:atemp>
          </ns3:TrackPointExtension>
        </extensions>
      </trkpt>
      <trkpt lat="31.40960164368152618408203125" lon="119.4873435795307159423828125">
        <ele>46.200000762939453125</ele>
        <time>2015-09-10T03:41:20.000Z</time>
        <extensions>
          <ns3:TrackPointExtension>
            <ns3:atemp>30.0</ns3:atemp>
          </ns3:TrackPointExtension>
        </extensions>
      </trkpt>
      <trkpt lat="31.40955311246216297149658203125" lon="119.4873846508562564849853515625">
        <ele>46.200000762939453125</ele>
        <time>2015-09-10T03:41:21.000Z</time>
        <extensions>
          <ns3:TrackPointExtension>
            <ns3:atemp>30.0</ns3:atemp>
          </ns3:TrackPointExtension>
        </extensions>
      </trkpt>
      <trkpt lat="31.40953232534229755401611328125" lon="119.487314410507678985595703125">
        <ele>46.40000152587890625</ele>
        <time>2015-09-10T03:41:22.000Z</time>
        <extensions>
          <ns3:TrackPointExtension>
            <ns3:atemp>30.0</ns3:atemp>
          </ns3:TrackPointExtension>
        </extensions>
      </trkpt>
      <trkpt lat="31.40956065617501735687255859375" lon="119.4872884266078472137451171875">
        <ele>46.40000152587890625</ele>
        <time>2015-09-10T03:41:23.000Z</time>
        <extensions>
          <ns3:TrackPointExtension>
            <ns3:atemp>30.0</ns3:atemp>
          </ns3:TrackPointExtension>
        </extensions>
      </trkpt>
      <trkpt lat="31.4095773361623287200927734375" lon="119.4872884266078472137451171875">
        <ele>46.200000762939453125</ele>
        <time>2015-09-10T03:41:24.000Z</time>
        <extensions>
          <ns3:TrackPointExtension>
            <ns3:atemp>30.0</ns3:atemp>
          </ns3:TrackPointExtension>
        </extensions>
      </trkpt>
      <trkpt lat="31.40960005111992359161376953125" lon="119.48725439608097076416015625">
        <ele>45.799999237060546875</ele>
        <time>2015-09-10T03:41:25.000Z</time>
        <extensions>
          <ns3:TrackPointExtension>
            <ns3:atemp>30.0</ns3:atemp>
          </ns3:TrackPointExtension>
        </extensions>
      </trkpt>
      <trkpt lat="31.409674398601055145263671875" lon="119.4872510433197021484375">
        <ele>45.59999847412109375</ele>
        <time>2015-09-10T03:41:26.000Z</time>
        <extensions>
          <ns3:TrackPointExtension>
            <ns3:atemp>30.0</ns3:atemp>
          </ns3:TrackPointExtension>
        </extensions>
      </trkpt>
      <trkpt lat="31.40969996340572834014892578125" lon="119.48724366724491119384765625">
        <ele>45.40000152587890625</ele>
        <time>2015-09-10T03:41:27.000Z</time>
        <extensions>
          <ns3:TrackPointExtension>
            <ns3:atemp>30.0</ns3:atemp>
          </ns3:TrackPointExtension>
        </extensions>
      </trkpt>
      <trkpt lat="31.40972234308719635009765625" lon="119.48723251931369304656982421875">
        <ele>45.59999847412109375</ele>
        <time>2015-09-10T03:41:28.000Z</time>
        <extensions>
          <ns3:TrackPointExtension>
            <ns3:atemp>30.0</ns3:atemp>
          </ns3:TrackPointExtension>
        </extensions>
      </trkpt>
      <trkpt lat="31.40974489040672779083251953125" lon="119.487223885953426361083984375">
        <ele>46</ele>
        <time>2015-09-10T03:41:29.000Z</time>
        <extensions>
          <ns3:TrackPointExtension>
            <ns3:atemp>30.0</ns3:atemp>
          </ns3:TrackPointExtension>
        </extensions>
      </trkpt>
      <trkpt lat="31.4097712934017181396484375" lon="119.48721877299249172210693359375">
        <ele>46.200000762939453125</ele>
        <time>2015-09-10T03:41:30.000Z</time>
        <extensions>
          <ns3:TrackPointExtension>
            <ns3:atemp>30.0</ns3:atemp>
          </ns3:TrackPointExtension>
        </extensions>
      </trkpt>
      <trkpt lat="31.409802138805389404296875" lon="119.48721642605960369110107421875">
        <ele>46</ele>
        <time>2015-09-10T03:41:31.000Z</time>
        <extensions>
          <ns3:TrackPointExtension>
            <ns3:atemp>30.0</ns3:atemp>
          </ns3:TrackPointExtension>
        </extensions>
      </trkpt>
      <trkpt lat="31.40983440913259983062744140625" lon="119.487214498221874237060546875">
        <ele>46</ele>
        <time>2015-09-10T03:41:32.000Z</time>
        <extensions>
          <ns3:TrackPointExtension>
            <ns3:atemp>30.0</ns3:atemp>
          </ns3:TrackPointExtension>
        </extensions>
      </trkpt>
      <trkpt lat="31.4098660089075565338134765625" lon="119.4872126542031764984130859375">
        <ele>45.799999237060546875</ele>
        <time>2015-09-10T03:41:33.000Z</time>
        <extensions>
          <ns3:TrackPointExtension>
            <ns3:atemp>30.0</ns3:atemp>
          </ns3:TrackPointExtension>
        </extensions>
      </trkpt>
      <trkpt lat="31.410462297499179840087890625" lon="119.48717485181987285614013671875">
        <ele>46.40000152587890625</ele>
        <time>2015-09-10T03:41:50.000Z</time>
        <extensions>
          <ns3:TrackPointExtension>
            <ns3:atemp>30.0</ns3:atemp>
          </ns3:TrackPointExtension>
        </extensions>
      </trkpt>
      <trkpt lat="31.41108146868646144866943359375" lon="119.4871459342539310455322265625">
        <ele>46.40000152587890625</ele>
        <time>2015-09-10T03:42:08.000Z</time>
        <extensions>
          <ns3:TrackPointExtension>
            <ns3:atemp>31.0</ns3:atemp>
          </ns3:TrackPointExtension>
        </extensions>
      </trkpt>
      <trkpt lat="31.41167909838259220123291015625" lon="119.48714886792004108428955078125">
        <ele>45.799999237060546875</ele>
        <time>2015-09-10T03:42:25.000Z</time>
        <extensions>
          <ns3:TrackPointExtension>
            <ns3:atemp>31.0</ns3:atemp>
          </ns3:TrackPointExtension>
        </extensions>
      </trkpt>
      <trkpt lat="31.41229030676186084747314453125" lon="119.487124644219875335693359375">
        <ele>46</ele>
        <time>2015-09-10T03:42:42.000Z</time>
        <extensions>
          <ns3:TrackPointExtension>
            <ns3:atemp>31.0</ns3:atemp>
          </ns3:TrackPointExtension>
        </extensions>
      </trkpt>
      <trkpt lat="31.41284669749438762664794921875" lon="119.48707225732505321502685546875">
        <ele>46.200000762939453125</ele>
        <time>2015-09-10T03:43:00.000Z</time>
        <extensions>
          <ns3:TrackPointExtension>
            <ns3:atemp>31.0</ns3:atemp>
          </ns3:TrackPointExtension>
        </extensions>
      </trkpt>
      <trkpt lat="31.4133968017995357513427734375" lon="119.48701542802155017852783203125">
        <ele>46.40000152587890625</ele>
        <time>2015-09-10T03:43:18.000Z</time>
        <extensions>
          <ns3:TrackPointExtension>
            <ns3:atemp>31.0</ns3:atemp>
          </ns3:TrackPointExtension>
        </extensions>
      </trkpt>
      <trkpt lat="31.414032988250255584716796875" lon="119.48700889013707637786865234375">
        <ele>46</ele>
        <time>2015-09-10T03:43:36.000Z</time>
        <extensions>
          <ns3:TrackPointExtension>
            <ns3:atemp>31.0</ns3:atemp>
          </ns3:TrackPointExtension>
        </extensions>
      </trkpt>
      <trkpt lat="31.41463941894471645355224609375" lon="119.486917443573474884033203125">
        <ele>46.40000152587890625</ele>
        <time>2015-09-10T03:43:56.000Z</time>
        <extensions>
          <ns3:TrackPointExtension>
            <ns3:atemp>31.0</ns3:atemp>
          </ns3:TrackPointExtension>
        </extensions>
      </trkpt>
      <trkpt lat="31.415273845195770263671875" lon="119.4869296811521053314208984375">
        <ele>46.59999847412109375</ele>
        <time>2015-09-10T03:44:14.000Z</time>
        <extensions>
          <ns3:TrackPointExtension>
            <ns3:atemp>31.0</ns3:atemp>
          </ns3:TrackPointExtension>
        </extensions>
      </trkpt>
      <trkpt lat="31.4159050025045871734619140625" lon="119.48689975775778293609619140625">
        <ele>46.59999847412109375</ele>
        <time>2015-09-10T03:44:34.000Z</time>
        <extensions>
          <ns3:TrackPointExtension>
            <ns3:atemp>31.0</ns3:atemp>
          </ns3:TrackPointExtension>
        </extensions>
      </trkpt>
      <trkpt lat="31.4164441265165805816650390625" lon="119.48681526817381381988525390625">
        <ele>46.40000152587890625</ele>
        <time>2015-09-10T03:44:50.000Z</time>
        <extensions>
          <ns3:TrackPointExtension>
            <ns3:atemp>32.0</ns3:atemp>
          </ns3:TrackPointExtension>
        </extensions>
      </trkpt>
      <trkpt lat="31.41706396825611591339111328125" lon="119.486724324524402618408203125">
        <ele>46.799999237060546875</ele>
        <time>2015-09-10T03:45:08.000Z</time>
        <extensions>
          <ns3:TrackPointExtension>
            <ns3:atemp>32.0</ns3:atemp>
          </ns3:TrackPointExtension>
        </extensions>
      </trkpt>
      <trkpt lat="31.41765036620199680328369140625" lon="119.48668601922690868377685546875">
        <ele>46.799999237060546875</ele>
        <time>2015-09-10T03:45:26.000Z</time>
        <extensions>
          <ns3:TrackPointExtension>
            <ns3:atemp>31.0</ns3:atemp>
          </ns3:TrackPointExtension>
        </extensions>
      </trkpt>
      <trkpt lat="31.41776989214122295379638671875" lon="119.48667101562023162841796875">
        <ele>46.799999237060546875</ele>
        <time>2015-09-10T03:45:30.000Z</time>
        <extensions>
          <ns3:TrackPointExtension>
            <ns3:atemp>31.0</ns3:atemp>
          </ns3:TrackPointExtension>
        </extensions>
      </trkpt>
      <trkpt lat="31.4182405360043048858642578125" lon="119.4867268390953540802001953125">
        <ele>47.59999847412109375</ele>
        <time>2015-09-10T03:45:59.000Z</time>
        <extensions>
          <ns3:TrackPointExtension>
            <ns3:atemp>31.0</ns3:atemp>
          </ns3:TrackPointExtension>
        </extensions>
      </trkpt>
      <trkpt lat="31.41824849881231784820556640625" lon="119.48673270642757415771484375">
        <ele>47.40000152587890625</ele>
        <time>2015-09-10T03:46:01.000Z</time>
        <extensions>
          <ns3:TrackPointExtension>
            <ns3:atemp>31.0</ns3:atemp>
          </ns3:TrackPointExtension>
        </extensions>
      </trkpt>
      <trkpt lat="31.418306417763233184814453125" lon="119.48674201034009456634521484375">
        <ele>47</ele>
        <time>2015-09-10T03:46:05.000Z</time>
        <extensions>
          <ns3:TrackPointExtension>
            <ns3:atemp>31.0</ns3:atemp>
          </ns3:TrackPointExtension>
        </extensions>
      </trkpt>
      <trkpt lat="31.41889725811779499053955078125" lon="119.48665249161422252655029296875">
        <ele>47</ele>
        <time>2015-09-10T03:46:24.000Z</time>
        <extensions>
          <ns3:TrackPointExtension>
            <ns3:atemp>31.0</ns3:atemp>
          </ns3:TrackPointExtension>
        </extensions>
      </trkpt>
      <trkpt lat="31.41950796358287334442138671875" lon="119.4865903817117214202880859375">
        <ele>46.59999847412109375</ele>
        <time>2015-09-10T03:46:43.000Z</time>
        <extensions>
          <ns3:TrackPointExtension>
            <ns3:atemp>31.0</ns3:atemp>
          </ns3:TrackPointExtension>
        </extensions>
      </trkpt>
      <trkpt lat="31.42015278339385986328125" lon="119.486562721431255340576171875">
        <ele>46.200000762939453125</ele>
        <time>2015-09-10T03:47:01.000Z</time>
        <extensions>
          <ns3:TrackPointExtension>
            <ns3:atemp>31.0</ns3:atemp>
          </ns3:TrackPointExtension>
        </extensions>
      </trkpt>
      <trkpt lat="31.42049166373908519744873046875" lon="119.48658744804561138153076171875">
        <ele>46.40000152587890625</ele>
        <time>2015-09-10T03:47:14.000Z</time>
        <extensions>
          <ns3:TrackPointExtension>
            <ns3:atemp>31.0</ns3:atemp>
          </ns3:TrackPointExtension>
        </extensions>
      </trkpt>
      <trkpt lat="31.4205536060035228729248046875" lon="119.48665651492774486541748046875">
        <ele>47.200000762939453125</ele>
        <time>2015-09-10T03:47:24.000Z</time>
        <extensions>
          <ns3:TrackPointExtension>
            <ns3:atemp>30.0</ns3:atemp>
          </ns3:TrackPointExtension>
        </extensions>
      </trkpt>
      <trkpt lat="31.42065159045159816741943359375" lon="119.4866711832582950592041015625">
        <ele>46.40000152587890625</ele>
        <time>2015-09-10T03:47:54.000Z</time>
        <extensions>
          <ns3:TrackPointExtension>
            <ns3:atemp>30.0</ns3:atemp>
          </ns3:TrackPointExtension>
        </extensions>
      </trkpt>
      <trkpt lat="31.420672126114368438720703125" lon="119.48666271753609180450439453125">
        <ele>46.40000152587890625</ele>
        <time>2015-09-10T03:47:55.000Z</time>
        <extensions>
          <ns3:TrackPointExtension>
            <ns3:atemp>30.0</ns3:atemp>
          </ns3:TrackPointExtension>
        </extensions>
      </trkpt>
      <trkpt lat="31.4213032834231853485107421875" lon="119.48657873086631298065185546875">
        <ele>46.200000762939453125</ele>
        <time>2015-09-10T03:48:13.000Z</time>
        <extensions>
          <ns3:TrackPointExtension>
            <ns3:atemp>31.0</ns3:atemp>
          </ns3:TrackPointExtension>
        </extensions>
      </trkpt>
      <trkpt lat="31.421921364963054656982421875" lon="119.48653011582791805267333984375">
        <ele>46.40000152587890625</ele>
        <time>2015-09-10T03:48:30.000Z</time>
        <extensions>
          <ns3:TrackPointExtension>
            <ns3:atemp>31.0</ns3:atemp>
          </ns3:TrackPointExtension>
        </extensions>
      </trkpt>
      <trkpt lat="31.42254087142646312713623046875" lon="119.48649675585329532623291015625">
        <ele>46.200000762939453125</ele>
        <time>2015-09-10T03:48:47.000Z</time>
        <extensions>
          <ns3:TrackPointExtension>
            <ns3:atemp>31.0</ns3:atemp>
          </ns3:TrackPointExtension>
        </extensions>
      </trkpt>
      <trkpt lat="31.423188038170337677001953125" lon="119.486466161906719207763671875">
        <ele>46.799999237060546875</ele>
        <time>2015-09-10T03:49:05.000Z</time>
        <extensions>
          <ns3:TrackPointExtension>
            <ns3:atemp>31.0</ns3:atemp>
          </ns3:TrackPointExtension>
        </extensions>
      </trkpt>
      <trkpt lat="31.42379723489284515380859375" lon="119.48643640615046024322509765625">
        <ele>46.59999847412109375</ele>
        <time>2015-09-10T03:49:23.000Z</time>
        <extensions>
          <ns3:TrackPointExtension>
            <ns3:atemp>31.0</ns3:atemp>
          </ns3:TrackPointExtension>
        </extensions>
      </trkpt>
      <trkpt lat="31.424305848777294158935546875" lon="119.48645384050905704498291015625">
        <ele>48</ele>
        <time>2015-09-10T03:49:50.000Z</time>
        <extensions>
          <ns3:TrackPointExtension>
            <ns3:atemp>31.0</ns3:atemp>
          </ns3:TrackPointExtension>
        </extensions>
      </trkpt>
      <trkpt lat="31.42447642050683498382568359375" lon="119.48641528375446796417236328125">
        <ele>48</ele>
        <time>2015-09-10T03:50:37.000Z</time>
        <extensions>
          <ns3:TrackPointExtension>
            <ns3:atemp>31.0</ns3:atemp>
          </ns3:TrackPointExtension>
        </extensions>
      </trkpt>
      <trkpt lat="31.4244937710464000701904296875" lon="119.4864130206406116485595703125">
        <ele>48</ele>
        <time>2015-09-10T03:50:38.000Z</time>
        <extensions>
          <ns3:TrackPointExtension>
            <ns3:atemp>31.0</ns3:atemp>
          </ns3:TrackPointExtension>
        </extensions>
      </trkpt>
      <trkpt lat="31.4245162345468997955322265625" lon="119.48641084134578704833984375">
        <ele>48</ele>
        <time>2015-09-10T03:50:39.000Z</time>
        <extensions>
          <ns3:TrackPointExtension>
            <ns3:atemp>31.0</ns3:atemp>
          </ns3:TrackPointExtension>
        </extensions>
      </trkpt>
      <trkpt lat="31.4250952564179897308349609375" lon="119.48628477752208709716796875">
        <ele>47.40000152587890625</ele>
        <time>2015-09-10T03:50:58.000Z</time>
        <extensions>
          <ns3:TrackPointExtension>
            <ns3:atemp>32.0</ns3:atemp>
          </ns3:TrackPointExtension>
        </extensions>
      </trkpt>
      <trkpt lat="31.42565558664500713348388671875" lon="119.48611445724964141845703125">
        <ele>48.200000762939453125</ele>
        <time>2015-09-10T03:51:16.000Z</time>
        <extensions>
          <ns3:TrackPointExtension>
            <ns3:atemp>32.0</ns3:atemp>
          </ns3:TrackPointExtension>
        </extensions>
      </trkpt>
      <trkpt lat="31.4262750931084156036376953125" lon="119.48597338981926441192626953125">
        <ele>48.200000762939453125</ele>
        <time>2015-09-10T03:51:34.000Z</time>
        <extensions>
          <ns3:TrackPointExtension>
            <ns3:atemp>31.0</ns3:atemp>
          </ns3:TrackPointExtension>
        </extensions>
      </trkpt>
      <trkpt lat="31.42680156044661998748779296875" lon="119.485999457538127899169921875">
        <ele>48.200000762939453125</ele>
        <time>2015-09-10T03:51:48.000Z</time>
        <extensions>
          <ns3:TrackPointExtension>
            <ns3:atemp>31.0</ns3:atemp>
          </ns3:TrackPointExtension>
        </extensions>
      </trkpt>
      <trkpt lat="31.4269590564072132110595703125" lon="119.4859523512423038482666015625">
        <ele>48.200000762939453125</ele>
        <time>2015-09-10T03:51:53.000Z</time>
        <extensions>
          <ns3:TrackPointExtension>
            <ns3:atemp>32.0</ns3:atemp>
          </ns3:TrackPointExtension>
        </extensions>
      </trkpt>
      <trkpt lat="31.4278119988739490509033203125" lon="119.4860951788723468780517578125">
        <ele>47.799999237060546875</ele>
        <time>2015-09-10T03:52:10.000Z</time>
        <extensions>
          <ns3:TrackPointExtension>
            <ns3:atemp>32.0</ns3:atemp>
          </ns3:TrackPointExtension>
        </extensions>
      </trkpt>
      <trkpt lat="31.4284099638462066650390625" lon="119.4859895668923854827880859375">
        <ele>47.200000762939453125</ele>
        <time>2015-09-10T03:52:27.000Z</time>
        <extensions>
          <ns3:TrackPointExtension>
            <ns3:atemp>32.0</ns3:atemp>
          </ns3:TrackPointExtension>
        </extensions>
      </trkpt>
      <trkpt lat="31.42857919447124004364013671875" lon="119.48596433736383914947509765625">
        <ele>47</ele>
        <time>2015-09-10T03:52:31.000Z</time>
        <extensions>
          <ns3:TrackPointExtension>
            <ns3:atemp>32.0</ns3:atemp>
          </ns3:TrackPointExtension>
        </extensions>
      </trkpt>
      <trkpt lat="31.42919115722179412841796875" lon="119.4858269579708576202392578125">
        <ele>47</ele>
        <time>2015-09-10T03:52:46.000Z</time>
        <extensions>
          <ns3:TrackPointExtension>
            <ns3:atemp>32.0</ns3:atemp>
          </ns3:TrackPointExtension>
        </extensions>
      </trkpt>
      <trkpt lat="31.4297441951930522918701171875" lon="119.48563945479691028594970703125">
        <ele>48</ele>
        <time>2015-09-10T03:53:04.000Z</time>
        <extensions>
          <ns3:TrackPointExtension>
            <ns3:atemp>33.0</ns3:atemp>
          </ns3:TrackPointExtension>
        </extensions>
      </trkpt>
      <trkpt lat="31.430433355271816253662109375" lon="119.485458321869373321533203125">
        <ele>47.40000152587890625</ele>
        <time>2015-09-10T03:53:25.000Z</time>
        <extensions>
          <ns3:TrackPointExtension>
            <ns3:atemp>32.0</ns3:atemp>
          </ns3:TrackPointExtension>
        </extensions>
      </trkpt>
      <trkpt lat="31.4309880696237087249755859375" lon="119.4852112233638763427734375">
        <ele>47.799999237060546875</ele>
        <time>2015-09-10T03:53:41.000Z</time>
        <extensions>
          <ns3:TrackPointExtension>
            <ns3:atemp>32.0</ns3:atemp>
          </ns3:TrackPointExtension>
        </extensions>
      </trkpt>
      <trkpt lat="31.43150766380131244659423828125" lon="119.48490452952682971954345703125">
        <ele>48.40000152587890625</ele>
        <time>2015-09-10T03:54:02.000Z</time>
        <extensions>
          <ns3:TrackPointExtension>
            <ns3:atemp>32.0</ns3:atemp>
          </ns3:TrackPointExtension>
        </extensions>
      </trkpt>
      <trkpt lat="31.43204092048108577728271484375" lon="119.48453606106340885162353515625">
        <ele>47.799999237060546875</ele>
        <time>2015-09-10T03:54:21.000Z</time>
        <extensions>
          <ns3:TrackPointExtension>
            <ns3:atemp>32.0</ns3:atemp>
          </ns3:TrackPointExtension>
        </extensions>
      </trkpt>
      <trkpt lat="31.43244710750877857208251953125" lon="119.4840908981859683990478515625">
        <ele>47.799999237060546875</ele>
        <time>2015-09-10T03:54:38.000Z</time>
        <extensions>
          <ns3:TrackPointExtension>
            <ns3:atemp>32.0</ns3:atemp>
          </ns3:TrackPointExtension>
        </extensions>
      </trkpt>
      <trkpt lat="31.43280417658388614654541015625" lon="119.4835859723389148712158203125">
        <ele>47.59999847412109375</ele>
        <time>2015-09-10T03:54:55.000Z</time>
        <extensions>
          <ns3:TrackPointExtension>
            <ns3:atemp>32.0</ns3:atemp>
          </ns3:TrackPointExtension>
        </extensions>
      </trkpt>
      <trkpt lat="31.43293309025466442108154296875" lon="119.48343082331120967864990234375">
        <ele>47.59999847412109375</ele>
        <time>2015-09-10T03:55:01.000Z</time>
        <extensions>
          <ns3:TrackPointExtension>
            <ns3:atemp>31.0</ns3:atemp>
          </ns3:TrackPointExtension>
        </extensions>
      </trkpt>
      <trkpt lat="31.432968042790889739990234375" lon="119.4834463298320770263671875">
        <ele>47.59999847412109375</ele>
        <time>2015-09-10T03:55:02.000Z</time>
        <extensions>
          <ns3:TrackPointExtension>
            <ns3:atemp>31.0</ns3:atemp>
          </ns3:TrackPointExtension>
        </extensions>
      </trkpt>
      <trkpt lat="31.432996876537799835205078125" lon="119.483470804989337921142578125">
        <ele>47.59999847412109375</ele>
        <time>2015-09-10T03:55:03.000Z</time>
        <extensions>
          <ns3:TrackPointExtension>
            <ns3:atemp>31.0</ns3:atemp>
          </ns3:TrackPointExtension>
        </extensions>
      </trkpt>
      <trkpt lat="31.43342636525630950927734375" lon="119.4838632456958293914794921875">
        <ele>47.59999847412109375</ele>
        <time>2015-09-10T03:55:19.000Z</time>
        <extensions>
          <ns3:TrackPointExtension>
            <ns3:atemp>31.0</ns3:atemp>
          </ns3:TrackPointExtension>
        </extensions>
      </trkpt>
      <trkpt lat="31.43369986675679683685302734375" lon="119.48411981575191020965576171875">
        <ele>46.200000762939453125</ele>
        <time>2015-09-10T03:55:27.000Z</time>
        <extensions>
          <ns3:TrackPointExtension>
            <ns3:atemp>31.0</ns3:atemp>
          </ns3:TrackPointExtension>
        </extensions>
      </trkpt>
      <trkpt lat="31.433740518987178802490234375" lon="119.48414546437561511993408203125">
        <ele>46</ele>
        <time>2015-09-10T03:55:28.000Z</time>
        <extensions>
          <ns3:TrackPointExtension>
            <ns3:atemp>31.0</ns3:atemp>
          </ns3:TrackPointExtension>
        </extensions>
      </trkpt>
      <trkpt lat="31.4338147826492786407470703125" lon="119.48419508524239063262939453125">
        <ele>46</ele>
        <time>2015-09-10T03:55:30.000Z</time>
        <extensions>
          <ns3:TrackPointExtension>
            <ns3:atemp>31.0</ns3:atemp>
          </ns3:TrackPointExtension>
        </extensions>
      </trkpt>
      <trkpt lat="31.43384990282356739044189453125" lon="119.4842189736664295196533203125">
        <ele>46</ele>
        <time>2015-09-10T03:55:31.000Z</time>
        <extensions>
          <ns3:TrackPointExtension>
            <ns3:atemp>31.0</ns3:atemp>
          </ns3:TrackPointExtension>
        </extensions>
      </trkpt>
      <trkpt lat="31.434397660195827484130859375" lon="119.48445014655590057373046875">
        <ele>46</ele>
        <time>2015-09-10T03:55:46.000Z</time>
        <extensions>
          <ns3:TrackPointExtension>
            <ns3:atemp>31.0</ns3:atemp>
          </ns3:TrackPointExtension>
        </extensions>
      </trkpt>
      <trkpt lat="31.4347364567220211029052734375" lon="119.48449281044304370880126953125">
        <ele>45.40000152587890625</ele>
        <time>2015-09-10T03:55:55.000Z</time>
        <extensions>
          <ns3:TrackPointExtension>
            <ns3:atemp>31.0</ns3:atemp>
          </ns3:TrackPointExtension>
        </extensions>
      </trkpt>
      <trkpt lat="31.43489194102585315704345703125" lon="119.48448141105473041534423828125">
        <ele>45.40000152587890625</ele>
        <time>2015-09-10T03:55:59.000Z</time>
        <extensions>
          <ns3:TrackPointExtension>
            <ns3:atemp>31.0</ns3:atemp>
          </ns3:TrackPointExtension>
        </extensions>
      </trkpt>
      <trkpt lat="31.435439027845859527587890625" lon="119.48430203832685947418212890625">
        <ele>45.799999237060546875</ele>
        <time>2015-09-10T03:56:15.000Z</time>
        <extensions>
          <ns3:TrackPointExtension>
            <ns3:atemp>31.0</ns3:atemp>
          </ns3:TrackPointExtension>
        </extensions>
      </trkpt>
      <trkpt lat="31.43570498563349246978759765625" lon="119.483821503818035125732421875">
        <ele>46</ele>
        <time>2015-09-10T03:56:35.000Z</time>
        <extensions>
          <ns3:TrackPointExtension>
            <ns3:atemp>31.0</ns3:atemp>
          </ns3:TrackPointExtension>
        </extensions>
      </trkpt>
      <trkpt lat="31.4357845298945903778076171875" lon="119.48317215777933597564697265625">
        <ele>46.200000762939453125</ele>
        <time>2015-09-10T03:56:55.000Z</time>
        <extensions>
          <ns3:TrackPointExtension>
            <ns3:atemp>30.0</ns3:atemp>
          </ns3:TrackPointExtension>
        </extensions>
      </trkpt>
      <trkpt lat="31.4357416145503520965576171875" lon="119.4827658869326114654541015625">
        <ele>46.59999847412109375</ele>
        <time>2015-09-10T03:57:07.000Z</time>
        <extensions>
          <ns3:TrackPointExtension>
            <ns3:atemp>30.0</ns3:atemp>
          </ns3:TrackPointExtension>
        </extensions>
      </trkpt>
    </trkseg>
  </trk>
</gpx>
