<gpx xmlns:ns3="http://www.garmin.com/xmlschemas/TrackPointExtension/v1" xmlns="http://www.topografix.com/GPX/1/1" xmlns:xsi="http://www.w3.org/2001/XMLSchema-instance" xmlns:ns2="http://www.garmin.com/xmlschemas/GpxExtensions/v3" creator="Garmin Connect" version="1.1" xsi:schemaLocation="http://www.topografix.com/GPX/1/1 http://www.topografix.com/GPX/11.xsd">
  <extensions>
<distance>65.84</distance>
<average_hr>81.0</average_hr>
<average_speed>1.468999981880188</average_speed>
<start_time>2016-08-25T03:11:50+00:00</start_time>
<end_time>2016-08-25T03:12:34.806000+00:00</end_time>
<moving_time>42.0</moving_time>
<elapsed_time>44.806</elapsed_time>
</extensions>
<metadata>
    <link href="connect.garmin.com">
      <text>Garmin Connect</text>
    </link>
    <time>2016-08-25T03:11:50.000Z</time>
  </metadata>
  <trk>
    <name>常州市 跑步</name>
    <type>running</type>
    <trkseg>
      <trkpt lat="31.42651489935815334320068359375" lon="119.48789200745522975921630859375">
        <ele>12.3999996185302734375</ele>
        <time>2016-08-25T03:11:50.000Z</time>
        <extensions>
          <ns3:TrackPointExtension>
            <ns3:hr>74</ns3:hr>
            <ns3:cad>0</ns3:cad>
          </ns3:TrackPointExtension>
        </extensions>
      </trkpt>
      <trkpt lat="31.42651657573878765106201171875" lon="119.48791530914604663848876953125">
        <ele>12.6000003814697265625</ele>
        <time>2016-08-25T03:11:51.000Z</time>
        <extensions>
          <ns3:TrackPointExtension>
            <ns3:hr>74</ns3:hr>
            <ns3:cad>0</ns3:cad>
          </ns3:TrackPointExtension>
        </extensions>
      </trkpt>
      <trkpt lat="31.42651758156716823577880859375" lon="119.48793701827526092529296875">
        <ele>12.6000003814697265625</ele>
        <time>2016-08-25T03:11:52.000Z</time>
        <extensions>
          <ns3:TrackPointExtension>
            <ns3:hr>69</ns3:hr>
            <ns3:cad>0</ns3:cad>
          </ns3:TrackPointExtension>
        </extensions>
      </trkpt>
      <trkpt lat="31.4265151508152484893798828125" lon="119.48795621283352375030517578125">
        <ele>12.6000003814697265625</ele>
        <time>2016-08-25T03:11:53.000Z</time>
        <extensions>
          <ns3:TrackPointExtension>
            <ns3:hr>71</ns3:hr>
            <ns3:cad>0</ns3:cad>
          </ns3:TrackPointExtension>
        </extensions>
      </trkpt>
      <trkpt lat="31.42652235925197601318359375" lon="119.4879744015634059906005859375">
        <ele>12.80000019073486328125</ele>
        <time>2016-08-25T03:11:54.000Z</time>
        <extensions>
          <ns3:TrackPointExtension>
            <ns3:hr>82</ns3:hr>
            <ns3:cad>0</ns3:cad>
          </ns3:TrackPointExtension>
        </extensions>
      </trkpt>
      <trkpt lat="31.426521353423595428466796875" lon="119.48799175210297107696533203125">
        <ele>12.80000019073486328125</ele>
        <time>2016-08-25T03:11:55.000Z</time>
        <extensions>
          <ns3:TrackPointExtension>
            <ns3:hr>81</ns3:hr>
            <ns3:cad>0</ns3:cad>
          </ns3:TrackPointExtension>
        </extensions>
      </trkpt>
      <trkpt lat="31.4265238679945468902587890625" lon="119.488070793449878692626953125">
        <ele>13</ele>
        <time>2016-08-25T03:12:00.000Z</time>
        <extensions>
          <ns3:TrackPointExtension>
            <ns3:hr>78</ns3:hr>
            <ns3:cad>0</ns3:cad>
          </ns3:TrackPointExtension>
        </extensions>
      </trkpt>
      <trkpt lat="31.42653417773544788360595703125" lon="119.48810256086289882659912109375">
        <ele>12.80000019073486328125</ele>
        <time>2016-08-25T03:12:02.000Z</time>
        <extensions>
          <ns3:TrackPointExtension>
            <ns3:hr>77</ns3:hr>
            <ns3:cad>0</ns3:cad>
          </ns3:TrackPointExtension>
        </extensions>
      </trkpt>
      <trkpt lat="31.42652906477451324462890625" lon="119.48813960887491703033447265625">
        <ele>12.6000003814697265625</ele>
        <time>2016-08-25T03:12:04.000Z</time>
        <extensions>
          <ns3:TrackPointExtension>
            <ns3:hr>74</ns3:hr>
            <ns3:cad>0</ns3:cad>
          </ns3:TrackPointExtension>
        </extensions>
      </trkpt>
      <trkpt lat="31.426525376737117767333984375" lon="119.48821923695504665374755859375">
        <ele>12.3999996185302734375</ele>
        <time>2016-08-25T03:12:09.000Z</time>
        <extensions>
          <ns3:TrackPointExtension>
            <ns3:hr>69</ns3:hr>
            <ns3:cad>52</ns3:cad>
          </ns3:TrackPointExtension>
        </extensions>
      </trkpt>
      <trkpt lat="31.42651791684329509735107421875" lon="119.48826114647090435028076171875">
        <ele>12.19999980926513671875</ele>
        <time>2016-08-25T03:12:12.000Z</time>
        <extensions>
          <ns3:TrackPointExtension>
            <ns3:hr>75</ns3:hr>
            <ns3:cad>52</ns3:cad>
          </ns3:TrackPointExtension>
        </extensions>
      </trkpt>
      <trkpt lat="31.42651875503361225128173828125" lon="119.48827204294502735137939453125">
        <ele>12.19999980926513671875</ele>
        <time>2016-08-25T03:12:13.000Z</time>
        <extensions>
          <ns3:TrackPointExtension>
            <ns3:hr>75</ns3:hr>
            <ns3:cad>52</ns3:cad>
          </ns3:TrackPointExtension>
        </extensions>
      </trkpt>
      <trkpt lat="31.42651875503361225128173828125" lon="119.488299787044525146484375">
        <ele>12.19999980926513671875</ele>
        <time>2016-08-25T03:12:15.000Z</time>
        <extensions>
          <ns3:TrackPointExtension>
            <ns3:hr>78</ns3:hr>
            <ns3:cad>52</ns3:cad>
          </ns3:TrackPointExtension>
        </extensions>
      </trkpt>
      <trkpt lat="31.42650685273110866546630859375" lon="119.4883489049971103668212890625">
        <ele>12</ele>
        <time>2016-08-25T03:12:19.000Z</time>
        <extensions>
          <ns3:TrackPointExtension>
            <ns3:hr>81</ns3:hr>
            <ns3:cad>52</ns3:cad>
          </ns3:TrackPointExtension>
        </extensions>
      </trkpt>
      <trkpt lat="31.42652076669037342071533203125" lon="119.48830875568091869354248046875">
        <ele>12</ele>
        <time>2016-08-25T03:12:23.000Z</time>
        <extensions>
          <ns3:TrackPointExtension>
            <ns3:hr>84</ns3:hr>
            <ns3:cad>60</ns3:cad>
          </ns3:TrackPointExtension>
        </extensions>
      </trkpt>
      <trkpt lat="31.4265190064907073974609375" lon="119.4882935844361782073974609375">
        <ele>12.19999980926513671875</ele>
        <time>2016-08-25T03:12:24.000Z</time>
        <extensions>
          <ns3:TrackPointExtension>
            <ns3:hr>85</ns3:hr>
            <ns3:cad>60</ns3:cad>
          </ns3:TrackPointExtension>
        </extensions>
      </trkpt>
      <trkpt lat="31.4265238679945468902587890625" lon="119.48823968879878520965576171875">
        <ele>12.3999996185302734375</ele>
        <time>2016-08-25T03:12:28.000Z</time>
        <extensions>
          <ns3:TrackPointExtension>
            <ns3:hr>88</ns3:hr>
            <ns3:cad>60</ns3:cad>
          </ns3:TrackPointExtension>
        </extensions>
      </trkpt>
      <trkpt lat="31.42652638256549835205078125" lon="119.48822476901113986968994140625">
        <ele>12.3999996185302734375</ele>
        <time>2016-08-25T03:12:29.000Z</time>
        <extensions>
          <ns3:TrackPointExtension>
            <ns3:hr>92</ns3:hr>
            <ns3:cad>60</ns3:cad>
          </ns3:TrackPointExtension>
        </extensions>
      </trkpt>
      <trkpt lat="31.42653149552643299102783203125" lon="119.48817498050630092620849609375">
        <ele>12.6000003814697265625</ele>
        <time>2016-08-25T03:12:32.000Z</time>
        <extensions>
          <ns3:TrackPointExtension>
            <ns3:hr>99</ns3:hr>
            <ns3:cad>60</ns3:cad>
          </ns3:TrackPointExtension>
        </extensions>
      </trkpt>
      <trkpt lat="31.42653451301157474517822265625" lon="119.48815922252833843231201171875">
        <ele>12.6000003814697265625</ele>
        <time>2016-08-25T03:12:33.000Z</time>
        <extensions>
          <ns3:TrackPointExtension>
            <ns3:hr>103</ns3:hr>
            <ns3:cad>60</ns3:cad>
          </ns3:TrackPointExtension>
        </extensions>
      </trkpt>
      <trkpt lat="31.426542140543460845947265625" lon="119.48812368325889110565185546875">
        <ele>12.80000019073486328125</ele>
        <time>2016-08-25T03:12:34.000Z</time>
        <extensions>
          <ns3:TrackPointExtension>
            <ns3:hr>103</ns3:hr>
            <ns3:cad>60</ns3:cad>
          </ns3:TrackPointExtension>
        </extensions>
      </trkpt>
    </trkseg>
  </trk>
</gpx>
