<gpx xmlns:ns3="http://www.garmin.com/xmlschemas/TrackPointExtension/v1" xmlns="http://www.topografix.com/GPX/1/1" xmlns:xsi="http://www.w3.org/2001/XMLSchema-instance" xmlns:ns2="http://www.garmin.com/xmlschemas/GpxExtensions/v3" creator="Garmin Connect" version="1.1" xsi:schemaLocation="http://www.topografix.com/GPX/1/1 http://www.topografix.com/GPX/11.xsd">
  <extensions>
<distance>824.78</distance>
<average_hr>109.0</average_hr>
<average_speed>4.144623262798367</average_speed>
<start_time>2016-04-13T08:21:40+00:00</start_time>
<end_time>2016-04-13T08:24:59+00:00</end_time>
<moving_time>198.0</moving_time>
<elapsed_time>199.0</elapsed_time>
</extensions>
<metadata>
    <link href="connect.garmin.com">
      <text>Garmin Connect</text>
    </link>
    <time>2016-04-13T08:21:40.000Z</time>
  </metadata>
  <trk>
    <name>常州市 骑行</name>
    <type>cycling</type>
    <trkseg>
      <trkpt lat="31.41015593893826007843017578125" lon="119.479690231382846832275390625">
        <ele>30.3999996185302734375</ele>
        <time>2016-04-13T08:21:40.000Z</time>
        <extensions>
          <ns3:TrackPointExtension>
            <ns3:atemp>27.0</ns3:atemp>
            <ns3:hr>77</ns3:hr>
          </ns3:TrackPointExtension>
        </extensions>
      </trkpt>
      <trkpt lat="31.410153172910213470458984375" lon="119.479692243039608001708984375">
        <ele>130.8000030517578125</ele>
        <time>2016-04-13T08:21:41.000Z</time>
        <extensions>
          <ns3:TrackPointExtension>
            <ns3:atemp>29.0</ns3:atemp>
            <ns3:hr>77</ns3:hr>
          </ns3:TrackPointExtension>
        </extensions>
      </trkpt>
      <trkpt lat="31.41014881432056427001953125" lon="119.47969249449670314788818359375">
        <ele>130.8000030517578125</ele>
        <time>2016-04-13T08:21:42.000Z</time>
        <extensions>
          <ns3:TrackPointExtension>
            <ns3:atemp>29.0</ns3:atemp>
            <ns3:hr>77</ns3:hr>
          </ns3:TrackPointExtension>
        </extensions>
      </trkpt>
      <trkpt lat="31.4101446233689785003662109375" lon="119.47969182394444942474365234375">
        <ele>130.8000030517578125</ele>
        <time>2016-04-13T08:21:43.000Z</time>
        <extensions>
          <ns3:TrackPointExtension>
            <ns3:atemp>29.0</ns3:atemp>
            <ns3:hr>77</ns3:hr>
          </ns3:TrackPointExtension>
        </extensions>
      </trkpt>
      <trkpt lat="31.41014001332223415374755859375" lon="119.47969132103025913238525390625">
        <ele>31.799999237060546875</ele>
        <time>2016-04-13T08:21:44.000Z</time>
        <extensions>
          <ns3:TrackPointExtension>
            <ns3:atemp>29.0</ns3:atemp>
            <ns3:hr>76</ns3:hr>
          </ns3:TrackPointExtension>
        </extensions>
      </trkpt>
      <trkpt lat="31.41013800166547298431396484375" lon="119.4796910695731639862060546875">
        <ele>31.799999237060546875</ele>
        <time>2016-04-13T08:21:45.000Z</time>
        <extensions>
          <ns3:TrackPointExtension>
            <ns3:atemp>29.0</ns3:atemp>
            <ns3:hr>76</ns3:hr>
          </ns3:TrackPointExtension>
        </extensions>
      </trkpt>
      <trkpt lat="31.41013230197131633758544921875" lon="119.47968511842191219329833984375">
        <ele>31.799999237060546875</ele>
        <time>2016-04-13T08:21:46.000Z</time>
        <extensions>
          <ns3:TrackPointExtension>
            <ns3:atemp>29.0</ns3:atemp>
            <ns3:hr>75</ns3:hr>
          </ns3:TrackPointExtension>
        </extensions>
      </trkpt>
      <trkpt lat="31.41013112850487232208251953125" lon="119.47967891581356525421142578125">
        <ele>31.3999996185302734375</ele>
        <time>2016-04-13T08:21:47.000Z</time>
        <extensions>
          <ns3:TrackPointExtension>
            <ns3:atemp>29.0</ns3:atemp>
            <ns3:hr>76</ns3:hr>
          </ns3:TrackPointExtension>
        </extensions>
      </trkpt>
      <trkpt lat="31.4101275242865085601806640625" lon="119.479672797024250030517578125">
        <ele>30.799999237060546875</ele>
        <time>2016-04-13T08:21:48.000Z</time>
        <extensions>
          <ns3:TrackPointExtension>
            <ns3:atemp>29.0</ns3:atemp>
            <ns3:hr>77</ns3:hr>
          </ns3:TrackPointExtension>
        </extensions>
      </trkpt>
      <trkpt lat="31.410127021372318267822265625" lon="119.4796672649681568145751953125">
        <ele>30.200000762939453125</ele>
        <time>2016-04-13T08:21:49.000Z</time>
        <extensions>
          <ns3:TrackPointExtension>
            <ns3:atemp>29.0</ns3:atemp>
            <ns3:hr>78</ns3:hr>
          </ns3:TrackPointExtension>
        </extensions>
      </trkpt>
      <trkpt lat="31.41012132167816162109375" lon="119.4796665944159030914306640625">
        <ele>29.799999237060546875</ele>
        <time>2016-04-13T08:21:50.000Z</time>
        <extensions>
          <ns3:TrackPointExtension>
            <ns3:atemp>29.0</ns3:atemp>
            <ns3:hr>80</ns3:hr>
          </ns3:TrackPointExtension>
        </extensions>
      </trkpt>
      <trkpt lat="31.41011922620236873626708984375" lon="119.47966768406331539154052734375">
        <ele>29.6000003814697265625</ele>
        <time>2016-04-13T08:21:51.000Z</time>
        <extensions>
          <ns3:TrackPointExtension>
            <ns3:atemp>29.0</ns3:atemp>
            <ns3:hr>82</ns3:hr>
          </ns3:TrackPointExtension>
        </extensions>
      </trkpt>
      <trkpt lat="31.4101171307265758514404296875" lon="119.47967489250004291534423828125">
        <ele>29.799999237060546875</ele>
        <time>2016-04-13T08:21:52.000Z</time>
        <extensions>
          <ns3:TrackPointExtension>
            <ns3:atemp>29.0</ns3:atemp>
            <ns3:hr>83</ns3:hr>
          </ns3:TrackPointExtension>
        </extensions>
      </trkpt>
      <trkpt lat="31.41010229475796222686767578125" lon="119.47969433851540088653564453125">
        <ele>30</ele>
        <time>2016-04-13T08:21:53.000Z</time>
        <extensions>
          <ns3:TrackPointExtension>
            <ns3:atemp>29.0</ns3:atemp>
            <ns3:hr>85</ns3:hr>
          </ns3:TrackPointExtension>
        </extensions>
      </trkpt>
      <trkpt lat="31.41009843908250331878662109375" lon="119.4797088392078876495361328125">
        <ele>30</ele>
        <time>2016-04-13T08:21:54.000Z</time>
        <extensions>
          <ns3:TrackPointExtension>
            <ns3:atemp>29.0</ns3:atemp>
            <ns3:hr>86</ns3:hr>
          </ns3:TrackPointExtension>
        </extensions>
      </trkpt>
      <trkpt lat="31.41008787788450717926025390625" lon="119.47971646673977375030517578125">
        <ele>29.799999237060546875</ele>
        <time>2016-04-13T08:21:55.000Z</time>
        <extensions>
          <ns3:TrackPointExtension>
            <ns3:atemp>29.0</ns3:atemp>
            <ns3:hr>88</ns3:hr>
          </ns3:TrackPointExtension>
        </extensions>
      </trkpt>
      <trkpt lat="31.410071365535259246826171875" lon="119.4797427020967006683349609375">
        <ele>29.6000003814697265625</ele>
        <time>2016-04-13T08:21:56.000Z</time>
        <extensions>
          <ns3:TrackPointExtension>
            <ns3:atemp>29.0</ns3:atemp>
            <ns3:hr>89</ns3:hr>
          </ns3:TrackPointExtension>
        </extensions>
      </trkpt>
      <trkpt lat="31.410062313079833984375" lon="119.4797668419778347015380859375">
        <ele>29.6000003814697265625</ele>
        <time>2016-04-13T08:21:57.000Z</time>
        <extensions>
          <ns3:TrackPointExtension>
            <ns3:atemp>29.0</ns3:atemp>
            <ns3:hr>90</ns3:hr>
          </ns3:TrackPointExtension>
        </extensions>
      </trkpt>
      <trkpt lat="31.410054266452789306640625" lon="119.47980531491339206695556640625">
        <ele>29.3999996185302734375</ele>
        <time>2016-04-13T08:21:58.000Z</time>
        <extensions>
          <ns3:TrackPointExtension>
            <ns3:atemp>29.0</ns3:atemp>
            <ns3:hr>90</ns3:hr>
          </ns3:TrackPointExtension>
        </extensions>
      </trkpt>
      <trkpt lat="31.41005015932023525238037109375" lon="119.47983699850738048553466796875">
        <ele>29.3999996185302734375</ele>
        <time>2016-04-13T08:21:59.000Z</time>
        <extensions>
          <ns3:TrackPointExtension>
            <ns3:atemp>29.0</ns3:atemp>
            <ns3:hr>91</ns3:hr>
          </ns3:TrackPointExtension>
        </extensions>
      </trkpt>
      <trkpt lat="31.41003993339836597442626953125" lon="119.479865916073322296142578125">
        <ele>29.3999996185302734375</ele>
        <time>2016-04-13T08:22:00.000Z</time>
        <extensions>
          <ns3:TrackPointExtension>
            <ns3:atemp>29.0</ns3:atemp>
            <ns3:hr>91</ns3:hr>
          </ns3:TrackPointExtension>
        </extensions>
      </trkpt>
      <trkpt lat="31.41002543270587921142578125" lon="119.4799066521227359771728515625">
        <ele>29.6000003814697265625</ele>
        <time>2016-04-13T08:22:01.000Z</time>
        <extensions>
          <ns3:TrackPointExtension>
            <ns3:atemp>29.0</ns3:atemp>
            <ns3:hr>92</ns3:hr>
          </ns3:TrackPointExtension>
        </extensions>
      </trkpt>
      <trkpt lat="31.41001897864043712615966796875" lon="119.4799532555043697357177734375">
        <ele>29.3999996185302734375</ele>
        <time>2016-04-13T08:22:02.000Z</time>
        <extensions>
          <ns3:TrackPointExtension>
            <ns3:atemp>29.0</ns3:atemp>
            <ns3:hr>92</ns3:hr>
          </ns3:TrackPointExtension>
        </extensions>
      </trkpt>
      <trkpt lat="31.4100395143032073974609375" lon="119.48002441786229610443115234375">
        <ele>29.3999996185302734375</ele>
        <time>2016-04-13T08:22:03.000Z</time>
        <extensions>
          <ns3:TrackPointExtension>
            <ns3:atemp>29.0</ns3:atemp>
            <ns3:hr>92</ns3:hr>
          </ns3:TrackPointExtension>
        </extensions>
      </trkpt>
      <trkpt lat="31.41004462726414203643798828125" lon="119.4800846837460994720458984375">
        <ele>29.6000003814697265625</ele>
        <time>2016-04-13T08:22:04.000Z</time>
        <extensions>
          <ns3:TrackPointExtension>
            <ns3:atemp>29.0</ns3:atemp>
            <ns3:hr>92</ns3:hr>
          </ns3:TrackPointExtension>
        </extensions>
      </trkpt>
      <trkpt lat="31.410051248967647552490234375" lon="119.480136819183826446533203125">
        <ele>29.6000003814697265625</ele>
        <time>2016-04-13T08:22:05.000Z</time>
        <extensions>
          <ns3:TrackPointExtension>
            <ns3:atemp>29.0</ns3:atemp>
            <ns3:hr>92</ns3:hr>
          </ns3:TrackPointExtension>
        </extensions>
      </trkpt>
      <trkpt lat="31.41005518846213817596435546875" lon="119.48018065653741359710693359375">
        <ele>29.6000003814697265625</ele>
        <time>2016-04-13T08:22:06.000Z</time>
        <extensions>
          <ns3:TrackPointExtension>
            <ns3:atemp>29.0</ns3:atemp>
            <ns3:hr>92</ns3:hr>
          </ns3:TrackPointExtension>
        </extensions>
      </trkpt>
      <trkpt lat="31.41005753539502620697021484375" lon="119.48022541590034961700439453125">
        <ele>29.6000003814697265625</ele>
        <time>2016-04-13T08:22:07.000Z</time>
        <extensions>
          <ns3:TrackPointExtension>
            <ns3:atemp>29.0</ns3:atemp>
            <ns3:hr>92</ns3:hr>
          </ns3:TrackPointExtension>
        </extensions>
      </trkpt>
      <trkpt lat="31.4100557751953601837158203125" lon="119.4802694208920001983642578125">
        <ele>29.6000003814697265625</ele>
        <time>2016-04-13T08:22:08.000Z</time>
        <extensions>
          <ns3:TrackPointExtension>
            <ns3:atemp>29.0</ns3:atemp>
            <ns3:hr>92</ns3:hr>
          </ns3:TrackPointExtension>
        </extensions>
      </trkpt>
      <trkpt lat="31.41005250625312328338623046875" lon="119.48031208477914333343505859375">
        <ele>29.3999996185302734375</ele>
        <time>2016-04-13T08:22:09.000Z</time>
        <extensions>
          <ns3:TrackPointExtension>
            <ns3:atemp>29.0</ns3:atemp>
            <ns3:hr>93</ns3:hr>
          </ns3:TrackPointExtension>
        </extensions>
      </trkpt>
      <trkpt lat="31.410045884549617767333984375" lon="119.48035852052271366119384765625">
        <ele>29.200000762939453125</ele>
        <time>2016-04-13T08:22:10.000Z</time>
        <extensions>
          <ns3:TrackPointExtension>
            <ns3:atemp>29.0</ns3:atemp>
            <ns3:hr>93</ns3:hr>
          </ns3:TrackPointExtension>
        </extensions>
      </trkpt>
      <trkpt lat="31.41003808937966823577880859375" lon="119.480405040085315704345703125">
        <ele>29</ele>
        <time>2016-04-13T08:22:11.000Z</time>
        <extensions>
          <ns3:TrackPointExtension>
            <ns3:atemp>29.0</ns3:atemp>
            <ns3:hr>94</ns3:hr>
          </ns3:TrackPointExtension>
        </extensions>
      </trkpt>
      <trkpt lat="31.41003054566681385040283203125" lon="119.48044954799115657806396484375">
        <ele>28.799999237060546875</ele>
        <time>2016-04-13T08:22:12.000Z</time>
        <extensions>
          <ns3:TrackPointExtension>
            <ns3:atemp>29.0</ns3:atemp>
            <ns3:hr>96</ns3:hr>
          </ns3:TrackPointExtension>
        </extensions>
      </trkpt>
      <trkpt lat="31.410019062459468841552734375" lon="119.4804977439343929290771484375">
        <ele>29</ele>
        <time>2016-04-13T08:22:13.000Z</time>
        <extensions>
          <ns3:TrackPointExtension>
            <ns3:atemp>29.0</ns3:atemp>
            <ns3:hr>96</ns3:hr>
          </ns3:TrackPointExtension>
        </extensions>
      </trkpt>
      <trkpt lat="31.4100095070898532867431640625" lon="119.48054350912570953369140625">
        <ele>29</ele>
        <time>2016-04-13T08:22:14.000Z</time>
        <extensions>
          <ns3:TrackPointExtension>
            <ns3:atemp>29.0</ns3:atemp>
            <ns3:hr>97</ns3:hr>
          </ns3:TrackPointExtension>
        </extensions>
      </trkpt>
      <trkpt lat="31.410004310309886932373046875" lon="119.48058634065091609954833984375">
        <ele>28.799999237060546875</ele>
        <time>2016-04-13T08:22:15.000Z</time>
        <extensions>
          <ns3:TrackPointExtension>
            <ns3:atemp>29.0</ns3:atemp>
            <ns3:hr>98</ns3:hr>
          </ns3:TrackPointExtension>
        </extensions>
      </trkpt>
      <trkpt lat="31.41000305302441120147705078125" lon="119.48062724433839321136474609375">
        <ele>28.6000003814697265625</ele>
        <time>2016-04-13T08:22:16.000Z</time>
        <extensions>
          <ns3:TrackPointExtension>
            <ns3:atemp>29.0</ns3:atemp>
            <ns3:hr>99</ns3:hr>
          </ns3:TrackPointExtension>
        </extensions>
      </trkpt>
      <trkpt lat="31.4100004546344280242919921875" lon="119.48066881857812404632568359375">
        <ele>28.6000003814697265625</ele>
        <time>2016-04-13T08:22:17.000Z</time>
        <extensions>
          <ns3:TrackPointExtension>
            <ns3:atemp>29.0</ns3:atemp>
            <ns3:hr>99</ns3:hr>
          </ns3:TrackPointExtension>
        </extensions>
      </trkpt>
      <trkpt lat="31.4099960960447788238525390625" lon="119.48071223683655261993408203125">
        <ele>28.799999237060546875</ele>
        <time>2016-04-13T08:22:18.000Z</time>
        <extensions>
          <ns3:TrackPointExtension>
            <ns3:atemp>29.0</ns3:atemp>
            <ns3:hr>100</ns3:hr>
          </ns3:TrackPointExtension>
        </extensions>
      </trkpt>
      <trkpt lat="31.40998830087482929229736328125" lon="119.48075942695140838623046875">
        <ele>28.799999237060546875</ele>
        <time>2016-04-13T08:22:19.000Z</time>
        <extensions>
          <ns3:TrackPointExtension>
            <ns3:atemp>29.0</ns3:atemp>
            <ns3:hr>100</ns3:hr>
          </ns3:TrackPointExtension>
        </extensions>
      </trkpt>
      <trkpt lat="31.40999081544578075408935546875" lon="119.48080276139080524444580078125">
        <ele>29</ele>
        <time>2016-04-13T08:22:20.000Z</time>
        <extensions>
          <ns3:TrackPointExtension>
            <ns3:atemp>29.0</ns3:atemp>
            <ns3:hr>100</ns3:hr>
          </ns3:TrackPointExtension>
        </extensions>
      </trkpt>
      <trkpt lat="31.4099870435893535614013671875" lon="119.4808504544198513031005859375">
        <ele>29</ele>
        <time>2016-04-13T08:22:21.000Z</time>
        <extensions>
          <ns3:TrackPointExtension>
            <ns3:atemp>29.0</ns3:atemp>
            <ns3:hr>101</ns3:hr>
          </ns3:TrackPointExtension>
        </extensions>
      </trkpt>
      <trkpt lat="31.4099796675145626068115234375" lon="119.4809004105627536773681640625">
        <ele>29</ele>
        <time>2016-04-13T08:22:22.000Z</time>
        <extensions>
          <ns3:TrackPointExtension>
            <ns3:atemp>29.0</ns3:atemp>
            <ns3:hr>101</ns3:hr>
          </ns3:TrackPointExtension>
        </extensions>
      </trkpt>
      <trkpt lat="31.409972123801708221435546875" lon="119.4809490256011486053466796875">
        <ele>29</ele>
        <time>2016-04-13T08:22:23.000Z</time>
        <extensions>
          <ns3:TrackPointExtension>
            <ns3:atemp>29.0</ns3:atemp>
            <ns3:hr>101</ns3:hr>
          </ns3:TrackPointExtension>
        </extensions>
      </trkpt>
      <trkpt lat="31.40996214933693408966064453125" lon="119.480995796620845794677734375">
        <ele>29</ele>
        <time>2016-04-13T08:22:24.000Z</time>
        <extensions>
          <ns3:TrackPointExtension>
            <ns3:atemp>29.0</ns3:atemp>
            <ns3:hr>101</ns3:hr>
          </ns3:TrackPointExtension>
        </extensions>
      </trkpt>
      <trkpt lat="31.4099531807005405426025390625" lon="119.4810403883457183837890625">
        <ele>29</ele>
        <time>2016-04-13T08:22:25.000Z</time>
        <extensions>
          <ns3:TrackPointExtension>
            <ns3:atemp>29.0</ns3:atemp>
            <ns3:hr>102</ns3:hr>
          </ns3:TrackPointExtension>
        </extensions>
      </trkpt>
      <trkpt lat="31.40994488261640071868896484375" lon="119.48108573444187641143798828125">
        <ele>29.3999996185302734375</ele>
        <time>2016-04-13T08:22:26.000Z</time>
        <extensions>
          <ns3:TrackPointExtension>
            <ns3:atemp>29.0</ns3:atemp>
            <ns3:hr>102</ns3:hr>
          </ns3:TrackPointExtension>
        </extensions>
      </trkpt>
      <trkpt lat="31.4099330641329288482666015625" lon="119.48113133199512958526611328125">
        <ele>29.3999996185302734375</ele>
        <time>2016-04-13T08:22:27.000Z</time>
        <extensions>
          <ns3:TrackPointExtension>
            <ns3:atemp>29.0</ns3:atemp>
            <ns3:hr>102</ns3:hr>
          </ns3:TrackPointExtension>
        </extensions>
      </trkpt>
      <trkpt lat="31.4099290408194065093994140625" lon="119.4811783544719219207763671875">
        <ele>29</ele>
        <time>2016-04-13T08:22:28.000Z</time>
        <extensions>
          <ns3:TrackPointExtension>
            <ns3:atemp>29.0</ns3:atemp>
            <ns3:hr>101</ns3:hr>
          </ns3:TrackPointExtension>
        </extensions>
      </trkpt>
      <trkpt lat="31.40993348322808742523193359375" lon="119.4812236167490482330322265625">
        <ele>28.799999237060546875</ele>
        <time>2016-04-13T08:22:29.000Z</time>
        <extensions>
          <ns3:TrackPointExtension>
            <ns3:atemp>29.0</ns3:atemp>
            <ns3:hr>101</ns3:hr>
          </ns3:TrackPointExtension>
        </extensions>
      </trkpt>
      <trkpt lat="31.40993901528418064117431640625" lon="119.4812678731977939605712890625">
        <ele>29.200000762939453125</ele>
        <time>2016-04-13T08:22:30.000Z</time>
        <extensions>
          <ns3:TrackPointExtension>
            <ns3:atemp>29.0</ns3:atemp>
            <ns3:hr>100</ns3:hr>
          </ns3:TrackPointExtension>
        </extensions>
      </trkpt>
      <trkpt lat="31.4099441282451152801513671875" lon="119.48131330311298370361328125">
        <ele>29.200000762939453125</ele>
        <time>2016-04-13T08:22:31.000Z</time>
        <extensions>
          <ns3:TrackPointExtension>
            <ns3:atemp>29.0</ns3:atemp>
            <ns3:hr>100</ns3:hr>
          </ns3:TrackPointExtension>
        </extensions>
      </trkpt>
      <trkpt lat="31.4099370874464511871337890625" lon="119.481358565390110015869140625">
        <ele>29.200000762939453125</ele>
        <time>2016-04-13T08:22:32.000Z</time>
        <extensions>
          <ns3:TrackPointExtension>
            <ns3:atemp>29.0</ns3:atemp>
            <ns3:hr>99</ns3:hr>
          </ns3:TrackPointExtension>
        </extensions>
      </trkpt>
      <trkpt lat="31.40991923399269580841064453125" lon="119.48140106163918972015380859375">
        <ele>29</ele>
        <time>2016-04-13T08:22:33.000Z</time>
        <extensions>
          <ns3:TrackPointExtension>
            <ns3:atemp>29.0</ns3:atemp>
            <ns3:hr>100</ns3:hr>
          </ns3:TrackPointExtension>
        </extensions>
      </trkpt>
      <trkpt lat="31.409897021949291229248046875" lon="119.48144473135471343994140625">
        <ele>28.799999237060546875</ele>
        <time>2016-04-13T08:22:34.000Z</time>
        <extensions>
          <ns3:TrackPointExtension>
            <ns3:atemp>29.0</ns3:atemp>
            <ns3:hr>100</ns3:hr>
          </ns3:TrackPointExtension>
        </extensions>
      </trkpt>
      <trkpt lat="31.4098847843706607818603515625" lon="119.4814864732325077056884765625">
        <ele>28.799999237060546875</ele>
        <time>2016-04-13T08:22:35.000Z</time>
        <extensions>
          <ns3:TrackPointExtension>
            <ns3:atemp>29.0</ns3:atemp>
            <ns3:hr>101</ns3:hr>
          </ns3:TrackPointExtension>
        </extensions>
      </trkpt>
      <trkpt lat="31.40987799502909183502197265625" lon="119.481534920632839202880859375">
        <ele>28.200000762939453125</ele>
        <time>2016-04-13T08:22:36.000Z</time>
        <extensions>
          <ns3:TrackPointExtension>
            <ns3:atemp>29.0</ns3:atemp>
            <ns3:hr>102</ns3:hr>
          </ns3:TrackPointExtension>
        </extensions>
      </trkpt>
      <trkpt lat="31.40987682156264781951904296875" lon="119.4815873913466930389404296875">
        <ele>28</ele>
        <time>2016-04-13T08:22:37.000Z</time>
        <extensions>
          <ns3:TrackPointExtension>
            <ns3:atemp>29.0</ns3:atemp>
            <ns3:hr>103</ns3:hr>
          </ns3:TrackPointExtension>
        </extensions>
      </trkpt>
      <trkpt lat="31.40988402999937534332275390625" lon="119.48169040493667125701904296875">
        <ele>27.6000003814697265625</ele>
        <time>2016-04-13T08:22:39.000Z</time>
        <extensions>
          <ns3:TrackPointExtension>
            <ns3:atemp>29.0</ns3:atemp>
            <ns3:hr>104</ns3:hr>
          </ns3:TrackPointExtension>
        </extensions>
      </trkpt>
      <trkpt lat="31.40989023260772228240966796875" lon="119.48173885233700275421142578125">
        <ele>27.200000762939453125</ele>
        <time>2016-04-13T08:22:40.000Z</time>
        <extensions>
          <ns3:TrackPointExtension>
            <ns3:atemp>29.0</ns3:atemp>
            <ns3:hr>105</ns3:hr>
          </ns3:TrackPointExtension>
        </extensions>
      </trkpt>
      <trkpt lat="31.4098935015499591827392578125" lon="119.4817882217466831207275390625">
        <ele>27</ele>
        <time>2016-04-13T08:22:41.000Z</time>
        <extensions>
          <ns3:TrackPointExtension>
            <ns3:atemp>29.0</ns3:atemp>
            <ns3:hr>106</ns3:hr>
          </ns3:TrackPointExtension>
        </extensions>
      </trkpt>
      <trkpt lat="31.4098946750164031982421875" lon="119.48183692060410976409912109375">
        <ele>27.6000003814697265625</ele>
        <time>2016-04-13T08:22:42.000Z</time>
        <extensions>
          <ns3:TrackPointExtension>
            <ns3:atemp>29.0</ns3:atemp>
            <ns3:hr>106</ns3:hr>
          </ns3:TrackPointExtension>
        </extensions>
      </trkpt>
      <trkpt lat="31.4098948426544666290283203125" lon="119.48188327252864837646484375">
        <ele>28.200000762939453125</ele>
        <time>2016-04-13T08:22:43.000Z</time>
        <extensions>
          <ns3:TrackPointExtension>
            <ns3:atemp>29.0</ns3:atemp>
            <ns3:hr>107</ns3:hr>
          </ns3:TrackPointExtension>
        </extensions>
      </trkpt>
      <trkpt lat="31.4098935015499591827392578125" lon="119.48193021118640899658203125">
        <ele>28.6000003814697265625</ele>
        <time>2016-04-13T08:22:44.000Z</time>
        <extensions>
          <ns3:TrackPointExtension>
            <ns3:atemp>29.0</ns3:atemp>
            <ns3:hr>108</ns3:hr>
          </ns3:TrackPointExtension>
        </extensions>
      </trkpt>
      <trkpt lat="31.40989023260772228240966796875" lon="119.48197840712964534759521484375">
        <ele>28.799999237060546875</ele>
        <time>2016-04-13T08:22:45.000Z</time>
        <extensions>
          <ns3:TrackPointExtension>
            <ns3:atemp>29.0</ns3:atemp>
            <ns3:hr>108</ns3:hr>
          </ns3:TrackPointExtension>
        </extensions>
      </trkpt>
      <trkpt lat="31.4098794199526309967041015625" lon="119.48202232830226421356201171875">
        <ele>29</ele>
        <time>2016-04-13T08:22:46.000Z</time>
        <extensions>
          <ns3:TrackPointExtension>
            <ns3:atemp>29.0</ns3:atemp>
            <ns3:hr>108</ns3:hr>
          </ns3:TrackPointExtension>
        </extensions>
      </trkpt>
      <trkpt lat="31.40986022539436817169189453125" lon="119.482076726853847503662109375">
        <ele>28.799999237060546875</ele>
        <time>2016-04-13T08:22:47.000Z</time>
        <extensions>
          <ns3:TrackPointExtension>
            <ns3:atemp>29.0</ns3:atemp>
            <ns3:hr>109</ns3:hr>
          </ns3:TrackPointExtension>
        </extensions>
      </trkpt>
      <trkpt lat="31.40983709134161472320556640625" lon="119.48213875293731689453125">
        <ele>28.799999237060546875</ele>
        <time>2016-04-13T08:22:48.000Z</time>
        <extensions>
          <ns3:TrackPointExtension>
            <ns3:atemp>29.0</ns3:atemp>
            <ns3:hr>109</ns3:hr>
          </ns3:TrackPointExtension>
        </extensions>
      </trkpt>
      <trkpt lat="31.4098224230110645294189453125" lon="119.48219574987888336181640625">
        <ele>29</ele>
        <time>2016-04-13T08:22:49.000Z</time>
        <extensions>
          <ns3:TrackPointExtension>
            <ns3:atemp>29.0</ns3:atemp>
            <ns3:hr>109</ns3:hr>
          </ns3:TrackPointExtension>
        </extensions>
      </trkpt>
      <trkpt lat="31.4098013006150722503662109375" lon="119.48225400410592555999755859375">
        <ele>29.200000762939453125</ele>
        <time>2016-04-13T08:22:50.000Z</time>
        <extensions>
          <ns3:TrackPointExtension>
            <ns3:atemp>29.0</ns3:atemp>
            <ns3:hr>109</ns3:hr>
          </ns3:TrackPointExtension>
        </extensions>
      </trkpt>
      <trkpt lat="31.409788392484188079833984375" lon="119.48230429552495479583740234375">
        <ele>29.3999996185302734375</ele>
        <time>2016-04-13T08:22:51.000Z</time>
        <extensions>
          <ns3:TrackPointExtension>
            <ns3:atemp>29.0</ns3:atemp>
            <ns3:hr>109</ns3:hr>
          </ns3:TrackPointExtension>
        </extensions>
      </trkpt>
      <trkpt lat="31.4097701199352741241455078125" lon="119.48235408402979373931884765625">
        <ele>29.3999996185302734375</ele>
        <time>2016-04-13T08:22:52.000Z</time>
        <extensions>
          <ns3:TrackPointExtension>
            <ns3:atemp>29.0</ns3:atemp>
            <ns3:hr>110</ns3:hr>
          </ns3:TrackPointExtension>
        </extensions>
      </trkpt>
      <trkpt lat="31.4097511768341064453125" lon="119.482402615249156951904296875">
        <ele>29.200000762939453125</ele>
        <time>2016-04-13T08:22:53.000Z</time>
        <extensions>
          <ns3:TrackPointExtension>
            <ns3:atemp>29.0</ns3:atemp>
            <ns3:hr>110</ns3:hr>
          </ns3:TrackPointExtension>
        </extensions>
      </trkpt>
      <trkpt lat="31.40973483212292194366455078125" lon="119.48244745843112468719482421875">
        <ele>28.799999237060546875</ele>
        <time>2016-04-13T08:22:54.000Z</time>
        <extensions>
          <ns3:TrackPointExtension>
            <ns3:atemp>29.0</ns3:atemp>
            <ns3:hr>110</ns3:hr>
          </ns3:TrackPointExtension>
        </extensions>
      </trkpt>
      <trkpt lat="31.40971287153661251068115234375" lon="119.4824943132698535919189453125">
        <ele>28.799999237060546875</ele>
        <time>2016-04-13T08:22:55.000Z</time>
        <extensions>
          <ns3:TrackPointExtension>
            <ns3:atemp>29.0</ns3:atemp>
            <ns3:hr>110</ns3:hr>
          </ns3:TrackPointExtension>
        </extensions>
      </trkpt>
      <trkpt lat="31.40969091095030307769775390625" lon="119.48254041373729705810546875">
        <ele>28.799999237060546875</ele>
        <time>2016-04-13T08:22:56.000Z</time>
        <extensions>
          <ns3:TrackPointExtension>
            <ns3:atemp>29.0</ns3:atemp>
            <ns3:hr>111</ns3:hr>
          </ns3:TrackPointExtension>
        </extensions>
      </trkpt>
      <trkpt lat="31.409669034183025360107421875" lon="119.48258467018604278564453125">
        <ele>28.3999996185302734375</ele>
        <time>2016-04-13T08:22:57.000Z</time>
        <extensions>
          <ns3:TrackPointExtension>
            <ns3:atemp>29.0</ns3:atemp>
            <ns3:hr>111</ns3:hr>
          </ns3:TrackPointExtension>
        </extensions>
      </trkpt>
      <trkpt lat="31.4096453972160816192626953125" lon="119.48262984864413738250732421875">
        <ele>28.200000762939453125</ele>
        <time>2016-04-13T08:22:58.000Z</time>
        <extensions>
          <ns3:TrackPointExtension>
            <ns3:atemp>29.0</ns3:atemp>
            <ns3:hr>112</ns3:hr>
          </ns3:TrackPointExtension>
        </extensions>
      </trkpt>
      <trkpt lat="31.40961983241140842437744140625" lon="119.48267293162643909454345703125">
        <ele>28.200000762939453125</ele>
        <time>2016-04-13T08:22:59.000Z</time>
        <extensions>
          <ns3:TrackPointExtension>
            <ns3:atemp>29.0</ns3:atemp>
            <ns3:hr>112</ns3:hr>
          </ns3:TrackPointExtension>
        </extensions>
      </trkpt>
      <trkpt lat="31.40959150157868862152099609375" lon="119.48271450586616992950439453125">
        <ele>28.200000762939453125</ele>
        <time>2016-04-13T08:23:00.000Z</time>
        <extensions>
          <ns3:TrackPointExtension>
            <ns3:atemp>29.0</ns3:atemp>
            <ns3:hr>112</ns3:hr>
          </ns3:TrackPointExtension>
        </extensions>
      </trkpt>
      <trkpt lat="31.40956635586917400360107421875" lon="119.48275138624012470245361328125">
        <ele>28</ele>
        <time>2016-04-13T08:23:01.000Z</time>
        <extensions>
          <ns3:TrackPointExtension>
            <ns3:atemp>29.0</ns3:atemp>
            <ns3:hr>112</ns3:hr>
          </ns3:TrackPointExtension>
        </extensions>
      </trkpt>
      <trkpt lat="31.4095303975045680999755859375" lon="119.4827920384705066680908203125">
        <ele>28</ele>
        <time>2016-04-13T08:23:02.000Z</time>
        <extensions>
          <ns3:TrackPointExtension>
            <ns3:atemp>29.0</ns3:atemp>
            <ns3:hr>113</ns3:hr>
          </ns3:TrackPointExtension>
        </extensions>
      </trkpt>
      <trkpt lat="31.40950751490890979766845703125" lon="119.48282715864479541778564453125">
        <ele>28.200000762939453125</ele>
        <time>2016-04-13T08:23:03.000Z</time>
        <extensions>
          <ns3:TrackPointExtension>
            <ns3:atemp>29.0</ns3:atemp>
            <ns3:hr>113</ns3:hr>
          </ns3:TrackPointExtension>
        </extensions>
      </trkpt>
      <trkpt lat="31.4094951935112476348876953125" lon="119.4828681461513042449951171875">
        <ele>28.3999996185302734375</ele>
        <time>2016-04-13T08:23:04.000Z</time>
        <extensions>
          <ns3:TrackPointExtension>
            <ns3:atemp>29.0</ns3:atemp>
            <ns3:hr>113</ns3:hr>
          </ns3:TrackPointExtension>
        </extensions>
      </trkpt>
      <trkpt lat="31.40948832035064697265625" lon="119.4829127378761768341064453125">
        <ele>28.200000762939453125</ele>
        <time>2016-04-13T08:23:05.000Z</time>
        <extensions>
          <ns3:TrackPointExtension>
            <ns3:atemp>29.0</ns3:atemp>
            <ns3:hr>113</ns3:hr>
          </ns3:TrackPointExtension>
        </extensions>
      </trkpt>
      <trkpt lat="31.4094804413616657257080078125" lon="119.48295791633427143096923828125">
        <ele>28.200000762939453125</ele>
        <time>2016-04-13T08:23:06.000Z</time>
        <extensions>
          <ns3:TrackPointExtension>
            <ns3:atemp>29.0</ns3:atemp>
            <ns3:hr>113</ns3:hr>
          </ns3:TrackPointExtension>
        </extensions>
      </trkpt>
      <trkpt lat="31.409477256238460540771484375" lon="119.48300175368785858154296875">
        <ele>28.200000762939453125</ele>
        <time>2016-04-13T08:23:07.000Z</time>
        <extensions>
          <ns3:TrackPointExtension>
            <ns3:atemp>29.0</ns3:atemp>
            <ns3:hr>112</ns3:hr>
          </ns3:TrackPointExtension>
        </extensions>
      </trkpt>
      <trkpt lat="31.4094754122197628021240234375" lon="119.48304257355630397796630859375">
        <ele>28.200000762939453125</ele>
        <time>2016-04-13T08:23:08.000Z</time>
        <extensions>
          <ns3:TrackPointExtension>
            <ns3:atemp>29.0</ns3:atemp>
            <ns3:hr>112</ns3:hr>
          </ns3:TrackPointExtension>
        </extensions>
      </trkpt>
      <trkpt lat="31.40947968699038028717041015625" lon="119.48307677172124385833740234375">
        <ele>28.200000762939453125</ele>
        <time>2016-04-13T08:23:09.000Z</time>
        <extensions>
          <ns3:TrackPointExtension>
            <ns3:atemp>29.0</ns3:atemp>
            <ns3:hr>112</ns3:hr>
          </ns3:TrackPointExtension>
        </extensions>
      </trkpt>
      <trkpt lat="31.409472562372684478759765625" lon="119.4831132330000400543212890625">
        <ele>28.3999996185302734375</ele>
        <time>2016-04-13T08:23:10.000Z</time>
        <extensions>
          <ns3:TrackPointExtension>
            <ns3:atemp>29.0</ns3:atemp>
            <ns3:hr>112</ns3:hr>
          </ns3:TrackPointExtension>
        </extensions>
      </trkpt>
      <trkpt lat="31.40946074388921260833740234375" lon="119.4831460900604724884033203125">
        <ele>28.6000003814697265625</ele>
        <time>2016-04-13T08:23:11.000Z</time>
        <extensions>
          <ns3:TrackPointExtension>
            <ns3:atemp>29.0</ns3:atemp>
            <ns3:hr>112</ns3:hr>
          </ns3:TrackPointExtension>
        </extensions>
      </trkpt>
      <trkpt lat="31.4094526134431362152099609375" lon="119.48317215777933597564697265625">
        <ele>28.6000003814697265625</ele>
        <time>2016-04-13T08:23:12.000Z</time>
        <extensions>
          <ns3:TrackPointExtension>
            <ns3:atemp>29.0</ns3:atemp>
            <ns3:hr>111</ns3:hr>
          </ns3:TrackPointExtension>
        </extensions>
      </trkpt>
      <trkpt lat="31.4094482548534870147705078125" lon="119.4831987284123897552490234375">
        <ele>28.6000003814697265625</ele>
        <time>2016-04-13T08:23:13.000Z</time>
        <extensions>
          <ns3:TrackPointExtension>
            <ns3:atemp>29.0</ns3:atemp>
            <ns3:hr>111</ns3:hr>
          </ns3:TrackPointExtension>
        </extensions>
      </trkpt>
      <trkpt lat="31.4094455726444721221923828125" lon="119.48322764597833156585693359375">
        <ele>28.799999237060546875</ele>
        <time>2016-04-13T08:23:14.000Z</time>
        <extensions>
          <ns3:TrackPointExtension>
            <ns3:atemp>29.0</ns3:atemp>
            <ns3:hr>110</ns3:hr>
          </ns3:TrackPointExtension>
        </extensions>
      </trkpt>
      <trkpt lat="31.409441046416759490966796875" lon="119.4832590781152248382568359375">
        <ele>28.799999237060546875</ele>
        <time>2016-04-13T08:23:15.000Z</time>
        <extensions>
          <ns3:TrackPointExtension>
            <ns3:atemp>29.0</ns3:atemp>
            <ns3:hr>110</ns3:hr>
          </ns3:TrackPointExtension>
        </extensions>
      </trkpt>
      <trkpt lat="31.40943660400807857513427734375" lon="119.4832899235188961029052734375">
        <ele>28.799999237060546875</ele>
        <time>2016-04-13T08:23:16.000Z</time>
        <extensions>
          <ns3:TrackPointExtension>
            <ns3:atemp>29.0</ns3:atemp>
            <ns3:hr>110</ns3:hr>
          </ns3:TrackPointExtension>
        </extensions>
      </trkpt>
      <trkpt lat="31.40943073667585849761962890625" lon="119.4833190925419330596923828125">
        <ele>28.799999237060546875</ele>
        <time>2016-04-13T08:23:17.000Z</time>
        <extensions>
          <ns3:TrackPointExtension>
            <ns3:atemp>29.0</ns3:atemp>
            <ns3:hr>110</ns3:hr>
          </ns3:TrackPointExtension>
        </extensions>
      </trkpt>
      <trkpt lat="31.40942461788654327392578125" lon="119.4833455793559551239013671875">
        <ele>28.799999237060546875</ele>
        <time>2016-04-13T08:23:18.000Z</time>
        <extensions>
          <ns3:TrackPointExtension>
            <ns3:atemp>29.0</ns3:atemp>
            <ns3:hr>110</ns3:hr>
          </ns3:TrackPointExtension>
        </extensions>
      </trkpt>
      <trkpt lat="31.40941548161208629608154296875" lon="119.4833737425506114959716796875">
        <ele>28.799999237060546875</ele>
        <time>2016-04-13T08:23:19.000Z</time>
        <extensions>
          <ns3:TrackPointExtension>
            <ns3:atemp>29.0</ns3:atemp>
            <ns3:hr>111</ns3:hr>
          </ns3:TrackPointExtension>
        </extensions>
      </trkpt>
      <trkpt lat="31.4094060100615024566650390625" lon="119.48340081609785556793212890625">
        <ele>28.6000003814697265625</ele>
        <time>2016-04-13T08:23:20.000Z</time>
        <extensions>
          <ns3:TrackPointExtension>
            <ns3:atemp>29.0</ns3:atemp>
            <ns3:hr>111</ns3:hr>
          </ns3:TrackPointExtension>
        </extensions>
      </trkpt>
      <trkpt lat="31.4094006456434726715087890625" lon="119.48342629708349704742431640625">
        <ele>28.3999996185302734375</ele>
        <time>2016-04-13T08:23:21.000Z</time>
        <extensions>
          <ns3:TrackPointExtension>
            <ns3:atemp>29.0</ns3:atemp>
            <ns3:hr>111</ns3:hr>
          </ns3:TrackPointExtension>
        </extensions>
      </trkpt>
      <trkpt lat="31.40939335338771343231201171875" lon="119.48345999233424663543701171875">
        <ele>28.3999996185302734375</ele>
        <time>2016-04-13T08:23:22.000Z</time>
        <extensions>
          <ns3:TrackPointExtension>
            <ns3:atemp>29.0</ns3:atemp>
            <ns3:hr>111</ns3:hr>
          </ns3:TrackPointExtension>
        </extensions>
      </trkpt>
      <trkpt lat="31.409381367266178131103515625" lon="119.4835004769265651702880859375">
        <ele>28.6000003814697265625</ele>
        <time>2016-04-13T08:23:23.000Z</time>
        <extensions>
          <ns3:TrackPointExtension>
            <ns3:atemp>29.0</ns3:atemp>
            <ns3:hr>111</ns3:hr>
          </ns3:TrackPointExtension>
        </extensions>
      </trkpt>
      <trkpt lat="31.4093818701803684234619140625" lon="119.4835343398153781890869140625">
        <ele>28.799999237060546875</ele>
        <time>2016-04-13T08:23:24.000Z</time>
        <extensions>
          <ns3:TrackPointExtension>
            <ns3:atemp>29.0</ns3:atemp>
            <ns3:hr>112</ns3:hr>
          </ns3:TrackPointExtension>
        </extensions>
      </trkpt>
      <trkpt lat="31.40938631258904933929443359375" lon="119.48356501758098602294921875">
        <ele>29</ele>
        <time>2016-04-13T08:23:25.000Z</time>
        <extensions>
          <ns3:TrackPointExtension>
            <ns3:atemp>29.0</ns3:atemp>
            <ns3:hr>112</ns3:hr>
          </ns3:TrackPointExtension>
        </extensions>
      </trkpt>
      <trkpt lat="31.409398131072521209716796875" lon="119.483584798872470855712890625">
        <ele>29.200000762939453125</ele>
        <time>2016-04-13T08:23:26.000Z</time>
        <extensions>
          <ns3:TrackPointExtension>
            <ns3:atemp>29.0</ns3:atemp>
            <ns3:hr>112</ns3:hr>
          </ns3:TrackPointExtension>
        </extensions>
      </trkpt>
      <trkpt lat="31.4094130508601665496826171875" lon="119.48360231705009937286376953125">
        <ele>29.200000762939453125</ele>
        <time>2016-04-13T08:23:27.000Z</time>
        <extensions>
          <ns3:TrackPointExtension>
            <ns3:atemp>29.0</ns3:atemp>
            <ns3:hr>112</ns3:hr>
          </ns3:TrackPointExtension>
        </extensions>
      </trkpt>
      <trkpt lat="31.40942989848554134368896484375" lon="119.48362008668482303619384765625">
        <ele>29.3999996185302734375</ele>
        <time>2016-04-13T08:23:28.000Z</time>
        <extensions>
          <ns3:TrackPointExtension>
            <ns3:atemp>29.0</ns3:atemp>
            <ns3:hr>112</ns3:hr>
          </ns3:TrackPointExtension>
        </extensions>
      </trkpt>
      <trkpt lat="31.40943475998938083648681640625" lon="119.48364774696528911590576171875">
        <ele>29.3999996185302734375</ele>
        <time>2016-04-13T08:23:29.000Z</time>
        <extensions>
          <ns3:TrackPointExtension>
            <ns3:atemp>29.0</ns3:atemp>
            <ns3:hr>113</ns3:hr>
          </ns3:TrackPointExtension>
        </extensions>
      </trkpt>
      <trkpt lat="31.40943132340908050537109375" lon="119.48368261568248271942138671875">
        <ele>29.3999996185302734375</ele>
        <time>2016-04-13T08:23:30.000Z</time>
        <extensions>
          <ns3:TrackPointExtension>
            <ns3:atemp>29.0</ns3:atemp>
            <ns3:hr>113</ns3:hr>
          </ns3:TrackPointExtension>
        </extensions>
      </trkpt>
      <trkpt lat="31.40943341888487339019775390625" lon="119.4837147183716297149658203125">
        <ele>29.200000762939453125</ele>
        <time>2016-04-13T08:23:31.000Z</time>
        <extensions>
          <ns3:TrackPointExtension>
            <ns3:atemp>29.0</ns3:atemp>
            <ns3:hr>113</ns3:hr>
          </ns3:TrackPointExtension>
        </extensions>
      </trkpt>
      <trkpt lat="31.40943593345582485198974609375" lon="119.4837475754320621490478515625">
        <ele>28.799999237060546875</ele>
        <time>2016-04-13T08:23:32.000Z</time>
        <extensions>
          <ns3:TrackPointExtension>
            <ns3:atemp>29.0</ns3:atemp>
            <ns3:hr>114</ns3:hr>
          </ns3:TrackPointExtension>
        </extensions>
      </trkpt>
      <trkpt lat="31.40943073667585849761962890625" lon="119.48378554545342922210693359375">
        <ele>28.799999237060546875</ele>
        <time>2016-04-13T08:23:33.000Z</time>
        <extensions>
          <ns3:TrackPointExtension>
            <ns3:atemp>29.0</ns3:atemp>
            <ns3:hr>114</ns3:hr>
          </ns3:TrackPointExtension>
        </extensions>
      </trkpt>
      <trkpt lat="31.40942201949656009674072265625" lon="119.48382376693189144134521484375">
        <ele>28.799999237060546875</ele>
        <time>2016-04-13T08:23:34.000Z</time>
        <extensions>
          <ns3:TrackPointExtension>
            <ns3:atemp>29.0</ns3:atemp>
            <ns3:hr>115</ns3:hr>
          </ns3:TrackPointExtension>
        </extensions>
      </trkpt>
      <trkpt lat="31.40941380523145198822021484375" lon="119.48385830037295818328857421875">
        <ele>28.799999237060546875</ele>
        <time>2016-04-13T08:23:35.000Z</time>
        <extensions>
          <ns3:TrackPointExtension>
            <ns3:atemp>29.0</ns3:atemp>
            <ns3:hr>115</ns3:hr>
          </ns3:TrackPointExtension>
        </extensions>
      </trkpt>
      <trkpt lat="31.40939855016767978668212890625" lon="119.48390431702136993408203125">
        <ele>28.799999237060546875</ele>
        <time>2016-04-13T08:23:36.000Z</time>
        <extensions>
          <ns3:TrackPointExtension>
            <ns3:atemp>29.0</ns3:atemp>
            <ns3:hr>117</ns3:hr>
          </ns3:TrackPointExtension>
        </extensions>
      </trkpt>
      <trkpt lat="31.4093835465610027313232421875" lon="119.48395502753555774688720703125">
        <ele>28.6000003814697265625</ele>
        <time>2016-04-13T08:23:37.000Z</time>
        <extensions>
          <ns3:TrackPointExtension>
            <ns3:atemp>29.0</ns3:atemp>
            <ns3:hr>118</ns3:hr>
          </ns3:TrackPointExtension>
        </extensions>
      </trkpt>
      <trkpt lat="31.40937474556267261505126953125" lon="119.48399743996560573577880859375">
        <ele>28.6000003814697265625</ele>
        <time>2016-04-13T08:23:38.000Z</time>
        <extensions>
          <ns3:TrackPointExtension>
            <ns3:atemp>29.0</ns3:atemp>
            <ns3:hr>119</ns3:hr>
          </ns3:TrackPointExtension>
        </extensions>
      </trkpt>
      <trkpt lat="31.40936435200273990631103515625" lon="119.48404119350016117095947265625">
        <ele>28.6000003814697265625</ele>
        <time>2016-04-13T08:23:39.000Z</time>
        <extensions>
          <ns3:TrackPointExtension>
            <ns3:atemp>29.0</ns3:atemp>
            <ns3:hr>120</ns3:hr>
          </ns3:TrackPointExtension>
        </extensions>
      </trkpt>
      <trkpt lat="31.409353204071521759033203125" lon="119.48408058844506740570068359375">
        <ele>28.6000003814697265625</ele>
        <time>2016-04-13T08:23:40.000Z</time>
        <extensions>
          <ns3:TrackPointExtension>
            <ns3:atemp>29.0</ns3:atemp>
            <ns3:hr>120</ns3:hr>
          </ns3:TrackPointExtension>
        </extensions>
      </trkpt>
      <trkpt lat="31.409341804683208465576171875" lon="119.48412031866610050201416015625">
        <ele>28.6000003814697265625</ele>
        <time>2016-04-13T08:23:41.000Z</time>
        <extensions>
          <ns3:TrackPointExtension>
            <ns3:atemp>29.0</ns3:atemp>
            <ns3:hr>121</ns3:hr>
          </ns3:TrackPointExtension>
        </extensions>
      </trkpt>
      <trkpt lat="31.409331075847148895263671875" lon="119.48417295701801776885986328125">
        <ele>28.799999237060546875</ele>
        <time>2016-04-13T08:23:42.000Z</time>
        <extensions>
          <ns3:TrackPointExtension>
            <ns3:atemp>29.0</ns3:atemp>
            <ns3:hr>120</ns3:hr>
          </ns3:TrackPointExtension>
        </extensions>
      </trkpt>
      <trkpt lat="31.4093329198658466339111328125" lon="119.484222829341888427734375">
        <ele>28.799999237060546875</ele>
        <time>2016-04-13T08:23:43.000Z</time>
        <extensions>
          <ns3:TrackPointExtension>
            <ns3:atemp>29.0</ns3:atemp>
            <ns3:hr>120</ns3:hr>
          </ns3:TrackPointExtension>
        </extensions>
      </trkpt>
      <trkpt lat="31.40933250077068805694580078125" lon="119.484271444380283355712890625">
        <ele>29</ele>
        <time>2016-04-13T08:23:44.000Z</time>
        <extensions>
          <ns3:TrackPointExtension>
            <ns3:atemp>29.0</ns3:atemp>
            <ns3:hr>120</ns3:hr>
          </ns3:TrackPointExtension>
        </extensions>
      </trkpt>
      <trkpt lat="31.4093319140374660491943359375" lon="119.4843158684670925140380859375">
        <ele>29</ele>
        <time>2016-04-13T08:23:45.000Z</time>
        <extensions>
          <ns3:TrackPointExtension>
            <ns3:atemp>29.0</ns3:atemp>
            <ns3:hr>119</ns3:hr>
          </ns3:TrackPointExtension>
        </extensions>
      </trkpt>
      <trkpt lat="31.40932001173496246337890625" lon="119.4843718595802783966064453125">
        <ele>29</ele>
        <time>2016-04-13T08:23:46.000Z</time>
        <extensions>
          <ns3:TrackPointExtension>
            <ns3:atemp>29.0</ns3:atemp>
            <ns3:hr>118</ns3:hr>
          </ns3:TrackPointExtension>
        </extensions>
      </trkpt>
      <trkpt lat="31.40931422822177410125732421875" lon="119.4844218157231807708740234375">
        <ele>28.6000003814697265625</ele>
        <time>2016-04-13T08:23:47.000Z</time>
        <extensions>
          <ns3:TrackPointExtension>
            <ns3:atemp>29.0</ns3:atemp>
            <ns3:hr>118</ns3:hr>
          </ns3:TrackPointExtension>
        </extensions>
      </trkpt>
      <trkpt lat="31.40930433757603168487548828125" lon="119.484488703310489654541015625">
        <ele>28.3999996185302734375</ele>
        <time>2016-04-13T08:23:48.000Z</time>
        <extensions>
          <ns3:TrackPointExtension>
            <ns3:atemp>29.0</ns3:atemp>
            <ns3:hr>117</ns3:hr>
          </ns3:TrackPointExtension>
        </extensions>
      </trkpt>
      <trkpt lat="31.40929562039673328399658203125" lon="119.484544694423675537109375">
        <ele>28.3999996185302734375</ele>
        <time>2016-04-13T08:23:49.000Z</time>
        <extensions>
          <ns3:TrackPointExtension>
            <ns3:atemp>29.0</ns3:atemp>
            <ns3:hr>117</ns3:hr>
          </ns3:TrackPointExtension>
        </extensions>
      </trkpt>
      <trkpt lat="31.409289836883544921875" lon="119.48459632694721221923828125">
        <ele>28.200000762939453125</ele>
        <time>2016-04-13T08:23:50.000Z</time>
        <extensions>
          <ns3:TrackPointExtension>
            <ns3:atemp>29.0</ns3:atemp>
            <ns3:hr>117</ns3:hr>
          </ns3:TrackPointExtension>
        </extensions>
      </trkpt>
      <trkpt lat="31.409280784428119659423828125" lon="119.4846504740417003631591796875">
        <ele>28.200000762939453125</ele>
        <time>2016-04-13T08:23:51.000Z</time>
        <extensions>
          <ns3:TrackPointExtension>
            <ns3:atemp>29.0</ns3:atemp>
            <ns3:hr>116</ns3:hr>
          </ns3:TrackPointExtension>
        </extensions>
      </trkpt>
      <trkpt lat="31.40927315689623355865478515625" lon="119.48470168747007846832275390625">
        <ele>28.200000762939453125</ele>
        <time>2016-04-13T08:23:52.000Z</time>
        <extensions>
          <ns3:TrackPointExtension>
            <ns3:atemp>29.0</ns3:atemp>
            <ns3:hr>116</ns3:hr>
          </ns3:TrackPointExtension>
        </extensions>
      </trkpt>
      <trkpt lat="31.40925941057503223419189453125" lon="119.4847607798874378204345703125">
        <ele>28.200000762939453125</ele>
        <time>2016-04-13T08:23:53.000Z</time>
        <extensions>
          <ns3:TrackPointExtension>
            <ns3:atemp>29.0</ns3:atemp>
            <ns3:hr>116</ns3:hr>
          </ns3:TrackPointExtension>
        </extensions>
      </trkpt>
      <trkpt lat="31.40924482606351375579833984375" lon="119.48481903411448001861572265625">
        <ele>28.200000762939453125</ele>
        <time>2016-04-13T08:23:54.000Z</time>
        <extensions>
          <ns3:TrackPointExtension>
            <ns3:atemp>29.0</ns3:atemp>
            <ns3:hr>116</ns3:hr>
          </ns3:TrackPointExtension>
        </extensions>
      </trkpt>
      <trkpt lat="31.40923376195132732391357421875" lon="119.4848761148750782012939453125">
        <ele>28.3999996185302734375</ele>
        <time>2016-04-13T08:23:55.000Z</time>
        <extensions>
          <ns3:TrackPointExtension>
            <ns3:atemp>29.0</ns3:atemp>
            <ns3:hr>116</ns3:hr>
          </ns3:TrackPointExtension>
        </extensions>
      </trkpt>
      <trkpt lat="31.409226469695568084716796875" lon="119.4849287532269954681396484375">
        <ele>28.799999237060546875</ele>
        <time>2016-04-13T08:23:56.000Z</time>
        <extensions>
          <ns3:TrackPointExtension>
            <ns3:atemp>29.0</ns3:atemp>
            <ns3:hr>116</ns3:hr>
          </ns3:TrackPointExtension>
        </extensions>
      </trkpt>
      <trkpt lat="31.40921817161142826080322265625" lon="119.48498147539794445037841796875">
        <ele>29</ele>
        <time>2016-04-13T08:23:57.000Z</time>
        <extensions>
          <ns3:TrackPointExtension>
            <ns3:atemp>29.0</ns3:atemp>
            <ns3:hr>117</ns3:hr>
          </ns3:TrackPointExtension>
        </extensions>
      </trkpt>
      <trkpt lat="31.40921113081276416778564453125" lon="119.48503260500729084014892578125">
        <ele>29.200000762939453125</ele>
        <time>2016-04-13T08:23:58.000Z</time>
        <extensions>
          <ns3:TrackPointExtension>
            <ns3:atemp>29.0</ns3:atemp>
            <ns3:hr>116</ns3:hr>
          </ns3:TrackPointExtension>
        </extensions>
      </trkpt>
      <trkpt lat="31.4092026650905609130859375" lon="119.48508490808308124542236328125">
        <ele>29.200000762939453125</ele>
        <time>2016-04-13T08:23:59.000Z</time>
        <extensions>
          <ns3:TrackPointExtension>
            <ns3:atemp>29.0</ns3:atemp>
            <ns3:hr>116</ns3:hr>
          </ns3:TrackPointExtension>
        </extensions>
      </trkpt>
      <trkpt lat="31.40919034369289875030517578125" lon="119.48514173738658428192138671875">
        <ele>29.200000762939453125</ele>
        <time>2016-04-13T08:24:00.000Z</time>
        <extensions>
          <ns3:TrackPointExtension>
            <ns3:atemp>29.0</ns3:atemp>
            <ns3:hr>116</ns3:hr>
          </ns3:TrackPointExtension>
        </extensions>
      </trkpt>
      <trkpt lat="31.40918263234198093414306640625" lon="119.48519336991012096405029296875">
        <ele>29.3999996185302734375</ele>
        <time>2016-04-13T08:24:01.000Z</time>
        <extensions>
          <ns3:TrackPointExtension>
            <ns3:atemp>29.0</ns3:atemp>
            <ns3:hr>116</ns3:hr>
          </ns3:TrackPointExtension>
        </extensions>
      </trkpt>
      <trkpt lat="31.40918330289423465728759765625" lon="119.48522664606571197509765625">
        <ele>29.3999996185302734375</ele>
        <time>2016-04-13T08:24:02.000Z</time>
        <extensions>
          <ns3:TrackPointExtension>
            <ns3:atemp>29.0</ns3:atemp>
            <ns3:hr>116</ns3:hr>
          </ns3:TrackPointExtension>
        </extensions>
      </trkpt>
      <trkpt lat="31.40918380580842494964599609375" lon="119.48525858111679553985595703125">
        <ele>29.200000762939453125</ele>
        <time>2016-04-13T08:24:03.000Z</time>
        <extensions>
          <ns3:TrackPointExtension>
            <ns3:atemp>29.0</ns3:atemp>
            <ns3:hr>116</ns3:hr>
          </ns3:TrackPointExtension>
        </extensions>
      </trkpt>
      <trkpt lat="31.4091833867132663726806640625" lon="119.48530082590878009796142578125">
        <ele>29.200000762939453125</ele>
        <time>2016-04-13T08:24:04.000Z</time>
        <extensions>
          <ns3:TrackPointExtension>
            <ns3:atemp>29.0</ns3:atemp>
            <ns3:hr>116</ns3:hr>
          </ns3:TrackPointExtension>
        </extensions>
      </trkpt>
      <trkpt lat="31.40918564982712268829345703125" lon="119.485375173389911651611328125">
        <ele>29</ele>
        <time>2016-04-13T08:24:05.000Z</time>
        <extensions>
          <ns3:TrackPointExtension>
            <ns3:atemp>29.0</ns3:atemp>
            <ns3:hr>116</ns3:hr>
          </ns3:TrackPointExtension>
        </extensions>
      </trkpt>
      <trkpt lat="31.409184895455837249755859375" lon="119.485436193645000457763671875">
        <ele>29</ele>
        <time>2016-04-13T08:24:06.000Z</time>
        <extensions>
          <ns3:TrackPointExtension>
            <ns3:atemp>29.0</ns3:atemp>
            <ns3:hr>116</ns3:hr>
          </ns3:TrackPointExtension>
        </extensions>
      </trkpt>
      <trkpt lat="31.409176178276538848876953125" lon="119.4854874908924102783203125">
        <ele>28.799999237060546875</ele>
        <time>2016-04-13T08:24:07.000Z</time>
        <extensions>
          <ns3:TrackPointExtension>
            <ns3:atemp>29.0</ns3:atemp>
            <ns3:hr>115</ns3:hr>
          </ns3:TrackPointExtension>
        </extensions>
      </trkpt>
      <trkpt lat="31.40916821546852588653564453125" lon="119.4855342619121074676513671875">
        <ele>28.3999996185302734375</ele>
        <time>2016-04-13T08:24:08.000Z</time>
        <extensions>
          <ns3:TrackPointExtension>
            <ns3:atemp>29.0</ns3:atemp>
            <ns3:hr>115</ns3:hr>
          </ns3:TrackPointExtension>
        </extensions>
      </trkpt>
      <trkpt lat="31.40915882773697376251220703125" lon="119.485577680170536041259765625">
        <ele>28.200000762939453125</ele>
        <time>2016-04-13T08:24:09.000Z</time>
        <extensions>
          <ns3:TrackPointExtension>
            <ns3:atemp>29.0</ns3:atemp>
            <ns3:hr>115</ns3:hr>
          </ns3:TrackPointExtension>
        </extensions>
      </trkpt>
      <trkpt lat="31.4091491885483264923095703125" lon="119.48561816476285457611083984375">
        <ele>28.200000762939453125</ele>
        <time>2016-04-13T08:24:10.000Z</time>
        <extensions>
          <ns3:TrackPointExtension>
            <ns3:atemp>29.0</ns3:atemp>
            <ns3:hr>115</ns3:hr>
          </ns3:TrackPointExtension>
        </extensions>
      </trkpt>
      <trkpt lat="31.409137956798076629638671875" lon="119.485665522515773773193359375">
        <ele>28.3999996185302734375</ele>
        <time>2016-04-13T08:24:11.000Z</time>
        <extensions>
          <ns3:TrackPointExtension>
            <ns3:atemp>29.0</ns3:atemp>
            <ns3:hr>115</ns3:hr>
          </ns3:TrackPointExtension>
        </extensions>
      </trkpt>
      <trkpt lat="31.40912546776235103607177734375" lon="119.48571807704865932464599609375">
        <ele>28.3999996185302734375</ele>
        <time>2016-04-13T08:24:12.000Z</time>
        <extensions>
          <ns3:TrackPointExtension>
            <ns3:atemp>29.0</ns3:atemp>
            <ns3:hr>116</ns3:hr>
          </ns3:TrackPointExtension>
        </extensions>
      </trkpt>
      <trkpt lat="31.40910786576569080352783203125" lon="119.48577205650508403778076171875">
        <ele>28.200000762939453125</ele>
        <time>2016-04-13T08:24:13.000Z</time>
        <extensions>
          <ns3:TrackPointExtension>
            <ns3:atemp>29.0</ns3:atemp>
            <ns3:hr>116</ns3:hr>
          </ns3:TrackPointExtension>
        </extensions>
      </trkpt>
      <trkpt lat="31.40909864567220211029052734375" lon="119.48582016862928867340087890625">
        <ele>28</ele>
        <time>2016-04-13T08:24:14.000Z</time>
        <extensions>
          <ns3:TrackPointExtension>
            <ns3:atemp>29.0</ns3:atemp>
            <ns3:hr>117</ns3:hr>
          </ns3:TrackPointExtension>
        </extensions>
      </trkpt>
      <trkpt lat="31.40909026376903057098388671875" lon="119.4858675263822078704833984375">
        <ele>28</ele>
        <time>2016-04-13T08:24:15.000Z</time>
        <extensions>
          <ns3:TrackPointExtension>
            <ns3:atemp>29.0</ns3:atemp>
            <ns3:hr>118</ns3:hr>
          </ns3:TrackPointExtension>
        </extensions>
      </trkpt>
      <trkpt lat="31.40908003784716129302978515625" lon="119.48591597378253936767578125">
        <ele>27.799999237060546875</ele>
        <time>2016-04-13T08:24:16.000Z</time>
        <extensions>
          <ns3:TrackPointExtension>
            <ns3:atemp>29.0</ns3:atemp>
            <ns3:hr>118</ns3:hr>
          </ns3:TrackPointExtension>
        </extensions>
      </trkpt>
      <trkpt lat="31.4090667106211185455322265625" lon="119.48596383444964885711669921875">
        <ele>27.799999237060546875</ele>
        <time>2016-04-13T08:24:17.000Z</time>
        <extensions>
          <ns3:TrackPointExtension>
            <ns3:atemp>29.0</ns3:atemp>
            <ns3:hr>119</ns3:hr>
          </ns3:TrackPointExtension>
        </extensions>
      </trkpt>
      <trkpt lat="31.4090559817850589752197265625" lon="119.48600742034614086151123046875">
        <ele>27.799999237060546875</ele>
        <time>2016-04-13T08:24:18.000Z</time>
        <extensions>
          <ns3:TrackPointExtension>
            <ns3:atemp>29.0</ns3:atemp>
            <ns3:hr>119</ns3:hr>
          </ns3:TrackPointExtension>
        </extensions>
      </trkpt>
      <trkpt lat="31.4090663753449916839599609375" lon="119.48600859381258487701416015625">
        <ele>27.799999237060546875</ele>
        <time>2016-04-13T08:24:19.000Z</time>
        <extensions>
          <ns3:TrackPointExtension>
            <ns3:atemp>29.0</ns3:atemp>
            <ns3:hr>120</ns3:hr>
          </ns3:TrackPointExtension>
        </extensions>
      </trkpt>
      <trkpt lat="31.40905858017504215240478515625" lon="119.486053772270679473876953125">
        <ele>27.799999237060546875</ele>
        <time>2016-04-13T08:24:20.000Z</time>
        <extensions>
          <ns3:TrackPointExtension>
            <ns3:atemp>29.0</ns3:atemp>
            <ns3:hr>120</ns3:hr>
          </ns3:TrackPointExtension>
        </extensions>
      </trkpt>
      <trkpt lat="31.409042738378047943115234375" lon="119.4861049018800258636474609375">
        <ele>27.6000003814697265625</ele>
        <time>2016-04-13T08:24:21.000Z</time>
        <extensions>
          <ns3:TrackPointExtension>
            <ns3:atemp>29.0</ns3:atemp>
            <ns3:hr>119</ns3:hr>
          </ns3:TrackPointExtension>
        </extensions>
      </trkpt>
      <trkpt lat="31.4090261422097682952880859375" lon="119.486157707870006561279296875">
        <ele>27.6000003814697265625</ele>
        <time>2016-04-13T08:24:22.000Z</time>
        <extensions>
          <ns3:TrackPointExtension>
            <ns3:atemp>29.0</ns3:atemp>
            <ns3:hr>118</ns3:hr>
          </ns3:TrackPointExtension>
        </extensions>
      </trkpt>
      <trkpt lat="31.40901625156402587890625" lon="119.48620724491775035858154296875">
        <ele>27.6000003814697265625</ele>
        <time>2016-04-13T08:24:23.000Z</time>
        <extensions>
          <ns3:TrackPointExtension>
            <ns3:atemp>29.0</ns3:atemp>
            <ns3:hr>117</ns3:hr>
          </ns3:TrackPointExtension>
        </extensions>
      </trkpt>
      <trkpt lat="31.4090113900601863861083984375" lon="119.486258290708065032958984375">
        <ele>27.799999237060546875</ele>
        <time>2016-04-13T08:24:24.000Z</time>
        <extensions>
          <ns3:TrackPointExtension>
            <ns3:atemp>29.0</ns3:atemp>
            <ns3:hr>117</ns3:hr>
          </ns3:TrackPointExtension>
        </extensions>
      </trkpt>
      <trkpt lat="31.4090068638324737548828125" lon="119.48631159961223602294921875">
        <ele>27.799999237060546875</ele>
        <time>2016-04-13T08:24:25.000Z</time>
        <extensions>
          <ns3:TrackPointExtension>
            <ns3:atemp>29.0</ns3:atemp>
            <ns3:hr>117</ns3:hr>
          </ns3:TrackPointExtension>
        </extensions>
      </trkpt>
      <trkpt lat="31.4090030081570148468017578125" lon="119.486364237964153289794921875">
        <ele>28</ele>
        <time>2016-04-13T08:24:26.000Z</time>
        <extensions>
          <ns3:TrackPointExtension>
            <ns3:atemp>29.0</ns3:atemp>
            <ns3:hr>117</ns3:hr>
          </ns3:TrackPointExtension>
        </extensions>
      </trkpt>
      <trkpt lat="31.4089986495673656463623046875" lon="119.48642031289637088775634765625">
        <ele>27.799999237060546875</ele>
        <time>2016-04-13T08:24:27.000Z</time>
        <extensions>
          <ns3:TrackPointExtension>
            <ns3:atemp>29.0</ns3:atemp>
            <ns3:hr>118</ns3:hr>
          </ns3:TrackPointExtension>
        </extensions>
      </trkpt>
      <trkpt lat="31.40899621881544589996337890625" lon="119.4864733703434467315673828125">
        <ele>27.799999237060546875</ele>
        <time>2016-04-13T08:24:28.000Z</time>
        <extensions>
          <ns3:TrackPointExtension>
            <ns3:atemp>29.0</ns3:atemp>
            <ns3:hr>118</ns3:hr>
          </ns3:TrackPointExtension>
        </extensions>
      </trkpt>
      <trkpt lat="31.4090122282505035400390625" lon="119.48654285632073879241943359375">
        <ele>28</ele>
        <time>2016-04-13T08:24:29.000Z</time>
        <extensions>
          <ns3:TrackPointExtension>
            <ns3:atemp>29.0</ns3:atemp>
            <ns3:hr>118</ns3:hr>
          </ns3:TrackPointExtension>
        </extensions>
      </trkpt>
      <trkpt lat="31.40902237035334110260009765625" lon="119.486599266529083251953125">
        <ele>27.799999237060546875</ele>
        <time>2016-04-13T08:24:30.000Z</time>
        <extensions>
          <ns3:TrackPointExtension>
            <ns3:atemp>29.0</ns3:atemp>
            <ns3:hr>118</ns3:hr>
          </ns3:TrackPointExtension>
        </extensions>
      </trkpt>
      <trkpt lat="31.40902974642813205718994140625" lon="119.48665584437549114227294921875">
        <ele>27.6000003814697265625</ele>
        <time>2016-04-13T08:24:31.000Z</time>
        <extensions>
          <ns3:TrackPointExtension>
            <ns3:atemp>29.0</ns3:atemp>
            <ns3:hr>118</ns3:hr>
          </ns3:TrackPointExtension>
        </extensions>
      </trkpt>
      <trkpt lat="31.4090445823967456817626953125" lon="119.48670311830937862396240234375">
        <ele>27.6000003814697265625</ele>
        <time>2016-04-13T08:24:32.000Z</time>
        <extensions>
          <ns3:TrackPointExtension>
            <ns3:atemp>29.0</ns3:atemp>
            <ns3:hr>119</ns3:hr>
          </ns3:TrackPointExtension>
        </extensions>
      </trkpt>
      <trkpt lat="31.40905841253697872161865234375" lon="119.4867493025958538055419921875">
        <ele>27.6000003814697265625</ele>
        <time>2016-04-13T08:24:33.000Z</time>
        <extensions>
          <ns3:TrackPointExtension>
            <ns3:atemp>29.0</ns3:atemp>
            <ns3:hr>119</ns3:hr>
          </ns3:TrackPointExtension>
        </extensions>
      </trkpt>
      <trkpt lat="31.40907249413430690765380859375" lon="119.48679112829267978668212890625">
        <ele>27.3999996185302734375</ele>
        <time>2016-04-13T08:24:34.000Z</time>
        <extensions>
          <ns3:TrackPointExtension>
            <ns3:atemp>29.0</ns3:atemp>
            <ns3:hr>119</ns3:hr>
          </ns3:TrackPointExtension>
        </extensions>
      </trkpt>
      <trkpt lat="31.40908590517938137054443359375" lon="119.486831612884998321533203125">
        <ele>27.3999996185302734375</ele>
        <time>2016-04-13T08:24:35.000Z</time>
        <extensions>
          <ns3:TrackPointExtension>
            <ns3:atemp>29.0</ns3:atemp>
            <ns3:hr>118</ns3:hr>
          </ns3:TrackPointExtension>
        </extensions>
      </trkpt>
      <trkpt lat="31.40909797511994838714599609375" lon="119.486869834363460540771484375">
        <ele>27.3999996185302734375</ele>
        <time>2016-04-13T08:24:36.000Z</time>
        <extensions>
          <ns3:TrackPointExtension>
            <ns3:atemp>29.0</ns3:atemp>
            <ns3:hr>118</ns3:hr>
          </ns3:TrackPointExtension>
        </extensions>
      </trkpt>
      <trkpt lat="31.40910166315734386444091796875" lon="119.48691333644092082977294921875">
        <ele>27.3999996185302734375</ele>
        <time>2016-04-13T08:24:37.000Z</time>
        <extensions>
          <ns3:TrackPointExtension>
            <ns3:atemp>29.0</ns3:atemp>
            <ns3:hr>118</ns3:hr>
          </ns3:TrackPointExtension>
        </extensions>
      </trkpt>
      <trkpt lat="31.40910266898572444915771484375" lon="119.48695792816579341888427734375">
        <ele>27.799999237060546875</ele>
        <time>2016-04-13T08:24:38.000Z</time>
        <extensions>
          <ns3:TrackPointExtension>
            <ns3:atemp>29.0</ns3:atemp>
            <ns3:hr>118</ns3:hr>
          </ns3:TrackPointExtension>
        </extensions>
      </trkpt>
      <trkpt lat="31.40910568647086620330810546875" lon="119.48700226843357086181640625">
        <ele>27.799999237060546875</ele>
        <time>2016-04-13T08:24:39.000Z</time>
        <extensions>
          <ns3:TrackPointExtension>
            <ns3:atemp>29.0</ns3:atemp>
            <ns3:hr>118</ns3:hr>
          </ns3:TrackPointExtension>
        </extensions>
      </trkpt>
      <trkpt lat="31.4091109670698642730712890625" lon="119.4870476983487606048583984375">
        <ele>27.3999996185302734375</ele>
        <time>2016-04-13T08:24:40.000Z</time>
        <extensions>
          <ns3:TrackPointExtension>
            <ns3:atemp>29.0</ns3:atemp>
            <ns3:hr>117</ns3:hr>
          </ns3:TrackPointExtension>
        </extensions>
      </trkpt>
      <trkpt lat="31.40911742113530635833740234375" lon="119.4870916195213794708251953125">
        <ele>27.3999996185302734375</ele>
        <time>2016-04-13T08:24:41.000Z</time>
        <extensions>
          <ns3:TrackPointExtension>
            <ns3:atemp>29.0</ns3:atemp>
            <ns3:hr>117</ns3:hr>
          </ns3:TrackPointExtension>
        </extensions>
      </trkpt>
      <trkpt lat="31.40912949107587337493896484375" lon="119.4871362112462520599365234375">
        <ele>27.3999996185302734375</ele>
        <time>2016-04-13T08:24:42.000Z</time>
        <extensions>
          <ns3:TrackPointExtension>
            <ns3:atemp>29.0</ns3:atemp>
            <ns3:hr>117</ns3:hr>
          </ns3:TrackPointExtension>
        </extensions>
      </trkpt>
      <trkpt lat="31.40914969146251678466796875" lon="119.4871791265904903411865234375">
        <ele>27</ele>
        <time>2016-04-13T08:24:43.000Z</time>
        <extensions>
          <ns3:TrackPointExtension>
            <ns3:atemp>29.0</ns3:atemp>
            <ns3:hr>117</ns3:hr>
          </ns3:TrackPointExtension>
        </extensions>
      </trkpt>
      <trkpt lat="31.40917659737169742584228515625" lon="119.487217180430889129638671875">
        <ele>27</ele>
        <time>2016-04-13T08:24:44.000Z</time>
        <extensions>
          <ns3:TrackPointExtension>
            <ns3:atemp>29.0</ns3:atemp>
            <ns3:hr>118</ns3:hr>
          </ns3:TrackPointExtension>
        </extensions>
      </trkpt>
      <trkpt lat="31.40921850688755512237548828125" lon="119.48722832836210727691650390625">
        <ele>27.200000762939453125</ele>
        <time>2016-04-13T08:24:45.000Z</time>
        <extensions>
          <ns3:TrackPointExtension>
            <ns3:atemp>29.0</ns3:atemp>
            <ns3:hr>119</ns3:hr>
          </ns3:TrackPointExtension>
        </extensions>
      </trkpt>
      <trkpt lat="31.40925605781376361846923828125" lon="119.48724442161619663238525390625">
        <ele>27.200000762939453125</ele>
        <time>2016-04-13T08:24:46.000Z</time>
        <extensions>
          <ns3:TrackPointExtension>
            <ns3:atemp>29.0</ns3:atemp>
            <ns3:hr>119</ns3:hr>
          </ns3:TrackPointExtension>
        </extensions>
      </trkpt>
      <trkpt lat="31.4092997275292873382568359375" lon="119.48724911548197269439697265625">
        <ele>27.200000762939453125</ele>
        <time>2016-04-13T08:24:47.000Z</time>
        <extensions>
          <ns3:TrackPointExtension>
            <ns3:atemp>29.0</ns3:atemp>
            <ns3:hr>120</ns3:hr>
          </ns3:TrackPointExtension>
        </extensions>
      </trkpt>
      <trkpt lat="31.40934892930090427398681640625" lon="119.48724542744457721710205078125">
        <ele>27.3999996185302734375</ele>
        <time>2016-04-13T08:24:48.000Z</time>
        <extensions>
          <ns3:TrackPointExtension>
            <ns3:atemp>29.0</ns3:atemp>
            <ns3:hr>120</ns3:hr>
          </ns3:TrackPointExtension>
        </extensions>
      </trkpt>
      <trkpt lat="31.409396789968013763427734375" lon="119.48724391870200634002685546875">
        <ele>27.6000003814697265625</ele>
        <time>2016-04-13T08:24:49.000Z</time>
        <extensions>
          <ns3:TrackPointExtension>
            <ns3:atemp>29.0</ns3:atemp>
            <ns3:hr>120</ns3:hr>
          </ns3:TrackPointExtension>
        </extensions>
      </trkpt>
      <trkpt lat="31.40944548882544040679931640625" lon="119.4872441701591014862060546875">
        <ele>27.6000003814697265625</ele>
        <time>2016-04-13T08:24:50.000Z</time>
        <extensions>
          <ns3:TrackPointExtension>
            <ns3:atemp>29.0</ns3:atemp>
            <ns3:hr>121</ns3:hr>
          </ns3:TrackPointExtension>
        </extensions>
      </trkpt>
      <trkpt lat="31.40948555432260036468505859375" lon="119.48725364170968532562255859375">
        <ele>27.3999996185302734375</ele>
        <time>2016-04-13T08:24:51.000Z</time>
        <extensions>
          <ns3:TrackPointExtension>
            <ns3:atemp>29.0</ns3:atemp>
            <ns3:hr>123</ns3:hr>
          </ns3:TrackPointExtension>
        </extensions>
      </trkpt>
      <trkpt lat="31.40951639972627162933349609375" lon="119.48728331364691257476806640625">
        <ele>27.3999996185302734375</ele>
        <time>2016-04-13T08:24:52.000Z</time>
        <extensions>
          <ns3:TrackPointExtension>
            <ns3:atemp>29.0</ns3:atemp>
            <ns3:hr>123</ns3:hr>
          </ns3:TrackPointExtension>
        </extensions>
      </trkpt>
      <trkpt lat="31.40953651629388332366943359375" lon="119.48732958175241947174072265625">
        <ele>27.6000003814697265625</ele>
        <time>2016-04-13T08:24:53.000Z</time>
        <extensions>
          <ns3:TrackPointExtension>
            <ns3:atemp>29.0</ns3:atemp>
            <ns3:hr>124</ns3:hr>
          </ns3:TrackPointExtension>
        </extensions>
      </trkpt>
      <trkpt lat="31.40955395065248012542724609375" lon="119.4873757660388946533203125">
        <ele>28</ele>
        <time>2016-04-13T08:24:54.000Z</time>
        <extensions>
          <ns3:TrackPointExtension>
            <ns3:atemp>29.0</ns3:atemp>
            <ns3:hr>125</ns3:hr>
          </ns3:TrackPointExtension>
        </extensions>
      </trkpt>
      <trkpt lat="31.40956685878336429595947265625" lon="119.48742245323956012725830078125">
        <ele>28.200000762939453125</ele>
        <time>2016-04-13T08:24:55.000Z</time>
        <extensions>
          <ns3:TrackPointExtension>
            <ns3:atemp>29.0</ns3:atemp>
            <ns3:hr>126</ns3:hr>
          </ns3:TrackPointExtension>
        </extensions>
      </trkpt>
      <trkpt lat="31.4095759950578212738037109375" lon="119.48747165501117706298828125">
        <ele>28</ele>
        <time>2016-04-13T08:24:56.000Z</time>
        <extensions>
          <ns3:TrackPointExtension>
            <ns3:atemp>29.0</ns3:atemp>
            <ns3:hr>127</ns3:hr>
          </ns3:TrackPointExtension>
        </extensions>
      </trkpt>
      <trkpt lat="31.40958211384713649749755859375" lon="119.4875206053256988525390625">
        <ele>27.6000003814697265625</ele>
        <time>2016-04-13T08:24:57.000Z</time>
        <extensions>
          <ns3:TrackPointExtension>
            <ns3:atemp>29.0</ns3:atemp>
            <ns3:hr>127</ns3:hr>
          </ns3:TrackPointExtension>
        </extensions>
      </trkpt>
      <trkpt lat="31.4095890708267688751220703125" lon="119.487568549811840057373046875">
        <ele>27.3999996185302734375</ele>
        <time>2016-04-13T08:24:58.000Z</time>
        <extensions>
          <ns3:TrackPointExtension>
            <ns3:atemp>29.0</ns3:atemp>
            <ns3:hr>127</ns3:hr>
          </ns3:TrackPointExtension>
        </extensions>
      </trkpt>
      <trkpt lat="31.40959301032125949859619140625" lon="119.48760568164288997650146484375">
        <ele>27.3999996185302734375</ele>
        <time>2016-04-13T08:24:59.000Z</time>
        <extensions>
          <ns3:TrackPointExtension>
            <ns3:atemp>29.0</ns3:atemp>
            <ns3:hr>127</ns3:hr>
          </ns3:TrackPointExtension>
        </extensions>
      </trkpt>
    </trkseg>
  </trk>
</gpx>
