<gpx xmlns:ns3="http://www.garmin.com/xmlschemas/TrackPointExtension/v1" xmlns="http://www.topografix.com/GPX/1/1" xmlns:xsi="http://www.w3.org/2001/XMLSchema-instance" xmlns:ns2="http://www.garmin.com/xmlschemas/GpxExtensions/v3" creator="Garmin Connect" version="1.1" xsi:schemaLocation="http://www.topografix.com/GPX/1/1 http://www.topografix.com/GPX/11.xsd">
  <extensions>
<distance>3194.04</distance>
<average_hr></average_hr>
<average_speed>4.683343165780792</average_speed>
<start_time>2015-09-13T23:51:33+00:00</start_time>
<end_time>2015-09-14T00:02:55+00:00</end_time>
<moving_time>665.07</moving_time>
<elapsed_time>697.0</elapsed_time>
</extensions>
<metadata>
    <link href="connect.garmin.com">
      <text>Garmin Connect</text>
    </link>
    <time>2015-09-13T23:51:33.000Z</time>
  </metadata>
  <trk>
    <name>常州市 骑行</name>
    <type>cycling</type>
    <trkseg>
      <trkpt lat="31.4357070811092853546142578125" lon="119.4829006679356098175048828125">
        <ele>100.8000030517578125</ele>
        <time>2015-09-13T23:51:33.000Z</time>
        <extensions>
          <ns3:TrackPointExtension>
            <ns3:atemp>24.0</ns3:atemp>
          </ns3:TrackPointExtension>
        </extensions>
      </trkpt>
      <trkpt lat="31.43572241999208927154541015625" lon="119.48286454193294048309326171875">
        <ele>-5</ele>
        <time>2015-09-13T23:51:34.000Z</time>
        <extensions>
          <ns3:TrackPointExtension>
            <ns3:atemp>26.0</ns3:atemp>
          </ns3:TrackPointExtension>
        </extensions>
      </trkpt>
      <trkpt lat="31.4357858709990978240966796875" lon="119.482876025140285491943359375">
        <ele>-5</ele>
        <time>2015-09-13T23:51:35.000Z</time>
        <extensions>
          <ns3:TrackPointExtension>
            <ns3:atemp>26.0</ns3:atemp>
          </ns3:TrackPointExtension>
        </extensions>
      </trkpt>
      <trkpt lat="31.43579165451228618621826171875" lon="119.48287040926516056060791015625">
        <ele>80.8000030517578125</ele>
        <time>2015-09-13T23:51:37.000Z</time>
        <extensions>
          <ns3:TrackPointExtension>
            <ns3:atemp>26.0</ns3:atemp>
          </ns3:TrackPointExtension>
        </extensions>
      </trkpt>
      <trkpt lat="31.43579148687422275543212890625" lon="119.4828668050467967987060546875">
        <ele>80.8000030517578125</ele>
        <time>2015-09-13T23:51:38.000Z</time>
        <extensions>
          <ns3:TrackPointExtension>
            <ns3:atemp>26.0</ns3:atemp>
          </ns3:TrackPointExtension>
        </extensions>
      </trkpt>
      <trkpt lat="31.43574086017906665802001953125" lon="119.4828530587255954742431640625">
        <ele>79.8000030517578125</ele>
        <time>2015-09-13T23:51:45.000Z</time>
        <extensions>
          <ns3:TrackPointExtension>
            <ns3:atemp>26.0</ns3:atemp>
          </ns3:TrackPointExtension>
        </extensions>
      </trkpt>
      <trkpt lat="31.435732059180736541748046875" lon="119.48286705650389194488525390625">
        <ele>79.8000030517578125</ele>
        <time>2015-09-13T23:51:46.000Z</time>
        <extensions>
          <ns3:TrackPointExtension>
            <ns3:atemp>26.0</ns3:atemp>
          </ns3:TrackPointExtension>
        </extensions>
      </trkpt>
      <trkpt lat="31.435721330344676971435546875" lon="119.48288482613861560821533203125">
        <ele>80</ele>
        <time>2015-09-13T23:51:47.000Z</time>
        <extensions>
          <ns3:TrackPointExtension>
            <ns3:atemp>26.0</ns3:atemp>
          </ns3:TrackPointExtension>
        </extensions>
      </trkpt>
      <trkpt lat="31.43559920601546764373779296875" lon="119.4835038296878337860107421875">
        <ele>79.8000030517578125</ele>
        <time>2015-09-13T23:52:07.000Z</time>
        <extensions>
          <ns3:TrackPointExtension>
            <ns3:atemp>26.0</ns3:atemp>
          </ns3:TrackPointExtension>
        </extensions>
      </trkpt>
      <trkpt lat="31.435579843819141387939453125" lon="119.48416591621935367584228515625">
        <ele>79.59999847412109375</ele>
        <time>2015-09-13T23:52:25.000Z</time>
        <extensions>
          <ns3:TrackPointExtension>
            <ns3:atemp>25.0</ns3:atemp>
          </ns3:TrackPointExtension>
        </extensions>
      </trkpt>
      <trkpt lat="31.4351300708949565887451171875" lon="119.48442324064671993255615234375">
        <ele>79.59999847412109375</ele>
        <time>2015-09-13T23:52:40.000Z</time>
        <extensions>
          <ns3:TrackPointExtension>
            <ns3:atemp>25.0</ns3:atemp>
          </ns3:TrackPointExtension>
        </extensions>
      </trkpt>
      <trkpt lat="31.43451207317411899566650390625" lon="119.4844231568276882171630859375">
        <ele>79.40000152587890625</ele>
        <time>2015-09-13T23:52:51.000Z</time>
        <extensions>
          <ns3:TrackPointExtension>
            <ns3:atemp>25.0</ns3:atemp>
          </ns3:TrackPointExtension>
        </extensions>
      </trkpt>
      <trkpt lat="31.43431006930768489837646484375" lon="119.48438099585473537445068359375">
        <ele>79.8000030517578125</ele>
        <time>2015-09-13T23:52:55.000Z</time>
        <extensions>
          <ns3:TrackPointExtension>
            <ns3:atemp>25.0</ns3:atemp>
          </ns3:TrackPointExtension>
        </extensions>
      </trkpt>
      <trkpt lat="31.43391192890703678131103515625" lon="119.48424336500465869903564453125">
        <ele>79.8000030517578125</ele>
        <time>2015-09-13T23:53:03.000Z</time>
        <extensions>
          <ns3:TrackPointExtension>
            <ns3:atemp>25.0</ns3:atemp>
          </ns3:TrackPointExtension>
        </extensions>
      </trkpt>
      <trkpt lat="31.43372601829469203948974609375" lon="119.4841432012617588043212890625">
        <ele>80</ele>
        <time>2015-09-13T23:53:07.000Z</time>
        <extensions>
          <ns3:TrackPointExtension>
            <ns3:atemp>25.0</ns3:atemp>
          </ns3:TrackPointExtension>
        </extensions>
      </trkpt>
      <trkpt lat="31.4335919916629791259765625" lon="119.48409835807979106903076171875">
        <ele>80</ele>
        <time>2015-09-13T23:53:10.000Z</time>
        <extensions>
          <ns3:TrackPointExtension>
            <ns3:atemp>25.0</ns3:atemp>
          </ns3:TrackPointExtension>
        </extensions>
      </trkpt>
      <trkpt lat="31.43354714848101139068603515625" lon="119.4840927422046661376953125">
        <ele>80.1999969482421875</ele>
        <time>2015-09-13T23:53:11.000Z</time>
        <extensions>
          <ns3:TrackPointExtension>
            <ns3:atemp>25.0</ns3:atemp>
          </ns3:TrackPointExtension>
        </extensions>
      </trkpt>
      <trkpt lat="31.433501802384853363037109375" lon="119.48408536612987518310546875">
        <ele>80.40000152587890625</ele>
        <time>2015-09-13T23:53:12.000Z</time>
        <extensions>
          <ns3:TrackPointExtension>
            <ns3:atemp>25.0</ns3:atemp>
          </ns3:TrackPointExtension>
        </extensions>
      </trkpt>
      <trkpt lat="31.4334540255367755889892578125" lon="119.4840712845325469970703125">
        <ele>80.1999969482421875</ele>
        <time>2015-09-13T23:53:13.000Z</time>
        <extensions>
          <ns3:TrackPointExtension>
            <ns3:atemp>25.0</ns3:atemp>
          </ns3:TrackPointExtension>
        </extensions>
      </trkpt>
      <trkpt lat="31.433405242860317230224609375" lon="119.48405929841101169586181640625">
        <ele>80.1999969482421875</ele>
        <time>2015-09-13T23:53:14.000Z</time>
        <extensions>
          <ns3:TrackPointExtension>
            <ns3:atemp>25.0</ns3:atemp>
          </ns3:TrackPointExtension>
        </extensions>
      </trkpt>
      <trkpt lat="31.4333559572696685791015625" lon="119.4840513356029987335205078125">
        <ele>80</ele>
        <time>2015-09-13T23:53:15.000Z</time>
        <extensions>
          <ns3:TrackPointExtension>
            <ns3:atemp>25.0</ns3:atemp>
          </ns3:TrackPointExtension>
        </extensions>
      </trkpt>
      <trkpt lat="31.433185301721096038818359375" lon="119.48403398506343364715576171875">
        <ele>80.59999847412109375</ele>
        <time>2015-09-13T23:53:19.000Z</time>
        <extensions>
          <ns3:TrackPointExtension>
            <ns3:atemp>25.0</ns3:atemp>
          </ns3:TrackPointExtension>
        </extensions>
      </trkpt>
      <trkpt lat="31.43310072831809520721435546875" lon="119.48403616435825824737548828125">
        <ele>80.59999847412109375</ele>
        <time>2015-09-13T23:53:21.000Z</time>
        <extensions>
          <ns3:TrackPointExtension>
            <ns3:atemp>25.0</ns3:atemp>
          </ns3:TrackPointExtension>
        </extensions>
      </trkpt>
      <trkpt lat="31.4330577291548252105712890625" lon="119.48404555208981037139892578125">
        <ele>80.59999847412109375</ele>
        <time>2015-09-13T23:53:22.000Z</time>
        <extensions>
          <ns3:TrackPointExtension>
            <ns3:atemp>25.0</ns3:atemp>
          </ns3:TrackPointExtension>
        </extensions>
      </trkpt>
      <trkpt lat="31.4330233633518218994140625" lon="119.484077654778957366943359375">
        <ele>80.8000030517578125</ele>
        <time>2015-09-13T23:53:23.000Z</time>
        <extensions>
          <ns3:TrackPointExtension>
            <ns3:atemp>25.0</ns3:atemp>
          </ns3:TrackPointExtension>
        </extensions>
      </trkpt>
      <trkpt lat="31.4329893328249454498291015625" lon="119.4841140322387218475341796875">
        <ele>80.8000030517578125</ele>
        <time>2015-09-13T23:53:24.000Z</time>
        <extensions>
          <ns3:TrackPointExtension>
            <ns3:atemp>25.0</ns3:atemp>
          </ns3:TrackPointExtension>
        </extensions>
      </trkpt>
      <trkpt lat="31.4329563081264495849609375" lon="119.484150409698486328125">
        <ele>80.59999847412109375</ele>
        <time>2015-09-13T23:53:25.000Z</time>
        <extensions>
          <ns3:TrackPointExtension>
            <ns3:atemp>25.0</ns3:atemp>
          </ns3:TrackPointExtension>
        </extensions>
      </trkpt>
      <trkpt lat="31.43262145109474658966064453125" lon="119.48472901247441768646240234375">
        <ele>82</ele>
        <time>2015-09-13T23:53:39.000Z</time>
        <extensions>
          <ns3:TrackPointExtension>
            <ns3:atemp>25.0</ns3:atemp>
          </ns3:TrackPointExtension>
        </extensions>
      </trkpt>
      <trkpt lat="31.4325310103595256805419921875" lon="119.4847839139401912689208984375">
        <ele>82.1999969482421875</ele>
        <time>2015-09-13T23:53:43.000Z</time>
        <extensions>
          <ns3:TrackPointExtension>
            <ns3:atemp>25.0</ns3:atemp>
          </ns3:TrackPointExtension>
        </extensions>
      </trkpt>
      <trkpt lat="31.43250863067805767059326171875" lon="119.48477176018059253692626953125">
        <ele>82.1999969482421875</ele>
        <time>2015-09-13T23:53:44.000Z</time>
        <extensions>
          <ns3:TrackPointExtension>
            <ns3:atemp>25.0</ns3:atemp>
          </ns3:TrackPointExtension>
        </extensions>
      </trkpt>
      <trkpt lat="31.43248951993882656097412109375" lon="119.4847490452229976654052734375">
        <ele>82.40000152587890625</ele>
        <time>2015-09-13T23:53:45.000Z</time>
        <extensions>
          <ns3:TrackPointExtension>
            <ns3:atemp>25.0</ns3:atemp>
          </ns3:TrackPointExtension>
        </extensions>
      </trkpt>
      <trkpt lat="31.43209640868008136749267578125" lon="119.48449440300464630126953125">
        <ele>82.1999969482421875</ele>
        <time>2015-09-13T23:53:58.000Z</time>
        <extensions>
          <ns3:TrackPointExtension>
            <ns3:atemp>25.0</ns3:atemp>
          </ns3:TrackPointExtension>
        </extensions>
      </trkpt>
      <trkpt lat="31.43207411281764507293701171875" lon="119.48450605385005474090576171875">
        <ele>82.1999969482421875</ele>
        <time>2015-09-13T23:53:59.000Z</time>
        <extensions>
          <ns3:TrackPointExtension>
            <ns3:atemp>25.0</ns3:atemp>
          </ns3:TrackPointExtension>
        </extensions>
      </trkpt>
      <trkpt lat="31.4320488832890987396240234375" lon="119.4845321215689182281494140625">
        <ele>82.1999969482421875</ele>
        <time>2015-09-13T23:54:00.000Z</time>
        <extensions>
          <ns3:TrackPointExtension>
            <ns3:atemp>25.0</ns3:atemp>
          </ns3:TrackPointExtension>
        </extensions>
      </trkpt>
      <trkpt lat="31.43202683888375759124755859375" lon="119.48456238023936748504638671875">
        <ele>82.1999969482421875</ele>
        <time>2015-09-13T23:54:01.000Z</time>
        <extensions>
          <ns3:TrackPointExtension>
            <ns3:atemp>25.0</ns3:atemp>
          </ns3:TrackPointExtension>
        </extensions>
      </trkpt>
      <trkpt lat="31.43200353719294071197509765625" lon="119.4845954887568950653076171875">
        <ele>82.1999969482421875</ele>
        <time>2015-09-13T23:54:02.000Z</time>
        <extensions>
          <ns3:TrackPointExtension>
            <ns3:atemp>25.0</ns3:atemp>
          </ns3:TrackPointExtension>
        </extensions>
      </trkpt>
      <trkpt lat="31.4319773018360137939453125" lon="119.4846296869218349456787109375">
        <ele>82.40000152587890625</ele>
        <time>2015-09-13T23:54:03.000Z</time>
        <extensions>
          <ns3:TrackPointExtension>
            <ns3:atemp>25.0</ns3:atemp>
          </ns3:TrackPointExtension>
        </extensions>
      </trkpt>
      <trkpt lat="31.43148922361433506011962890625" lon="119.4850068725645542144775390625">
        <ele>82.1999969482421875</ele>
        <time>2015-09-13T23:54:19.000Z</time>
        <extensions>
          <ns3:TrackPointExtension>
            <ns3:atemp>25.0</ns3:atemp>
          </ns3:TrackPointExtension>
        </extensions>
      </trkpt>
      <trkpt lat="31.43140724860131740570068359375" lon="119.48505573906004428863525390625">
        <ele>82</ele>
        <time>2015-09-13T23:54:21.000Z</time>
        <extensions>
          <ns3:TrackPointExtension>
            <ns3:atemp>25.0</ns3:atemp>
          </ns3:TrackPointExtension>
        </extensions>
      </trkpt>
      <trkpt lat="31.43086493946611881256103515625" lon="119.485317505896091461181640625">
        <ele>81.40000152587890625</ele>
        <time>2015-09-13T23:54:35.000Z</time>
        <extensions>
          <ns3:TrackPointExtension>
            <ns3:atemp>25.0</ns3:atemp>
          </ns3:TrackPointExtension>
        </extensions>
      </trkpt>
      <trkpt lat="31.4307433180510997772216796875" lon="119.48536704294383525848388671875">
        <ele>81.40000152587890625</ele>
        <time>2015-09-13T23:54:38.000Z</time>
        <extensions>
          <ns3:TrackPointExtension>
            <ns3:atemp>25.0</ns3:atemp>
          </ns3:TrackPointExtension>
        </extensions>
      </trkpt>
      <trkpt lat="31.43069453537464141845703125" lon="119.48535002768039703369140625">
        <ele>81.1999969482421875</ele>
        <time>2015-09-13T23:54:39.000Z</time>
        <extensions>
          <ns3:TrackPointExtension>
            <ns3:atemp>25.0</ns3:atemp>
          </ns3:TrackPointExtension>
        </extensions>
      </trkpt>
      <trkpt lat="31.430653631687164306640625" lon="119.48535597883164882659912109375">
        <ele>81.40000152587890625</ele>
        <time>2015-09-13T23:54:40.000Z</time>
        <extensions>
          <ns3:TrackPointExtension>
            <ns3:atemp>25.0</ns3:atemp>
          </ns3:TrackPointExtension>
        </extensions>
      </trkpt>
      <trkpt lat="31.43061247654259204864501953125" lon="119.4853699766099452972412109375">
        <ele>81.40000152587890625</ele>
        <time>2015-09-13T23:54:41.000Z</time>
        <extensions>
          <ns3:TrackPointExtension>
            <ns3:atemp>25.0</ns3:atemp>
          </ns3:TrackPointExtension>
        </extensions>
      </trkpt>
      <trkpt lat="31.43056310713291168212890625" lon="119.4853880815207958221435546875">
        <ele>81.1999969482421875</ele>
        <time>2015-09-13T23:54:42.000Z</time>
        <extensions>
          <ns3:TrackPointExtension>
            <ns3:atemp>25.0</ns3:atemp>
          </ns3:TrackPointExtension>
        </extensions>
      </trkpt>
      <trkpt lat="31.4304784499108791351318359375" lon="119.48542756028473377227783203125">
        <ele>81</ele>
        <time>2015-09-13T23:54:44.000Z</time>
        <extensions>
          <ns3:TrackPointExtension>
            <ns3:atemp>25.0</ns3:atemp>
          </ns3:TrackPointExtension>
        </extensions>
      </trkpt>
      <trkpt lat="31.43042991869151592254638671875" lon="119.4854273088276386260986328125">
        <ele>80.8000030517578125</ele>
        <time>2015-09-13T23:54:45.000Z</time>
        <extensions>
          <ns3:TrackPointExtension>
            <ns3:atemp>25.0</ns3:atemp>
          </ns3:TrackPointExtension>
        </extensions>
      </trkpt>
      <trkpt lat="31.43038448877632617950439453125" lon="119.4854284822940826416015625">
        <ele>81</ele>
        <time>2015-09-13T23:54:46.000Z</time>
        <extensions>
          <ns3:TrackPointExtension>
            <ns3:atemp>25.0</ns3:atemp>
          </ns3:TrackPointExtension>
        </extensions>
      </trkpt>
      <trkpt lat="31.43034123815596103668212890625" lon="119.4854346849024295806884765625">
        <ele>81.1999969482421875</ele>
        <time>2015-09-13T23:54:47.000Z</time>
        <extensions>
          <ns3:TrackPointExtension>
            <ns3:atemp>25.0</ns3:atemp>
          </ns3:TrackPointExtension>
        </extensions>
      </trkpt>
      <trkpt lat="31.43029580824077129364013671875" lon="119.48543711565434932708740234375">
        <ele>81.40000152587890625</ele>
        <time>2015-09-13T23:54:48.000Z</time>
        <extensions>
          <ns3:TrackPointExtension>
            <ns3:atemp>25.0</ns3:atemp>
          </ns3:TrackPointExtension>
        </extensions>
      </trkpt>
      <trkpt lat="31.4302472770214080810546875" lon="119.48544180952012538909912109375">
        <ele>81.59999847412109375</ele>
        <time>2015-09-13T23:54:49.000Z</time>
        <extensions>
          <ns3:TrackPointExtension>
            <ns3:atemp>25.0</ns3:atemp>
          </ns3:TrackPointExtension>
        </extensions>
      </trkpt>
      <trkpt lat="31.43019673414528369903564453125" lon="119.485450945794582366943359375">
        <ele>81.59999847412109375</ele>
        <time>2015-09-13T23:54:50.000Z</time>
        <extensions>
          <ns3:TrackPointExtension>
            <ns3:atemp>25.0</ns3:atemp>
          </ns3:TrackPointExtension>
        </extensions>
      </trkpt>
      <trkpt lat="31.43015130423009395599365234375" lon="119.4854678772389888763427734375">
        <ele>81.40000152587890625</ele>
        <time>2015-09-13T23:54:51.000Z</time>
        <extensions>
          <ns3:TrackPointExtension>
            <ns3:atemp>25.0</ns3:atemp>
          </ns3:TrackPointExtension>
        </extensions>
      </trkpt>
      <trkpt lat="31.43010310828685760498046875" lon="119.48548237793147563934326171875">
        <ele>81.40000152587890625</ele>
        <time>2015-09-13T23:54:52.000Z</time>
        <extensions>
          <ns3:TrackPointExtension>
            <ns3:atemp>25.0</ns3:atemp>
          </ns3:TrackPointExtension>
        </extensions>
      </trkpt>
      <trkpt lat="31.4300549961626529693603515625" lon="119.4854933582246303558349609375">
        <ele>81.40000152587890625</ele>
        <time>2015-09-13T23:54:53.000Z</time>
        <extensions>
          <ns3:TrackPointExtension>
            <ns3:atemp>25.0</ns3:atemp>
          </ns3:TrackPointExtension>
        </extensions>
      </trkpt>
      <trkpt lat="31.4300047047436237335205078125" lon="119.4855024106800556182861328125">
        <ele>81.40000152587890625</ele>
        <time>2015-09-13T23:54:54.000Z</time>
        <extensions>
          <ns3:TrackPointExtension>
            <ns3:atemp>25.0</ns3:atemp>
          </ns3:TrackPointExtension>
        </extensions>
      </trkpt>
      <trkpt lat="31.42995617352426052093505859375" lon="119.4855144806206226348876953125">
        <ele>81.40000152587890625</ele>
        <time>2015-09-13T23:54:55.000Z</time>
        <extensions>
          <ns3:TrackPointExtension>
            <ns3:atemp>25.0</ns3:atemp>
          </ns3:TrackPointExtension>
        </extensions>
      </trkpt>
      <trkpt lat="31.42948896624147891998291015625" lon="119.485639370977878570556640625">
        <ele>81.59999847412109375</ele>
        <time>2015-09-13T23:55:05.000Z</time>
        <extensions>
          <ns3:TrackPointExtension>
            <ns3:atemp>25.0</ns3:atemp>
          </ns3:TrackPointExtension>
        </extensions>
      </trkpt>
      <trkpt lat="31.42944521270692348480224609375" lon="119.4856556318700313568115234375">
        <ele>81.40000152587890625</ele>
        <time>2015-09-13T23:55:06.000Z</time>
        <extensions>
          <ns3:TrackPointExtension>
            <ns3:atemp>25.0</ns3:atemp>
          </ns3:TrackPointExtension>
        </extensions>
      </trkpt>
      <trkpt lat="31.42911136150360107421875" lon="119.485716484487056732177734375">
        <ele>80.8000030517578125</ele>
        <time>2015-09-13T23:55:13.000Z</time>
        <extensions>
          <ns3:TrackPointExtension>
            <ns3:atemp>25.0</ns3:atemp>
          </ns3:TrackPointExtension>
        </extensions>
      </trkpt>
      <trkpt lat="31.4288305677473545074462890625" lon="119.48579200543463230133056640625">
        <ele>80.8000030517578125</ele>
        <time>2015-09-13T23:55:19.000Z</time>
        <extensions>
          <ns3:TrackPointExtension>
            <ns3:atemp>25.0</ns3:atemp>
          </ns3:TrackPointExtension>
        </extensions>
      </trkpt>
      <trkpt lat="31.42868145368993282318115234375" lon="119.4858272932469844818115234375">
        <ele>81</ele>
        <time>2015-09-13T23:55:22.000Z</time>
        <extensions>
          <ns3:TrackPointExtension>
            <ns3:atemp>25.0</ns3:atemp>
          </ns3:TrackPointExtension>
        </extensions>
      </trkpt>
      <trkpt lat="31.4283219538629055023193359375" lon="119.48590583167970180511474609375">
        <ele>81.40000152587890625</ele>
        <time>2015-09-13T23:55:30.000Z</time>
        <extensions>
          <ns3:TrackPointExtension>
            <ns3:atemp>25.0</ns3:atemp>
          </ns3:TrackPointExtension>
        </extensions>
      </trkpt>
      <trkpt lat="31.42813243903219699859619140625" lon="119.48592443950474262237548828125">
        <ele>81.1999969482421875</ele>
        <time>2015-09-13T23:55:34.000Z</time>
        <extensions>
          <ns3:TrackPointExtension>
            <ns3:atemp>25.0</ns3:atemp>
          </ns3:TrackPointExtension>
        </extensions>
      </trkpt>
      <trkpt lat="31.42794367857277393341064453125" lon="119.48592494241893291473388671875">
        <ele>81.1999969482421875</ele>
        <time>2015-09-13T23:55:38.000Z</time>
        <extensions>
          <ns3:TrackPointExtension>
            <ns3:atemp>25.0</ns3:atemp>
          </ns3:TrackPointExtension>
        </extensions>
      </trkpt>
      <trkpt lat="31.4278907887637615203857421875" lon="119.48592628352344036102294921875">
        <ele>81.40000152587890625</ele>
        <time>2015-09-13T23:55:39.000Z</time>
        <extensions>
          <ns3:TrackPointExtension>
            <ns3:atemp>25.0</ns3:atemp>
          </ns3:TrackPointExtension>
        </extensions>
      </trkpt>
      <trkpt lat="31.42775575630366802215576171875" lon="119.48595059104263782501220703125">
        <ele>81.59999847412109375</ele>
        <time>2015-09-13T23:55:42.000Z</time>
        <extensions>
          <ns3:TrackPointExtension>
            <ns3:atemp>25.0</ns3:atemp>
          </ns3:TrackPointExtension>
        </extensions>
      </trkpt>
      <trkpt lat="31.4277072250843048095703125" lon="119.48596903122961521148681640625">
        <ele>81.8000030517578125</ele>
        <time>2015-09-13T23:55:43.000Z</time>
        <extensions>
          <ns3:TrackPointExtension>
            <ns3:atemp>25.0</ns3:atemp>
          </ns3:TrackPointExtension>
        </extensions>
      </trkpt>
      <trkpt lat="31.42707330174744129180908203125" lon="119.4860891439020633697509765625">
        <ele>81.8000030517578125</ele>
        <time>2015-09-13T23:55:59.000Z</time>
        <extensions>
          <ns3:TrackPointExtension>
            <ns3:atemp>25.0</ns3:atemp>
          </ns3:TrackPointExtension>
        </extensions>
      </trkpt>
      <trkpt lat="31.4264653623104095458984375" lon="119.48612543754279613494873046875">
        <ele>81.8000030517578125</ele>
        <time>2015-09-13T23:56:19.000Z</time>
        <extensions>
          <ns3:TrackPointExtension>
            <ns3:atemp>25.0</ns3:atemp>
          </ns3:TrackPointExtension>
        </extensions>
      </trkpt>
      <trkpt lat="31.42642068676650524139404296875" lon="119.48613013140857219696044921875">
        <ele>81.8000030517578125</ele>
        <time>2015-09-13T23:56:20.000Z</time>
        <extensions>
          <ns3:TrackPointExtension>
            <ns3:atemp>25.0</ns3:atemp>
          </ns3:TrackPointExtension>
        </extensions>
      </trkpt>
      <trkpt lat="31.4258365519344806671142578125" lon="119.48616315610706806182861328125">
        <ele>81.8000030517578125</ele>
        <time>2015-09-13T23:56:35.000Z</time>
        <extensions>
          <ns3:TrackPointExtension>
            <ns3:atemp>25.0</ns3:atemp>
          </ns3:TrackPointExtension>
        </extensions>
      </trkpt>
      <trkpt lat="31.425230540335178375244140625" lon="119.48620120994746685028076171875">
        <ele>81.8000030517578125</ele>
        <time>2015-09-13T23:56:53.000Z</time>
        <extensions>
          <ns3:TrackPointExtension>
            <ns3:atemp>25.0</ns3:atemp>
          </ns3:TrackPointExtension>
        </extensions>
      </trkpt>
      <trkpt lat="31.424625031650066375732421875" lon="119.48623507283627986907958984375">
        <ele>81.40000152587890625</ele>
        <time>2015-09-13T23:57:09.000Z</time>
        <extensions>
          <ns3:TrackPointExtension>
            <ns3:atemp>25.0</ns3:atemp>
          </ns3:TrackPointExtension>
        </extensions>
      </trkpt>
      <trkpt lat="31.4240488596260547637939453125" lon="119.48633213527500629425048828125">
        <ele>81.59999847412109375</ele>
        <time>2015-09-13T23:57:24.000Z</time>
        <extensions>
          <ns3:TrackPointExtension>
            <ns3:atemp>25.0</ns3:atemp>
          </ns3:TrackPointExtension>
        </extensions>
      </trkpt>
      <trkpt lat="31.4236817322671413421630859375" lon="119.48634889908134937286376953125">
        <ele>81.1999969482421875</ele>
        <time>2015-09-13T23:57:35.000Z</time>
        <extensions>
          <ns3:TrackPointExtension>
            <ns3:atemp>25.0</ns3:atemp>
          </ns3:TrackPointExtension>
        </extensions>
      </trkpt>
      <trkpt lat="31.423552148044109344482421875" lon="119.48635376058518886566162109375">
        <ele>81.1999969482421875</ele>
        <time>2015-09-13T23:57:38.000Z</time>
        <extensions>
          <ns3:TrackPointExtension>
            <ns3:atemp>25.0</ns3:atemp>
          </ns3:TrackPointExtension>
        </extensions>
      </trkpt>
      <trkpt lat="31.42350931651890277862548828125" lon="119.48636180721223354339599609375">
        <ele>81.1999969482421875</ele>
        <time>2015-09-13T23:57:39.000Z</time>
        <extensions>
          <ns3:TrackPointExtension>
            <ns3:atemp>25.0</ns3:atemp>
          </ns3:TrackPointExtension>
        </extensions>
      </trkpt>
      <trkpt lat="31.42346288077533245086669921875" lon="119.4863633997738361358642578125">
        <ele>81</ele>
        <time>2015-09-13T23:57:40.000Z</time>
        <extensions>
          <ns3:TrackPointExtension>
            <ns3:atemp>25.0</ns3:atemp>
          </ns3:TrackPointExtension>
        </extensions>
      </trkpt>
      <trkpt lat="31.42284111119806766510009765625" lon="119.48639340698719024658203125">
        <ele>81</ele>
        <time>2015-09-13T23:57:52.000Z</time>
        <extensions>
          <ns3:TrackPointExtension>
            <ns3:atemp>25.0</ns3:atemp>
          </ns3:TrackPointExtension>
        </extensions>
      </trkpt>
      <trkpt lat="31.42221582122147083282470703125" lon="119.48643674142658710479736328125">
        <ele>80.59999847412109375</ele>
        <time>2015-09-13T23:58:02.000Z</time>
        <extensions>
          <ns3:TrackPointExtension>
            <ns3:atemp>25.0</ns3:atemp>
          </ns3:TrackPointExtension>
        </extensions>
      </trkpt>
      <trkpt lat="31.42159639857709407806396484375" lon="119.486450068652629852294921875">
        <ele>80.8000030517578125</ele>
        <time>2015-09-13T23:58:12.000Z</time>
        <extensions>
          <ns3:TrackPointExtension>
            <ns3:atemp>25.0</ns3:atemp>
          </ns3:TrackPointExtension>
        </extensions>
      </trkpt>
      <trkpt lat="31.42125139944255352020263671875" lon="119.4864592887461185455322265625">
        <ele>80.59999847412109375</ele>
        <time>2015-09-13T23:58:18.000Z</time>
        <extensions>
          <ns3:TrackPointExtension>
            <ns3:atemp>25.0</ns3:atemp>
          </ns3:TrackPointExtension>
        </extensions>
      </trkpt>
      <trkpt lat="31.4208308793604373931884765625" lon="119.48646892793476581573486328125">
        <ele>81</ele>
        <time>2015-09-13T23:58:28.000Z</time>
        <extensions>
          <ns3:TrackPointExtension>
            <ns3:atemp>25.0</ns3:atemp>
          </ns3:TrackPointExtension>
        </extensions>
      </trkpt>
      <trkpt lat="31.420788466930389404296875" lon="119.48645778000354766845703125">
        <ele>81</ele>
        <time>2015-09-13T23:58:29.000Z</time>
        <extensions>
          <ns3:TrackPointExtension>
            <ns3:atemp>25.0</ns3:atemp>
          </ns3:TrackPointExtension>
        </extensions>
      </trkpt>
      <trkpt lat="31.4207415282726287841796875" lon="119.48646046221256256103515625">
        <ele>81</ele>
        <time>2015-09-13T23:58:30.000Z</time>
        <extensions>
          <ns3:TrackPointExtension>
            <ns3:atemp>25.0</ns3:atemp>
          </ns3:TrackPointExtension>
        </extensions>
      </trkpt>
      <trkpt lat="31.4201563037931919097900390625" lon="119.48650337755680084228515625">
        <ele>81.40000152587890625</ele>
        <time>2015-09-13T23:58:41.000Z</time>
        <extensions>
          <ns3:TrackPointExtension>
            <ns3:atemp>25.0</ns3:atemp>
          </ns3:TrackPointExtension>
        </extensions>
      </trkpt>
      <trkpt lat="31.41977299936115741729736328125" lon="119.48651603423058986663818359375">
        <ele>81.40000152587890625</ele>
        <time>2015-09-13T23:58:48.000Z</time>
        <extensions>
          <ns3:TrackPointExtension>
            <ns3:atemp>25.0</ns3:atemp>
          </ns3:TrackPointExtension>
        </extensions>
      </trkpt>
      <trkpt lat="31.4195397309958934783935546875" lon="119.4865196384489536285400390625">
        <ele>81.59999847412109375</ele>
        <time>2015-09-13T23:58:52.000Z</time>
        <extensions>
          <ns3:TrackPointExtension>
            <ns3:atemp>25.0</ns3:atemp>
          </ns3:TrackPointExtension>
        </extensions>
      </trkpt>
      <trkpt lat="31.4189243316650390625" lon="119.4865511544048786163330078125">
        <ele>81.40000152587890625</ele>
        <time>2015-09-13T23:59:03.000Z</time>
        <extensions>
          <ns3:TrackPointExtension>
            <ns3:atemp>25.0</ns3:atemp>
          </ns3:TrackPointExtension>
        </extensions>
      </trkpt>
      <trkpt lat="31.4186237566173076629638671875" lon="119.48658476583659648895263671875">
        <ele>81.40000152587890625</ele>
        <time>2015-09-13T23:59:18.000Z</time>
        <extensions>
          <ns3:TrackPointExtension>
            <ns3:atemp>25.0</ns3:atemp>
          </ns3:TrackPointExtension>
        </extensions>
      </trkpt>
      <trkpt lat="31.4185510016977787017822265625" lon="119.48660622350871562957763671875">
        <ele>81.40000152587890625</ele>
        <time>2015-09-13T23:59:33.000Z</time>
        <extensions>
          <ns3:TrackPointExtension>
            <ns3:atemp>25.0</ns3:atemp>
          </ns3:TrackPointExtension>
        </extensions>
      </trkpt>
      <trkpt lat="31.41835503280162811279296875" lon="119.48660924099385738372802734375">
        <ele>81</ele>
        <time>2015-09-13T23:59:38.000Z</time>
        <extensions>
          <ns3:TrackPointExtension>
            <ns3:atemp>25.0</ns3:atemp>
          </ns3:TrackPointExtension>
        </extensions>
      </trkpt>
      <trkpt lat="31.4182452298700809478759765625" lon="119.4866262562572956085205078125">
        <ele>81.1999969482421875</ele>
        <time>2015-09-13T23:59:40.000Z</time>
        <extensions>
          <ns3:TrackPointExtension>
            <ns3:atemp>25.0</ns3:atemp>
          </ns3:TrackPointExtension>
        </extensions>
      </trkpt>
      <trkpt lat="31.41766369342803955078125" lon="119.48666338808834552764892578125">
        <ele>81</ele>
        <time>2015-09-13T23:59:50.000Z</time>
        <extensions>
          <ns3:TrackPointExtension>
            <ns3:atemp>25.0</ns3:atemp>
          </ns3:TrackPointExtension>
        </extensions>
      </trkpt>
      <trkpt lat="31.417609713971614837646484375" lon="119.48666221462190151214599609375">
        <ele>81</ele>
        <time>2015-09-13T23:59:51.000Z</time>
        <extensions>
          <ns3:TrackPointExtension>
            <ns3:atemp>25.0</ns3:atemp>
          </ns3:TrackPointExtension>
        </extensions>
      </trkpt>
      <trkpt lat="31.41698149032890796661376953125" lon="119.486667327582836151123046875">
        <ele>80.8000030517578125</ele>
        <time>2015-09-14T00:00:02.000Z</time>
        <extensions>
          <ns3:TrackPointExtension>
            <ns3:atemp>25.0</ns3:atemp>
          </ns3:TrackPointExtension>
        </extensions>
      </trkpt>
      <trkpt lat="31.41641655005514621734619140625" lon="119.486687444150447845458984375">
        <ele>80.8000030517578125</ele>
        <time>2015-09-14T00:00:12.000Z</time>
        <extensions>
          <ns3:TrackPointExtension>
            <ns3:atemp>25.0</ns3:atemp>
          </ns3:TrackPointExtension>
        </extensions>
      </trkpt>
      <trkpt lat="31.41603291034698486328125" lon="119.4866805709898471832275390625">
        <ele>80.59999847412109375</ele>
        <time>2015-09-14T00:00:20.000Z</time>
        <extensions>
          <ns3:TrackPointExtension>
            <ns3:atemp>25.0</ns3:atemp>
          </ns3:TrackPointExtension>
        </extensions>
      </trkpt>
      <trkpt lat="31.41598999500274658203125" lon="119.48666875250637531280517578125">
        <ele>80.59999847412109375</ele>
        <time>2015-09-14T00:00:21.000Z</time>
        <extensions>
          <ns3:TrackPointExtension>
            <ns3:atemp>25.0</ns3:atemp>
          </ns3:TrackPointExtension>
        </extensions>
      </trkpt>
      <trkpt lat="31.4159479178488254547119140625" lon="119.48665902949869632720947265625">
        <ele>80.59999847412109375</ele>
        <time>2015-09-14T00:00:22.000Z</time>
        <extensions>
          <ns3:TrackPointExtension>
            <ns3:atemp>25.0</ns3:atemp>
          </ns3:TrackPointExtension>
        </extensions>
      </trkpt>
      <trkpt lat="31.4159103669226169586181640625" lon="119.48665651492774486541748046875">
        <ele>80.8000030517578125</ele>
        <time>2015-09-14T00:00:23.000Z</time>
        <extensions>
          <ns3:TrackPointExtension>
            <ns3:atemp>25.0</ns3:atemp>
          </ns3:TrackPointExtension>
        </extensions>
      </trkpt>
      <trkpt lat="31.4158815331757068634033203125" lon="119.486659280955791473388671875">
        <ele>80.8000030517578125</ele>
        <time>2015-09-14T00:00:24.000Z</time>
        <extensions>
          <ns3:TrackPointExtension>
            <ns3:atemp>25.0</ns3:atemp>
          </ns3:TrackPointExtension>
        </extensions>
      </trkpt>
      <trkpt lat="31.4154577441513538360595703125" lon="119.4867043755948543548583984375">
        <ele>80.8000030517578125</ele>
        <time>2015-09-14T00:00:40.000Z</time>
        <extensions>
          <ns3:TrackPointExtension>
            <ns3:atemp>25.0</ns3:atemp>
          </ns3:TrackPointExtension>
        </extensions>
      </trkpt>
      <trkpt lat="31.4152242243289947509765625" lon="119.48672122322022914886474609375">
        <ele>80.8000030517578125</ele>
        <time>2015-09-14T00:00:45.000Z</time>
        <extensions>
          <ns3:TrackPointExtension>
            <ns3:atemp>25.0</ns3:atemp>
          </ns3:TrackPointExtension>
        </extensions>
      </trkpt>
      <trkpt lat="31.41460019163787364959716796875" lon="119.48670680634677410125732421875">
        <ele>80.59999847412109375</ele>
        <time>2015-09-14T00:00:55.000Z</time>
        <extensions>
          <ns3:TrackPointExtension>
            <ns3:atemp>25.0</ns3:atemp>
          </ns3:TrackPointExtension>
        </extensions>
      </trkpt>
      <trkpt lat="31.41396693885326385498046875" lon="119.48672122322022914886474609375">
        <ele>80.8000030517578125</ele>
        <time>2015-09-14T00:01:04.000Z</time>
        <extensions>
          <ns3:TrackPointExtension>
            <ns3:atemp>25.0</ns3:atemp>
          </ns3:TrackPointExtension>
        </extensions>
      </trkpt>
      <trkpt lat="31.4133367873728275299072265625" lon="119.48672306723892688751220703125">
        <ele>80.59999847412109375</ele>
        <time>2015-09-14T00:01:13.000Z</time>
        <extensions>
          <ns3:TrackPointExtension>
            <ns3:atemp>25.0</ns3:atemp>
          </ns3:TrackPointExtension>
        </extensions>
      </trkpt>
      <trkpt lat="31.4127373136579990386962890625" lon="119.48672742582857608795166015625">
        <ele>80.1999969482421875</ele>
        <time>2015-09-14T00:01:22.000Z</time>
        <extensions>
          <ns3:TrackPointExtension>
            <ns3:atemp>25.0</ns3:atemp>
          </ns3:TrackPointExtension>
        </extensions>
      </trkpt>
      <trkpt lat="31.41233489848673343658447265625" lon="119.48678257875144481658935546875">
        <ele>80.59999847412109375</ele>
        <time>2015-09-14T00:01:31.000Z</time>
        <extensions>
          <ns3:TrackPointExtension>
            <ns3:atemp>25.0</ns3:atemp>
          </ns3:TrackPointExtension>
        </extensions>
      </trkpt>
      <trkpt lat="31.411777250468730926513671875" lon="119.48693496175110340118408203125">
        <ele>80.1999969482421875</ele>
        <time>2015-09-14T00:01:46.000Z</time>
        <extensions>
          <ns3:TrackPointExtension>
            <ns3:atemp>25.0</ns3:atemp>
          </ns3:TrackPointExtension>
        </extensions>
      </trkpt>
      <trkpt lat="31.41124106012284755706787109375" lon="119.4871388934552669525146484375">
        <ele>80</ele>
        <time>2015-09-14T00:02:02.000Z</time>
        <extensions>
          <ns3:TrackPointExtension>
            <ns3:atemp>25.0</ns3:atemp>
          </ns3:TrackPointExtension>
        </extensions>
      </trkpt>
      <trkpt lat="31.41083143651485443115234375" lon="119.4871606864035129547119140625">
        <ele>79.8000030517578125</ele>
        <time>2015-09-14T00:02:13.000Z</time>
        <extensions>
          <ns3:TrackPointExtension>
            <ns3:atemp>25.0</ns3:atemp>
          </ns3:TrackPointExtension>
        </extensions>
      </trkpt>
      <trkpt lat="31.41060872934758663177490234375" lon="119.4871714152395725250244140625">
        <ele>79.8000030517578125</ele>
        <time>2015-09-14T00:02:19.000Z</time>
        <extensions>
          <ns3:TrackPointExtension>
            <ns3:atemp>25.0</ns3:atemp>
          </ns3:TrackPointExtension>
        </extensions>
      </trkpt>
      <trkpt lat="31.4100467227399349212646484375" lon="119.48719262145459651947021484375">
        <ele>79.59999847412109375</ele>
        <time>2015-09-14T00:02:37.000Z</time>
        <extensions>
          <ns3:TrackPointExtension>
            <ns3:atemp>25.0</ns3:atemp>
          </ns3:TrackPointExtension>
        </extensions>
      </trkpt>
      <trkpt lat="31.40956149436533451080322265625" lon="119.48729990981519222259521484375">
        <ele>79.59999847412109375</ele>
        <time>2015-09-14T00:02:54.000Z</time>
        <extensions>
          <ns3:TrackPointExtension>
            <ns3:atemp>25.0</ns3:atemp>
          </ns3:TrackPointExtension>
        </extensions>
      </trkpt>
      <trkpt lat="31.4095508493483066558837890625" lon="119.48733544908463954925537109375">
        <ele>79.59999847412109375</ele>
        <time>2015-09-14T00:02:55.000Z</time>
        <extensions>
          <ns3:TrackPointExtension>
            <ns3:atemp>25.0</ns3:atemp>
          </ns3:TrackPointExtension>
        </extensions>
      </trkpt>
      <trkpt lat="31.40954573638737201690673828125" lon="119.48737107217311859130859375">
        <ele>79.59999847412109375</ele>
        <time>2015-09-14T00:02:56.000Z</time>
        <extensions>
          <ns3:TrackPointExtension>
            <ns3:atemp>25.0</ns3:atemp>
          </ns3:TrackPointExtension>
        </extensions>
      </trkpt>
      <trkpt lat="31.409544311463832855224609375" lon="119.4874052703380584716796875">
        <ele>79.8000030517578125</ele>
        <time>2015-09-14T00:02:57.000Z</time>
        <extensions>
          <ns3:TrackPointExtension>
            <ns3:atemp>25.0</ns3:atemp>
          </ns3:TrackPointExtension>
        </extensions>
      </trkpt>
      <trkpt lat="31.40954397618770599365234375" lon="119.48743955232203006744384765625">
        <ele>80</ele>
        <time>2015-09-14T00:02:58.000Z</time>
        <extensions>
          <ns3:TrackPointExtension>
            <ns3:atemp>25.0</ns3:atemp>
          </ns3:TrackPointExtension>
        </extensions>
      </trkpt>
      <trkpt lat="31.40954221598803997039794921875" lon="119.48746972717344760894775390625">
        <ele>80</ele>
        <time>2015-09-14T00:02:59.000Z</time>
        <extensions>
          <ns3:TrackPointExtension>
            <ns3:atemp>25.0</ns3:atemp>
          </ns3:TrackPointExtension>
        </extensions>
      </trkpt>
      <trkpt lat="31.40960860066115856170654296875" lon="119.48777206242084503173828125">
        <ele>80</ele>
        <time>2015-09-14T00:03:10.000Z</time>
        <extensions>
          <ns3:TrackPointExtension>
            <ns3:atemp>25.0</ns3:atemp>
          </ns3:TrackPointExtension>
        </extensions>
      </trkpt>
    </trkseg>
  </trk>
</gpx>
