<gpx xmlns:ns3="http://www.garmin.com/xmlschemas/TrackPointExtension/v1" xmlns="http://www.topografix.com/GPX/1/1" xmlns:xsi="http://www.w3.org/2001/XMLSchema-instance" xmlns:ns2="http://www.garmin.com/xmlschemas/GpxExtensions/v3" creator="Garmin Connect" version="1.1" xsi:schemaLocation="http://www.topografix.com/GPX/1/1 http://www.topografix.com/GPX/11.xsd">
  <extensions>
<distance>1329.6</distance>
<average_hr>111.0</average_hr>
<average_speed>4.119999885559082</average_speed>
<start_time>2020-05-16T23:00:21+00:00</start_time>
<end_time>2020-05-16T23:05:43.722000+00:00</end_time>
<moving_time>322.0</moving_time>
<elapsed_time>322.722</elapsed_time>
</extensions>
<metadata>
    <link href="connect.garmin.com">
      <text>Garmin Connect</text>
    </link>
    <time>2020-05-16T23:00:21.000Z</time>
  </metadata>
  <trk>
    <name>常州市 骑行</name>
    <type>cycling</type>
    <trkseg>
      <trkpt lat="31.42457113601267337799072265625" lon="119.48385913856327533721923828125">
        <ele>10.3999996185302734375</ele>
        <time>2020-05-16T23:00:21.000Z</time>
        <extensions>
          <ns3:TrackPointExtension>
            <ns3:atemp>29.0</ns3:atemp>
            <ns3:hr>91</ns3:hr>
          </ns3:TrackPointExtension>
        </extensions>
      </trkpt>
      <trkpt lat="31.42456476576626300811767578125" lon="119.48381907306611537933349609375">
        <ele>10.19999980926513671875</ele>
        <time>2020-05-16T23:00:23.000Z</time>
        <extensions>
          <ns3:TrackPointExtension>
            <ns3:atemp>29.0</ns3:atemp>
            <ns3:hr>97</ns3:hr>
          </ns3:TrackPointExtension>
        </extensions>
      </trkpt>
      <trkpt lat="31.42458706162869930267333984375" lon="119.48370625264942646026611328125">
        <ele>10</ele>
        <time>2020-05-16T23:00:26.000Z</time>
        <extensions>
          <ns3:TrackPointExtension>
            <ns3:atemp>29.0</ns3:atemp>
            <ns3:hr>97</ns3:hr>
          </ns3:TrackPointExtension>
        </extensions>
      </trkpt>
      <trkpt lat="31.42459460534155368804931640625" lon="119.48372117243707180023193359375">
        <ele>10</ele>
        <time>2020-05-16T23:00:27.000Z</time>
        <extensions>
          <ns3:TrackPointExtension>
            <ns3:atemp>29.0</ns3:atemp>
            <ns3:hr>96</ns3:hr>
          </ns3:TrackPointExtension>
        </extensions>
      </trkpt>
      <trkpt lat="31.4245940186083316802978515625" lon="119.48374011553823947906494140625">
        <ele>10</ele>
        <time>2020-05-16T23:00:28.000Z</time>
        <extensions>
          <ns3:TrackPointExtension>
            <ns3:atemp>29.0</ns3:atemp>
            <ns3:hr>95</ns3:hr>
          </ns3:TrackPointExtension>
        </extensions>
      </trkpt>
      <trkpt lat="31.4246201701462268829345703125" lon="119.48378588072955608367919921875">
        <ele>10.3999996185302734375</ele>
        <time>2020-05-16T23:00:32.000Z</time>
        <extensions>
          <ns3:TrackPointExtension>
            <ns3:atemp>29.0</ns3:atemp>
            <ns3:hr>92</ns3:hr>
          </ns3:TrackPointExtension>
        </extensions>
      </trkpt>
      <trkpt lat="31.4246989600360393524169921875" lon="119.48380297981202602386474609375">
        <ele>10.6000003814697265625</ele>
        <time>2020-05-16T23:00:35.000Z</time>
        <extensions>
          <ns3:TrackPointExtension>
            <ns3:atemp>29.0</ns3:atemp>
            <ns3:hr>89</ns3:hr>
          </ns3:TrackPointExtension>
        </extensions>
      </trkpt>
      <trkpt lat="31.4247569628059864044189453125" lon="119.48382007889449596405029296875">
        <ele>11</ele>
        <time>2020-05-16T23:00:37.000Z</time>
        <extensions>
          <ns3:TrackPointExtension>
            <ns3:atemp>30.0</ns3:atemp>
            <ns3:hr>90</ns3:hr>
          </ns3:TrackPointExtension>
        </extensions>
      </trkpt>
      <trkpt lat="31.424898616969585418701171875" lon="119.48388730175793170928955078125">
        <ele>11.80000019073486328125</ele>
        <time>2020-05-16T23:00:43.000Z</time>
        <extensions>
          <ns3:TrackPointExtension>
            <ns3:atemp>30.0</ns3:atemp>
            <ns3:hr>88</ns3:hr>
          </ns3:TrackPointExtension>
        </extensions>
      </trkpt>
      <trkpt lat="31.42503616400063037872314453125" lon="119.48388964869081974029541015625">
        <ele>12</ele>
        <time>2020-05-16T23:00:47.000Z</time>
        <extensions>
          <ns3:TrackPointExtension>
            <ns3:atemp>30.0</ns3:atemp>
            <ns3:hr>93</ns3:hr>
          </ns3:TrackPointExtension>
        </extensions>
      </trkpt>
      <trkpt lat="31.42506952397525310516357421875" lon="119.48388956487178802490234375">
        <ele>12</ele>
        <time>2020-05-16T23:00:48.000Z</time>
        <extensions>
          <ns3:TrackPointExtension>
            <ns3:atemp>30.0</ns3:atemp>
            <ns3:hr>97</ns3:hr>
          </ns3:TrackPointExtension>
        </extensions>
      </trkpt>
      <trkpt lat="31.425096429884433746337890625" lon="119.48389853350818157196044921875">
        <ele>12</ele>
        <time>2020-05-16T23:00:49.000Z</time>
        <extensions>
          <ns3:TrackPointExtension>
            <ns3:atemp>30.0</ns3:atemp>
            <ns3:hr>104</ns3:hr>
          </ns3:TrackPointExtension>
        </extensions>
      </trkpt>
      <trkpt lat="31.42517044208943843841552734375" lon="119.48390356265008449554443359375">
        <ele>12</ele>
        <time>2020-05-16T23:00:51.000Z</time>
        <extensions>
          <ns3:TrackPointExtension>
            <ns3:atemp>30.0</ns3:atemp>
            <ns3:hr>108</ns3:hr>
          </ns3:TrackPointExtension>
        </extensions>
      </trkpt>
      <trkpt lat="31.425317712128162384033203125" lon="119.48390389792621135711669921875">
        <ele>11.80000019073486328125</ele>
        <time>2020-05-16T23:00:55.000Z</time>
        <extensions>
          <ns3:TrackPointExtension>
            <ns3:atemp>29.0</ns3:atemp>
            <ns3:hr>108</ns3:hr>
          </ns3:TrackPointExtension>
        </extensions>
      </trkpt>
      <trkpt lat="31.42536439932882785797119140625" lon="119.48389283381402492523193359375">
        <ele>11.3999996185302734375</ele>
        <time>2020-05-16T23:00:56.000Z</time>
        <extensions>
          <ns3:TrackPointExtension>
            <ns3:atemp>29.0</ns3:atemp>
            <ns3:hr>110</ns3:hr>
          </ns3:TrackPointExtension>
        </extensions>
      </trkpt>
      <trkpt lat="31.42543070018291473388671875" lon="119.48389316909015178680419921875">
        <ele>10.80000019073486328125</ele>
        <time>2020-05-16T23:00:58.000Z</time>
        <extensions>
          <ns3:TrackPointExtension>
            <ns3:atemp>29.0</ns3:atemp>
            <ns3:hr>114</ns3:hr>
          </ns3:TrackPointExtension>
        </extensions>
      </trkpt>
      <trkpt lat="31.425501443445682525634765625" lon="119.4838977791368961334228515625">
        <ele>10.3999996185302734375</ele>
        <time>2020-05-16T23:01:00.000Z</time>
        <extensions>
          <ns3:TrackPointExtension>
            <ns3:atemp>29.0</ns3:atemp>
            <ns3:hr>117</ns3:hr>
          </ns3:TrackPointExtension>
        </extensions>
      </trkpt>
      <trkpt lat="31.4255364798009395599365234375" lon="119.48390104807913303375244140625">
        <ele>10.19999980926513671875</ele>
        <time>2020-05-16T23:01:01.000Z</time>
        <extensions>
          <ns3:TrackPointExtension>
            <ns3:atemp>29.0</ns3:atemp>
            <ns3:hr>118</ns3:hr>
          </ns3:TrackPointExtension>
        </extensions>
      </trkpt>
      <trkpt lat="31.42569816671311855316162109375" lon="119.4839205779135227203369140625">
        <ele>9.3999996185302734375</ele>
        <time>2020-05-16T23:01:07.000Z</time>
        <extensions>
          <ns3:TrackPointExtension>
            <ns3:atemp>29.0</ns3:atemp>
            <ns3:hr>119</ns3:hr>
          </ns3:TrackPointExtension>
        </extensions>
      </trkpt>
      <trkpt lat="31.42587636597454547882080078125" lon="119.4839264452457427978515625">
        <ele>8.6000003814697265625</ele>
        <time>2020-05-16T23:01:14.000Z</time>
        <extensions>
          <ns3:TrackPointExtension>
            <ns3:atemp>29.0</ns3:atemp>
            <ns3:hr>118</ns3:hr>
          </ns3:TrackPointExtension>
        </extensions>
      </trkpt>
      <trkpt lat="31.425984241068363189697265625" lon="119.4839041493833065032958984375">
        <ele>8.80000019073486328125</ele>
        <time>2020-05-16T23:01:17.000Z</time>
        <extensions>
          <ns3:TrackPointExtension>
            <ns3:atemp>29.0</ns3:atemp>
            <ns3:hr>121</ns3:hr>
          </ns3:TrackPointExtension>
        </extensions>
      </trkpt>
      <trkpt lat="31.42609949223697185516357421875" lon="119.48391848243772983551025390625">
        <ele>9.3999996185302734375</ele>
        <time>2020-05-16T23:01:20.000Z</time>
        <extensions>
          <ns3:TrackPointExtension>
            <ns3:atemp>29.0</ns3:atemp>
            <ns3:hr>123</ns3:hr>
          </ns3:TrackPointExtension>
        </extensions>
      </trkpt>
      <trkpt lat="31.42630199901759624481201171875" lon="119.48392652906477451324462890625">
        <ele>10.6000003814697265625</ele>
        <time>2020-05-16T23:01:25.000Z</time>
        <extensions>
          <ns3:TrackPointExtension>
            <ns3:atemp>29.0</ns3:atemp>
            <ns3:hr>125</ns3:hr>
          </ns3:TrackPointExtension>
        </extensions>
      </trkpt>
      <trkpt lat="31.426421441137790679931640625" lon="119.48394077830016613006591796875">
        <ele>10.80000019073486328125</ele>
        <time>2020-05-16T23:01:28.000Z</time>
        <extensions>
          <ns3:TrackPointExtension>
            <ns3:atemp>29.0</ns3:atemp>
            <ns3:hr>124</ns3:hr>
          </ns3:TrackPointExtension>
        </extensions>
      </trkpt>
      <trkpt lat="31.42663559876382350921630859375" lon="119.4839933328330516815185546875">
        <ele>10.6000003814697265625</ele>
        <time>2020-05-16T23:01:34.000Z</time>
        <extensions>
          <ns3:TrackPointExtension>
            <ns3:atemp>29.0</ns3:atemp>
            <ns3:hr>123</ns3:hr>
          </ns3:TrackPointExtension>
        </extensions>
      </trkpt>
      <trkpt lat="31.4266723953187465667724609375" lon="119.48400196619331836700439453125">
        <ele>10.3999996185302734375</ele>
        <time>2020-05-16T23:01:35.000Z</time>
        <extensions>
          <ns3:TrackPointExtension>
            <ns3:atemp>29.0</ns3:atemp>
            <ns3:hr>121</ns3:hr>
          </ns3:TrackPointExtension>
        </extensions>
      </trkpt>
      <trkpt lat="31.426799297332763671875" lon="119.48401629924774169921875">
        <ele>9.80000019073486328125</ele>
        <time>2020-05-16T23:01:39.000Z</time>
        <extensions>
          <ns3:TrackPointExtension>
            <ns3:atemp>29.0</ns3:atemp>
            <ns3:hr>123</ns3:hr>
          </ns3:TrackPointExtension>
        </extensions>
      </trkpt>
      <trkpt lat="31.4269627444446086883544921875" lon="119.4840362481772899627685546875">
        <ele>8.80000019073486328125</ele>
        <time>2020-05-16T23:01:44.000Z</time>
        <extensions>
          <ns3:TrackPointExtension>
            <ns3:atemp>29.0</ns3:atemp>
            <ns3:hr>122</ns3:hr>
          </ns3:TrackPointExtension>
        </extensions>
      </trkpt>
      <trkpt lat="31.42707078717648983001708984375" lon="119.484045803546905517578125">
        <ele>8.3999996185302734375</ele>
        <time>2020-05-16T23:01:47.000Z</time>
        <extensions>
          <ns3:TrackPointExtension>
            <ns3:atemp>29.0</ns3:atemp>
            <ns3:hr>118</ns3:hr>
          </ns3:TrackPointExtension>
        </extensions>
      </trkpt>
      <trkpt lat="31.4271032251417636871337890625" lon="119.48404370807111263275146484375">
        <ele>8.3999996185302734375</ele>
        <time>2020-05-16T23:01:48.000Z</time>
        <extensions>
          <ns3:TrackPointExtension>
            <ns3:atemp>29.0</ns3:atemp>
            <ns3:hr>121</ns3:hr>
          </ns3:TrackPointExtension>
        </extensions>
      </trkpt>
      <trkpt lat="31.42724814824759960174560546875" lon="119.48406013660132884979248046875">
        <ele>8.3999996185302734375</ele>
        <time>2020-05-16T23:01:52.000Z</time>
        <extensions>
          <ns3:TrackPointExtension>
            <ns3:atemp>29.0</ns3:atemp>
            <ns3:hr>123</ns3:hr>
          </ns3:TrackPointExtension>
        </extensions>
      </trkpt>
      <trkpt lat="31.427442021667957305908203125" lon="119.4840900599956512451171875">
        <ele>8.19999980926513671875</ele>
        <time>2020-05-16T23:01:58.000Z</time>
        <extensions>
          <ns3:TrackPointExtension>
            <ns3:atemp>29.0</ns3:atemp>
            <ns3:hr>122</ns3:hr>
          </ns3:TrackPointExtension>
        </extensions>
      </trkpt>
      <trkpt lat="31.4276058040559291839599609375" lon="119.48414160870015621185302734375">
        <ele>7.599999904632568359375</ele>
        <time>2020-05-16T23:02:04.000Z</time>
        <extensions>
          <ns3:TrackPointExtension>
            <ns3:atemp>29.0</ns3:atemp>
            <ns3:hr>121</ns3:hr>
          </ns3:TrackPointExtension>
        </extensions>
      </trkpt>
      <trkpt lat="31.42775240354239940643310546875" lon="119.48420061729848384857177734375">
        <ele>7.400000095367431640625</ele>
        <time>2020-05-16T23:02:09.000Z</time>
        <extensions>
          <ns3:TrackPointExtension>
            <ns3:atemp>29.0</ns3:atemp>
            <ns3:hr>118</ns3:hr>
          </ns3:TrackPointExtension>
        </extensions>
      </trkpt>
      <trkpt lat="31.4277741126716136932373046875" lon="119.48422173969447612762451171875">
        <ele>7.599999904632568359375</ele>
        <time>2020-05-16T23:02:10.000Z</time>
        <extensions>
          <ns3:TrackPointExtension>
            <ns3:atemp>29.0</ns3:atemp>
            <ns3:hr>116</ns3:hr>
          </ns3:TrackPointExtension>
        </extensions>
      </trkpt>
      <trkpt lat="31.42796002328395843505859375" lon="119.48426499031484127044677734375">
        <ele>7.400000095367431640625</ele>
        <time>2020-05-16T23:02:14.000Z</time>
        <extensions>
          <ns3:TrackPointExtension>
            <ns3:atemp>29.0</ns3:atemp>
            <ns3:hr>107</ns3:hr>
          </ns3:TrackPointExtension>
        </extensions>
      </trkpt>
      <trkpt lat="31.42812774516642093658447265625" lon="119.48434227146208286285400390625">
        <ele>7.599999904632568359375</ele>
        <time>2020-05-16T23:02:17.000Z</time>
        <extensions>
          <ns3:TrackPointExtension>
            <ns3:atemp>29.0</ns3:atemp>
            <ns3:hr>104</ns3:hr>
          </ns3:TrackPointExtension>
        </extensions>
      </trkpt>
      <trkpt lat="31.42817032523453235626220703125" lon="119.48434889316558837890625">
        <ele>7.599999904632568359375</ele>
        <time>2020-05-16T23:02:18.000Z</time>
        <extensions>
          <ns3:TrackPointExtension>
            <ns3:atemp>29.0</ns3:atemp>
            <ns3:hr>104</ns3:hr>
          </ns3:TrackPointExtension>
        </extensions>
      </trkpt>
      <trkpt lat="31.42826713621616363525390625" lon="119.48432768695056438446044921875">
        <ele>7.80000019073486328125</ele>
        <time>2020-05-16T23:02:20.000Z</time>
        <extensions>
          <ns3:TrackPointExtension>
            <ns3:atemp>29.0</ns3:atemp>
            <ns3:hr>104</ns3:hr>
          </ns3:TrackPointExtension>
        </extensions>
      </trkpt>
      <trkpt lat="31.428331844508647918701171875" lon="119.484268762171268463134765625">
        <ele>8</ele>
        <time>2020-05-16T23:02:21.000Z</time>
        <extensions>
          <ns3:TrackPointExtension>
            <ns3:atemp>29.0</ns3:atemp>
            <ns3:hr>104</ns3:hr>
          </ns3:TrackPointExtension>
        </extensions>
      </trkpt>
      <trkpt lat="31.42839814536273479461669921875" lon="119.48415216989815235137939453125">
        <ele>7.599999904632568359375</ele>
        <time>2020-05-16T23:02:25.000Z</time>
        <extensions>
          <ns3:TrackPointExtension>
            <ns3:atemp>29.0</ns3:atemp>
            <ns3:hr>104</ns3:hr>
          </ns3:TrackPointExtension>
        </extensions>
      </trkpt>
      <trkpt lat="31.4285968802869319915771484375" lon="119.48392669670283794403076171875">
        <ele>7.80000019073486328125</ele>
        <time>2020-05-16T23:02:32.000Z</time>
        <extensions>
          <ns3:TrackPointExtension>
            <ns3:atemp>29.0</ns3:atemp>
            <ns3:hr>106</ns3:hr>
          </ns3:TrackPointExtension>
        </extensions>
      </trkpt>
      <trkpt lat="31.42876468598842620849609375" lon="119.48371882550418376922607421875">
        <ele>7</ele>
        <time>2020-05-16T23:02:38.000Z</time>
        <extensions>
          <ns3:TrackPointExtension>
            <ns3:atemp>29.0</ns3:atemp>
            <ns3:hr>109</ns3:hr>
          </ns3:TrackPointExtension>
        </extensions>
      </trkpt>
      <trkpt lat="31.4289502613246440887451171875" lon="119.48350307531654834747314453125">
        <ele>7.599999904632568359375</ele>
        <time>2020-05-16T23:02:45.000Z</time>
        <extensions>
          <ns3:TrackPointExtension>
            <ns3:atemp>29.0</ns3:atemp>
            <ns3:hr>111</ns3:hr>
          </ns3:TrackPointExtension>
        </extensions>
      </trkpt>
      <trkpt lat="31.42914514057338237762451171875" lon="119.48329855687916278839111328125">
        <ele>9.19999980926513671875</ele>
        <time>2020-05-16T23:02:52.000Z</time>
        <extensions>
          <ns3:TrackPointExtension>
            <ns3:atemp>29.0</ns3:atemp>
            <ns3:hr>111</ns3:hr>
          </ns3:TrackPointExtension>
        </extensions>
      </trkpt>
      <trkpt lat="31.4293056540191173553466796875" lon="119.483123458921909332275390625">
        <ele>11</ele>
        <time>2020-05-16T23:02:58.000Z</time>
        <extensions>
          <ns3:TrackPointExtension>
            <ns3:atemp>29.0</ns3:atemp>
            <ns3:hr>111</ns3:hr>
          </ns3:TrackPointExtension>
        </extensions>
      </trkpt>
      <trkpt lat="31.42941101454198360443115234375" lon="119.48305665515363216400146484375">
        <ele>11</ele>
        <time>2020-05-16T23:03:01.000Z</time>
        <extensions>
          <ns3:TrackPointExtension>
            <ns3:atemp>29.0</ns3:atemp>
            <ns3:hr>111</ns3:hr>
          </ns3:TrackPointExtension>
        </extensions>
      </trkpt>
      <trkpt lat="31.42948779277503490447998046875" lon="119.48297560214996337890625">
        <ele>11.6000003814697265625</ele>
        <time>2020-05-16T23:03:04.000Z</time>
        <extensions>
          <ns3:TrackPointExtension>
            <ns3:atemp>29.0</ns3:atemp>
            <ns3:hr>111</ns3:hr>
          </ns3:TrackPointExtension>
        </extensions>
      </trkpt>
      <trkpt lat="31.42963430844247341156005859375" lon="119.48283453471958637237548828125">
        <ele>11.6000003814697265625</ele>
        <time>2020-05-16T23:03:09.000Z</time>
        <extensions>
          <ns3:TrackPointExtension>
            <ns3:atemp>29.0</ns3:atemp>
            <ns3:hr>112</ns3:hr>
          </ns3:TrackPointExtension>
        </extensions>
      </trkpt>
      <trkpt lat="31.42973187379539012908935546875" lon="119.482806622982025146484375">
        <ele>10.6000003814697265625</ele>
        <time>2020-05-16T23:03:12.000Z</time>
        <extensions>
          <ns3:TrackPointExtension>
            <ns3:atemp>29.0</ns3:atemp>
            <ns3:hr>109</ns3:hr>
          </ns3:TrackPointExtension>
        </extensions>
      </trkpt>
      <trkpt lat="31.42979155294597148895263671875" lon="119.4827990792691707611083984375">
        <ele>10.19999980926513671875</ele>
        <time>2020-05-16T23:03:14.000Z</time>
        <extensions>
          <ns3:TrackPointExtension>
            <ns3:atemp>29.0</ns3:atemp>
            <ns3:hr>112</ns3:hr>
          </ns3:TrackPointExtension>
        </extensions>
      </trkpt>
      <trkpt lat="31.429975032806396484375" lon="119.482763707637786865234375">
        <ele>9</ele>
        <time>2020-05-16T23:03:19.000Z</time>
        <extensions>
          <ns3:TrackPointExtension>
            <ns3:atemp>29.0</ns3:atemp>
            <ns3:hr>112</ns3:hr>
          </ns3:TrackPointExtension>
        </extensions>
      </trkpt>
      <trkpt lat="31.43007569946348667144775390625" lon="119.4828118197619915008544921875">
        <ele>9.19999980926513671875</ele>
        <time>2020-05-16T23:03:22.000Z</time>
        <extensions>
          <ns3:TrackPointExtension>
            <ns3:atemp>29.0</ns3:atemp>
            <ns3:hr>113</ns3:hr>
          </ns3:TrackPointExtension>
        </extensions>
      </trkpt>
      <trkpt lat="31.430216766893863677978515625" lon="119.48292338289320468902587890625">
        <ele>9.3999996185302734375</ele>
        <time>2020-05-16T23:03:26.000Z</time>
        <extensions>
          <ns3:TrackPointExtension>
            <ns3:atemp>29.0</ns3:atemp>
            <ns3:hr>110</ns3:hr>
          </ns3:TrackPointExtension>
        </extensions>
      </trkpt>
      <trkpt lat="31.4302930422127246856689453125" lon="119.48298105038702487945556640625">
        <ele>9.3999996185302734375</ele>
        <time>2020-05-16T23:03:28.000Z</time>
        <extensions>
          <ns3:TrackPointExtension>
            <ns3:atemp>29.0</ns3:atemp>
            <ns3:hr>113</ns3:hr>
          </ns3:TrackPointExtension>
        </extensions>
      </trkpt>
      <trkpt lat="31.4305569045245647430419921875" lon="119.48315639980137348175048828125">
        <ele>10</ele>
        <time>2020-05-16T23:03:35.000Z</time>
        <extensions>
          <ns3:TrackPointExtension>
            <ns3:atemp>29.0</ns3:atemp>
            <ns3:hr>112</ns3:hr>
          </ns3:TrackPointExtension>
        </extensions>
      </trkpt>
      <trkpt lat="31.43063192255795001983642578125" lon="119.4832047633826732635498046875">
        <ele>10</ele>
        <time>2020-05-16T23:03:37.000Z</time>
        <extensions>
          <ns3:TrackPointExtension>
            <ns3:atemp>29.0</ns3:atemp>
            <ns3:hr>111</ns3:hr>
          </ns3:TrackPointExtension>
        </extensions>
      </trkpt>
      <trkpt lat="31.430824287235736846923828125" lon="119.48332990519702434539794921875">
        <ele>10</ele>
        <time>2020-05-16T23:03:42.000Z</time>
        <extensions>
          <ns3:TrackPointExtension>
            <ns3:atemp>29.0</ns3:atemp>
            <ns3:hr>110</ns3:hr>
          </ns3:TrackPointExtension>
        </extensions>
      </trkpt>
      <trkpt lat="31.43090668134391307830810546875" lon="119.48339947499334812164306640625">
        <ele>10.6000003814697265625</ele>
        <time>2020-05-16T23:03:44.000Z</time>
        <extensions>
          <ns3:TrackPointExtension>
            <ns3:atemp>29.0</ns3:atemp>
            <ns3:hr>110</ns3:hr>
          </ns3:TrackPointExtension>
        </extensions>
      </trkpt>
      <trkpt lat="31.43107314594089984893798828125" lon="119.48356040753424167633056640625">
        <ele>11.6000003814697265625</ele>
        <time>2020-05-16T23:03:48.000Z</time>
        <extensions>
          <ns3:TrackPointExtension>
            <ns3:atemp>29.0</ns3:atemp>
            <ns3:hr>108</ns3:hr>
          </ns3:TrackPointExtension>
        </extensions>
      </trkpt>
      <trkpt lat="31.43137439154088497161865234375" lon="119.483781270682811737060546875">
        <ele>9.80000019073486328125</ele>
        <time>2020-05-16T23:03:55.000Z</time>
        <extensions>
          <ns3:TrackPointExtension>
            <ns3:atemp>29.0</ns3:atemp>
            <ns3:hr>110</ns3:hr>
          </ns3:TrackPointExtension>
        </extensions>
      </trkpt>
      <trkpt lat="31.431460641324520111083984375" lon="119.4838498346507549285888671875">
        <ele>9.19999980926513671875</ele>
        <time>2020-05-16T23:03:57.000Z</time>
        <extensions>
          <ns3:TrackPointExtension>
            <ns3:atemp>29.0</ns3:atemp>
            <ns3:hr>113</ns3:hr>
          </ns3:TrackPointExtension>
        </extensions>
      </trkpt>
      <trkpt lat="31.4316710270941257476806640625" lon="119.48400615714490413665771484375">
        <ele>8.6000003814697265625</ele>
        <time>2020-05-16T23:04:02.000Z</time>
        <extensions>
          <ns3:TrackPointExtension>
            <ns3:atemp>29.0</ns3:atemp>
            <ns3:hr>114</ns3:hr>
          </ns3:TrackPointExtension>
        </extensions>
      </trkpt>
      <trkpt lat="31.4319208078086376190185546875" lon="119.4842236675322055816650390625">
        <ele>8.80000019073486328125</ele>
        <time>2020-05-16T23:04:09.000Z</time>
        <extensions>
          <ns3:TrackPointExtension>
            <ns3:atemp>29.0</ns3:atemp>
            <ns3:hr>113</ns3:hr>
          </ns3:TrackPointExtension>
        </extensions>
      </trkpt>
      <trkpt lat="31.43207319080829620361328125" lon="119.48433355428278446197509765625">
        <ele>7.80000019073486328125</ele>
        <time>2020-05-16T23:04:14.000Z</time>
        <extensions>
          <ns3:TrackPointExtension>
            <ns3:atemp>29.0</ns3:atemp>
            <ns3:hr>114</ns3:hr>
          </ns3:TrackPointExtension>
        </extensions>
      </trkpt>
      <trkpt lat="31.43212473951280117034912109375" lon="119.4843822531402111053466796875">
        <ele>7.400000095367431640625</ele>
        <time>2020-05-16T23:04:16.000Z</time>
        <extensions>
          <ns3:TrackPointExtension>
            <ns3:atemp>29.0</ns3:atemp>
            <ns3:hr>116</ns3:hr>
          </ns3:TrackPointExtension>
        </extensions>
      </trkpt>
      <trkpt lat="31.43224242143332958221435546875" lon="119.48453103192150592803955078125">
        <ele>7</ele>
        <time>2020-05-16T23:04:21.000Z</time>
        <extensions>
          <ns3:TrackPointExtension>
            <ns3:atemp>29.0</ns3:atemp>
            <ns3:hr>117</ns3:hr>
          </ns3:TrackPointExtension>
        </extensions>
      </trkpt>
      <trkpt lat="31.432391367852687835693359375" lon="119.48468375019729137420654296875">
        <ele>5.80000019073486328125</ele>
        <time>2020-05-16T23:04:27.000Z</time>
        <extensions>
          <ns3:TrackPointExtension>
            <ns3:atemp>29.0</ns3:atemp>
            <ns3:hr>115</ns3:hr>
          </ns3:TrackPointExtension>
        </extensions>
      </trkpt>
      <trkpt lat="31.43253059126436710357666015625" lon="119.4847981631755828857421875">
        <ele>5.19999980926513671875</ele>
        <time>2020-05-16T23:04:33.000Z</time>
        <extensions>
          <ns3:TrackPointExtension>
            <ns3:atemp>29.0</ns3:atemp>
            <ns3:hr>115</ns3:hr>
          </ns3:TrackPointExtension>
        </extensions>
      </trkpt>
      <trkpt lat="31.432548277080059051513671875" lon="119.4847973249852657318115234375">
        <ele>5.19999980926513671875</ele>
        <time>2020-05-16T23:04:34.000Z</time>
        <extensions>
          <ns3:TrackPointExtension>
            <ns3:atemp>29.0</ns3:atemp>
            <ns3:hr>115</ns3:hr>
          </ns3:TrackPointExtension>
        </extensions>
      </trkpt>
      <trkpt lat="31.432681381702423095703125" lon="119.484745524823665618896484375">
        <ele>5.80000019073486328125</ele>
        <time>2020-05-16T23:04:40.000Z</time>
        <extensions>
          <ns3:TrackPointExtension>
            <ns3:atemp>29.0</ns3:atemp>
            <ns3:hr>116</ns3:hr>
          </ns3:TrackPointExtension>
        </extensions>
      </trkpt>
      <trkpt lat="31.43269822932779788970947265625" lon="119.484719373285770416259765625">
        <ele>5.80000019073486328125</ele>
        <time>2020-05-16T23:04:41.000Z</time>
        <extensions>
          <ns3:TrackPointExtension>
            <ns3:atemp>29.0</ns3:atemp>
            <ns3:hr>116</ns3:hr>
          </ns3:TrackPointExtension>
        </extensions>
      </trkpt>
      <trkpt lat="31.4327254705131053924560546875" lon="119.48462356813251972198486328125">
        <ele>5.80000019073486328125</ele>
        <time>2020-05-16T23:04:44.000Z</time>
        <extensions>
          <ns3:TrackPointExtension>
            <ns3:atemp>29.0</ns3:atemp>
            <ns3:hr>114</ns3:hr>
          </ns3:TrackPointExtension>
        </extensions>
      </trkpt>
      <trkpt lat="31.43281280994415283203125" lon="119.48449482209980487823486328125">
        <ele>6.19999980926513671875</ele>
        <time>2020-05-16T23:04:48.000Z</time>
        <extensions>
          <ns3:TrackPointExtension>
            <ns3:atemp>29.0</ns3:atemp>
            <ns3:hr>111</ns3:hr>
          </ns3:TrackPointExtension>
        </extensions>
      </trkpt>
      <trkpt lat="31.43283770419657230377197265625" lon="119.4844583608210086822509765625">
        <ele>6.19999980926513671875</ele>
        <time>2020-05-16T23:04:49.000Z</time>
        <extensions>
          <ns3:TrackPointExtension>
            <ns3:atemp>29.0</ns3:atemp>
            <ns3:hr>110</ns3:hr>
          </ns3:TrackPointExtension>
        </extensions>
      </trkpt>
      <trkpt lat="31.4330295659601688385009765625" lon="119.48418586514890193939208984375">
        <ele>7</ele>
        <time>2020-05-16T23:04:56.000Z</time>
        <extensions>
          <ns3:TrackPointExtension>
            <ns3:atemp>29.0</ns3:atemp>
            <ns3:hr>109</ns3:hr>
          </ns3:TrackPointExtension>
        </extensions>
      </trkpt>
      <trkpt lat="31.4331271313130855560302734375" lon="119.4841276109218597412109375">
        <ele>7.400000095367431640625</ele>
        <time>2020-05-16T23:04:59.000Z</time>
        <extensions>
          <ns3:TrackPointExtension>
            <ns3:atemp>29.0</ns3:atemp>
            <ns3:hr>108</ns3:hr>
          </ns3:TrackPointExtension>
        </extensions>
      </trkpt>
      <trkpt lat="31.4331687055528163909912109375" lon="119.484129957854747772216796875">
        <ele>7.400000095367431640625</ele>
        <time>2020-05-16T23:05:00.000Z</time>
        <extensions>
          <ns3:TrackPointExtension>
            <ns3:atemp>29.0</ns3:atemp>
            <ns3:hr>108</ns3:hr>
          </ns3:TrackPointExtension>
        </extensions>
      </trkpt>
      <trkpt lat="31.43321321345865726470947265625" lon="119.484131298959255218505859375">
        <ele>7.599999904632568359375</ele>
        <time>2020-05-16T23:05:01.000Z</time>
        <extensions>
          <ns3:TrackPointExtension>
            <ns3:atemp>29.0</ns3:atemp>
            <ns3:hr>108</ns3:hr>
          </ns3:TrackPointExtension>
        </extensions>
      </trkpt>
      <trkpt lat="31.4334312267601490020751953125" lon="119.48414211161434650421142578125">
        <ele>8</ele>
        <time>2020-05-16T23:05:06.000Z</time>
        <extensions>
          <ns3:TrackPointExtension>
            <ns3:atemp>29.0</ns3:atemp>
            <ns3:hr>106</ns3:hr>
          </ns3:TrackPointExtension>
        </extensions>
      </trkpt>
      <trkpt lat="31.43365192227065563201904296875" lon="119.484163820743560791015625">
        <ele>7.400000095367431640625</ele>
        <time>2020-05-16T23:05:11.000Z</time>
        <extensions>
          <ns3:TrackPointExtension>
            <ns3:atemp>29.0</ns3:atemp>
            <ns3:hr>105</ns3:hr>
          </ns3:TrackPointExtension>
        </extensions>
      </trkpt>
      <trkpt lat="31.4337028004229068756103515625" lon="119.4841827638447284698486328125">
        <ele>6.80000019073486328125</ele>
        <time>2020-05-16T23:05:12.000Z</time>
        <extensions>
          <ns3:TrackPointExtension>
            <ns3:atemp>29.0</ns3:atemp>
            <ns3:hr>105</ns3:hr>
          </ns3:TrackPointExtension>
        </extensions>
      </trkpt>
      <trkpt lat="31.433747895061969757080078125" lon="119.48420648463070392608642578125">
        <ele>6.400000095367431640625</ele>
        <time>2020-05-16T23:05:13.000Z</time>
        <extensions>
          <ns3:TrackPointExtension>
            <ns3:atemp>29.0</ns3:atemp>
            <ns3:hr>105</ns3:hr>
          </ns3:TrackPointExtension>
        </extensions>
      </trkpt>
      <trkpt lat="31.433925926685333251953125" lon="119.4843287765979766845703125">
        <ele>5.19999980926513671875</ele>
        <time>2020-05-16T23:05:18.000Z</time>
        <extensions>
          <ns3:TrackPointExtension>
            <ns3:atemp>29.0</ns3:atemp>
            <ns3:hr>105</ns3:hr>
          </ns3:TrackPointExtension>
        </extensions>
      </trkpt>
      <trkpt lat="31.4341914653778076171875" lon="119.484465904533863067626953125">
        <ele>4.19999980926513671875</ele>
        <time>2020-05-16T23:05:25.000Z</time>
        <extensions>
          <ns3:TrackPointExtension>
            <ns3:atemp>29.0</ns3:atemp>
            <ns3:hr>104</ns3:hr>
          </ns3:TrackPointExtension>
        </extensions>
      </trkpt>
      <trkpt lat="31.4344368875026702880859375" lon="119.4844975881278514862060546875">
        <ele>5.19999980926513671875</ele>
        <time>2020-05-16T23:05:31.000Z</time>
        <extensions>
          <ns3:TrackPointExtension>
            <ns3:atemp>29.0</ns3:atemp>
            <ns3:hr>102</ns3:hr>
          </ns3:TrackPointExtension>
        </extensions>
      </trkpt>
      <trkpt lat="31.43469127826392650604248046875" lon="119.48457612656056880950927734375">
        <ele>7</ele>
        <time>2020-05-16T23:05:37.000Z</time>
        <extensions>
          <ns3:TrackPointExtension>
            <ns3:atemp>29.0</ns3:atemp>
            <ns3:hr>103</ns3:hr>
          </ns3:TrackPointExtension>
        </extensions>
      </trkpt>
      <trkpt lat="31.4347730018198490142822265625" lon="119.48458886705338954925537109375">
        <ele>7.19999980926513671875</ele>
        <time>2020-05-16T23:05:39.000Z</time>
        <extensions>
          <ns3:TrackPointExtension>
            <ns3:atemp>29.0</ns3:atemp>
            <ns3:hr>102</ns3:hr>
          </ns3:TrackPointExtension>
        </extensions>
      </trkpt>
      <trkpt lat="31.43483242951333522796630859375" lon="119.48459976352751255035400390625">
        <ele>7.400000095367431640625</ele>
        <time>2020-05-16T23:05:41.000Z</time>
        <extensions>
          <ns3:TrackPointExtension>
            <ns3:atemp>29.0</ns3:atemp>
            <ns3:hr>101</ns3:hr>
          </ns3:TrackPointExtension>
        </extensions>
      </trkpt>
      <trkpt lat="31.43492362461984157562255859375" lon="119.48460663668811321258544921875">
        <ele>7.80000019073486328125</ele>
        <time>2020-05-16T23:05:45.000Z</time>
        <extensions>
          <ns3:TrackPointExtension>
            <ns3:atemp>29.0</ns3:atemp>
            <ns3:hr>103</ns3:hr>
          </ns3:TrackPointExtension>
        </extensions>
      </trkpt>
    </trkseg>
  </trk>
</gpx>
