<gpx xmlns:ns3="http://www.garmin.com/xmlschemas/TrackPointExtension/v1" xmlns="http://www.topografix.com/GPX/1/1" xmlns:xsi="http://www.w3.org/2001/XMLSchema-instance" xmlns:ns2="http://www.garmin.com/xmlschemas/GpxExtensions/v3" creator="Garmin Connect" version="1.1" xsi:schemaLocation="http://www.topografix.com/GPX/1/1 http://www.topografix.com/GPX/11.xsd">
  <extensions>
<distance>1559.42</distance>
<average_hr>113.0</average_hr>
<average_speed>3.808000087738037</average_speed>
<start_time>2020-07-24T23:07:26+00:00</start_time>
<end_time>2020-07-24T23:14:15.540000+00:00</end_time>
<moving_time>406.0</moving_time>
<elapsed_time>409.54</elapsed_time>
</extensions>
<metadata>
    <link href="connect.garmin.com">
      <text>Garmin Connect</text>
    </link>
    <time>2020-07-24T23:07:26.000Z</time>
  </metadata>
  <trk>
    <name>常州市 骑行</name>
    <type>cycling</type>
    <trkseg>
      <trkpt lat="31.42428766004741191864013671875" lon="119.48361136950552463531494140625">
        <ele>8.6000003814697265625</ele>
        <time>2020-07-24T23:07:33.000Z</time>
        <extensions>
          <ns3:TrackPointExtension>
            <ns3:atemp>29.0</ns3:atemp>
            <ns3:hr>101</ns3:hr>
          </ns3:TrackPointExtension>
        </extensions>
      </trkpt>
      <trkpt lat="31.42424994148313999176025390625" lon="119.48358387686312198638916015625">
        <ele>8.19999980926513671875</ele>
        <time>2020-07-24T23:07:34.000Z</time>
        <extensions>
          <ns3:TrackPointExtension>
            <ns3:atemp>29.0</ns3:atemp>
            <ns3:hr>97</ns3:hr>
          </ns3:TrackPointExtension>
        </extensions>
      </trkpt>
      <trkpt lat="31.4242203533649444580078125" lon="119.48358320631086826324462890625">
        <ele>8.19999980926513671875</ele>
        <time>2020-07-24T23:07:35.000Z</time>
        <extensions>
          <ns3:TrackPointExtension>
            <ns3:atemp>29.0</ns3:atemp>
            <ns3:hr>99</ns3:hr>
          </ns3:TrackPointExtension>
        </extensions>
      </trkpt>
      <trkpt lat="31.42413921654224395751953125" lon="119.48353392072021961212158203125">
        <ele>7.599999904632568359375</ele>
        <time>2020-07-24T23:07:38.000Z</time>
        <extensions>
          <ns3:TrackPointExtension>
            <ns3:atemp>29.0</ns3:atemp>
            <ns3:hr>98</ns3:hr>
          </ns3:TrackPointExtension>
        </extensions>
      </trkpt>
      <trkpt lat="31.424114406108856201171875" lon="119.4835413806140422821044921875">
        <ele>7.599999904632568359375</ele>
        <time>2020-07-24T23:07:40.000Z</time>
        <extensions>
          <ns3:TrackPointExtension>
            <ns3:atemp>29.0</ns3:atemp>
            <ns3:hr>102</ns3:hr>
          </ns3:TrackPointExtension>
        </extensions>
      </trkpt>
      <trkpt lat="31.42414885573089122772216796875" lon="119.48345865122973918914794921875">
        <ele>7</ele>
        <time>2020-07-24T23:07:44.000Z</time>
        <extensions>
          <ns3:TrackPointExtension>
            <ns3:atemp>29.0</ns3:atemp>
            <ns3:hr>99</ns3:hr>
          </ns3:TrackPointExtension>
        </extensions>
      </trkpt>
      <trkpt lat="31.42432051710784435272216796875" lon="119.48348731733858585357666015625">
        <ele>7.80000019073486328125</ele>
        <time>2020-07-24T23:07:50.000Z</time>
        <extensions>
          <ns3:TrackPointExtension>
            <ns3:atemp>29.0</ns3:atemp>
            <ns3:hr>100</ns3:hr>
          </ns3:TrackPointExtension>
        </extensions>
      </trkpt>
      <trkpt lat="31.42441556788980960845947265625" lon="119.4834874011576175689697265625">
        <ele>8.6000003814697265625</ele>
        <time>2020-07-24T23:07:55.000Z</time>
        <extensions>
          <ns3:TrackPointExtension>
            <ns3:atemp>29.0</ns3:atemp>
            <ns3:hr>99</ns3:hr>
          </ns3:TrackPointExtension>
        </extensions>
      </trkpt>
      <trkpt lat="31.42450491897761821746826171875" lon="119.4835267961025238037109375">
        <ele>9</ele>
        <time>2020-07-24T23:07:59.000Z</time>
        <extensions>
          <ns3:TrackPointExtension>
            <ns3:atemp>29.0</ns3:atemp>
            <ns3:hr>100</ns3:hr>
          </ns3:TrackPointExtension>
        </extensions>
      </trkpt>
      <trkpt lat="31.4245152287185192108154296875" lon="119.4835554622113704681396484375">
        <ele>9.19999980926513671875</ele>
        <time>2020-07-24T23:08:00.000Z</time>
        <extensions>
          <ns3:TrackPointExtension>
            <ns3:atemp>29.0</ns3:atemp>
            <ns3:hr>100</ns3:hr>
          </ns3:TrackPointExtension>
        </extensions>
      </trkpt>
      <trkpt lat="31.42453350126743316650390625" lon="119.4837086834013462066650390625">
        <ele>9.80000019073486328125</ele>
        <time>2020-07-24T23:08:05.000Z</time>
        <extensions>
          <ns3:TrackPointExtension>
            <ns3:atemp>29.0</ns3:atemp>
            <ns3:hr>103</ns3:hr>
          </ns3:TrackPointExtension>
        </extensions>
      </trkpt>
      <trkpt lat="31.4245366863906383514404296875" lon="119.4837328232824802398681640625">
        <ele>9.80000019073486328125</ele>
        <time>2020-07-24T23:08:06.000Z</time>
        <extensions>
          <ns3:TrackPointExtension>
            <ns3:atemp>29.0</ns3:atemp>
            <ns3:hr>103</ns3:hr>
          </ns3:TrackPointExtension>
        </extensions>
      </trkpt>
      <trkpt lat="31.4245614968240261077880859375" lon="119.48377146385610103607177734375">
        <ele>10</ele>
        <time>2020-07-24T23:08:08.000Z</time>
        <extensions>
          <ns3:TrackPointExtension>
            <ns3:atemp>29.0</ns3:atemp>
            <ns3:hr>103</ns3:hr>
          </ns3:TrackPointExtension>
        </extensions>
      </trkpt>
      <trkpt lat="31.4246629178524017333984375" lon="119.48377733118832111358642578125">
        <ele>10.3999996185302734375</ele>
        <time>2020-07-24T23:08:10.000Z</time>
        <extensions>
          <ns3:TrackPointExtension>
            <ns3:atemp>29.0</ns3:atemp>
            <ns3:hr>103</ns3:hr>
          </ns3:TrackPointExtension>
        </extensions>
      </trkpt>
      <trkpt lat="31.42486064694821834564208984375" lon="119.48377850465476512908935546875">
        <ele>11.19999980926513671875</ele>
        <time>2020-07-24T23:08:19.000Z</time>
        <extensions>
          <ns3:TrackPointExtension>
            <ns3:atemp>29.0</ns3:atemp>
            <ns3:hr>104</ns3:hr>
          </ns3:TrackPointExtension>
        </extensions>
      </trkpt>
      <trkpt lat="31.42492820508778095245361328125" lon="119.48376953601837158203125">
        <ele>11.3999996185302734375</ele>
        <time>2020-07-24T23:08:21.000Z</time>
        <extensions>
          <ns3:TrackPointExtension>
            <ns3:atemp>29.0</ns3:atemp>
            <ns3:hr>107</ns3:hr>
          </ns3:TrackPointExtension>
        </extensions>
      </trkpt>
      <trkpt lat="31.42501629889011383056640625" lon="119.4837552867829799652099609375">
        <ele>11.6000003814697265625</ele>
        <time>2020-07-24T23:08:24.000Z</time>
        <extensions>
          <ns3:TrackPointExtension>
            <ns3:atemp>29.0</ns3:atemp>
            <ns3:hr>111</ns3:hr>
          </ns3:TrackPointExtension>
        </extensions>
      </trkpt>
      <trkpt lat="31.42504152841866016387939453125" lon="119.48375654406845569610595703125">
        <ele>11.6000003814697265625</ele>
        <time>2020-07-24T23:08:25.000Z</time>
        <extensions>
          <ns3:TrackPointExtension>
            <ns3:atemp>29.0</ns3:atemp>
            <ns3:hr>108</ns3:hr>
          </ns3:TrackPointExtension>
        </extensions>
      </trkpt>
      <trkpt lat="31.42506818287074565887451171875" lon="119.48376056738197803497314453125">
        <ele>11.6000003814697265625</ele>
        <time>2020-07-24T23:08:26.000Z</time>
        <extensions>
          <ns3:TrackPointExtension>
            <ns3:atemp>29.0</ns3:atemp>
            <ns3:hr>111</ns3:hr>
          </ns3:TrackPointExtension>
        </extensions>
      </trkpt>
      <trkpt lat="31.42512367106974124908447265625" lon="119.48377833701670169830322265625">
        <ele>11.6000003814697265625</ele>
        <time>2020-07-24T23:08:28.000Z</time>
        <extensions>
          <ns3:TrackPointExtension>
            <ns3:atemp>29.0</ns3:atemp>
            <ns3:hr>114</ns3:hr>
          </ns3:TrackPointExtension>
        </extensions>
      </trkpt>
      <trkpt lat="31.42518351785838603973388671875" lon="119.4837985374033451080322265625">
        <ele>11.6000003814697265625</ele>
        <time>2020-07-24T23:08:30.000Z</time>
        <extensions>
          <ns3:TrackPointExtension>
            <ns3:atemp>29.0</ns3:atemp>
            <ns3:hr>118</ns3:hr>
          </ns3:TrackPointExtension>
        </extensions>
      </trkpt>
      <trkpt lat="31.42524638213217258453369140625" lon="119.48382175527513027191162109375">
        <ele>11.6000003814697265625</ele>
        <time>2020-07-24T23:08:32.000Z</time>
        <extensions>
          <ns3:TrackPointExtension>
            <ns3:atemp>29.0</ns3:atemp>
            <ns3:hr>117</ns3:hr>
          </ns3:TrackPointExtension>
        </extensions>
      </trkpt>
      <trkpt lat="31.4254275150597095489501953125" lon="119.48387456126511096954345703125">
        <ele>10.80000019073486328125</ele>
        <time>2020-07-24T23:08:38.000Z</time>
        <extensions>
          <ns3:TrackPointExtension>
            <ns3:atemp>29.0</ns3:atemp>
            <ns3:hr>114</ns3:hr>
          </ns3:TrackPointExtension>
        </extensions>
      </trkpt>
      <trkpt lat="31.42545945011079311370849609375" lon="119.48388461954891681671142578125">
        <ele>10.6000003814697265625</ele>
        <time>2020-07-24T23:08:39.000Z</time>
        <extensions>
          <ns3:TrackPointExtension>
            <ns3:atemp>29.0</ns3:atemp>
            <ns3:hr>107</ns3:hr>
          </ns3:TrackPointExtension>
        </extensions>
      </trkpt>
      <trkpt lat="31.42563882283866405487060546875" lon="119.4839259423315525054931640625">
        <ele>9.80000019073486328125</ele>
        <time>2020-07-24T23:08:44.000Z</time>
        <extensions>
          <ns3:TrackPointExtension>
            <ns3:atemp>28.0</ns3:atemp>
            <ns3:hr>105</ns3:hr>
          </ns3:TrackPointExtension>
        </extensions>
      </trkpt>
      <trkpt lat="31.42576991580426692962646484375" lon="119.48390926234424114227294921875">
        <ele>8.6000003814697265625</ele>
        <time>2020-07-24T23:08:47.000Z</time>
        <extensions>
          <ns3:TrackPointExtension>
            <ns3:atemp>28.0</ns3:atemp>
            <ns3:hr>105</ns3:hr>
          </ns3:TrackPointExtension>
        </extensions>
      </trkpt>
      <trkpt lat="31.4259009249508380889892578125" lon="119.48391613550484180450439453125">
        <ele>8.6000003814697265625</ele>
        <time>2020-07-24T23:08:50.000Z</time>
        <extensions>
          <ns3:TrackPointExtension>
            <ns3:atemp>28.0</ns3:atemp>
            <ns3:hr>103</ns3:hr>
          </ns3:TrackPointExtension>
        </extensions>
      </trkpt>
      <trkpt lat="31.42601802013814449310302734375" lon="119.48392703197896480560302734375">
        <ele>9.19999980926513671875</ele>
        <time>2020-07-24T23:08:53.000Z</time>
        <extensions>
          <ns3:TrackPointExtension>
            <ns3:atemp>28.0</ns3:atemp>
            <ns3:hr>103</ns3:hr>
          </ns3:TrackPointExtension>
        </extensions>
      </trkpt>
      <trkpt lat="31.4260930381715297698974609375" lon="119.48392183519899845123291015625">
        <ele>9.3999996185302734375</ele>
        <time>2020-07-24T23:08:55.000Z</time>
        <extensions>
          <ns3:TrackPointExtension>
            <ns3:atemp>28.0</ns3:atemp>
            <ns3:hr>103</ns3:hr>
          </ns3:TrackPointExtension>
        </extensions>
      </trkpt>
      <trkpt lat="31.42632714472711086273193359375" lon="119.48392535559833049774169921875">
        <ele>10.80000019073486328125</ele>
        <time>2020-07-24T23:09:01.000Z</time>
        <extensions>
          <ns3:TrackPointExtension>
            <ns3:atemp>28.0</ns3:atemp>
            <ns3:hr>104</ns3:hr>
          </ns3:TrackPointExtension>
        </extensions>
      </trkpt>
      <trkpt lat="31.42650903202593326568603515625" lon="119.4839598052203655242919921875">
        <ele>10.80000019073486328125</ele>
        <time>2020-07-24T23:09:06.000Z</time>
        <extensions>
          <ns3:TrackPointExtension>
            <ns3:atemp>28.0</ns3:atemp>
            <ns3:hr>105</ns3:hr>
          </ns3:TrackPointExtension>
        </extensions>
      </trkpt>
      <trkpt lat="31.42671120353043079376220703125" lon="119.4839935004711151123046875">
        <ele>10.3999996185302734375</ele>
        <time>2020-07-24T23:09:12.000Z</time>
        <extensions>
          <ns3:TrackPointExtension>
            <ns3:atemp>28.0</ns3:atemp>
            <ns3:hr>107</ns3:hr>
          </ns3:TrackPointExtension>
        </extensions>
      </trkpt>
      <trkpt lat="31.42692879773676395416259765625" lon="119.4839839451014995574951171875">
        <ele>9</ele>
        <time>2020-07-24T23:09:18.000Z</time>
        <extensions>
          <ns3:TrackPointExtension>
            <ns3:atemp>28.0</ns3:atemp>
            <ns3:hr>108</ns3:hr>
          </ns3:TrackPointExtension>
        </extensions>
      </trkpt>
      <trkpt lat="31.42718561924993991851806640625" lon="119.4839936681091785430908203125">
        <ele>8.6000003814697265625</ele>
        <time>2020-07-24T23:09:25.000Z</time>
        <extensions>
          <ns3:TrackPointExtension>
            <ns3:atemp>28.0</ns3:atemp>
            <ns3:hr>109</ns3:hr>
          </ns3:TrackPointExtension>
        </extensions>
      </trkpt>
      <trkpt lat="31.42722048796713352203369140625" lon="119.48399056680500507354736328125">
        <ele>8.6000003814697265625</ele>
        <time>2020-07-24T23:09:26.000Z</time>
        <extensions>
          <ns3:TrackPointExtension>
            <ns3:atemp>28.0</ns3:atemp>
            <ns3:hr>109</ns3:hr>
          </ns3:TrackPointExtension>
        </extensions>
      </trkpt>
      <trkpt lat="31.42734521068632602691650390625" lon="119.4840308837592601776123046875">
        <ele>8.3999996185302734375</ele>
        <time>2020-07-24T23:09:30.000Z</time>
        <extensions>
          <ns3:TrackPointExtension>
            <ns3:atemp>28.0</ns3:atemp>
            <ns3:hr>108</ns3:hr>
          </ns3:TrackPointExtension>
        </extensions>
      </trkpt>
      <trkpt lat="31.4274331368505954742431640625" lon="119.48406659066677093505859375">
        <ele>8.19999980926513671875</ele>
        <time>2020-07-24T23:09:33.000Z</time>
        <extensions>
          <ns3:TrackPointExtension>
            <ns3:atemp>28.0</ns3:atemp>
            <ns3:hr>109</ns3:hr>
          </ns3:TrackPointExtension>
        </extensions>
      </trkpt>
      <trkpt lat="31.42754964530467987060546875" lon="119.48409131728112697601318359375">
        <ele>7.80000019073486328125</ele>
        <time>2020-07-24T23:09:36.000Z</time>
        <extensions>
          <ns3:TrackPointExtension>
            <ns3:atemp>28.0</ns3:atemp>
            <ns3:hr>109</ns3:hr>
          </ns3:TrackPointExtension>
        </extensions>
      </trkpt>
      <trkpt lat="31.42773899249732494354248046875" lon="119.484115876257419586181640625">
        <ele>7</ele>
        <time>2020-07-24T23:09:41.000Z</time>
        <extensions>
          <ns3:TrackPointExtension>
            <ns3:atemp>28.0</ns3:atemp>
            <ns3:hr>108</ns3:hr>
          </ns3:TrackPointExtension>
        </extensions>
      </trkpt>
      <trkpt lat="31.42800067551434040069580078125" lon="119.48425862006843090057373046875">
        <ele>7.400000095367431640625</ele>
        <time>2020-07-24T23:09:48.000Z</time>
        <extensions>
          <ns3:TrackPointExtension>
            <ns3:atemp>28.0</ns3:atemp>
            <ns3:hr>108</ns3:hr>
          </ns3:TrackPointExtension>
        </extensions>
      </trkpt>
      <trkpt lat="31.42824274487793445587158203125" lon="119.4843168742954730987548828125">
        <ele>7.80000019073486328125</ele>
        <time>2020-07-24T23:09:54.000Z</time>
        <extensions>
          <ns3:TrackPointExtension>
            <ns3:atemp>28.0</ns3:atemp>
            <ns3:hr>110</ns3:hr>
          </ns3:TrackPointExtension>
        </extensions>
      </trkpt>
      <trkpt lat="31.4283625222742557525634765625" lon="119.484178908169269561767578125">
        <ele>7.80000019073486328125</ele>
        <time>2020-07-24T23:09:58.000Z</time>
        <extensions>
          <ns3:TrackPointExtension>
            <ns3:atemp>28.0</ns3:atemp>
            <ns3:hr>111</ns3:hr>
          </ns3:TrackPointExtension>
        </extensions>
      </trkpt>
      <trkpt lat="31.42855186946690082550048828125" lon="119.4839289598166942596435546875">
        <ele>7.80000019073486328125</ele>
        <time>2020-07-24T23:10:05.000Z</time>
        <extensions>
          <ns3:TrackPointExtension>
            <ns3:atemp>28.0</ns3:atemp>
            <ns3:hr>113</ns3:hr>
          </ns3:TrackPointExtension>
        </extensions>
      </trkpt>
      <trkpt lat="31.4288017340004444122314453125" lon="119.48363098315894603729248046875">
        <ele>7.19999980926513671875</ele>
        <time>2020-07-24T23:10:15.000Z</time>
        <extensions>
          <ns3:TrackPointExtension>
            <ns3:atemp>28.0</ns3:atemp>
            <ns3:hr>116</ns3:hr>
          </ns3:TrackPointExtension>
        </extensions>
      </trkpt>
      <trkpt lat="31.42897188663482666015625" lon="119.483476169407367706298828125">
        <ele>7.80000019073486328125</ele>
        <time>2020-07-24T23:10:21.000Z</time>
        <extensions>
          <ns3:TrackPointExtension>
            <ns3:atemp>28.0</ns3:atemp>
            <ns3:hr>117</ns3:hr>
          </ns3:TrackPointExtension>
        </extensions>
      </trkpt>
      <trkpt lat="31.4291192404925823211669921875" lon="119.48331154882907867431640625">
        <ele>8.80000019073486328125</ele>
        <time>2020-07-24T23:10:27.000Z</time>
        <extensions>
          <ns3:TrackPointExtension>
            <ns3:atemp>28.0</ns3:atemp>
            <ns3:hr>117</ns3:hr>
          </ns3:TrackPointExtension>
        </extensions>
      </trkpt>
      <trkpt lat="31.429143883287906646728515625" lon="119.48328967206180095672607421875">
        <ele>9.19999980926513671875</ele>
        <time>2020-07-24T23:10:28.000Z</time>
        <extensions>
          <ns3:TrackPointExtension>
            <ns3:atemp>28.0</ns3:atemp>
            <ns3:hr>117</ns3:hr>
          </ns3:TrackPointExtension>
        </extensions>
      </trkpt>
      <trkpt lat="31.42927355132997035980224609375" lon="119.48315740562975406646728515625">
        <ele>11</ele>
        <time>2020-07-24T23:10:34.000Z</time>
        <extensions>
          <ns3:TrackPointExtension>
            <ns3:atemp>28.0</ns3:atemp>
            <ns3:hr>117</ns3:hr>
          </ns3:TrackPointExtension>
        </extensions>
      </trkpt>
      <trkpt lat="31.429325602948665618896484375" lon="119.483106024563312530517578125">
        <ele>11</ele>
        <time>2020-07-24T23:10:36.000Z</time>
        <extensions>
          <ns3:TrackPointExtension>
            <ns3:atemp>28.0</ns3:atemp>
            <ns3:hr>117</ns3:hr>
          </ns3:TrackPointExtension>
        </extensions>
      </trkpt>
      <trkpt lat="31.42944303341209888458251953125" lon="119.48299211449921131134033203125">
        <ele>11.80000019073486328125</ele>
        <time>2020-07-24T23:10:40.000Z</time>
        <extensions>
          <ns3:TrackPointExtension>
            <ns3:atemp>28.0</ns3:atemp>
            <ns3:hr>116</ns3:hr>
          </ns3:TrackPointExtension>
        </extensions>
      </trkpt>
      <trkpt lat="31.4296214841306209564208984375" lon="119.48280192911624908447265625">
        <ele>12</ele>
        <time>2020-07-24T23:10:47.000Z</time>
        <extensions>
          <ns3:TrackPointExtension>
            <ns3:atemp>28.0</ns3:atemp>
            <ns3:hr>116</ns3:hr>
          </ns3:TrackPointExtension>
        </extensions>
      </trkpt>
      <trkpt lat="31.42969273030757904052734375" lon="119.48276982642710208892822265625">
        <ele>11.19999980926513671875</ele>
        <time>2020-07-24T23:10:49.000Z</time>
        <extensions>
          <ns3:TrackPointExtension>
            <ns3:atemp>28.0</ns3:atemp>
            <ns3:hr>117</ns3:hr>
          </ns3:TrackPointExtension>
        </extensions>
      </trkpt>
      <trkpt lat="31.4297636412084102630615234375" lon="119.48275658302009105682373046875">
        <ele>10.6000003814697265625</ele>
        <time>2020-07-24T23:10:51.000Z</time>
        <extensions>
          <ns3:TrackPointExtension>
            <ns3:atemp>28.0</ns3:atemp>
            <ns3:hr>117</ns3:hr>
          </ns3:TrackPointExtension>
        </extensions>
      </trkpt>
      <trkpt lat="31.4299728535115718841552734375" lon="119.48268391191959381103515625">
        <ele>9.3999996185302734375</ele>
        <time>2020-07-24T23:10:58.000Z</time>
        <extensions>
          <ns3:TrackPointExtension>
            <ns3:atemp>28.0</ns3:atemp>
            <ns3:hr>118</ns3:hr>
          </ns3:TrackPointExtension>
        </extensions>
      </trkpt>
      <trkpt lat="31.4300526492297649383544921875" lon="119.4827179424464702606201171875">
        <ele>9.3999996185302734375</ele>
        <time>2020-07-24T23:11:02.000Z</time>
        <extensions>
          <ns3:TrackPointExtension>
            <ns3:atemp>28.0</ns3:atemp>
            <ns3:hr>118</ns3:hr>
          </ns3:TrackPointExtension>
        </extensions>
      </trkpt>
      <trkpt lat="31.430104114115238189697265625" lon="119.48274585418403148651123046875">
        <ele>9.6000003814697265625</ele>
        <time>2020-07-24T23:11:04.000Z</time>
        <extensions>
          <ns3:TrackPointExtension>
            <ns3:atemp>28.0</ns3:atemp>
            <ns3:hr>117</ns3:hr>
          </ns3:TrackPointExtension>
        </extensions>
      </trkpt>
      <trkpt lat="31.4301614463329315185546875" lon="119.4827990792691707611083984375">
        <ele>9.6000003814697265625</ele>
        <time>2020-07-24T23:11:06.000Z</time>
        <extensions>
          <ns3:TrackPointExtension>
            <ns3:atemp>28.0</ns3:atemp>
            <ns3:hr>116</ns3:hr>
          </ns3:TrackPointExtension>
        </extensions>
      </trkpt>
      <trkpt lat="31.43043863587081432342529296875" lon="119.48303796350955963134765625">
        <ele>9.6000003814697265625</ele>
        <time>2020-07-24T23:11:14.000Z</time>
        <extensions>
          <ns3:TrackPointExtension>
            <ns3:atemp>28.0</ns3:atemp>
            <ns3:hr>116</ns3:hr>
          </ns3:TrackPointExtension>
        </extensions>
      </trkpt>
      <trkpt lat="31.43051541410386562347412109375" lon="119.483083896338939666748046875">
        <ele>10</ele>
        <time>2020-07-24T23:11:16.000Z</time>
        <extensions>
          <ns3:TrackPointExtension>
            <ns3:atemp>28.0</ns3:atemp>
            <ns3:hr>116</ns3:hr>
          </ns3:TrackPointExtension>
        </extensions>
      </trkpt>
      <trkpt lat="31.430673412978649139404296875" lon="119.4831440784037113189697265625">
        <ele>9.80000019073486328125</ele>
        <time>2020-07-24T23:11:20.000Z</time>
        <extensions>
          <ns3:TrackPointExtension>
            <ns3:atemp>28.0</ns3:atemp>
            <ns3:hr>114</ns3:hr>
          </ns3:TrackPointExtension>
        </extensions>
      </trkpt>
      <trkpt lat="31.43077776767313480377197265625" lon="119.48320694267749786376953125">
        <ele>9.6000003814697265625</ele>
        <time>2020-07-24T23:11:23.000Z</time>
        <extensions>
          <ns3:TrackPointExtension>
            <ns3:atemp>28.0</ns3:atemp>
            <ns3:hr>114</ns3:hr>
          </ns3:TrackPointExtension>
        </extensions>
      </trkpt>
      <trkpt lat="31.43088136799633502960205078125" lon="119.4832865707576274871826171875">
        <ele>9.80000019073486328125</ele>
        <time>2020-07-24T23:11:26.000Z</time>
        <extensions>
          <ns3:TrackPointExtension>
            <ns3:atemp>28.0</ns3:atemp>
            <ns3:hr>114</ns3:hr>
          </ns3:TrackPointExtension>
        </extensions>
      </trkpt>
      <trkpt lat="31.431109271943569183349609375" lon="119.48347440920770168304443359375">
        <ele>11</ele>
        <time>2020-07-24T23:11:33.000Z</time>
        <extensions>
          <ns3:TrackPointExtension>
            <ns3:atemp>28.0</ns3:atemp>
            <ns3:hr>113</ns3:hr>
          </ns3:TrackPointExtension>
        </extensions>
      </trkpt>
      <trkpt lat="31.43138025887310504913330078125" lon="119.483727626502513885498046875">
        <ele>10.19999980926513671875</ele>
        <time>2020-07-24T23:11:41.000Z</time>
        <extensions>
          <ns3:TrackPointExtension>
            <ns3:atemp>28.0</ns3:atemp>
            <ns3:hr>114</ns3:hr>
          </ns3:TrackPointExtension>
        </extensions>
      </trkpt>
      <trkpt lat="31.43165837042033672332763671875" lon="119.4839614816009998321533203125">
        <ele>8.80000019073486328125</ele>
        <time>2020-07-24T23:11:48.000Z</time>
        <extensions>
          <ns3:TrackPointExtension>
            <ns3:atemp>28.0</ns3:atemp>
            <ns3:hr>116</ns3:hr>
          </ns3:TrackPointExtension>
        </extensions>
      </trkpt>
      <trkpt lat="31.43174101598560810089111328125" lon="119.48401722125709056854248046875">
        <ele>8.80000019073486328125</ele>
        <time>2020-07-24T23:11:50.000Z</time>
        <extensions>
          <ns3:TrackPointExtension>
            <ns3:atemp>28.0</ns3:atemp>
            <ns3:hr>117</ns3:hr>
          </ns3:TrackPointExtension>
        </extensions>
      </trkpt>
      <trkpt lat="31.4318487234413623809814453125" lon="119.4841061532497406005859375">
        <ele>9</ele>
        <time>2020-07-24T23:11:53.000Z</time>
        <extensions>
          <ns3:TrackPointExtension>
            <ns3:atemp>28.0</ns3:atemp>
            <ns3:hr>119</ns3:hr>
          </ns3:TrackPointExtension>
        </extensions>
      </trkpt>
      <trkpt lat="31.43207050859928131103515625" lon="119.4842873699963092803955078125">
        <ele>8</ele>
        <time>2020-07-24T23:12:00.000Z</time>
        <extensions>
          <ns3:TrackPointExtension>
            <ns3:atemp>28.0</ns3:atemp>
            <ns3:hr>122</ns3:hr>
          </ns3:TrackPointExtension>
        </extensions>
      </trkpt>
      <trkpt lat="31.43221543170511722564697265625" lon="119.48442659340798854827880859375">
        <ele>7</ele>
        <time>2020-07-24T23:12:06.000Z</time>
        <extensions>
          <ns3:TrackPointExtension>
            <ns3:atemp>28.0</ns3:atemp>
            <ns3:hr>124</ns3:hr>
          </ns3:TrackPointExtension>
        </extensions>
      </trkpt>
      <trkpt lat="31.43240184523165225982666015625" lon="119.48462809436023235321044921875">
        <ele>5.599999904632568359375</ele>
        <time>2020-07-24T23:12:15.000Z</time>
        <extensions>
          <ns3:TrackPointExtension>
            <ns3:atemp>28.0</ns3:atemp>
            <ns3:hr>122</ns3:hr>
          </ns3:TrackPointExtension>
        </extensions>
      </trkpt>
      <trkpt lat="31.43253746442496776580810546875" lon="119.48477829806506633758544921875">
        <ele>5.19999980926513671875</ele>
        <time>2020-07-24T23:12:22.000Z</time>
        <extensions>
          <ns3:TrackPointExtension>
            <ns3:atemp>28.0</ns3:atemp>
            <ns3:hr>122</ns3:hr>
          </ns3:TrackPointExtension>
        </extensions>
      </trkpt>
      <trkpt lat="31.43266889266669750213623046875" lon="119.4849173538386821746826171875">
        <ele>5.80000019073486328125</ele>
        <time>2020-07-24T23:12:28.000Z</time>
        <extensions>
          <ns3:TrackPointExtension>
            <ns3:atemp>28.0</ns3:atemp>
            <ns3:hr>119</ns3:hr>
          </ns3:TrackPointExtension>
        </extensions>
      </trkpt>
      <trkpt lat="31.43289051018655300140380859375" lon="119.4851540587842464447021484375">
        <ele>6</ele>
        <time>2020-07-24T23:12:34.000Z</time>
        <extensions>
          <ns3:TrackPointExtension>
            <ns3:atemp>28.0</ns3:atemp>
            <ns3:hr>116</ns3:hr>
          </ns3:TrackPointExtension>
        </extensions>
      </trkpt>
      <trkpt lat="31.433143056929111480712890625" lon="119.485408365726470947265625">
        <ele>6.19999980926513671875</ele>
        <time>2020-07-24T23:12:39.000Z</time>
        <extensions>
          <ns3:TrackPointExtension>
            <ns3:atemp>28.0</ns3:atemp>
            <ns3:hr>116</ns3:hr>
          </ns3:TrackPointExtension>
        </extensions>
      </trkpt>
      <trkpt lat="31.433243639767169952392578125" lon="119.485520683228969573974609375">
        <ele>6.19999980926513671875</ele>
        <time>2020-07-24T23:12:41.000Z</time>
        <extensions>
          <ns3:TrackPointExtension>
            <ns3:atemp>28.0</ns3:atemp>
            <ns3:hr>117</ns3:hr>
          </ns3:TrackPointExtension>
        </extensions>
      </trkpt>
      <trkpt lat="31.43343449570238590240478515625" lon="119.48571086861193180084228515625">
        <ele>6.19999980926513671875</ele>
        <time>2020-07-24T23:12:45.000Z</time>
        <extensions>
          <ns3:TrackPointExtension>
            <ns3:atemp>28.0</ns3:atemp>
            <ns3:hr>119</ns3:hr>
          </ns3:TrackPointExtension>
        </extensions>
      </trkpt>
      <trkpt lat="31.433565504848957061767578125" lon="119.48582335375249385833740234375">
        <ele>6</ele>
        <time>2020-07-24T23:12:48.000Z</time>
        <extensions>
          <ns3:TrackPointExtension>
            <ns3:atemp>28.0</ns3:atemp>
            <ns3:hr>122</ns3:hr>
          </ns3:TrackPointExtension>
        </extensions>
      </trkpt>
      <trkpt lat="31.43371076323091983795166015625" lon="119.48593433015048503875732421875">
        <ele>5.599999904632568359375</ele>
        <time>2020-07-24T23:12:51.000Z</time>
        <extensions>
          <ns3:TrackPointExtension>
            <ns3:atemp>28.0</ns3:atemp>
            <ns3:hr>123</ns3:hr>
          </ns3:TrackPointExtension>
        </extensions>
      </trkpt>
      <trkpt lat="31.433791816234588623046875" lon="119.48599241673946380615234375">
        <ele>5.19999980926513671875</ele>
        <time>2020-07-24T23:12:53.000Z</time>
        <extensions>
          <ns3:TrackPointExtension>
            <ns3:atemp>28.0</ns3:atemp>
            <ns3:hr>123</ns3:hr>
          </ns3:TrackPointExtension>
        </extensions>
      </trkpt>
      <trkpt lat="31.433858536183834075927734375" lon="119.48598965071141719818115234375">
        <ele>5</ele>
        <time>2020-07-24T23:12:55.000Z</time>
        <extensions>
          <ns3:TrackPointExtension>
            <ns3:atemp>28.0</ns3:atemp>
            <ns3:hr>123</ns3:hr>
          </ns3:TrackPointExtension>
        </extensions>
      </trkpt>
      <trkpt lat="31.43395073711872100830078125" lon="119.48588655330240726470947265625">
        <ele>5</ele>
        <time>2020-07-24T23:12:59.000Z</time>
        <extensions>
          <ns3:TrackPointExtension>
            <ns3:atemp>28.0</ns3:atemp>
            <ns3:hr>122</ns3:hr>
          </ns3:TrackPointExtension>
        </extensions>
      </trkpt>
      <trkpt lat="31.43399205990135669708251953125" lon="119.4858011417090892791748046875">
        <ele>5.400000095367431640625</ele>
        <time>2020-07-24T23:13:01.000Z</time>
        <extensions>
          <ns3:TrackPointExtension>
            <ns3:atemp>28.0</ns3:atemp>
            <ns3:hr>121</ns3:hr>
          </ns3:TrackPointExtension>
        </extensions>
      </trkpt>
      <trkpt lat="31.43401485867798328399658203125" lon="119.485704414546489715576171875">
        <ele>5</ele>
        <time>2020-07-24T23:13:03.000Z</time>
        <extensions>
          <ns3:TrackPointExtension>
            <ns3:atemp>28.0</ns3:atemp>
            <ns3:hr>120</ns3:hr>
          </ns3:TrackPointExtension>
        </extensions>
      </trkpt>
      <trkpt lat="31.4340452849864959716796875" lon="119.48559620417654514312744140625">
        <ele>4.80000019073486328125</ele>
        <time>2020-07-24T23:13:05.000Z</time>
        <extensions>
          <ns3:TrackPointExtension>
            <ns3:atemp>28.0</ns3:atemp>
            <ns3:hr>119</ns3:hr>
          </ns3:TrackPointExtension>
        </extensions>
      </trkpt>
      <trkpt lat="31.43405911512672901153564453125" lon="119.485544152557849884033203125">
        <ele>4.599999904632568359375</ele>
        <time>2020-07-24T23:13:06.000Z</time>
        <extensions>
          <ns3:TrackPointExtension>
            <ns3:atemp>27.0</ns3:atemp>
            <ns3:hr>119</ns3:hr>
          </ns3:TrackPointExtension>
        </extensions>
      </trkpt>
      <trkpt lat="31.4341094903647899627685546875" lon="119.48544482700526714324951171875">
        <ele>4.80000019073486328125</ele>
        <time>2020-07-24T23:13:08.000Z</time>
        <extensions>
          <ns3:TrackPointExtension>
            <ns3:atemp>27.0</ns3:atemp>
            <ns3:hr>120</ns3:hr>
          </ns3:TrackPointExtension>
        </extensions>
      </trkpt>
      <trkpt lat="31.4341306127607822418212890625" lon="119.48532513342797756195068359375">
        <ele>5</ele>
        <time>2020-07-24T23:13:10.000Z</time>
        <extensions>
          <ns3:TrackPointExtension>
            <ns3:atemp>27.0</ns3:atemp>
            <ns3:hr>121</ns3:hr>
          </ns3:TrackPointExtension>
        </extensions>
      </trkpt>
      <trkpt lat="31.43413589335978031158447265625" lon="119.4852769374847412109375">
        <ele>5</ele>
        <time>2020-07-24T23:13:11.000Z</time>
        <extensions>
          <ns3:TrackPointExtension>
            <ns3:atemp>27.0</ns3:atemp>
            <ns3:hr>121</ns3:hr>
          </ns3:TrackPointExtension>
        </extensions>
      </trkpt>
      <trkpt lat="31.43413237296044826507568359375" lon="119.48522304184734821319580078125">
        <ele>4.80000019073486328125</ele>
        <time>2020-07-24T23:13:12.000Z</time>
        <extensions>
          <ns3:TrackPointExtension>
            <ns3:atemp>27.0</ns3:atemp>
            <ns3:hr>122</ns3:hr>
          </ns3:TrackPointExtension>
        </extensions>
      </trkpt>
      <trkpt lat="31.4340890385210514068603515625" lon="119.4850932061672210693359375">
        <ele>4.400000095367431640625</ele>
        <time>2020-07-24T23:13:15.000Z</time>
        <extensions>
          <ns3:TrackPointExtension>
            <ns3:atemp>27.0</ns3:atemp>
            <ns3:hr>123</ns3:hr>
          </ns3:TrackPointExtension>
        </extensions>
      </trkpt>
      <trkpt lat="31.43409918062388896942138671875" lon="119.48493872769176959991455078125">
        <ele>4.19999980926513671875</ele>
        <time>2020-07-24T23:13:19.000Z</time>
        <extensions>
          <ns3:TrackPointExtension>
            <ns3:atemp>27.0</ns3:atemp>
            <ns3:hr>125</ns3:hr>
          </ns3:TrackPointExtension>
        </extensions>
      </trkpt>
      <trkpt lat="31.434094570577144622802734375" lon="119.484738148748874664306640625">
        <ele>5</ele>
        <time>2020-07-24T23:13:25.000Z</time>
        <extensions>
          <ns3:TrackPointExtension>
            <ns3:atemp>27.0</ns3:atemp>
            <ns3:hr>124</ns3:hr>
          </ns3:TrackPointExtension>
        </extensions>
      </trkpt>
      <trkpt lat="31.4340640604496002197265625" lon="119.4845264218747615814208984375">
        <ele>5</ele>
        <time>2020-07-24T23:13:31.000Z</time>
        <extensions>
          <ns3:TrackPointExtension>
            <ns3:atemp>27.0</ns3:atemp>
            <ns3:hr>121</ns3:hr>
          </ns3:TrackPointExtension>
        </extensions>
      </trkpt>
      <trkpt lat="31.43413471989333629608154296875" lon="119.48444067500531673431396484375">
        <ele>4.19999980926513671875</ele>
        <time>2020-07-24T23:13:34.000Z</time>
        <extensions>
          <ns3:TrackPointExtension>
            <ns3:atemp>27.0</ns3:atemp>
            <ns3:hr>120</ns3:hr>
          </ns3:TrackPointExtension>
        </extensions>
      </trkpt>
      <trkpt lat="31.434169672429561614990234375" lon="119.484427012503147125244140625">
        <ele>4</ele>
        <time>2020-07-24T23:13:35.000Z</time>
        <extensions>
          <ns3:TrackPointExtension>
            <ns3:atemp>27.0</ns3:atemp>
            <ns3:hr>119</ns3:hr>
          </ns3:TrackPointExtension>
        </extensions>
      </trkpt>
      <trkpt lat="31.4342680759727954864501953125" lon="119.4844402559101581573486328125">
        <ele>4.400000095367431640625</ele>
        <time>2020-07-24T23:13:39.000Z</time>
        <extensions>
          <ns3:TrackPointExtension>
            <ns3:atemp>27.0</ns3:atemp>
            <ns3:hr>118</ns3:hr>
          </ns3:TrackPointExtension>
        </extensions>
      </trkpt>
      <trkpt lat="31.43448541872203350067138671875" lon="119.48446934111416339874267578125">
        <ele>5.400000095367431640625</ele>
        <time>2020-07-24T23:13:46.000Z</time>
        <extensions>
          <ns3:TrackPointExtension>
            <ns3:atemp>27.0</ns3:atemp>
            <ns3:hr>116</ns3:hr>
          </ns3:TrackPointExtension>
        </extensions>
      </trkpt>
      <trkpt lat="31.4347019232809543609619140625" lon="119.48451317846775054931640625">
        <ele>7</ele>
        <time>2020-07-24T23:13:53.000Z</time>
        <extensions>
          <ns3:TrackPointExtension>
            <ns3:atemp>27.0</ns3:atemp>
            <ns3:hr>118</ns3:hr>
          </ns3:TrackPointExtension>
        </extensions>
      </trkpt>
      <trkpt lat="31.4347346127033233642578125" lon="119.484526924788951873779296875">
        <ele>7.19999980926513671875</ele>
        <time>2020-07-24T23:13:57.000Z</time>
        <extensions>
          <ns3:TrackPointExtension>
            <ns3:atemp>27.0</ns3:atemp>
            <ns3:hr>115</ns3:hr>
          </ns3:TrackPointExtension>
        </extensions>
      </trkpt>
      <trkpt lat="31.43474425189197063446044921875" lon="119.484527595341205596923828125">
        <ele>7.19999980926513671875</ele>
        <time>2020-07-24T23:13:59.000Z</time>
        <extensions>
          <ns3:TrackPointExtension>
            <ns3:atemp>27.0</ns3:atemp>
            <ns3:hr>114</ns3:hr>
          </ns3:TrackPointExtension>
        </extensions>
      </trkpt>
      <trkpt lat="31.434784233570098876953125" lon="119.48452449403703212738037109375">
        <ele>7.19999980926513671875</ele>
        <time>2020-07-24T23:14:02.000Z</time>
        <extensions>
          <ns3:TrackPointExtension>
            <ns3:atemp>27.0</ns3:atemp>
            <ns3:hr>112</ns3:hr>
          </ns3:TrackPointExtension>
        </extensions>
      </trkpt>
      <trkpt lat="31.434895209968090057373046875" lon="119.48453052900731563568115234375">
        <ele>7.599999904632568359375</ele>
        <time>2020-07-24T23:14:09.000Z</time>
        <extensions>
          <ns3:TrackPointExtension>
            <ns3:atemp>27.0</ns3:atemp>
            <ns3:hr>111</ns3:hr>
          </ns3:TrackPointExtension>
        </extensions>
      </trkpt>
      <trkpt lat="31.435040049254894256591796875" lon="119.4845448620617389678955078125">
        <ele>8</ele>
        <time>2020-07-24T23:14:16.000Z</time>
        <extensions>
          <ns3:TrackPointExtension>
            <ns3:atemp>28.0</ns3:atemp>
            <ns3:hr>113</ns3:hr>
          </ns3:TrackPointExtension>
        </extensions>
      </trkpt>
    </trkseg>
  </trk>
</gpx>
