<gpx xmlns:ns3="http://www.garmin.com/xmlschemas/TrackPointExtension/v1" xmlns="http://www.topografix.com/GPX/1/1" xmlns:xsi="http://www.w3.org/2001/XMLSchema-instance" xmlns:ns2="http://www.garmin.com/xmlschemas/GpxExtensions/v3" creator="Garmin Connect" version="1.1" xsi:schemaLocation="http://www.topografix.com/GPX/1/1 http://www.topografix.com/GPX/11.xsd">
  <extensions>
<distance>3319.9</distance>
<average_hr></average_hr>
<average_speed>4.504613164645522</average_speed>
<start_time>2015-09-14T05:42:53+00:00</start_time>
<end_time>2015-09-14T05:55:10+00:00</end_time>
<moving_time>736.0</moving_time>
<elapsed_time>737.0</elapsed_time>
</extensions>
<metadata>
    <link href="connect.garmin.com">
      <text>Garmin Connect</text>
    </link>
    <time>2015-09-14T05:42:53.000Z</time>
  </metadata>
  <trk>
    <name>常州市 骑行</name>
    <type>cycling</type>
    <trkseg>
      <trkpt lat="31.435730047523975372314453125" lon="119.4826867617666721343994140625">
        <ele>18</ele>
        <time>2015-09-14T05:42:53.000Z</time>
        <extensions>
          <ns3:TrackPointExtension>
            <ns3:atemp>25.0</ns3:atemp>
          </ns3:TrackPointExtension>
        </extensions>
      </trkpt>
      <trkpt lat="31.4357028901576995849609375" lon="119.48288549669086933135986328125">
        <ele>43.200000762939453125</ele>
        <time>2015-09-14T05:42:55.000Z</time>
        <extensions>
          <ns3:TrackPointExtension>
            <ns3:atemp>26.0</ns3:atemp>
          </ns3:TrackPointExtension>
        </extensions>
      </trkpt>
      <trkpt lat="31.435694508254528045654296875" lon="119.48288952000439167022705078125">
        <ele>17.6000003814697265625</ele>
        <time>2015-09-14T05:42:58.000Z</time>
        <extensions>
          <ns3:TrackPointExtension>
            <ns3:atemp>26.0</ns3:atemp>
          </ns3:TrackPointExtension>
        </extensions>
      </trkpt>
      <trkpt lat="31.4357184804975986480712890625" lon="119.482855908572673797607421875">
        <ele>17.799999237060546875</ele>
        <time>2015-09-14T05:42:59.000Z</time>
        <extensions>
          <ns3:TrackPointExtension>
            <ns3:atemp>26.0</ns3:atemp>
          </ns3:TrackPointExtension>
        </extensions>
      </trkpt>
      <trkpt lat="31.43557556904852390289306640625" lon="119.4833620078861713409423828125">
        <ele>16.6000003814697265625</ele>
        <time>2015-09-14T05:43:21.000Z</time>
        <extensions>
          <ns3:TrackPointExtension>
            <ns3:atemp>27.0</ns3:atemp>
          </ns3:TrackPointExtension>
        </extensions>
      </trkpt>
      <trkpt lat="31.4356276206672191619873046875" lon="119.48417044244706630706787109375">
        <ele>17.200000762939453125</ele>
        <time>2015-09-14T05:43:43.000Z</time>
        <extensions>
          <ns3:TrackPointExtension>
            <ns3:atemp>27.0</ns3:atemp>
          </ns3:TrackPointExtension>
        </extensions>
      </trkpt>
      <trkpt lat="31.43494944088160991668701171875" lon="119.4843926467001438140869140625">
        <ele>16.6000003814697265625</ele>
        <time>2015-09-14T05:44:00.000Z</time>
        <extensions>
          <ns3:TrackPointExtension>
            <ns3:atemp>27.0</ns3:atemp>
          </ns3:TrackPointExtension>
        </extensions>
      </trkpt>
      <trkpt lat="31.43490719608962535858154296875" lon="119.484402872622013092041015625">
        <ele>16.6000003814697265625</ele>
        <time>2015-09-14T05:44:01.000Z</time>
        <extensions>
          <ns3:TrackPointExtension>
            <ns3:atemp>27.0</ns3:atemp>
          </ns3:TrackPointExtension>
        </extensions>
      </trkpt>
      <trkpt lat="31.43429950810968875885009765625" lon="119.484357945621013641357421875">
        <ele>17.200000762939453125</ele>
        <time>2015-09-14T05:44:16.000Z</time>
        <extensions>
          <ns3:TrackPointExtension>
            <ns3:atemp>27.0</ns3:atemp>
          </ns3:TrackPointExtension>
        </extensions>
      </trkpt>
      <trkpt lat="31.43371629528701305389404296875" lon="119.4841660000383853912353515625">
        <ele>17.6000003814697265625</ele>
        <time>2015-09-14T05:44:31.000Z</time>
        <extensions>
          <ns3:TrackPointExtension>
            <ns3:atemp>28.0</ns3:atemp>
          </ns3:TrackPointExtension>
        </extensions>
      </trkpt>
      <trkpt lat="31.4333138801157474517822265625" lon="119.48411780409514904022216796875">
        <ele>17.6000003814697265625</ele>
        <time>2015-09-14T05:44:41.000Z</time>
        <extensions>
          <ns3:TrackPointExtension>
            <ns3:atemp>28.0</ns3:atemp>
          </ns3:TrackPointExtension>
        </extensions>
      </trkpt>
      <trkpt lat="31.4332763291895389556884765625" lon="119.48411897756159305572509765625">
        <ele>17.6000003814697265625</ele>
        <time>2015-09-14T05:44:42.000Z</time>
        <extensions>
          <ns3:TrackPointExtension>
            <ns3:atemp>28.0</ns3:atemp>
          </ns3:TrackPointExtension>
        </extensions>
      </trkpt>
      <trkpt lat="31.43302747048437595367431640625" lon="119.4841874577105045318603515625">
        <ele>17.799999237060546875</ele>
        <time>2015-09-14T05:44:49.000Z</time>
        <extensions>
          <ns3:TrackPointExtension>
            <ns3:atemp>28.0</ns3:atemp>
          </ns3:TrackPointExtension>
        </extensions>
      </trkpt>
      <trkpt lat="31.43299796618521213531494140625" lon="119.484217129647731781005859375">
        <ele>18</ele>
        <time>2015-09-14T05:44:50.000Z</time>
        <extensions>
          <ns3:TrackPointExtension>
            <ns3:atemp>28.0</ns3:atemp>
          </ns3:TrackPointExtension>
        </extensions>
      </trkpt>
      <trkpt lat="31.43259982578456401824951171875" lon="119.484679140150547027587890625">
        <ele>18.799999237060546875</ele>
        <time>2015-09-14T05:45:05.000Z</time>
        <extensions>
          <ns3:TrackPointExtension>
            <ns3:atemp>28.0</ns3:atemp>
          </ns3:TrackPointExtension>
        </extensions>
      </trkpt>
      <trkpt lat="31.43252656795084476470947265625" lon="119.48476991616189479827880859375">
        <ele>19.6000003814697265625</ele>
        <time>2015-09-14T05:45:10.000Z</time>
        <extensions>
          <ns3:TrackPointExtension>
            <ns3:atemp>28.0</ns3:atemp>
          </ns3:TrackPointExtension>
        </extensions>
      </trkpt>
      <trkpt lat="31.432509720325469970703125" lon="119.48476974852383136749267578125">
        <ele>19.799999237060546875</ele>
        <time>2015-09-14T05:45:11.000Z</time>
        <extensions>
          <ns3:TrackPointExtension>
            <ns3:atemp>28.0</ns3:atemp>
          </ns3:TrackPointExtension>
        </extensions>
      </trkpt>
      <trkpt lat="31.432492621243000030517578125" lon="119.4847611151635646820068359375">
        <ele>20</ele>
        <time>2015-09-14T05:45:12.000Z</time>
        <extensions>
          <ns3:TrackPointExtension>
            <ns3:atemp>28.0</ns3:atemp>
          </ns3:TrackPointExtension>
        </extensions>
      </trkpt>
      <trkpt lat="31.4324770309031009674072265625" lon="119.48474921286106109619140625">
        <ele>20</ele>
        <time>2015-09-14T05:45:13.000Z</time>
        <extensions>
          <ns3:TrackPointExtension>
            <ns3:atemp>28.0</ns3:atemp>
          </ns3:TrackPointExtension>
        </extensions>
      </trkpt>
      <trkpt lat="31.4324600994586944580078125" lon="119.48473420925438404083251953125">
        <ele>20.200000762939453125</ele>
        <time>2015-09-14T05:45:14.000Z</time>
        <extensions>
          <ns3:TrackPointExtension>
            <ns3:atemp>28.0</ns3:atemp>
          </ns3:TrackPointExtension>
        </extensions>
      </trkpt>
      <trkpt lat="31.43211199901998043060302734375" lon="119.484496079385280609130859375">
        <ele>19.3999996185302734375</ele>
        <time>2015-09-14T05:45:29.000Z</time>
        <extensions>
          <ns3:TrackPointExtension>
            <ns3:atemp>28.0</ns3:atemp>
          </ns3:TrackPointExtension>
        </extensions>
      </trkpt>
      <trkpt lat="31.43208794295787811279296875" lon="119.48451661504805088043212890625">
        <ele>19.3999996185302734375</ele>
        <time>2015-09-14T05:45:30.000Z</time>
        <extensions>
          <ns3:TrackPointExtension>
            <ns3:atemp>28.0</ns3:atemp>
          </ns3:TrackPointExtension>
        </extensions>
      </trkpt>
      <trkpt lat="31.43160439096391201019287109375" lon="119.4848777912557125091552734375">
        <ele>19.6000003814697265625</ele>
        <time>2015-09-14T05:45:46.000Z</time>
        <extensions>
          <ns3:TrackPointExtension>
            <ns3:atemp>29.0</ns3:atemp>
          </ns3:TrackPointExtension>
        </extensions>
      </trkpt>
      <trkpt lat="31.4310447312891483306884765625" lon="119.485193789005279541015625">
        <ele>19.200000762939453125</ele>
        <time>2015-09-14T05:46:02.000Z</time>
        <extensions>
          <ns3:TrackPointExtension>
            <ns3:atemp>29.0</ns3:atemp>
          </ns3:TrackPointExtension>
        </extensions>
      </trkpt>
      <trkpt lat="31.43057475797832012176513671875" lon="119.48538162745535373687744140625">
        <ele>18.799999237060546875</ele>
        <time>2015-09-14T05:46:13.000Z</time>
        <extensions>
          <ns3:TrackPointExtension>
            <ns3:atemp>29.0</ns3:atemp>
          </ns3:TrackPointExtension>
        </extensions>
      </trkpt>
      <trkpt lat="31.4304408989846706390380859375" lon="119.48542471043765544891357421875">
        <ele>18.6000003814697265625</ele>
        <time>2015-09-14T05:46:16.000Z</time>
        <extensions>
          <ns3:TrackPointExtension>
            <ns3:atemp>29.0</ns3:atemp>
          </ns3:TrackPointExtension>
        </extensions>
      </trkpt>
      <trkpt lat="31.430400498211383819580078125" lon="119.48544633574783802032470703125">
        <ele>18.799999237060546875</ele>
        <time>2015-09-14T05:46:17.000Z</time>
        <extensions>
          <ns3:TrackPointExtension>
            <ns3:atemp>29.0</ns3:atemp>
          </ns3:TrackPointExtension>
        </extensions>
      </trkpt>
      <trkpt lat="31.42980898730456829071044921875" lon="119.4856083579361438751220703125">
        <ele>18.3999996185302734375</ele>
        <time>2015-09-14T05:46:35.000Z</time>
        <extensions>
          <ns3:TrackPointExtension>
            <ns3:atemp>29.0</ns3:atemp>
          </ns3:TrackPointExtension>
        </extensions>
      </trkpt>
      <trkpt lat="31.4296416006982326507568359375" lon="119.48562939651310443878173828125">
        <ele>18.6000003814697265625</ele>
        <time>2015-09-14T05:46:39.000Z</time>
        <extensions>
          <ns3:TrackPointExtension>
            <ns3:atemp>29.0</ns3:atemp>
          </ns3:TrackPointExtension>
        </extensions>
      </trkpt>
      <trkpt lat="31.429112367331981658935546875" lon="119.48580600321292877197265625">
        <ele>18.799999237060546875</ele>
        <time>2015-09-14T05:46:52.000Z</time>
        <extensions>
          <ns3:TrackPointExtension>
            <ns3:atemp>29.0</ns3:atemp>
          </ns3:TrackPointExtension>
        </extensions>
      </trkpt>
      <trkpt lat="31.42874146811664104461669921875" lon="119.48584514670073986053466796875">
        <ele>18.799999237060546875</ele>
        <time>2015-09-14T05:47:00.000Z</time>
        <extensions>
          <ns3:TrackPointExtension>
            <ns3:atemp>29.0</ns3:atemp>
          </ns3:TrackPointExtension>
        </extensions>
      </trkpt>
      <trkpt lat="31.42870307900011539459228515625" lon="119.48585822246968746185302734375">
        <ele>18.6000003814697265625</ele>
        <time>2015-09-14T05:47:01.000Z</time>
        <extensions>
          <ns3:TrackPointExtension>
            <ns3:atemp>29.0</ns3:atemp>
          </ns3:TrackPointExtension>
        </extensions>
      </trkpt>
      <trkpt lat="31.42811332829296588897705078125" lon="119.48595679365098476409912109375">
        <ele>18.3999996185302734375</ele>
        <time>2015-09-14T05:47:17.000Z</time>
        <extensions>
          <ns3:TrackPointExtension>
            <ns3:atemp>29.0</ns3:atemp>
          </ns3:TrackPointExtension>
        </extensions>
      </trkpt>
      <trkpt lat="31.42743104137480258941650390625" lon="119.48608704842627048492431640625">
        <ele>20.200000762939453125</ele>
        <time>2015-09-14T05:47:34.000Z</time>
        <extensions>
          <ns3:TrackPointExtension>
            <ns3:atemp>28.0</ns3:atemp>
          </ns3:TrackPointExtension>
        </extensions>
      </trkpt>
      <trkpt lat="31.426866687834262847900390625" lon="119.48609165847301483154296875">
        <ele>19.6000003814697265625</ele>
        <time>2015-09-14T05:47:54.000Z</time>
        <extensions>
          <ns3:TrackPointExtension>
            <ns3:atemp>29.0</ns3:atemp>
          </ns3:TrackPointExtension>
        </extensions>
      </trkpt>
      <trkpt lat="31.4268494211137294769287109375" lon="119.48605368845164775848388671875">
        <ele>19.6000003814697265625</ele>
        <time>2015-09-14T05:47:59.000Z</time>
        <extensions>
          <ns3:TrackPointExtension>
            <ns3:atemp>29.0</ns3:atemp>
          </ns3:TrackPointExtension>
        </extensions>
      </trkpt>
      <trkpt lat="31.4268185757100582122802734375" lon="119.486024267971515655517578125">
        <ele>19.799999237060546875</ele>
        <time>2015-09-14T05:48:03.000Z</time>
        <extensions>
          <ns3:TrackPointExtension>
            <ns3:atemp>29.0</ns3:atemp>
          </ns3:TrackPointExtension>
        </extensions>
      </trkpt>
      <trkpt lat="31.4268014766275882720947265625" lon="119.48603474535048007965087890625">
        <ele>19.799999237060546875</ele>
        <time>2015-09-14T05:48:04.000Z</time>
        <extensions>
          <ns3:TrackPointExtension>
            <ns3:atemp>29.0</ns3:atemp>
          </ns3:TrackPointExtension>
        </extensions>
      </trkpt>
      <trkpt lat="31.42613033764064311981201171875" lon="119.48613482527434825897216796875">
        <ele>20</ele>
        <time>2015-09-14T05:48:23.000Z</time>
        <extensions>
          <ns3:TrackPointExtension>
            <ns3:atemp>29.0</ns3:atemp>
          </ns3:TrackPointExtension>
        </extensions>
      </trkpt>
      <trkpt lat="31.42548434436321258544921875" lon="119.48618821799755096435546875">
        <ele>19.6000003814697265625</ele>
        <time>2015-09-14T05:48:41.000Z</time>
        <extensions>
          <ns3:TrackPointExtension>
            <ns3:atemp>29.0</ns3:atemp>
          </ns3:TrackPointExtension>
        </extensions>
      </trkpt>
      <trkpt lat="31.4248488284647464752197265625" lon="119.48628209531307220458984375">
        <ele>19.200000762939453125</ele>
        <time>2015-09-14T05:48:58.000Z</time>
        <extensions>
          <ns3:TrackPointExtension>
            <ns3:atemp>29.0</ns3:atemp>
          </ns3:TrackPointExtension>
        </extensions>
      </trkpt>
      <trkpt lat="31.42455420456826686859130859375" lon="119.4863498210906982421875">
        <ele>19.3999996185302734375</ele>
        <time>2015-09-14T05:49:05.000Z</time>
        <extensions>
          <ns3:TrackPointExtension>
            <ns3:atemp>29.0</ns3:atemp>
          </ns3:TrackPointExtension>
        </extensions>
      </trkpt>
      <trkpt lat="31.42450827173888683319091796875" lon="119.48636163957417011260986328125">
        <ele>19.6000003814697265625</ele>
        <time>2015-09-14T05:49:06.000Z</time>
        <extensions>
          <ns3:TrackPointExtension>
            <ns3:atemp>29.0</ns3:atemp>
          </ns3:TrackPointExtension>
        </extensions>
      </trkpt>
      <trkpt lat="31.42446552403271198272705078125" lon="119.48637555353343486785888671875">
        <ele>19.799999237060546875</ele>
        <time>2015-09-14T05:49:07.000Z</time>
        <extensions>
          <ns3:TrackPointExtension>
            <ns3:atemp>29.0</ns3:atemp>
          </ns3:TrackPointExtension>
        </extensions>
      </trkpt>
      <trkpt lat="31.42415304668247699737548828125" lon="119.48641008697450160980224609375">
        <ele>19.200000762939453125</ele>
        <time>2015-09-14T05:49:14.000Z</time>
        <extensions>
          <ns3:TrackPointExtension>
            <ns3:atemp>28.0</ns3:atemp>
          </ns3:TrackPointExtension>
        </extensions>
      </trkpt>
      <trkpt lat="31.42352976836264133453369140625" lon="119.4864113442599773406982421875">
        <ele>19.200000762939453125</ele>
        <time>2015-09-14T05:49:28.000Z</time>
        <extensions>
          <ns3:TrackPointExtension>
            <ns3:atemp>28.0</ns3:atemp>
          </ns3:TrackPointExtension>
        </extensions>
      </trkpt>
      <trkpt lat="31.42303758300840854644775390625" lon="119.48647253215312957763671875">
        <ele>19</ele>
        <time>2015-09-14T05:49:39.000Z</time>
        <extensions>
          <ns3:TrackPointExtension>
            <ns3:atemp>28.0</ns3:atemp>
          </ns3:TrackPointExtension>
        </extensions>
      </trkpt>
      <trkpt lat="31.42294202931225299835205078125" lon="119.48648502118885517120361328125">
        <ele>19.200000762939453125</ele>
        <time>2015-09-14T05:49:41.000Z</time>
        <extensions>
          <ns3:TrackPointExtension>
            <ns3:atemp>28.0</ns3:atemp>
          </ns3:TrackPointExtension>
        </extensions>
      </trkpt>
      <trkpt lat="31.42230433411896228790283203125" lon="119.486508071422576904296875">
        <ele>19.3999996185302734375</ele>
        <time>2015-09-14T05:49:55.000Z</time>
        <extensions>
          <ns3:TrackPointExtension>
            <ns3:atemp>28.0</ns3:atemp>
          </ns3:TrackPointExtension>
        </extensions>
      </trkpt>
      <trkpt lat="31.421678960323333740234375" lon="119.48652626015245914459228515625">
        <ele>19.3999996185302734375</ele>
        <time>2015-09-14T05:50:09.000Z</time>
        <extensions>
          <ns3:TrackPointExtension>
            <ns3:atemp>28.0</ns3:atemp>
          </ns3:TrackPointExtension>
        </extensions>
      </trkpt>
      <trkpt lat="31.42105199396610260009765625" lon="119.48658677749335765838623046875">
        <ele>20</ele>
        <time>2015-09-14T05:50:24.000Z</time>
        <extensions>
          <ns3:TrackPointExtension>
            <ns3:atemp>28.0</ns3:atemp>
          </ns3:TrackPointExtension>
        </extensions>
      </trkpt>
      <trkpt lat="31.42085258848965167999267578125" lon="119.48659725487232208251953125">
        <ele>19.6000003814697265625</ele>
        <time>2015-09-14T05:50:29.000Z</time>
        <extensions>
          <ns3:TrackPointExtension>
            <ns3:atemp>28.0</ns3:atemp>
          </ns3:TrackPointExtension>
        </extensions>
      </trkpt>
      <trkpt lat="31.4204142987728118896484375" lon="119.486613012850284576416015625">
        <ele>20</ele>
        <time>2015-09-14T05:50:40.000Z</time>
        <extensions>
          <ns3:TrackPointExtension>
            <ns3:atemp>28.0</ns3:atemp>
          </ns3:TrackPointExtension>
        </extensions>
      </trkpt>
      <trkpt lat="31.41980937682092189788818359375" lon="119.48661427013576030731201171875">
        <ele>19.799999237060546875</ele>
        <time>2015-09-14T05:50:55.000Z</time>
        <extensions>
          <ns3:TrackPointExtension>
            <ns3:atemp>28.0</ns3:atemp>
          </ns3:TrackPointExtension>
        </extensions>
      </trkpt>
      <trkpt lat="31.41915441490709781646728515625" lon="119.486624412238597869873046875">
        <ele>19.6000003814697265625</ele>
        <time>2015-09-14T05:51:10.000Z</time>
        <extensions>
          <ns3:TrackPointExtension>
            <ns3:atemp>28.0</ns3:atemp>
          </ns3:TrackPointExtension>
        </extensions>
      </trkpt>
      <trkpt lat="31.4186113514006137847900390625" lon="119.48660664260387420654296875">
        <ele>20</ele>
        <time>2015-09-14T05:51:25.000Z</time>
        <extensions>
          <ns3:TrackPointExtension>
            <ns3:atemp>28.0</ns3:atemp>
          </ns3:TrackPointExtension>
        </extensions>
      </trkpt>
      <trkpt lat="31.41859517432749271392822265625" lon="119.48658376000821590423583984375">
        <ele>20</ele>
        <time>2015-09-14T05:51:26.000Z</time>
        <extensions>
          <ns3:TrackPointExtension>
            <ns3:atemp>28.0</ns3:atemp>
          </ns3:TrackPointExtension>
        </extensions>
      </trkpt>
      <trkpt lat="31.41857170499861240386962890625" lon="119.48656515218317508697509765625">
        <ele>20.200000762939453125</ele>
        <time>2015-09-14T05:51:27.000Z</time>
        <extensions>
          <ns3:TrackPointExtension>
            <ns3:atemp>28.0</ns3:atemp>
          </ns3:TrackPointExtension>
        </extensions>
      </trkpt>
      <trkpt lat="31.41854521818459033966064453125" lon="119.486552663147449493408203125">
        <ele>20.200000762939453125</ele>
        <time>2015-09-14T05:51:28.000Z</time>
        <extensions>
          <ns3:TrackPointExtension>
            <ns3:atemp>28.0</ns3:atemp>
          </ns3:TrackPointExtension>
        </extensions>
      </trkpt>
      <trkpt lat="31.41851554624736309051513671875" lon="119.486547298729419708251953125">
        <ele>20.200000762939453125</ele>
        <time>2015-09-14T05:51:29.000Z</time>
        <extensions>
          <ns3:TrackPointExtension>
            <ns3:atemp>28.0</ns3:atemp>
          </ns3:TrackPointExtension>
        </extensions>
      </trkpt>
      <trkpt lat="31.41848017461597919464111328125" lon="119.48654838837683200836181640625">
        <ele>20.200000762939453125</ele>
        <time>2015-09-14T05:51:30.000Z</time>
        <extensions>
          <ns3:TrackPointExtension>
            <ns3:atemp>28.0</ns3:atemp>
          </ns3:TrackPointExtension>
        </extensions>
      </trkpt>
      <trkpt lat="31.41844295896589756011962890625" lon="119.4865603744983673095703125">
        <ele>20.200000762939453125</ele>
        <time>2015-09-14T05:51:31.000Z</time>
        <extensions>
          <ns3:TrackPointExtension>
            <ns3:atemp>28.0</ns3:atemp>
          </ns3:TrackPointExtension>
        </extensions>
      </trkpt>
      <trkpt lat="31.418406330049037933349609375" lon="119.48658258654177188873291015625">
        <ele>20</ele>
        <time>2015-09-14T05:51:32.000Z</time>
        <extensions>
          <ns3:TrackPointExtension>
            <ns3:atemp>28.0</ns3:atemp>
          </ns3:TrackPointExtension>
        </extensions>
      </trkpt>
      <trkpt lat="31.418370120227336883544921875" lon="119.486604295670986175537109375">
        <ele>20</ele>
        <time>2015-09-14T05:51:33.000Z</time>
        <extensions>
          <ns3:TrackPointExtension>
            <ns3:atemp>28.0</ns3:atemp>
          </ns3:TrackPointExtension>
        </extensions>
      </trkpt>
      <trkpt lat="31.41833491623401641845703125" lon="119.48661929927766323089599609375">
        <ele>20</ele>
        <time>2015-09-14T05:51:34.000Z</time>
        <extensions>
          <ns3:TrackPointExtension>
            <ns3:atemp>28.0</ns3:atemp>
          </ns3:TrackPointExtension>
        </extensions>
      </trkpt>
      <trkpt lat="31.41829711385071277618408203125" lon="119.48662851937115192413330078125">
        <ele>20</ele>
        <time>2015-09-14T05:51:35.000Z</time>
        <extensions>
          <ns3:TrackPointExtension>
            <ns3:atemp>28.0</ns3:atemp>
          </ns3:TrackPointExtension>
        </extensions>
      </trkpt>
      <trkpt lat="31.41825486905872821807861328125" lon="119.48663673363626003265380859375">
        <ele>20</ele>
        <time>2015-09-14T05:51:36.000Z</time>
        <extensions>
          <ns3:TrackPointExtension>
            <ns3:atemp>28.0</ns3:atemp>
          </ns3:TrackPointExtension>
        </extensions>
      </trkpt>
      <trkpt lat="31.417642571032047271728515625" lon="119.4866319559514522552490234375">
        <ele>19.799999237060546875</ele>
        <time>2015-09-14T05:51:51.000Z</time>
        <extensions>
          <ns3:TrackPointExtension>
            <ns3:atemp>28.0</ns3:atemp>
          </ns3:TrackPointExtension>
        </extensions>
      </trkpt>
      <trkpt lat="31.4170248247683048248291015625" lon="119.4866715185344219207763671875">
        <ele>19.6000003814697265625</ele>
        <time>2015-09-14T05:52:04.000Z</time>
        <extensions>
          <ns3:TrackPointExtension>
            <ns3:atemp>29.0</ns3:atemp>
          </ns3:TrackPointExtension>
        </extensions>
      </trkpt>
      <trkpt lat="31.4164390973746776580810546875" lon="119.4867157749831676483154296875">
        <ele>19.6000003814697265625</ele>
        <time>2015-09-14T05:52:17.000Z</time>
        <extensions>
          <ns3:TrackPointExtension>
            <ns3:atemp>29.0</ns3:atemp>
          </ns3:TrackPointExtension>
        </extensions>
      </trkpt>
      <trkpt lat="31.41582906246185302734375" lon="119.4867301918566226959228515625">
        <ele>20</ele>
        <time>2015-09-14T05:52:32.000Z</time>
        <extensions>
          <ns3:TrackPointExtension>
            <ns3:atemp>29.0</ns3:atemp>
          </ns3:TrackPointExtension>
        </extensions>
      </trkpt>
      <trkpt lat="31.4154667966067790985107421875" lon="119.48672742582857608795166015625">
        <ele>19.799999237060546875</ele>
        <time>2015-09-14T05:52:41.000Z</time>
        <extensions>
          <ns3:TrackPointExtension>
            <ns3:atemp>29.0</ns3:atemp>
          </ns3:TrackPointExtension>
        </extensions>
      </trkpt>
      <trkpt lat="31.41537912189960479736328125" lon="119.48670093901455402374267578125">
        <ele>20</ele>
        <time>2015-09-14T05:52:43.000Z</time>
        <extensions>
          <ns3:TrackPointExtension>
            <ns3:atemp>29.0</ns3:atemp>
          </ns3:TrackPointExtension>
        </extensions>
      </trkpt>
      <trkpt lat="31.41533486545085906982421875" lon="119.486700855195522308349609375">
        <ele>20</ele>
        <time>2015-09-14T05:52:44.000Z</time>
        <extensions>
          <ns3:TrackPointExtension>
            <ns3:atemp>29.0</ns3:atemp>
          </ns3:TrackPointExtension>
        </extensions>
      </trkpt>
      <trkpt lat="31.41529236920177936553955078125" lon="119.4867053814232349395751953125">
        <ele>19.799999237060546875</ele>
        <time>2015-09-14T05:52:45.000Z</time>
        <extensions>
          <ns3:TrackPointExtension>
            <ns3:atemp>29.0</ns3:atemp>
          </ns3:TrackPointExtension>
        </extensions>
      </trkpt>
      <trkpt lat="31.4146711863577365875244140625" lon="119.486749134957790374755859375">
        <ele>19.799999237060546875</ele>
        <time>2015-09-14T05:52:59.000Z</time>
        <extensions>
          <ns3:TrackPointExtension>
            <ns3:atemp>29.0</ns3:atemp>
          </ns3:TrackPointExtension>
        </extensions>
      </trkpt>
      <trkpt lat="31.41405503265559673309326171875" lon="119.4867824949324131011962890625">
        <ele>19.6000003814697265625</ele>
        <time>2015-09-14T05:53:13.000Z</time>
        <extensions>
          <ns3:TrackPointExtension>
            <ns3:atemp>29.0</ns3:atemp>
          </ns3:TrackPointExtension>
        </extensions>
      </trkpt>
      <trkpt lat="31.414010524749755859375" lon="119.4867798127233982086181640625">
        <ele>19.6000003814697265625</ele>
        <time>2015-09-14T05:53:14.000Z</time>
        <extensions>
          <ns3:TrackPointExtension>
            <ns3:atemp>29.0</ns3:atemp>
          </ns3:TrackPointExtension>
        </extensions>
      </trkpt>
      <trkpt lat="31.41396685503423213958740234375" lon="119.48677687905728816986083984375">
        <ele>19.6000003814697265625</ele>
        <time>2015-09-14T05:53:15.000Z</time>
        <extensions>
          <ns3:TrackPointExtension>
            <ns3:atemp>29.0</ns3:atemp>
          </ns3:TrackPointExtension>
        </extensions>
      </trkpt>
      <trkpt lat="31.41387599520385265350341796875" lon="119.48676715604960918426513671875">
        <ele>19.6000003814697265625</ele>
        <time>2015-09-14T05:53:17.000Z</time>
        <extensions>
          <ns3:TrackPointExtension>
            <ns3:atemp>29.0</ns3:atemp>
          </ns3:TrackPointExtension>
        </extensions>
      </trkpt>
      <trkpt lat="31.4137837104499340057373046875" lon="119.48675977997481822967529296875">
        <ele>19.6000003814697265625</ele>
        <time>2015-09-14T05:53:19.000Z</time>
        <extensions>
          <ns3:TrackPointExtension>
            <ns3:atemp>29.0</ns3:atemp>
          </ns3:TrackPointExtension>
        </extensions>
      </trkpt>
      <trkpt lat="31.41373626887798309326171875" lon="119.4867660664021968841552734375">
        <ele>19.6000003814697265625</ele>
        <time>2015-09-14T05:53:20.000Z</time>
        <extensions>
          <ns3:TrackPointExtension>
            <ns3:atemp>29.0</ns3:atemp>
          </ns3:TrackPointExtension>
        </extensions>
      </trkpt>
      <trkpt lat="31.4136459119617938995361328125" lon="119.48678157292306423187255859375">
        <ele>19.6000003814697265625</ele>
        <time>2015-09-14T05:53:22.000Z</time>
        <extensions>
          <ns3:TrackPointExtension>
            <ns3:atemp>29.0</ns3:atemp>
          </ns3:TrackPointExtension>
        </extensions>
      </trkpt>
      <trkpt lat="31.4136003144085407257080078125" lon="119.48679246939718723297119140625">
        <ele>19.6000003814697265625</ele>
        <time>2015-09-14T05:53:23.000Z</time>
        <extensions>
          <ns3:TrackPointExtension>
            <ns3:atemp>29.0</ns3:atemp>
          </ns3:TrackPointExtension>
        </extensions>
      </trkpt>
      <trkpt lat="31.41336889006197452545166015625" lon="119.48683789931237697601318359375">
        <ele>19.799999237060546875</ele>
        <time>2015-09-14T05:53:28.000Z</time>
        <extensions>
          <ns3:TrackPointExtension>
            <ns3:atemp>29.0</ns3:atemp>
          </ns3:TrackPointExtension>
        </extensions>
      </trkpt>
      <trkpt lat="31.4133233763277530670166015625" lon="119.4868451915681362152099609375">
        <ele>19.799999237060546875</ele>
        <time>2015-09-14T05:53:29.000Z</time>
        <extensions>
          <ns3:TrackPointExtension>
            <ns3:atemp>29.0</ns3:atemp>
          </ns3:TrackPointExtension>
        </extensions>
      </trkpt>
      <trkpt lat="31.4127198792994022369384765625" lon="119.4868968240916728973388671875">
        <ele>19.3999996185302734375</ele>
        <time>2015-09-14T05:53:42.000Z</time>
        <extensions>
          <ns3:TrackPointExtension>
            <ns3:atemp>29.0</ns3:atemp>
          </ns3:TrackPointExtension>
        </extensions>
      </trkpt>
      <trkpt lat="31.4124427735805511474609375" lon="119.486870504915714263916015625">
        <ele>20.200000762939453125</ele>
        <time>2015-09-14T05:53:48.000Z</time>
        <extensions>
          <ns3:TrackPointExtension>
            <ns3:atemp>28.0</ns3:atemp>
          </ns3:TrackPointExtension>
        </extensions>
      </trkpt>
      <trkpt lat="31.41235551796853542327880859375" lon="119.486889280378818511962890625">
        <ele>20.200000762939453125</ele>
        <time>2015-09-14T05:53:50.000Z</time>
        <extensions>
          <ns3:TrackPointExtension>
            <ns3:atemp>28.0</ns3:atemp>
          </ns3:TrackPointExtension>
        </extensions>
      </trkpt>
      <trkpt lat="31.41231545247137546539306640625" lon="119.48690998367965221405029296875">
        <ele>20.200000762939453125</ele>
        <time>2015-09-14T05:53:51.000Z</time>
        <extensions>
          <ns3:TrackPointExtension>
            <ns3:atemp>28.0</ns3:atemp>
          </ns3:TrackPointExtension>
        </extensions>
      </trkpt>
      <trkpt lat="31.412279494106769561767578125" lon="119.48693521320819854736328125">
        <ele>20.3999996185302734375</ele>
        <time>2015-09-14T05:53:52.000Z</time>
        <extensions>
          <ns3:TrackPointExtension>
            <ns3:atemp>28.0</ns3:atemp>
          </ns3:TrackPointExtension>
        </extensions>
      </trkpt>
      <trkpt lat="31.4122494868934154510498046875" lon="119.48696379549801349639892578125">
        <ele>20.6000003814697265625</ele>
        <time>2015-09-14T05:53:53.000Z</time>
        <extensions>
          <ns3:TrackPointExtension>
            <ns3:atemp>28.0</ns3:atemp>
          </ns3:TrackPointExtension>
        </extensions>
      </trkpt>
      <trkpt lat="31.4122216589748859405517578125" lon="119.48699564673006534576416015625">
        <ele>20.799999237060546875</ele>
        <time>2015-09-14T05:53:54.000Z</time>
        <extensions>
          <ns3:TrackPointExtension>
            <ns3:atemp>28.0</ns3:atemp>
          </ns3:TrackPointExtension>
        </extensions>
      </trkpt>
      <trkpt lat="31.41219475306570529937744140625" lon="119.48702967725694179534912109375">
        <ele>20.6000003814697265625</ele>
        <time>2015-09-14T05:53:55.000Z</time>
        <extensions>
          <ns3:TrackPointExtension>
            <ns3:atemp>28.0</ns3:atemp>
          </ns3:TrackPointExtension>
        </extensions>
      </trkpt>
      <trkpt lat="31.412165164947509765625" lon="119.48706404305994510650634765625">
        <ele>20.3999996185302734375</ele>
        <time>2015-09-14T05:53:56.000Z</time>
        <extensions>
          <ns3:TrackPointExtension>
            <ns3:atemp>28.0</ns3:atemp>
          </ns3:TrackPointExtension>
        </extensions>
      </trkpt>
      <trkpt lat="31.41212987713515758514404296875" lon="119.4870912842452526092529296875">
        <ele>20.200000762939453125</ele>
        <time>2015-09-14T05:53:57.000Z</time>
        <extensions>
          <ns3:TrackPointExtension>
            <ns3:atemp>28.0</ns3:atemp>
          </ns3:TrackPointExtension>
        </extensions>
      </trkpt>
      <trkpt lat="31.41208947636187076568603515625" lon="119.48710813187062740325927734375">
        <ele>20</ele>
        <time>2015-09-14T05:53:58.000Z</time>
        <extensions>
          <ns3:TrackPointExtension>
            <ns3:atemp>28.0</ns3:atemp>
          </ns3:TrackPointExtension>
        </extensions>
      </trkpt>
      <trkpt lat="31.41205050051212310791015625" lon="119.48712137527763843536376953125">
        <ele>20.200000762939453125</ele>
        <time>2015-09-14T05:53:59.000Z</time>
        <extensions>
          <ns3:TrackPointExtension>
            <ns3:atemp>28.0</ns3:atemp>
          </ns3:TrackPointExtension>
        </extensions>
      </trkpt>
      <trkpt lat="31.41200850717723369598388671875" lon="119.48712590150535106658935546875">
        <ele>20</ele>
        <time>2015-09-14T05:54:00.000Z</time>
        <extensions>
          <ns3:TrackPointExtension>
            <ns3:atemp>28.0</ns3:atemp>
          </ns3:TrackPointExtension>
        </extensions>
      </trkpt>
      <trkpt lat="31.4119641669094562530517578125" lon="119.48712858371436595916748046875">
        <ele>19.799999237060546875</ele>
        <time>2015-09-14T05:54:01.000Z</time>
        <extensions>
          <ns3:TrackPointExtension>
            <ns3:atemp>28.0</ns3:atemp>
          </ns3:TrackPointExtension>
        </extensions>
      </trkpt>
      <trkpt lat="31.411352790892124176025390625" lon="119.48715590871870517730712890625">
        <ele>19.6000003814697265625</ele>
        <time>2015-09-14T05:54:16.000Z</time>
        <extensions>
          <ns3:TrackPointExtension>
            <ns3:atemp>28.0</ns3:atemp>
          </ns3:TrackPointExtension>
        </extensions>
      </trkpt>
      <trkpt lat="31.4110766910016536712646484375" lon="119.48712690733373165130615234375">
        <ele>19.3999996185302734375</ele>
        <time>2015-09-14T05:54:22.000Z</time>
        <extensions>
          <ns3:TrackPointExtension>
            <ns3:atemp>28.0</ns3:atemp>
          </ns3:TrackPointExtension>
        </extensions>
      </trkpt>
      <trkpt lat="31.411033608019351959228515625" lon="119.4871348701417446136474609375">
        <ele>19.6000003814697265625</ele>
        <time>2015-09-14T05:54:23.000Z</time>
        <extensions>
          <ns3:TrackPointExtension>
            <ns3:atemp>28.0</ns3:atemp>
          </ns3:TrackPointExtension>
        </extensions>
      </trkpt>
      <trkpt lat="31.41098893247544765472412109375" lon="119.48713897727429866790771484375">
        <ele>19.6000003814697265625</ele>
        <time>2015-09-14T05:54:24.000Z</time>
        <extensions>
          <ns3:TrackPointExtension>
            <ns3:atemp>29.0</ns3:atemp>
          </ns3:TrackPointExtension>
        </extensions>
      </trkpt>
      <trkpt lat="31.41094283200800418853759765625" lon="119.4871429167687892913818359375">
        <ele>19.6000003814697265625</ele>
        <time>2015-09-14T05:54:25.000Z</time>
        <extensions>
          <ns3:TrackPointExtension>
            <ns3:atemp>29.0</ns3:atemp>
          </ns3:TrackPointExtension>
        </extensions>
      </trkpt>
      <trkpt lat="31.41089673154056072235107421875" lon="119.487142078578472137451171875">
        <ele>19.6000003814697265625</ele>
        <time>2015-09-14T05:54:26.000Z</time>
        <extensions>
          <ns3:TrackPointExtension>
            <ns3:atemp>29.0</ns3:atemp>
          </ns3:TrackPointExtension>
        </extensions>
      </trkpt>
      <trkpt lat="31.4108487032353878021240234375" lon="119.48713847436010837554931640625">
        <ele>19.6000003814697265625</ele>
        <time>2015-09-14T05:54:27.000Z</time>
        <extensions>
          <ns3:TrackPointExtension>
            <ns3:atemp>29.0</ns3:atemp>
          </ns3:TrackPointExtension>
        </extensions>
      </trkpt>
      <trkpt lat="31.41023137606680393218994140625" lon="119.4871445931494235992431640625">
        <ele>19.6000003814697265625</ele>
        <time>2015-09-14T05:54:41.000Z</time>
        <extensions>
          <ns3:TrackPointExtension>
            <ns3:atemp>29.0</ns3:atemp>
          </ns3:TrackPointExtension>
        </extensions>
      </trkpt>
      <trkpt lat="31.4096521027386188507080078125" lon="119.4871906936168670654296875">
        <ele>19.200000762939453125</ele>
        <time>2015-09-14T05:54:56.000Z</time>
        <extensions>
          <ns3:TrackPointExtension>
            <ns3:atemp>29.0</ns3:atemp>
          </ns3:TrackPointExtension>
        </extensions>
      </trkpt>
      <trkpt lat="31.40950508415699005126953125" lon="119.4872872531414031982421875">
        <ele>19.3999996185302734375</ele>
        <time>2015-09-14T05:55:01.000Z</time>
        <extensions>
          <ns3:TrackPointExtension>
            <ns3:atemp>29.0</ns3:atemp>
          </ns3:TrackPointExtension>
        </extensions>
      </trkpt>
      <trkpt lat="31.40949410386383533477783203125" lon="119.4873232953250408172607421875">
        <ele>19.6000003814697265625</ele>
        <time>2015-09-14T05:55:02.000Z</time>
        <extensions>
          <ns3:TrackPointExtension>
            <ns3:atemp>29.0</ns3:atemp>
          </ns3:TrackPointExtension>
        </extensions>
      </trkpt>
      <trkpt lat="31.40948832035064697265625" lon="119.48735355399549007415771484375">
        <ele>19.799999237060546875</ele>
        <time>2015-09-14T05:55:03.000Z</time>
        <extensions>
          <ns3:TrackPointExtension>
            <ns3:atemp>29.0</ns3:atemp>
          </ns3:TrackPointExtension>
        </extensions>
      </trkpt>
      <trkpt lat="31.40948371030390262603759765625" lon="119.48738540522754192352294921875">
        <ele>20</ele>
        <time>2015-09-14T05:55:04.000Z</time>
        <extensions>
          <ns3:TrackPointExtension>
            <ns3:atemp>29.0</ns3:atemp>
          </ns3:TrackPointExtension>
        </extensions>
      </trkpt>
      <trkpt lat="31.40947851352393627166748046875" lon="119.4874168373644351959228515625">
        <ele>20.200000762939453125</ele>
        <time>2015-09-14T05:55:05.000Z</time>
        <extensions>
          <ns3:TrackPointExtension>
            <ns3:atemp>29.0</ns3:atemp>
          </ns3:TrackPointExtension>
        </extensions>
      </trkpt>
      <trkpt lat="31.40947650186717510223388671875" lon="119.48761842213571071624755859375">
        <ele>19.799999237060546875</ele>
        <time>2015-09-14T05:55:11.000Z</time>
        <extensions>
          <ns3:TrackPointExtension>
            <ns3:atemp>29.0</ns3:atemp>
          </ns3:TrackPointExtension>
        </extensions>
      </trkpt>
    </trkseg>
  </trk>
</gpx>
