<gpx xmlns:ns3="http://www.garmin.com/xmlschemas/TrackPointExtension/v1" xmlns="http://www.topografix.com/GPX/1/1" xmlns:xsi="http://www.w3.org/2001/XMLSchema-instance" xmlns:ns2="http://www.garmin.com/xmlschemas/GpxExtensions/v3" creator="Garmin Connect" version="1.1" xsi:schemaLocation="http://www.topografix.com/GPX/1/1 http://www.topografix.com/GPX/11.xsd">
  <extensions>
<distance>1598.74</distance>
<average_hr>127.0</average_hr>
<average_speed>2.986000061035156</average_speed>
<start_time>2020-06-11T22:42:27+00:00</start_time>
<end_time>2020-06-11T22:51:22.467000+00:00</end_time>
<moving_time>492.0</moving_time>
<elapsed_time>535.467</elapsed_time>
</extensions>
<metadata>
    <link href="connect.garmin.com">
      <text>Garmin Connect</text>
    </link>
    <time>2020-06-11T22:42:27.000Z</time>
  </metadata>
  <trk>
    <name>常州市 自行车</name>
    <type>cycling</type>
    <trkseg>
      <trkpt lat="31.423926316201686859130859375" lon="119.4835045002400875091552734375">
        <ele>-3.599999904632568359375</ele>
        <time>2020-06-11T22:42:27.000Z</time>
        <extensions>
          <ns3:TrackPointExtension>
            <ns3:atemp>33.0</ns3:atemp>
            <ns3:hr>143</ns3:hr>
          </ns3:TrackPointExtension>
        </extensions>
      </trkpt>
      <trkpt lat="31.42393000423908233642578125" lon="119.483500979840755462646484375">
        <ele>-3.599999904632568359375</ele>
        <time>2020-06-11T22:42:28.000Z</time>
        <extensions>
          <ns3:TrackPointExtension>
            <ns3:atemp>33.0</ns3:atemp>
            <ns3:hr>140</ns3:hr>
          </ns3:TrackPointExtension>
        </extensions>
      </trkpt>
      <trkpt lat="31.42393679358065128326416015625" lon="119.4834917597472667694091796875">
        <ele>-3.599999904632568359375</ele>
        <time>2020-06-11T22:42:30.000Z</time>
        <extensions>
          <ns3:TrackPointExtension>
            <ns3:atemp>33.0</ns3:atemp>
            <ns3:hr>136</ns3:hr>
          </ns3:TrackPointExtension>
        </extensions>
      </trkpt>
      <trkpt lat="31.42396227456629276275634765625" lon="119.48348052799701690673828125">
        <ele>-3.599999904632568359375</ele>
        <time>2020-06-11T22:42:32.000Z</time>
        <extensions>
          <ns3:TrackPointExtension>
            <ns3:atemp>33.0</ns3:atemp>
            <ns3:hr>133</ns3:hr>
          </ns3:TrackPointExtension>
        </extensions>
      </trkpt>
      <trkpt lat="31.42397166229784488677978515625" lon="119.4834770075976848602294921875">
        <ele>-3.599999904632568359375</ele>
        <time>2020-06-11T22:42:33.000Z</time>
        <extensions>
          <ns3:TrackPointExtension>
            <ns3:atemp>33.0</ns3:atemp>
            <ns3:hr>132</ns3:hr>
          </ns3:TrackPointExtension>
        </extensions>
      </trkpt>
      <trkpt lat="31.42400150187313556671142578125" lon="119.483472146093845367431640625">
        <ele>-3.7999999523162841796875</ele>
        <time>2020-06-11T22:42:35.000Z</time>
        <extensions>
          <ns3:TrackPointExtension>
            <ns3:atemp>33.0</ns3:atemp>
            <ns3:hr>131</ns3:hr>
          </ns3:TrackPointExtension>
        </extensions>
      </trkpt>
      <trkpt lat="31.42405313439667224884033203125" lon="119.48348161764442920684814453125">
        <ele>-3.7999999523162841796875</ele>
        <time>2020-06-11T22:42:37.000Z</time>
        <extensions>
          <ns3:TrackPointExtension>
            <ns3:atemp>33.0</ns3:atemp>
            <ns3:hr>130</ns3:hr>
          </ns3:TrackPointExtension>
        </extensions>
      </trkpt>
      <trkpt lat="31.4241916872560977935791015625" lon="119.4834920950233936309814453125">
        <ele>-3.599999904632568359375</ele>
        <time>2020-06-11T22:42:43.000Z</time>
        <extensions>
          <ns3:TrackPointExtension>
            <ns3:atemp>33.0</ns3:atemp>
            <ns3:hr>128</ns3:hr>
          </ns3:TrackPointExtension>
        </extensions>
      </trkpt>
      <trkpt lat="31.42422127537429332733154296875" lon="119.48347248136997222900390625">
        <ele>-3.599999904632568359375</ele>
        <time>2020-06-11T22:42:44.000Z</time>
        <extensions>
          <ns3:TrackPointExtension>
            <ns3:atemp>33.0</ns3:atemp>
            <ns3:hr>128</ns3:hr>
          </ns3:TrackPointExtension>
        </extensions>
      </trkpt>
      <trkpt lat="31.4242895878851413726806640625" lon="119.4834731519222259521484375">
        <ele>-3.7999999523162841796875</ele>
        <time>2020-06-11T22:42:47.000Z</time>
        <extensions>
          <ns3:TrackPointExtension>
            <ns3:atemp>33.0</ns3:atemp>
            <ns3:hr>129</ns3:hr>
          </ns3:TrackPointExtension>
        </extensions>
      </trkpt>
      <trkpt lat="31.42436318099498748779296875" lon="119.4834418036043643951416015625">
        <ele>-3.7999999523162841796875</ele>
        <time>2020-06-11T22:42:50.000Z</time>
        <extensions>
          <ns3:TrackPointExtension>
            <ns3:atemp>33.0</ns3:atemp>
            <ns3:hr>130</ns3:hr>
          </ns3:TrackPointExtension>
        </extensions>
      </trkpt>
      <trkpt lat="31.4243893325328826904296875" lon="119.4834213517606258392333984375">
        <ele>-3.7999999523162841796875</ele>
        <time>2020-06-11T22:42:52.000Z</time>
        <extensions>
          <ns3:TrackPointExtension>
            <ns3:atemp>33.0</ns3:atemp>
            <ns3:hr>131</ns3:hr>
          </ns3:TrackPointExtension>
        </extensions>
      </trkpt>
      <trkpt lat="31.42442763783037662506103515625" lon="119.4834317453205585479736328125">
        <ele>-3.599999904632568359375</ele>
        <time>2020-06-11T22:42:57.000Z</time>
        <extensions>
          <ns3:TrackPointExtension>
            <ns3:atemp>33.0</ns3:atemp>
            <ns3:hr>129</ns3:hr>
          </ns3:TrackPointExtension>
        </extensions>
      </trkpt>
      <trkpt lat="31.42445831559598445892333984375" lon="119.4834220223128795623779296875">
        <ele>-3.599999904632568359375</ele>
        <time>2020-06-11T22:42:59.000Z</time>
        <extensions>
          <ns3:TrackPointExtension>
            <ns3:atemp>33.0</ns3:atemp>
            <ns3:hr>131</ns3:hr>
          </ns3:TrackPointExtension>
        </extensions>
      </trkpt>
      <trkpt lat="31.42450240440666675567626953125" lon="119.483466781675815582275390625">
        <ele>-3.599999904632568359375</ele>
        <time>2020-06-11T22:43:01.000Z</time>
        <extensions>
          <ns3:TrackPointExtension>
            <ns3:atemp>33.0</ns3:atemp>
            <ns3:hr>131</ns3:hr>
          </ns3:TrackPointExtension>
        </extensions>
      </trkpt>
      <trkpt lat="31.424533836543560028076171875" lon="119.483606927096843719482421875">
        <ele>-3.599999904632568359375</ele>
        <time>2020-06-11T22:43:05.000Z</time>
        <extensions>
          <ns3:TrackPointExtension>
            <ns3:atemp>33.0</ns3:atemp>
            <ns3:hr>131</ns3:hr>
          </ns3:TrackPointExtension>
        </extensions>
      </trkpt>
      <trkpt lat="31.4245529472827911376953125" lon="119.48378319852054119110107421875">
        <ele>-3.400000095367431640625</ele>
        <time>2020-06-11T22:43:11.000Z</time>
        <extensions>
          <ns3:TrackPointExtension>
            <ns3:atemp>33.0</ns3:atemp>
            <ns3:hr>132</ns3:hr>
          </ns3:TrackPointExtension>
        </extensions>
      </trkpt>
      <trkpt lat="31.42457566224038600921630859375" lon="119.48379375971853733062744140625">
        <ele>-3.400000095367431640625</ele>
        <time>2020-06-11T22:43:12.000Z</time>
        <extensions>
          <ns3:TrackPointExtension>
            <ns3:atemp>33.0</ns3:atemp>
            <ns3:hr>133</ns3:hr>
          </ns3:TrackPointExtension>
        </extensions>
      </trkpt>
      <trkpt lat="31.4247378520667552947998046875" lon="119.4838129542768001556396484375">
        <ele>-3.599999904632568359375</ele>
        <time>2020-06-11T22:43:18.000Z</time>
        <extensions>
          <ns3:TrackPointExtension>
            <ns3:atemp>33.0</ns3:atemp>
            <ns3:hr>134</ns3:hr>
          </ns3:TrackPointExtension>
        </extensions>
      </trkpt>
      <trkpt lat="31.42492636106908321380615234375" lon="119.48379241861402988433837890625">
        <ele>-3.599999904632568359375</ele>
        <time>2020-06-11T22:43:24.000Z</time>
        <extensions>
          <ns3:TrackPointExtension>
            <ns3:atemp>33.0</ns3:atemp>
            <ns3:hr>131</ns3:hr>
          </ns3:TrackPointExtension>
        </extensions>
      </trkpt>
      <trkpt lat="31.42495863139629364013671875" lon="119.48379660956561565399169921875">
        <ele>-3.599999904632568359375</ele>
        <time>2020-06-11T22:43:25.000Z</time>
        <extensions>
          <ns3:TrackPointExtension>
            <ns3:atemp>33.0</ns3:atemp>
            <ns3:hr>131</ns3:hr>
          </ns3:TrackPointExtension>
        </extensions>
      </trkpt>
      <trkpt lat="31.42511394806206226348876953125" lon="119.48378956876695156097412109375">
        <ele>-4</ele>
        <time>2020-06-11T22:43:30.000Z</time>
        <extensions>
          <ns3:TrackPointExtension>
            <ns3:atemp>33.0</ns3:atemp>
            <ns3:hr>133</ns3:hr>
          </ns3:TrackPointExtension>
        </extensions>
      </trkpt>
      <trkpt lat="31.42536305822432041168212890625" lon="119.48380448855459690093994140625">
        <ele>-3.599999904632568359375</ele>
        <time>2020-06-11T22:43:37.000Z</time>
        <extensions>
          <ns3:TrackPointExtension>
            <ns3:atemp>33.0</ns3:atemp>
            <ns3:hr>134</ns3:hr>
          </ns3:TrackPointExtension>
        </extensions>
      </trkpt>
      <trkpt lat="31.4255465380847454071044921875" lon="119.48383600451052188873291015625">
        <ele>-3.7999999523162841796875</ele>
        <time>2020-06-11T22:43:42.000Z</time>
        <extensions>
          <ns3:TrackPointExtension>
            <ns3:atemp>33.0</ns3:atemp>
            <ns3:hr>135</ns3:hr>
          </ns3:TrackPointExtension>
        </extensions>
      </trkpt>
      <trkpt lat="31.4258211292326450347900390625" lon="119.48387213051319122314453125">
        <ele>-4.19999980926513671875</ele>
        <time>2020-06-11T22:43:50.000Z</time>
        <extensions>
          <ns3:TrackPointExtension>
            <ns3:atemp>33.0</ns3:atemp>
            <ns3:hr>135</ns3:hr>
          </ns3:TrackPointExtension>
        </extensions>
      </trkpt>
      <trkpt lat="31.42596722580492496490478515625" lon="119.4838940910995006561279296875">
        <ele>-4.599999904632568359375</ele>
        <time>2020-06-11T22:43:54.000Z</time>
        <extensions>
          <ns3:TrackPointExtension>
            <ns3:atemp>33.0</ns3:atemp>
            <ns3:hr>135</ns3:hr>
          </ns3:TrackPointExtension>
        </extensions>
      </trkpt>
      <trkpt lat="31.42600041814148426055908203125" lon="119.48391630314290523529052734375">
        <ele>-4.599999904632568359375</ele>
        <time>2020-06-11T22:43:55.000Z</time>
        <extensions>
          <ns3:TrackPointExtension>
            <ns3:atemp>33.0</ns3:atemp>
            <ns3:hr>136</ns3:hr>
          </ns3:TrackPointExtension>
        </extensions>
      </trkpt>
      <trkpt lat="31.4262185990810394287109375" lon="119.48398151434957981109619140625">
        <ele>-4.19999980926513671875</ele>
        <time>2020-06-11T22:44:01.000Z</time>
        <extensions>
          <ns3:TrackPointExtension>
            <ns3:atemp>33.0</ns3:atemp>
            <ns3:hr>134</ns3:hr>
          </ns3:TrackPointExtension>
        </extensions>
      </trkpt>
      <trkpt lat="31.42639218829572200775146484375" lon="119.48397179134190082550048828125">
        <ele>-4.400000095367431640625</ele>
        <time>2020-06-11T22:44:06.000Z</time>
        <extensions>
          <ns3:TrackPointExtension>
            <ns3:atemp>33.0</ns3:atemp>
            <ns3:hr>136</ns3:hr>
          </ns3:TrackPointExtension>
        </extensions>
      </trkpt>
      <trkpt lat="31.42654172144830226898193359375" lon="119.48397648520767688751220703125">
        <ele>-4.80000019073486328125</ele>
        <time>2020-06-11T22:44:11.000Z</time>
        <extensions>
          <ns3:TrackPointExtension>
            <ns3:atemp>33.0</ns3:atemp>
            <ns3:hr>133</ns3:hr>
          </ns3:TrackPointExtension>
        </extensions>
      </trkpt>
      <trkpt lat="31.42659989185631275177001953125" lon="119.4839913211762905120849609375">
        <ele>-4.599999904632568359375</ele>
        <time>2020-06-11T22:44:13.000Z</time>
        <extensions>
          <ns3:TrackPointExtension>
            <ns3:atemp>33.0</ns3:atemp>
            <ns3:hr>130</ns3:hr>
          </ns3:TrackPointExtension>
        </extensions>
      </trkpt>
      <trkpt lat="31.426697038114070892333984375" lon="119.48399014770984649658203125">
        <ele>-4.80000019073486328125</ele>
        <time>2020-06-11T22:44:16.000Z</time>
        <extensions>
          <ns3:TrackPointExtension>
            <ns3:atemp>33.0</ns3:atemp>
            <ns3:hr>130</ns3:hr>
          </ns3:TrackPointExtension>
        </extensions>
      </trkpt>
      <trkpt lat="31.42687649466097354888916015625" lon="119.48397749103605747222900390625">
        <ele>-4.80000019073486328125</ele>
        <time>2020-06-11T22:44:21.000Z</time>
        <extensions>
          <ns3:TrackPointExtension>
            <ns3:atemp>33.0</ns3:atemp>
            <ns3:hr>129</ns3:hr>
          </ns3:TrackPointExtension>
        </extensions>
      </trkpt>
      <trkpt lat="31.42709610052406787872314453125" lon="119.483999200165271759033203125">
        <ele>-5</ele>
        <time>2020-06-11T22:44:28.000Z</time>
        <extensions>
          <ns3:TrackPointExtension>
            <ns3:atemp>33.0</ns3:atemp>
            <ns3:hr>128</ns3:hr>
          </ns3:TrackPointExtension>
        </extensions>
      </trkpt>
      <trkpt lat="31.42724865116178989410400390625" lon="119.4840302132070064544677734375">
        <ele>-4.400000095367431640625</ele>
        <time>2020-06-11T22:44:33.000Z</time>
        <extensions>
          <ns3:TrackPointExtension>
            <ns3:atemp>33.0</ns3:atemp>
            <ns3:hr>131</ns3:hr>
          </ns3:TrackPointExtension>
        </extensions>
      </trkpt>
      <trkpt lat="31.4272792451083660125732421875" lon="119.4840339012444019317626953125">
        <ele>-4.400000095367431640625</ele>
        <time>2020-06-11T22:44:34.000Z</time>
        <extensions>
          <ns3:TrackPointExtension>
            <ns3:atemp>33.0</ns3:atemp>
            <ns3:hr>131</ns3:hr>
          </ns3:TrackPointExtension>
        </extensions>
      </trkpt>
      <trkpt lat="31.427446044981479644775390625" lon="119.48403976857662200927734375">
        <ele>-4.599999904632568359375</ele>
        <time>2020-06-11T22:44:40.000Z</time>
        <extensions>
          <ns3:TrackPointExtension>
            <ns3:atemp>33.0</ns3:atemp>
            <ns3:hr>129</ns3:hr>
          </ns3:TrackPointExtension>
        </extensions>
      </trkpt>
      <trkpt lat="31.42761728726327419281005859375" lon="119.4840981066226959228515625">
        <ele>-4.19999980926513671875</ele>
        <time>2020-06-11T22:44:46.000Z</time>
        <extensions>
          <ns3:TrackPointExtension>
            <ns3:atemp>33.0</ns3:atemp>
            <ns3:hr>128</ns3:hr>
          </ns3:TrackPointExtension>
        </extensions>
      </trkpt>
      <trkpt lat="31.42782281152904033660888671875" lon="119.4841415248811244964599609375">
        <ele>-4.400000095367431640625</ele>
        <time>2020-06-11T22:44:53.000Z</time>
        <extensions>
          <ns3:TrackPointExtension>
            <ns3:atemp>32.0</ns3:atemp>
            <ns3:hr>129</ns3:hr>
          </ns3:TrackPointExtension>
        </extensions>
      </trkpt>
      <trkpt lat="31.42805364914238452911376953125" lon="119.4842095859348773956298828125">
        <ele>-4.599999904632568359375</ele>
        <time>2020-06-11T22:45:00.000Z</time>
        <extensions>
          <ns3:TrackPointExtension>
            <ns3:atemp>32.0</ns3:atemp>
            <ns3:hr>131</ns3:hr>
          </ns3:TrackPointExtension>
        </extensions>
      </trkpt>
      <trkpt lat="31.4282572455704212188720703125" lon="119.48426566086709499359130859375">
        <ele>-4.80000019073486328125</ele>
        <time>2020-06-11T22:45:06.000Z</time>
        <extensions>
          <ns3:TrackPointExtension>
            <ns3:atemp>32.0</ns3:atemp>
            <ns3:hr>130</ns3:hr>
          </ns3:TrackPointExtension>
        </extensions>
      </trkpt>
      <trkpt lat="31.4283403940498828887939453125" lon="119.484225846827030181884765625">
        <ele>-4.599999904632568359375</ele>
        <time>2020-06-11T22:45:09.000Z</time>
        <extensions>
          <ns3:TrackPointExtension>
            <ns3:atemp>32.0</ns3:atemp>
            <ns3:hr>131</ns3:hr>
          </ns3:TrackPointExtension>
        </extensions>
      </trkpt>
      <trkpt lat="31.42844818532466888427734375" lon="119.48404018767178058624267578125">
        <ele>-4.599999904632568359375</ele>
        <time>2020-06-11T22:45:15.000Z</time>
        <extensions>
          <ns3:TrackPointExtension>
            <ns3:atemp>32.0</ns3:atemp>
            <ns3:hr>130</ns3:hr>
          </ns3:TrackPointExtension>
        </extensions>
      </trkpt>
      <trkpt lat="31.42858766019344329833984375" lon="119.48388596065342426300048828125">
        <ele>-4.599999904632568359375</ele>
        <time>2020-06-11T22:45:22.000Z</time>
        <extensions>
          <ns3:TrackPointExtension>
            <ns3:atemp>32.0</ns3:atemp>
            <ns3:hr>129</ns3:hr>
          </ns3:TrackPointExtension>
        </extensions>
      </trkpt>
      <trkpt lat="31.42875261604785919189453125" lon="119.483722262084484100341796875">
        <ele>-4.19999980926513671875</ele>
        <time>2020-06-11T22:45:29.000Z</time>
        <extensions>
          <ns3:TrackPointExtension>
            <ns3:atemp>32.0</ns3:atemp>
            <ns3:hr>131</ns3:hr>
          </ns3:TrackPointExtension>
        </extensions>
      </trkpt>
      <trkpt lat="31.42888278700411319732666015625" lon="119.4835859723389148712158203125">
        <ele>-3.7999999523162841796875</ele>
        <time>2020-06-11T22:45:35.000Z</time>
        <extensions>
          <ns3:TrackPointExtension>
            <ns3:atemp>32.0</ns3:atemp>
            <ns3:hr>133</ns3:hr>
          </ns3:TrackPointExtension>
        </extensions>
      </trkpt>
      <trkpt lat="31.42895101569592952728271484375" lon="119.483523778617382049560546875">
        <ele>-3.599999904632568359375</ele>
        <time>2020-06-11T22:45:38.000Z</time>
        <extensions>
          <ns3:TrackPointExtension>
            <ns3:atemp>32.0</ns3:atemp>
            <ns3:hr>134</ns3:hr>
          </ns3:TrackPointExtension>
        </extensions>
      </trkpt>
      <trkpt lat="31.429096274077892303466796875" lon="119.48338757269084453582763671875">
        <ele>-3.400000095367431640625</ele>
        <time>2020-06-11T22:45:44.000Z</time>
        <extensions>
          <ns3:TrackPointExtension>
            <ns3:atemp>32.0</ns3:atemp>
            <ns3:hr>135</ns3:hr>
          </ns3:TrackPointExtension>
        </extensions>
      </trkpt>
      <trkpt lat="31.4292074181139469146728515625" lon="119.483283050358295440673828125">
        <ele>-3.400000095367431640625</ele>
        <time>2020-06-11T22:45:49.000Z</time>
        <extensions>
          <ns3:TrackPointExtension>
            <ns3:atemp>32.0</ns3:atemp>
            <ns3:hr>134</ns3:hr>
          </ns3:TrackPointExtension>
        </extensions>
      </trkpt>
      <trkpt lat="31.4292989484965801239013671875" lon="119.4831470958888530731201171875">
        <ele>-2.7999999523162841796875</ele>
        <time>2020-06-11T22:45:55.000Z</time>
        <extensions>
          <ns3:TrackPointExtension>
            <ns3:atemp>32.0</ns3:atemp>
            <ns3:hr>133</ns3:hr>
          </ns3:TrackPointExtension>
        </extensions>
      </trkpt>
      <trkpt lat="31.4294451288878917694091796875" lon="119.48300980031490325927734375">
        <ele>-3.400000095367431640625</ele>
        <time>2020-06-11T22:46:01.000Z</time>
        <extensions>
          <ns3:TrackPointExtension>
            <ns3:atemp>32.0</ns3:atemp>
            <ns3:hr>134</ns3:hr>
          </ns3:TrackPointExtension>
        </extensions>
      </trkpt>
      <trkpt lat="31.42949986271560192108154296875" lon="119.482935369014739990234375">
        <ele>-3.400000095367431640625</ele>
        <time>2020-06-11T22:46:04.000Z</time>
        <extensions>
          <ns3:TrackPointExtension>
            <ns3:atemp>32.0</ns3:atemp>
            <ns3:hr>135</ns3:hr>
          </ns3:TrackPointExtension>
        </extensions>
      </trkpt>
      <trkpt lat="31.42952266149222850799560546875" lon="119.482910223305225372314453125">
        <ele>-3.400000095367431640625</ele>
        <time>2020-06-11T22:46:05.000Z</time>
        <extensions>
          <ns3:TrackPointExtension>
            <ns3:atemp>32.0</ns3:atemp>
            <ns3:hr>135</ns3:hr>
          </ns3:TrackPointExtension>
        </extensions>
      </trkpt>
      <trkpt lat="31.429702453315258026123046875" lon="119.48279262520372867584228515625">
        <ele>-3</ele>
        <time>2020-06-11T22:46:12.000Z</time>
        <extensions>
          <ns3:TrackPointExtension>
            <ns3:atemp>32.0</ns3:atemp>
            <ns3:hr>137</ns3:hr>
          </ns3:TrackPointExtension>
        </extensions>
      </trkpt>
      <trkpt lat="31.42973153851926326751708984375" lon="119.4827853329479694366455078125">
        <ele>-2.7999999523162841796875</ele>
        <time>2020-06-11T22:46:16.000Z</time>
        <extensions>
          <ns3:TrackPointExtension>
            <ns3:atemp>32.0</ns3:atemp>
            <ns3:hr>137</ns3:hr>
          </ns3:TrackPointExtension>
        </extensions>
      </trkpt>
      <trkpt lat="31.429747045040130615234375" lon="119.482785165309906005859375">
        <ele>-3</ele>
        <time>2020-06-11T22:46:19.000Z</time>
        <extensions>
          <ns3:TrackPointExtension>
            <ns3:atemp>32.0</ns3:atemp>
            <ns3:hr>136</ns3:hr>
          </ns3:TrackPointExtension>
        </extensions>
      </trkpt>
      <trkpt lat="31.42977830953896045684814453125" lon="119.48277016170322895050048828125">
        <ele>-3</ele>
        <time>2020-06-11T22:46:22.000Z</time>
        <extensions>
          <ns3:TrackPointExtension>
            <ns3:atemp>32.0</ns3:atemp>
            <ns3:hr>135</ns3:hr>
          </ns3:TrackPointExtension>
        </extensions>
      </trkpt>
      <trkpt lat="31.42989800311625003814697265625" lon="119.48272037319839000701904296875">
        <ele>-3</ele>
        <time>2020-06-11T22:46:27.000Z</time>
        <extensions>
          <ns3:TrackPointExtension>
            <ns3:atemp>32.0</ns3:atemp>
            <ns3:hr>133</ns3:hr>
          </ns3:TrackPointExtension>
        </extensions>
      </trkpt>
      <trkpt lat="31.42998903058469295501708984375" lon="119.48267829604446887969970703125">
        <ele>-3</ele>
        <time>2020-06-11T22:46:30.000Z</time>
        <extensions>
          <ns3:TrackPointExtension>
            <ns3:atemp>32.0</ns3:atemp>
            <ns3:hr>132</ns3:hr>
          </ns3:TrackPointExtension>
        </extensions>
      </trkpt>
      <trkpt lat="31.43001786433160305023193359375" lon="119.4826847501099109649658203125">
        <ele>-3</ele>
        <time>2020-06-11T22:46:31.000Z</time>
        <extensions>
          <ns3:TrackPointExtension>
            <ns3:atemp>32.0</ns3:atemp>
            <ns3:hr>132</ns3:hr>
          </ns3:TrackPointExtension>
        </extensions>
      </trkpt>
      <trkpt lat="31.430122889578342437744140625" lon="119.48278172872960567474365234375">
        <ele>-3.2000000476837158203125</ele>
        <time>2020-06-11T22:46:35.000Z</time>
        <extensions>
          <ns3:TrackPointExtension>
            <ns3:atemp>32.0</ns3:atemp>
            <ns3:hr>134</ns3:hr>
          </ns3:TrackPointExtension>
        </extensions>
      </trkpt>
      <trkpt lat="31.43031240440905094146728515625" lon="119.482951797544956207275390625">
        <ele>-3.400000095367431640625</ele>
        <time>2020-06-11T22:46:42.000Z</time>
        <extensions>
          <ns3:TrackPointExtension>
            <ns3:atemp>32.0</ns3:atemp>
            <ns3:hr>133</ns3:hr>
          </ns3:TrackPointExtension>
        </extensions>
      </trkpt>
      <trkpt lat="31.4304422400891780853271484375" lon="119.48307375423610210418701171875">
        <ele>-3.400000095367431640625</ele>
        <time>2020-06-11T22:46:47.000Z</time>
        <extensions>
          <ns3:TrackPointExtension>
            <ns3:atemp>32.0</ns3:atemp>
            <ns3:hr>130</ns3:hr>
          </ns3:TrackPointExtension>
        </extensions>
      </trkpt>
      <trkpt lat="31.43047451041638851165771484375" lon="119.4830927811563014984130859375">
        <ele>-3.400000095367431640625</ele>
        <time>2020-06-11T22:46:48.000Z</time>
        <extensions>
          <ns3:TrackPointExtension>
            <ns3:atemp>32.0</ns3:atemp>
            <ns3:hr>130</ns3:hr>
          </ns3:TrackPointExtension>
        </extensions>
      </trkpt>
      <trkpt lat="31.43061817623674869537353515625" lon="119.4831759296357631683349609375">
        <ele>-3.400000095367431640625</ele>
        <time>2020-06-11T22:46:53.000Z</time>
        <extensions>
          <ns3:TrackPointExtension>
            <ns3:atemp>32.0</ns3:atemp>
            <ns3:hr>128</ns3:hr>
          </ns3:TrackPointExtension>
        </extensions>
      </trkpt>
      <trkpt lat="31.430759914219379425048828125" lon="119.48325832374393939971923828125">
        <ele>-4</ele>
        <time>2020-06-11T22:46:58.000Z</time>
        <extensions>
          <ns3:TrackPointExtension>
            <ns3:atemp>32.0</ns3:atemp>
            <ns3:hr>127</ns3:hr>
          </ns3:TrackPointExtension>
        </extensions>
      </trkpt>
      <trkpt lat="31.43094071187078952789306640625" lon="119.48338790796697139739990234375">
        <ele>-4.19999980926513671875</ele>
        <time>2020-06-11T22:47:04.000Z</time>
        <extensions>
          <ns3:TrackPointExtension>
            <ns3:atemp>32.0</ns3:atemp>
            <ns3:hr>125</ns3:hr>
          </ns3:TrackPointExtension>
        </extensions>
      </trkpt>
      <trkpt lat="31.43105269409716129302978515625" lon="119.48346686549484729766845703125">
        <ele>-4.599999904632568359375</ele>
        <time>2020-06-11T22:47:08.000Z</time>
        <extensions>
          <ns3:TrackPointExtension>
            <ns3:atemp>32.0</ns3:atemp>
            <ns3:hr>125</ns3:hr>
          </ns3:TrackPointExtension>
        </extensions>
      </trkpt>
      <trkpt lat="31.431172303855419158935546875" lon="119.48356543667614459991455078125">
        <ele>-4.599999904632568359375</ele>
        <time>2020-06-11T22:47:12.000Z</time>
        <extensions>
          <ns3:TrackPointExtension>
            <ns3:atemp>32.0</ns3:atemp>
            <ns3:hr>126</ns3:hr>
          </ns3:TrackPointExtension>
        </extensions>
      </trkpt>
      <trkpt lat="31.4312799274921417236328125" lon="119.48367021046578884124755859375">
        <ele>-4</ele>
        <time>2020-06-11T22:47:16.000Z</time>
        <extensions>
          <ns3:TrackPointExtension>
            <ns3:atemp>32.0</ns3:atemp>
            <ns3:hr>129</ns3:hr>
          </ns3:TrackPointExtension>
        </extensions>
      </trkpt>
      <trkpt lat="31.43134706653654575347900390625" lon="119.48374430648982524871826171875">
        <ele>-4</ele>
        <time>2020-06-11T22:47:19.000Z</time>
        <extensions>
          <ns3:TrackPointExtension>
            <ns3:atemp>32.0</ns3:atemp>
            <ns3:hr>129</ns3:hr>
          </ns3:TrackPointExtension>
        </extensions>
      </trkpt>
      <trkpt lat="31.43143373541533946990966796875" lon="119.48381387628614902496337890625">
        <ele>-4</ele>
        <time>2020-06-11T22:47:23.000Z</time>
        <extensions>
          <ns3:TrackPointExtension>
            <ns3:atemp>32.0</ns3:atemp>
            <ns3:hr>128</ns3:hr>
          </ns3:TrackPointExtension>
        </extensions>
      </trkpt>
      <trkpt lat="31.431484781205654144287109375" lon="119.4838320650160312652587890625">
        <ele>-4</ele>
        <time>2020-06-11T22:47:25.000Z</time>
        <extensions>
          <ns3:TrackPointExtension>
            <ns3:atemp>32.0</ns3:atemp>
            <ns3:hr>127</ns3:hr>
          </ns3:TrackPointExtension>
        </extensions>
      </trkpt>
      <trkpt lat="31.43160657025873661041259765625" lon="119.4839272834360599517822265625">
        <ele>-4.400000095367431640625</ele>
        <time>2020-06-11T22:47:31.000Z</time>
        <extensions>
          <ns3:TrackPointExtension>
            <ns3:atemp>32.0</ns3:atemp>
            <ns3:hr>130</ns3:hr>
          </ns3:TrackPointExtension>
        </extensions>
      </trkpt>
      <trkpt lat="31.4316254295408725738525390625" lon="119.48395133949816226959228515625">
        <ele>-4.19999980926513671875</ele>
        <time>2020-06-11T22:47:32.000Z</time>
        <extensions>
          <ns3:TrackPointExtension>
            <ns3:atemp>32.0</ns3:atemp>
            <ns3:hr>129</ns3:hr>
          </ns3:TrackPointExtension>
        </extensions>
      </trkpt>
      <trkpt lat="31.4316777326166629791259765625" lon="119.48397631756961345672607421875">
        <ele>-4.19999980926513671875</ele>
        <time>2020-06-11T22:47:34.000Z</time>
        <extensions>
          <ns3:TrackPointExtension>
            <ns3:atemp>32.0</ns3:atemp>
            <ns3:hr>124</ns3:hr>
          </ns3:TrackPointExtension>
        </extensions>
      </trkpt>
      <trkpt lat="31.43172207288444042205810546875" lon="119.4840141199529170989990234375">
        <ele>-4</ele>
        <time>2020-06-11T22:47:36.000Z</time>
        <extensions>
          <ns3:TrackPointExtension>
            <ns3:atemp>32.0</ns3:atemp>
            <ns3:hr>121</ns3:hr>
          </ns3:TrackPointExtension>
        </extensions>
      </trkpt>
      <trkpt lat="31.431770436465740203857421875" lon="119.48404924012720584869384765625">
        <ele>-3.599999904632568359375</ele>
        <time>2020-06-11T22:47:38.000Z</time>
        <extensions>
          <ns3:TrackPointExtension>
            <ns3:atemp>32.0</ns3:atemp>
            <ns3:hr>121</ns3:hr>
          </ns3:TrackPointExtension>
        </extensions>
      </trkpt>
      <trkpt lat="31.4318148605525493621826171875" lon="119.48409232310950756072998046875">
        <ele>-3.599999904632568359375</ele>
        <time>2020-06-11T22:47:40.000Z</time>
        <extensions>
          <ns3:TrackPointExtension>
            <ns3:atemp>32.0</ns3:atemp>
            <ns3:hr>121</ns3:hr>
          </ns3:TrackPointExtension>
        </extensions>
      </trkpt>
      <trkpt lat="31.43196162767708301544189453125" lon="119.4842213205993175506591796875">
        <ele>-3.400000095367431640625</ele>
        <time>2020-06-11T22:47:46.000Z</time>
        <extensions>
          <ns3:TrackPointExtension>
            <ns3:atemp>32.0</ns3:atemp>
            <ns3:hr>122</ns3:hr>
          </ns3:TrackPointExtension>
        </extensions>
      </trkpt>
      <trkpt lat="31.43207721412181854248046875" lon="119.48434193618595600128173828125">
        <ele>-3</ele>
        <time>2020-06-11T22:47:52.000Z</time>
        <extensions>
          <ns3:TrackPointExtension>
            <ns3:atemp>32.0</ns3:atemp>
            <ns3:hr>125</ns3:hr>
          </ns3:TrackPointExtension>
        </extensions>
      </trkpt>
      <trkpt lat="31.4321655593812465667724609375" lon="119.484451152384281158447265625">
        <ele>-2.7999999523162841796875</ele>
        <time>2020-06-11T22:47:58.000Z</time>
        <extensions>
          <ns3:TrackPointExtension>
            <ns3:atemp>32.0</ns3:atemp>
            <ns3:hr>128</ns3:hr>
          </ns3:TrackPointExtension>
        </extensions>
      </trkpt>
      <trkpt lat="31.43218643032014369964599609375" lon="119.48447428643703460693359375">
        <ele>-2.599999904632568359375</ele>
        <time>2020-06-11T22:47:59.000Z</time>
        <extensions>
          <ns3:TrackPointExtension>
            <ns3:atemp>32.0</ns3:atemp>
            <ns3:hr>128</ns3:hr>
          </ns3:TrackPointExtension>
        </extensions>
      </trkpt>
      <trkpt lat="31.43224082887172698974609375" lon="119.48454226367175579071044921875">
        <ele>-2.599999904632568359375</ele>
        <time>2020-06-11T22:48:02.000Z</time>
        <extensions>
          <ns3:TrackPointExtension>
            <ns3:atemp>32.0</ns3:atemp>
            <ns3:hr>128</ns3:hr>
          </ns3:TrackPointExtension>
        </extensions>
      </trkpt>
      <trkpt lat="31.4322899468243122100830078125" lon="119.48459004051983356475830078125">
        <ele>-2.400000095367431640625</ele>
        <time>2020-06-11T22:48:05.000Z</time>
        <extensions>
          <ns3:TrackPointExtension>
            <ns3:atemp>32.0</ns3:atemp>
            <ns3:hr>128</ns3:hr>
          </ns3:TrackPointExtension>
        </extensions>
      </trkpt>
      <trkpt lat="31.432422213256359100341796875" lon="119.48470336385071277618408203125">
        <ele>-2.400000095367431640625</ele>
        <time>2020-06-11T22:48:13.000Z</time>
        <extensions>
          <ns3:TrackPointExtension>
            <ns3:atemp>32.0</ns3:atemp>
            <ns3:hr>130</ns3:hr>
          </ns3:TrackPointExtension>
        </extensions>
      </trkpt>
      <trkpt lat="31.43255791626870632171630859375" lon="119.48486831970512866973876953125">
        <ele>-2.400000095367431640625</ele>
        <time>2020-06-11T22:48:21.000Z</time>
        <extensions>
          <ns3:TrackPointExtension>
            <ns3:atemp>32.0</ns3:atemp>
            <ns3:hr>132</ns3:hr>
          </ns3:TrackPointExtension>
        </extensions>
      </trkpt>
      <trkpt lat="31.43270845524966716766357421875" lon="119.4850400649011135101318359375">
        <ele>-2.599999904632568359375</ele>
        <time>2020-06-11T22:48:27.000Z</time>
        <extensions>
          <ns3:TrackPointExtension>
            <ns3:atemp>32.0</ns3:atemp>
            <ns3:hr>130</ns3:hr>
          </ns3:TrackPointExtension>
        </extensions>
      </trkpt>
      <trkpt lat="31.4329410530626773834228515625" lon="119.48528322391211986541748046875">
        <ele>-3.599999904632568359375</ele>
        <time>2020-06-11T22:48:34.000Z</time>
        <extensions>
          <ns3:TrackPointExtension>
            <ns3:atemp>32.0</ns3:atemp>
            <ns3:hr>128</ns3:hr>
          </ns3:TrackPointExtension>
        </extensions>
      </trkpt>
      <trkpt lat="31.43297885544598102569580078125" lon="119.48531943373382091522216796875">
        <ele>-3.7999999523162841796875</ele>
        <time>2020-06-11T22:48:35.000Z</time>
        <extensions>
          <ns3:TrackPointExtension>
            <ns3:atemp>32.0</ns3:atemp>
            <ns3:hr>128</ns3:hr>
          </ns3:TrackPointExtension>
        </extensions>
      </trkpt>
      <trkpt lat="31.433233581483364105224609375" lon="119.48558203876018524169921875">
        <ele>-4.599999904632568359375</ele>
        <time>2020-06-11T22:48:42.000Z</time>
        <extensions>
          <ns3:TrackPointExtension>
            <ns3:atemp>32.0</ns3:atemp>
            <ns3:hr>128</ns3:hr>
          </ns3:TrackPointExtension>
        </extensions>
      </trkpt>
      <trkpt lat="31.4332699589431285858154296875" lon="119.4856081902980804443359375">
        <ele>-4.80000019073486328125</ele>
        <time>2020-06-11T22:48:43.000Z</time>
        <extensions>
          <ns3:TrackPointExtension>
            <ns3:atemp>32.0</ns3:atemp>
            <ns3:hr>128</ns3:hr>
          </ns3:TrackPointExtension>
        </extensions>
      </trkpt>
      <trkpt lat="31.4333842881023883819580078125" lon="119.48570902459323406219482421875">
        <ele>-5</ele>
        <time>2020-06-11T22:48:46.000Z</time>
        <extensions>
          <ns3:TrackPointExtension>
            <ns3:atemp>32.0</ns3:atemp>
            <ns3:hr>127</ns3:hr>
          </ns3:TrackPointExtension>
        </extensions>
      </trkpt>
      <trkpt lat="31.433417983353137969970703125" lon="119.48574305512011051177978515625">
        <ele>-5</ele>
        <time>2020-06-11T22:48:47.000Z</time>
        <extensions>
          <ns3:TrackPointExtension>
            <ns3:atemp>32.0</ns3:atemp>
            <ns3:hr>127</ns3:hr>
          </ns3:TrackPointExtension>
        </extensions>
      </trkpt>
      <trkpt lat="31.43345310352742671966552734375" lon="119.48576786555349826812744140625">
        <ele>-5.19999980926513671875</ele>
        <time>2020-06-11T22:48:48.000Z</time>
        <extensions>
          <ns3:TrackPointExtension>
            <ns3:atemp>32.0</ns3:atemp>
            <ns3:hr>126</ns3:hr>
          </ns3:TrackPointExtension>
        </extensions>
      </trkpt>
      <trkpt lat="31.43358067609369754791259765625" lon="119.4858683645725250244140625">
        <ele>-5.19999980926513671875</ele>
        <time>2020-06-11T22:48:52.000Z</time>
        <extensions>
          <ns3:TrackPointExtension>
            <ns3:atemp>32.0</ns3:atemp>
            <ns3:hr>126</ns3:hr>
          </ns3:TrackPointExtension>
        </extensions>
      </trkpt>
      <trkpt lat="31.43374848179519176483154296875" lon="119.48601932264864444732666015625">
        <ele>-5.19999980926513671875</ele>
        <time>2020-06-11T22:48:59.000Z</time>
        <extensions>
          <ns3:TrackPointExtension>
            <ns3:atemp>32.0</ns3:atemp>
            <ns3:hr>123</ns3:hr>
          </ns3:TrackPointExtension>
        </extensions>
      </trkpt>
      <trkpt lat="31.433808244764804840087890625" lon="119.486014544963836669921875">
        <ele>-5.19999980926513671875</ele>
        <time>2020-06-11T22:49:01.000Z</time>
        <extensions>
          <ns3:TrackPointExtension>
            <ns3:atemp>32.0</ns3:atemp>
            <ns3:hr>122</ns3:hr>
          </ns3:TrackPointExtension>
        </extensions>
      </trkpt>
      <trkpt lat="31.433861553668975830078125" lon="119.48597104288637638092041015625">
        <ele>-5.400000095367431640625</ele>
        <time>2020-06-11T22:49:03.000Z</time>
        <extensions>
          <ns3:TrackPointExtension>
            <ns3:atemp>32.0</ns3:atemp>
            <ns3:hr>120</ns3:hr>
          </ns3:TrackPointExtension>
        </extensions>
      </trkpt>
      <trkpt lat="31.43394143320620059967041015625" lon="119.48585637845098972320556640625">
        <ele>-5.599999904632568359375</ele>
        <time>2020-06-11T22:49:07.000Z</time>
        <extensions>
          <ns3:TrackPointExtension>
            <ns3:atemp>32.0</ns3:atemp>
            <ns3:hr>118</ns3:hr>
          </ns3:TrackPointExtension>
        </extensions>
      </trkpt>
      <trkpt lat="31.4340068958699703216552734375" lon="119.48567465879023075103759765625">
        <ele>-5.400000095367431640625</ele>
        <time>2020-06-11T22:49:13.000Z</time>
        <extensions>
          <ns3:TrackPointExtension>
            <ns3:atemp>32.0</ns3:atemp>
            <ns3:hr>119</ns3:hr>
          </ns3:TrackPointExtension>
        </extensions>
      </trkpt>
      <trkpt lat="31.43409750424325466156005859375" lon="119.48549562133848667144775390625">
        <ele>-5.400000095367431640625</ele>
        <time>2020-06-11T22:49:19.000Z</time>
        <extensions>
          <ns3:TrackPointExtension>
            <ns3:atemp>32.0</ns3:atemp>
            <ns3:hr>120</ns3:hr>
          </ns3:TrackPointExtension>
        </extensions>
      </trkpt>
      <trkpt lat="31.43415031023323535919189453125" lon="119.48534122668206691741943359375">
        <ele>-5.19999980926513671875</ele>
        <time>2020-06-11T22:49:24.000Z</time>
        <extensions>
          <ns3:TrackPointExtension>
            <ns3:atemp>32.0</ns3:atemp>
            <ns3:hr>119</ns3:hr>
          </ns3:TrackPointExtension>
        </extensions>
      </trkpt>
      <trkpt lat="31.43414226360619068145751953125" lon="119.48516755364835262298583984375">
        <ele>-5.19999980926513671875</ele>
        <time>2020-06-11T22:49:29.000Z</time>
        <extensions>
          <ns3:TrackPointExtension>
            <ns3:atemp>32.0</ns3:atemp>
            <ns3:hr>118</ns3:hr>
          </ns3:TrackPointExtension>
        </extensions>
      </trkpt>
      <trkpt lat="31.43410856835544109344482421875" lon="119.4850395619869232177734375">
        <ele>-5.19999980926513671875</ele>
        <time>2020-06-11T22:49:33.000Z</time>
        <extensions>
          <ns3:TrackPointExtension>
            <ns3:atemp>32.0</ns3:atemp>
            <ns3:hr>120</ns3:hr>
          </ns3:TrackPointExtension>
        </extensions>
      </trkpt>
      <trkpt lat="31.43413136713206768035888671875" lon="119.484900422394275665283203125">
        <ele>-5.19999980926513671875</ele>
        <time>2020-06-11T22:49:38.000Z</time>
        <extensions>
          <ns3:TrackPointExtension>
            <ns3:atemp>32.0</ns3:atemp>
            <ns3:hr>120</ns3:hr>
          </ns3:TrackPointExtension>
        </extensions>
      </trkpt>
      <trkpt lat="31.43413337878882884979248046875" lon="119.4847503863275051116943359375">
        <ele>-5.19999980926513671875</ele>
        <time>2020-06-11T22:49:43.000Z</time>
        <extensions>
          <ns3:TrackPointExtension>
            <ns3:atemp>32.0</ns3:atemp>
            <ns3:hr>120</ns3:hr>
          </ns3:TrackPointExtension>
        </extensions>
      </trkpt>
      <trkpt lat="31.43409155309200286865234375" lon="119.484582580626010894775390625">
        <ele>-5.19999980926513671875</ele>
        <time>2020-06-11T22:49:48.000Z</time>
        <extensions>
          <ns3:TrackPointExtension>
            <ns3:atemp>32.0</ns3:atemp>
            <ns3:hr>118</ns3:hr>
          </ns3:TrackPointExtension>
        </extensions>
      </trkpt>
      <trkpt lat="31.4341202192008495330810546875" lon="119.4844496436417102813720703125">
        <ele>-5</ele>
        <time>2020-06-11T22:49:53.000Z</time>
        <extensions>
          <ns3:TrackPointExtension>
            <ns3:atemp>32.0</ns3:atemp>
            <ns3:hr>120</ns3:hr>
          </ns3:TrackPointExtension>
        </extensions>
      </trkpt>
      <trkpt lat="31.43416338600218296051025390625" lon="119.4844154454767704010009765625">
        <ele>-4.80000019073486328125</ele>
        <time>2020-06-11T22:49:55.000Z</time>
        <extensions>
          <ns3:TrackPointExtension>
            <ns3:atemp>32.0</ns3:atemp>
            <ns3:hr>120</ns3:hr>
          </ns3:TrackPointExtension>
        </extensions>
      </trkpt>
      <trkpt lat="31.43423907458782196044921875" lon="119.48442676104605197906494140625">
        <ele>-5</ele>
        <time>2020-06-11T22:49:57.000Z</time>
        <extensions>
          <ns3:TrackPointExtension>
            <ns3:atemp>32.0</ns3:atemp>
            <ns3:hr>120</ns3:hr>
          </ns3:TrackPointExtension>
        </extensions>
      </trkpt>
      <trkpt lat="31.43436622805893421173095703125" lon="119.484440423548221588134765625">
        <ele>-4.599999904632568359375</ele>
        <time>2020-06-11T22:50:02.000Z</time>
        <extensions>
          <ns3:TrackPointExtension>
            <ns3:atemp>32.0</ns3:atemp>
            <ns3:hr>118</ns3:hr>
          </ns3:TrackPointExtension>
        </extensions>
      </trkpt>
      <trkpt lat="31.4345627836883068084716796875" lon="119.48451108299195766448974609375">
        <ele>-4.599999904632568359375</ele>
        <time>2020-06-11T22:50:09.000Z</time>
        <extensions>
          <ns3:TrackPointExtension>
            <ns3:atemp>32.0</ns3:atemp>
            <ns3:hr>117</ns3:hr>
          </ns3:TrackPointExtension>
        </extensions>
      </trkpt>
      <trkpt lat="31.43474844284355640411376953125" lon="119.4845569320023059844970703125">
        <ele>-5.400000095367431640625</ele>
        <time>2020-06-11T22:50:15.000Z</time>
        <extensions>
          <ns3:TrackPointExtension>
            <ns3:atemp>32.0</ns3:atemp>
            <ns3:hr>116</ns3:hr>
          </ns3:TrackPointExtension>
        </extensions>
      </trkpt>
      <trkpt lat="31.4348286576569080352783203125" lon="119.48457478545606136322021484375">
        <ele>-5.400000095367431640625</ele>
        <time>2020-06-11T22:50:18.000Z</time>
        <extensions>
          <ns3:TrackPointExtension>
            <ns3:atemp>32.0</ns3:atemp>
            <ns3:hr>120</ns3:hr>
          </ns3:TrackPointExtension>
        </extensions>
      </trkpt>
      <trkpt lat="31.43485321663320064544677734375" lon="119.484576545655727386474609375">
        <ele>-5.400000095367431640625</ele>
        <time>2020-06-11T22:50:19.000Z</time>
        <extensions>
          <ns3:TrackPointExtension>
            <ns3:atemp>32.0</ns3:atemp>
            <ns3:hr>123</ns3:hr>
          </ns3:TrackPointExtension>
        </extensions>
      </trkpt>
      <trkpt lat="31.43488020636141300201416015625" lon="119.48457612656056880950927734375">
        <ele>-5.400000095367431640625</ele>
        <time>2020-06-11T22:50:20.000Z</time>
        <extensions>
          <ns3:TrackPointExtension>
            <ns3:atemp>32.0</ns3:atemp>
            <ns3:hr>126</ns3:hr>
          </ns3:TrackPointExtension>
        </extensions>
      </trkpt>
      <trkpt lat="31.43490769900381565093994140625" lon="119.48457629419863224029541015625">
        <ele>-5.400000095367431640625</ele>
        <time>2020-06-11T22:50:21.000Z</time>
        <extensions>
          <ns3:TrackPointExtension>
            <ns3:atemp>32.0</ns3:atemp>
            <ns3:hr>129</ns3:hr>
          </ns3:TrackPointExtension>
        </extensions>
      </trkpt>
      <trkpt lat="31.4350211061537265777587890625" lon="119.48457947932183742523193359375">
        <ele>-5.19999980926513671875</ele>
        <time>2020-06-11T22:50:26.000Z</time>
        <extensions>
          <ns3:TrackPointExtension>
            <ns3:atemp>32.0</ns3:atemp>
            <ns3:hr>131</ns3:hr>
          </ns3:TrackPointExtension>
        </extensions>
      </trkpt>
      <trkpt lat="31.4350935257971286773681640625" lon="119.48455902747809886932373046875">
        <ele>-5</ele>
        <time>2020-06-11T22:50:31.000Z</time>
        <extensions>
          <ns3:TrackPointExtension>
            <ns3:atemp>32.0</ns3:atemp>
            <ns3:hr>129</ns3:hr>
          </ns3:TrackPointExtension>
        </extensions>
      </trkpt>
      <trkpt lat="31.43510752357542514801025390625" lon="119.48454938828945159912109375">
        <ele>-5.19999980926513671875</ele>
        <time>2020-06-11T22:50:32.000Z</time>
        <extensions>
          <ns3:TrackPointExtension>
            <ns3:atemp>32.0</ns3:atemp>
            <ns3:hr>126</ns3:hr>
          </ns3:TrackPointExtension>
        </extensions>
      </trkpt>
      <trkpt lat="31.43511422909796237945556640625" lon="119.4845425151288509368896484375">
        <ele>-5.19999980926513671875</ele>
        <time>2020-06-11T22:50:33.000Z</time>
        <extensions>
          <ns3:TrackPointExtension>
            <ns3:atemp>32.0</ns3:atemp>
            <ns3:hr>122</ns3:hr>
          </ns3:TrackPointExtension>
        </extensions>
      </trkpt>
      <trkpt lat="31.43511724658310413360595703125" lon="119.4845438562333583831787109375">
        <ele>-5.400000095367431640625</ele>
        <time>2020-06-11T22:50:36.000Z</time>
        <extensions>
          <ns3:TrackPointExtension>
            <ns3:atemp>32.0</ns3:atemp>
            <ns3:hr>119</ns3:hr>
          </ns3:TrackPointExtension>
        </extensions>
      </trkpt>
      <trkpt lat="31.43512277863919734954833984375" lon="119.48455433361232280731201171875">
        <ele>-5.599999904632568359375</ele>
        <time>2020-06-11T22:50:42.000Z</time>
        <extensions>
          <ns3:TrackPointExtension>
            <ns3:atemp>32.0</ns3:atemp>
            <ns3:hr>117</ns3:hr>
          </ns3:TrackPointExtension>
        </extensions>
      </trkpt>
      <trkpt lat="31.43512688577175140380859375" lon="119.4845589436590671539306640625">
        <ele>-5.80000019073486328125</ele>
        <time>2020-06-11T22:50:44.000Z</time>
        <extensions>
          <ns3:TrackPointExtension>
            <ns3:atemp>32.0</ns3:atemp>
            <ns3:hr>118</ns3:hr>
          </ns3:TrackPointExtension>
        </extensions>
      </trkpt>
      <trkpt lat="31.435095369815826416015625" lon="119.484550394117832183837890625">
        <ele>-5.400000095367431640625</ele>
        <time>2020-06-11T22:50:48.000Z</time>
        <extensions>
          <ns3:TrackPointExtension>
            <ns3:atemp>32.0</ns3:atemp>
            <ns3:hr>115</ns3:hr>
          </ns3:TrackPointExtension>
        </extensions>
      </trkpt>
      <trkpt lat="31.43510031513869762420654296875" lon="119.48455081321299076080322265625">
        <ele>-4.599999904632568359375</ele>
        <time>2020-06-11T22:50:50.000Z</time>
        <extensions>
          <ns3:TrackPointExtension>
            <ns3:atemp>32.0</ns3:atemp>
            <ns3:hr>117</ns3:hr>
          </ns3:TrackPointExtension>
        </extensions>
      </trkpt>
      <trkpt lat="31.43511104397475719451904296875" lon="119.48456388898193836212158203125">
        <ele>-4.80000019073486328125</ele>
        <time>2020-06-11T22:50:57.000Z</time>
        <extensions>
          <ns3:TrackPointExtension>
            <ns3:atemp>32.0</ns3:atemp>
            <ns3:hr>116</ns3:hr>
          </ns3:TrackPointExtension>
        </extensions>
      </trkpt>
      <trkpt lat="31.43511615693569183349609375" lon="119.48456774465739727020263671875">
        <ele>-4.80000019073486328125</ele>
        <time>2020-06-11T22:51:05.000Z</time>
        <extensions>
          <ns3:TrackPointExtension>
            <ns3:atemp>32.0</ns3:atemp>
            <ns3:hr>117</ns3:hr>
          </ns3:TrackPointExtension>
        </extensions>
      </trkpt>
      <trkpt lat="31.4351156540215015411376953125" lon="119.48456841520965099334716796875">
        <ele>-4.599999904632568359375</ele>
        <time>2020-06-11T22:51:06.000Z</time>
        <extensions>
          <ns3:TrackPointExtension>
            <ns3:atemp>32.0</ns3:atemp>
            <ns3:hr>114</ns3:hr>
          </ns3:TrackPointExtension>
        </extensions>
      </trkpt>
      <trkpt lat="31.43509201705455780029296875" lon="119.484565146267414093017578125">
        <ele>-4.80000019073486328125</ele>
        <time>2020-06-11T22:51:13.000Z</time>
        <extensions>
          <ns3:TrackPointExtension>
            <ns3:atemp>32.0</ns3:atemp>
            <ns3:hr>114</ns3:hr>
          </ns3:TrackPointExtension>
        </extensions>
      </trkpt>
      <trkpt lat="31.4351190067827701568603515625" lon="119.484570510685443878173828125">
        <ele>-5.19999980926513671875</ele>
        <time>2020-06-11T22:51:17.000Z</time>
        <extensions>
          <ns3:TrackPointExtension>
            <ns3:atemp>32.0</ns3:atemp>
            <ns3:hr>112</ns3:hr>
          </ns3:TrackPointExtension>
        </extensions>
      </trkpt>
      <trkpt lat="31.43512814305722713470458984375" lon="119.48456690646708011627197265625">
        <ele>-5.80000019073486328125</ele>
        <time>2020-06-11T22:51:18.000Z</time>
        <extensions>
          <ns3:TrackPointExtension>
            <ns3:atemp>32.0</ns3:atemp>
            <ns3:hr>112</ns3:hr>
          </ns3:TrackPointExtension>
        </extensions>
      </trkpt>
      <trkpt lat="31.43513468094170093536376953125" lon="119.4845589436590671539306640625">
        <ele>-5.80000019073486328125</ele>
        <time>2020-06-11T22:51:19.000Z</time>
        <extensions>
          <ns3:TrackPointExtension>
            <ns3:atemp>32.0</ns3:atemp>
            <ns3:hr>114</ns3:hr>
          </ns3:TrackPointExtension>
        </extensions>
      </trkpt>
      <trkpt lat="31.43516167066991329193115234375" lon="119.48452985845506191253662109375">
        <ele>-5.80000019073486328125</ele>
        <time>2020-06-11T22:51:24.000Z</time>
        <extensions>
          <ns3:TrackPointExtension>
            <ns3:atemp>32.0</ns3:atemp>
            <ns3:hr>118</ns3:hr>
          </ns3:TrackPointExtension>
        </extensions>
      </trkpt>
    </trkseg>
  </trk>
</gpx>
